{"type":"FeatureCollection","name":"Abim sub-counties","metadata":{"source":"Uganda Bureau of Statistics NPHC 2024 Map Explorer","retrieved":"2026-07-26","display_only":true,"clipped_to_dashboard_district":true,"positive_area_overlaps_removed":true,"source_gap_ratio":0.07856729},"features":[{"type":"Feature","properties":{"n":"Abim","c":"314101","d":"Abim","od":"Abim","dc":"314","k":"ABIM","a":["ABIM"],"lat":2.741292,"lon":33.606742},"geometry":{"type":"Polygon","coordinates":[[[33.5239515321322,2.676611838374022],[33.524729911701996,2.677833550246679],[33.52370196224634,2.6789040216335964],[33.524044120612835,2.679605276899579],[33.52644191248482,2.684222794497415],[33.52641514225506,2.684464697493043],[33.52919854540243,2.6901692960228054],[33.52972778119007,2.690494494898501],[33.52956752663153,2.6909255248784882],[33.533692180053265,2.6993790224854015],[33.53400250349628,2.69973212441752],[33.533866278201856,2.699863606484666],[33.53574365409044,2.70733044240515],[33.536397388048776,2.707129807742461],[33.53763527600699,2.709172885713707],[33.53712389142949,2.71082372763958],[33.53791419674228,2.711105751215363],[33.538039344441046,2.71432440296933],[33.538931195532406,2.714928195227684],[33.538166274683505,2.7169658652184636],[33.5382,2.7171],[33.538363905426046,2.717307939719608],[33.54001815103947,2.716941692640854],[33.54228658717641,2.719621446235731],[33.547389503996435,2.722001919731537],[33.551294357138886,2.731432665462227],[33.55217349933154,2.732352968423601],[33.554092717929954,2.732173840736088],[33.55437490058016,2.733770367937592],[33.55554908644964,2.734430608713012],[33.55522525456052,2.73610181747517],[33.55727828018122,2.739173347718948],[33.558904793226546,2.739652264775283],[33.56042561820395,2.741840912812593],[33.56087735251291,2.743857754142684],[33.562026048437595,2.744779695907139],[33.562098238887046,2.746471791844037],[33.56480284049999,2.747620337640337],[33.564600696180754,2.74942888444114],[33.56557704377387,2.75183207045939],[33.56815405062812,2.755101407513281],[33.56957866854906,2.756011633809491],[33.57174608659679,2.759621101600521],[33.57351484636148,2.759231819274232],[33.57628082387914,2.761600126841014],[33.578844602884715,2.762096885508805],[33.58004622915031,2.763823842373647],[33.57986182596443,2.765696532900352],[33.580638711744975,2.766974463281634],[33.58049134087212,2.767076747844514],[33.6038,2.7869],[33.604044201345246,2.815925074177697],[33.606463412309715,2.816000608629047],[33.61000139839799,2.814696035711769],[33.61180039225176,2.811935731592117],[33.61384783205143,2.810478655577696],[33.61573386983383,2.810811999740696],[33.61755339051459,2.809462805310228],[33.62175418180777,2.809017561722489],[33.62334792262497,2.807433949202611],[33.62818475425606,2.806897409083169],[33.62930328721198,2.808054557800918],[33.636752108916845,2.810783169769991],[33.636734960869966,2.811461073897414],[33.64611626340008,2.814975005738616],[33.655764980851174,2.817095748058947],[33.659573572370256,2.818441542955022],[33.65956008910196,2.819056474731413],[33.66127716636408,2.819155304020646],[33.66126374569574,2.819779227410997],[33.6642976228173,2.820139345046623],[33.664291138862716,2.816107701598153],[33.66492232040195,2.816122326462285],[33.66783382635737,2.808231169355447],[33.67047973711915,2.805530525856227],[33.65548145322333,2.80323887842006],[33.659475013006094,2.798673006295341],[33.66099816213166,2.794675068275296],[33.665090540235205,2.790106947274847],[33.665614736210635,2.788110971320728],[33.66424656604408,2.770443229503818],[33.66561508090129,2.760572625591454],[33.666550368362,2.760600589279927],[33.66520644275838,2.753856650346206],[33.66329127298419,2.749425646741761],[33.66096197569953,2.748005336069702],[33.65721587487445,2.747350992866986],[33.65309706021774,2.740742440011471],[33.64424088902935,2.734656731956783],[33.63948865128755,2.730143235570712],[33.63760916126109,2.725075392207359],[33.634801333245406,2.722124602133456],[33.634292284407096,2.720543630412497],[33.63889209038534,2.721432906147239],[33.64465847495732,2.719768871108482],[33.64816817827674,2.716556599325442],[33.6490724041085,2.711500404392058],[33.62513974255146,2.678648043062769],[33.624570296477046,2.68033798994847],[33.6190594088533,2.677816773172809],[33.60048423603215,2.672985007391778],[33.59060149998898,2.673561551372395],[33.57685624527687,2.672423933656963],[33.56911260060571,2.66853506048805],[33.56489062585047,2.667285922003522],[33.55733443255049,2.668615348408512],[33.55378389578107,2.667035996347417],[33.5502304285563,2.668419334628098],[33.543947851171474,2.66848221733463],[33.537415703646296,2.670262552007421],[33.53058756844483,2.666125115838137],[33.52584467158247,2.664724359864443],[33.523715181022595,2.663151623400916],[33.5237,2.6632157584121963],[33.5237,2.6737298534286427],[33.524561275528676,2.675264640200213],[33.5239515321322,2.676611838374022]]]}},{"type":"Feature","properties":{"n":"Abim Town Council","c":"314102","d":"Abim","od":"Abim","dc":"314","k":"ABIMTOWNCOUNCIL","a":["ABIM","ABIMTOWNCOUNCIL","TOWNCOUNCIL"],"lat":2.707971,"lon":33.665186},"geometry":{"type":"Polygon","coordinates":[[[33.63760933699096,2.725075815321647],[33.63948887348753,2.7301434466078827],[33.64424088902935,2.734656731956783],[33.65309706021774,2.740742440011471],[33.65309706364595,2.7407424455119673],[33.654416687734845,2.734509628863956],[33.664400083164594,2.724185171842662],[33.66688773702189,2.724570971437278],[33.66892751502424,2.723159006024539],[33.67211648640066,2.723206363648125],[33.67888491053428,2.718564054639383],[33.68628553328322,2.715331793116503],[33.68506116207469,2.713890987884753],[33.68455703065449,2.70911778641551],[33.68382244159045,2.708700664641269],[33.683916721180225,2.707299801826739],[33.68328561394372,2.707278521779026],[33.68326084857278,2.701781789405923],[33.682650435607265,2.700984176878133],[33.685185502546865,2.687812867636167],[33.68528567128189,2.681923526549405],[33.68410962007449,2.677345072754505],[33.68462727910685,2.675971534900334],[33.6825647719195,2.675082795678735],[33.68127979398038,2.675533965639977],[33.678781432347506,2.674202394054721],[33.677638632979,2.676533590086267],[33.671976172575334,2.677557433751712],[33.66567057703952,2.681864176223464],[33.661677866377225,2.681348709129547],[33.65803253383351,2.684108881512765],[33.656233662247,2.686041002887046],[33.65510095315673,2.688934333374077],[33.65181476448789,2.69009481600462],[33.65071942155295,2.694179482884928],[33.649554687364876,2.695322877209983],[33.64713614549469,2.697321888590538],[33.6408959375429,2.700074260623236],[33.64149732059025,2.701102088256255],[33.64699030412827,2.7086423060267273],[33.64885848833337,2.710811117202244],[33.64881767616024,2.7111507393714356],[33.6490724041085,2.711500404392058],[33.64816817827674,2.716556599325442],[33.64816804259527,2.716556723508516],[33.648168038034136,2.71655676146444],[33.64816775986988,2.716556982274209],[33.64465847495732,2.719768871108482],[33.64381494601297,2.7200122925629624],[33.64298451828358,2.720671494994248],[33.63889358193183,2.7214324757240522],[33.63889209038534,2.721432906147239],[33.634292284407096,2.720543630412497],[33.634798228763394,2.722114960429354],[33.63480138050061,2.722124651794686],[33.63760916126109,2.725075392207359],[33.63760930616533,2.7250757829261065],[33.63760933699096,2.725075815321647]]]}},{"type":"Feature","properties":{"n":"Abuk Town Council","c":"314103","d":"Abim","od":"Abim","dc":"314","k":"ABUKTOWNCOUNCIL","a":["ABUK","ABUKTOWNCOUNCIL"],"lat":2.594226,"lon":33.647747},"geometry":{"type":"Polygon","coordinates":[[[33.622283348456975,2.583967585088298],[33.624296988947734,2.584042603652262],[33.624893203600195,2.580931924646415],[33.62652570807225,2.580321328516713],[33.628339013902675,2.583333918874497],[33.633907666511945,2.58450151595792],[33.635181229740105,2.587988227434806],[33.635332381579616,2.588703320205803],[33.62999566999768,2.590687679196304],[33.6264334434753,2.589498688313887],[33.63109189790254,2.599635762749883],[33.62298362845246,2.610160844780563],[33.61597108419261,2.613532908974457],[33.61431329892844,2.615142354184102],[33.61635630523921,2.61808940192234],[33.61825508377021,2.629899860715796],[33.62231957352119,2.632724796825754],[33.62485859184615,2.632191507243138],[33.630041802094354,2.629316003115887],[33.63779777863077,2.629075788441457],[33.63621822264043,2.617274291992152],[33.642324360427246,2.615993568921761],[33.64628377385663,2.61304368521382],[33.65254389309225,2.614633911294222],[33.65790328223104,2.62072421419796],[33.66103885713294,2.614845121124821],[33.662508896801505,2.609028123061151],[33.66594414933953,2.601500714364919],[33.66588521771182,2.597763357977324],[33.66802732462437,2.590211271641339],[33.674785831129,2.58369718821468],[33.679637567701015,2.575821415776545],[33.67555894126805,2.569272294222085],[33.67294987029747,2.568078829811692],[33.669313485627455,2.560295833480753],[33.66583039211456,2.557441141296915],[33.65892424386448,2.557403064319345],[33.647996484765805,2.553841494587638],[33.64639402933462,2.555102580519585],[33.63753824790135,2.558385268459932],[33.617794053272185,2.571968926361472],[33.61496552141495,2.5746895765462],[33.60975589081731,2.576402532864596],[33.61104039629031,2.57825688062748],[33.622283348456975,2.583967585088298]]]}},{"type":"Feature","properties":{"n":"Alerek","c":"314104","d":"Abim","od":"Abim","dc":"314","k":"ALEREK","a":["ALEREK"],"lat":2.833223,"lon":33.742749},"geometry":{"type":"Polygon","coordinates":[[[33.68358692622982,2.833444483786457],[33.68763184729318,2.831005765276358],[33.69221247191937,2.830351183682149],[33.696394876813166,2.828342487837311],[33.68647292191947,2.844360370625072],[33.685385391526,2.847510198085851],[33.685662431099416,2.855451330871491],[33.687162660763775,2.859284314499733],[33.69383931249951,2.865989376699503],[33.69928786371206,2.868450611435155],[33.71249853381268,2.871180795268307],[33.719443915861035,2.871450280600836],[33.73782661067058,2.870069313593695],[33.74694862349421,2.867188041941428],[33.751304342478,2.864309879495114],[33.755521807042804,2.858283042805409],[33.759741562512765,2.855815334081914],[33.76205361832427,2.851432406024189],[33.76191553269365,2.847872784659313],[33.76368367019622,2.84609214544761],[33.77035614375575,2.845402473891881],[33.775394858608195,2.84594671790913],[33.780432005103044,2.844163367481089],[33.78356150968887,2.841012467988609],[33.789414456451055,2.837174511565784],[33.79213552764404,2.833612578697627],[33.791995047818276,2.827314455689069],[33.79103929219059,2.823481555036191],[33.788721383814035,2.818964857938781],[33.77905010609397,2.813494854752178],[33.764201177272966,2.802962208177593],[33.756667257460705,2.795244756375535],[33.75501456090164,2.801624439579684],[33.75251971761947,2.801299333358071],[33.74839549874115,2.808124952634159],[33.74177589421716,2.812880297192589],[33.733656770827714,2.805856643796765],[33.73061326777263,2.806574975215459],[33.728216177545995,2.806146777703906],[33.72707361968423,2.802036160592929],[33.72782567704843,2.801245618711891],[33.72569378632848,2.799413313468338],[33.72532833329003,2.801718083575818],[33.71957436142889,2.803334139691334],[33.71009446381407,2.808683107500597],[33.70012115218027,2.810539004598709],[33.69281044488176,2.813728116127709],[33.68614782595645,2.817773263761705],[33.68031825113082,2.825268417477744],[33.6759161500172,2.833001807403174],[33.67977962822456,2.833801391825642],[33.68358692622982,2.833444483786457]]]}},{"type":"Feature","properties":{"n":"Alerek Town Council","c":"314105","d":"Abim","od":"Abim","dc":"314","k":"ALEREKTOWNCOUNCIL","a":["ALEREK","ALEREKTOWNCOUNCIL"],"lat":2.78898,"lon":33.721926},"geometry":{"type":"Polygon","coordinates":[[[33.696317666658835,2.807212220490185],[33.69885413082509,2.810950806376953],[33.69945502439924,2.8108295860294157],[33.70012115218027,2.810539004598709],[33.71009444544436,2.8086831109189494],[33.713843135125806,2.8065679451867527],[33.71957436142889,2.803334139691334],[33.71957439890633,2.8033341291654494],[33.7195744432805,2.803334104127707],[33.71962955591455,2.8033186378105035],[33.72532833329003,2.801718083575818],[33.72569378632848,2.799413313468338],[33.72782567704843,2.801245618711891],[33.72707361968423,2.802036160592929],[33.728216177545995,2.806146777703906],[33.73061326777263,2.806574975215459],[33.733656770827714,2.805856643796765],[33.74177589421716,2.812880297192589],[33.74839549874115,2.808124952634159],[33.74857803845925,2.8078228477616265],[33.75251840127772,2.801300744055582],[33.75251883131089,2.8013008002067368],[33.75251971761947,2.801299333358071],[33.75501395797229,2.801624361011188],[33.755113319860975,2.801243213594383],[33.756667257460705,2.795244756375535],[33.756674999240595,2.7952526867510437],[33.75668521523836,2.795213498675913],[33.74707363697618,2.786793289523623],[33.745314499213,2.784369122121596],[33.743249258400624,2.776787920430378],[33.73664679425185,2.774916151248013],[33.720716065233674,2.772472841849218],[33.713969327161415,2.769302330814951],[33.70327507777892,2.768118033513529],[33.70302493552422,2.773112523533182],[33.697548150487464,2.781221730032267],[33.69336221752496,2.791167257682109],[33.68884972820015,2.794953204045527],[33.683918972966275,2.797395212615502],[33.689120476200756,2.802736057656369],[33.696317666658835,2.807212220490185]]]}},{"type":"Feature","properties":{"n":"Atunga","c":"314106","d":"Abim","od":"Abim","dc":"314","k":"ATUNGA","a":["ATUNGA"],"lat":2.777167,"lon":33.682527},"geometry":{"type":"Polygon","coordinates":[[[33.66403994955215,2.750511780699026],[33.66441859672391,2.752033862275133],[33.66520644275838,2.753856650346206],[33.666550368362,2.760600589279927],[33.66561508090129,2.760572625591454],[33.66426266567243,2.77032710869316],[33.66424656977392,2.7704432776688592],[33.665614736210635,2.788110971320728],[33.6656146094198,2.7881114541009815],[33.665614610987234,2.788111474344138],[33.66560461470796,2.7881495108687315],[33.665090540235205,2.790106947274847],[33.66232748708853,2.793191208011594],[33.660998101092915,2.7946752284888414],[33.659475013006094,2.798673006295341],[33.65548145322333,2.80323887842006],[33.67047973711915,2.805530525856227],[33.66783382635737,2.808231169355447],[33.66492232040195,2.816122326462285],[33.664291138862716,2.816107701598153],[33.66429734785103,2.8199683743907613],[33.66429763554577,2.820139353275877],[33.67591614089815,2.833001800941518],[33.677363077507756,2.8304599179305208],[33.68031825113082,2.825268417477744],[33.68031834861141,2.8252682921457923],[33.68031835957524,2.825268272885257],[33.68193121660507,2.823194608575756],[33.68614782595645,2.817773263761705],[33.69281044488176,2.813728116127709],[33.697455244662834,2.8117019394628673],[33.69885412022162,2.810950810771504],[33.69631765379104,2.8072122124872947],[33.689120476200756,2.802736057656369],[33.683918972966275,2.797395212615502],[33.68884972820015,2.794953204045527],[33.69336217572593,2.7911672927511937],[33.695628303586304,2.7857831720357464],[33.697548150487464,2.781221730032267],[33.70302493552422,2.773112523533182],[33.70327507777892,2.768118033513529],[33.70332260551771,2.7681232968069853],[33.70258716711988,2.759494369032901],[33.69892856094577,2.752471025285257],[33.69731270439615,2.746311416729241],[33.6946232970995,2.74209766504055],[33.69289921899495,2.734533229033075],[33.69257946475321,2.729033600008887],[33.69104241210071,2.726411005931098],[33.690239599272445,2.726381186179502],[33.68628554874191,2.715331797976364],[33.68385034895053,2.7163953728835986],[33.678884956831304,2.7185640344189093],[33.67661712961219,2.7201194742757178],[33.67211648640066,2.723206363648125],[33.668927693317244,2.723159008672268],[33.66688903247422,2.724570749358457],[33.66688823641674,2.7245706257485534],[33.66688773702189,2.724570971437278],[33.66440023088727,2.72418519475234],[33.6544166851588,2.734509641031066],[33.653097066957784,2.7407424298695835],[33.653224423297694,2.7409467914367927],[33.65721587487445,2.747350992866986],[33.66096197569953,2.748005336069702],[33.66329127298419,2.749425646741761],[33.66360906500858,2.7501609014562547],[33.66403994955215,2.750511780699026]]]}},{"type":"Feature","properties":{"n":"Awach","c":"314107","d":"Abim","od":"Abim","dc":"314","k":"AWACH","a":["AWACH"],"lat":2.614338,"lon":33.576409},"geometry":{"type":"Polygon","coordinates":[[[33.523816688129806,2.6632265915326494],[33.52584467158247,2.664724359864443],[33.53058756844483,2.666125115838137],[33.537415703646296,2.670262552007421],[33.543947851171474,2.66848221733463],[33.5502304285563,2.668419334628098],[33.55378389578107,2.667035996347417],[33.556910512903436,2.668426780197055],[33.55733451694647,2.668615333559998],[33.56489062585047,2.667285922003522],[33.56489112141036,2.6672860686228117],[33.56489114380059,2.667286064683921],[33.569112221790476,2.668534918442877],[33.56911236700961,2.6685349913749206],[33.56911260060571,2.66853506048805],[33.57685615370058,2.672423887667175],[33.58852616130923,2.673389787218362],[33.59060144020906,2.673561546424746],[33.600482674949006,2.672984984973091],[33.60048303134529,2.6729850776714],[33.60048423603215,2.672985007391778],[33.6190594088533,2.677816773172809],[33.61905941519897,2.6778167760759333],[33.61905943572231,2.677816781414035],[33.61908424673059,2.6778281364371606],[33.624570296477046,2.68033798994847],[33.62513974255146,2.678648043062769],[33.625261544215036,2.6788152401901266],[33.62714276530577,2.674625768215263],[33.63393041250558,2.665558857242029],[33.6364819823442,2.660355774550075],[33.63727566183975,2.654322095173474],[33.63882297572994,2.650159024569557],[33.63948478905391,2.642604762178493],[33.63955875080649,2.637719556556209],[33.63882937252982,2.637084870450624],[33.63779777940902,2.629075799963959],[33.63004178434092,2.6293160129650093],[33.62485859184615,2.632191507243138],[33.62231957352119,2.632724796825754],[33.61825508377021,2.629899860715796],[33.61825447517386,2.629896075228462],[33.61825408146666,2.62989580129026],[33.61648742535771,2.6189049729493217],[33.61635630523921,2.61808940192234],[33.61431329892844,2.615142354184102],[33.61597108419261,2.613532908974457],[33.622983623400906,2.610160847209662],[33.63109176957939,2.5996354835110638],[33.6264334434753,2.589498688313887],[33.62659658588357,2.5895531415707893],[33.6261432718629,2.588536672348337],[33.62131822910153,2.589311070069979],[33.61108825348234,2.587764624798839],[33.60274598528019,2.57865975346936],[33.599568919889656,2.581993463354686],[33.59045942245895,2.587076682418283],[33.58364979180949,2.585755095091418],[33.58013527197807,2.583327296614164],[33.576972900232455,2.577998630343354],[33.57449135244426,2.571014656462394],[33.57504164947523,2.568793943234319],[33.57375694342446,2.56339200028301],[33.575521069413995,2.559668353013674],[33.57222177831657,2.553630911744026],[33.56731706441435,2.549163684312517],[33.561380725874216,2.553197528199216],[33.55928882719136,2.5540785305045794],[33.55510759580531,2.5573894603351586],[33.55305598718176,2.559721720198195],[33.5515,2.5686],[33.53435183752283,2.601135162321555],[33.533187129554285,2.604588865382856],[33.53333851630526,2.6053079524499783],[33.5346356342419,2.608208287352116],[33.53800124293875,2.608355473231052],[33.53942086366605,2.609174406385085],[33.53923050418895,2.613502903129849],[33.53590872519077,2.615287484052827],[33.5357853447882,2.616246476590022],[33.53628430321424,2.6193004402676383],[33.536399601843584,2.6198481087570387],[33.53749250710611,2.621158025950814],[33.53692724611049,2.6223544190248127],[33.537,2.6227],[33.536708769913865,2.622885016760603],[33.5386791264268,2.623656398333863],[33.53689097449794,2.624368681487888],[33.53705254271032,2.625120653088807],[33.535263424871694,2.625215768046337],[33.533979262666854,2.628623095314648],[33.53067391716751,2.627864846555383],[33.52853253920807,2.628355665206296],[33.52868821881341,2.629578862105337],[33.529057597060714,2.630832880112016],[33.528983323993295,2.6318975456615687],[33.52966663191512,2.6372663936188028],[33.53014772769286,2.637635341969154],[33.530516711104866,2.6439455872524977],[33.5306,2.6446],[33.530306756846116,2.6452289853155695],[33.52895068524038,2.648428211892151],[33.52874738511377,2.6485737246835077],[33.52678033215706,2.652792910735574],[33.52677904957197,2.652798539937365],[33.52677670862794,2.652800682942961],[33.52411709342685,2.6585053648235535],[33.5237,2.6601397085524754],[33.5237,2.662946610583851],[33.52371518315529,2.663151611169241],[33.523816688129806,2.6632265915326494]]]}},{"type":"Feature","properties":{"n":"Camkok","c":"314108","d":"Abim","od":"Abim","dc":"314","k":"CAMKOK","a":["CAMKOK"],"lat":2.963268,"lon":33.704462},"geometry":{"type":"Polygon","coordinates":[[[33.581,3.1491],[33.59636358536381,3.1403545744852175],[33.608230453258,3.132758141062828],[33.6133232797396,3.1307005946097637],[33.6135,3.1306],[33.61726771197876,3.1317715853502848],[33.6182795653093,3.132082622161332],[33.61829562910948,3.1320912203591313],[33.6418,3.1394],[33.64244488736437,3.1393876694576606],[33.67704066826389,3.137962484419718],[33.68769265785171,3.138522511322147],[33.69271662121568,3.138426450837176],[33.69640478201186,3.1375413557210727],[33.7043,3.1346],[33.69958772962342,3.1289517307129984],[33.69950531738416,3.128937360712285],[33.69685865357722,3.127681674655547],[33.692036201485344,3.122157233842594],[33.68970506757292,3.11711114163047],[33.68970452628613,3.117105425342964],[33.6897,3.1171],[33.6813,3.0914],[33.68123272000785,3.091301692826999],[33.67039249752972,3.076966511495516],[33.66082448033685,3.0614818863174422],[33.6607,3.0613],[33.6607102599887,3.061297035136345],[33.6606970631068,3.061275677652806],[33.664575065710736,3.058424593941231],[33.680198137327814,3.052607055032821],[33.68461338873481,3.052179069696414],[33.6869672507886,3.053652022560998],[33.69887480132781,3.040300822153611],[33.707769416677394,3.034070956343831],[33.715537272349415,3.026966808086471],[33.72138241271897,3.021491188085107],[33.72177321295668,3.0204258594096536],[33.72094869844285,2.9996755774783797],[33.72057585500201,2.997840458693192],[33.72055149259147,2.990810403609485],[33.722029299229995,2.989643714517263],[33.72216446215323,2.987988464784575],[33.724718651397716,2.984215515914996],[33.727692979030685,2.985134844813595],[33.731271825782834,2.980608953071338],[33.73449885503889,2.979736792619555],[33.73989386368889,2.9754036586879695],[33.74001231725232,2.97519356582581],[33.74037922551015,2.9750138283997876],[33.7444923259487,2.971710290587234],[33.7450221458374,2.970460191467918],[33.746472392475575,2.9701199514402536],[33.74804965456317,2.9688531345889446],[33.74878543994075,2.967834089836587],[33.75209436000185,2.965604529903279],[33.7521,2.9656],[33.752100718087355,2.965600245806825],[33.75213181919536,2.965579289790052],[33.77340970497987,2.9728944759354174],[33.8041,2.9834],[33.8512,2.949],[33.852980413592434,2.9483658800903654],[33.853249598077106,2.948172877257386],[33.854158788391025,2.9479461849566215],[33.8658,2.9438],[33.8652,2.922],[33.8652204757775,2.921976237986605],[33.86607501910486,2.919485517886175],[33.87326131021993,2.9126448992509464],[33.87327504378712,2.912628961530998],[33.873505547390025,2.911429961010612],[33.874060243515814,2.9082724599869074],[33.8738510328579,2.899054142376713],[33.87478193375659,2.894973632699369],[33.87702622887434,2.891389158715291],[33.8772,2.8904],[33.87897715006179,2.888273246647365],[33.88030624255416,2.886150487735829],[33.881695516140056,2.885020120029114],[33.88609691571284,2.879752871360042],[33.887947680000316,2.876716285934958],[33.88934268862015,2.875868585749665],[33.8894,2.8758],[33.89372192509211,2.864097556673674],[33.893695428345445,2.86334125811656],[33.8943144341936,2.862493224337316],[33.8959,2.8582],[33.89589923815721,2.858092580167081],[33.89502407438047,2.85607587921341],[33.89540241174094,2.854910341497842],[33.89445856588645,2.85292066293225],[33.893361021764306,2.844654837876033],[33.89570078800683,2.830111108962905],[33.8957,2.83],[33.895671902335046,2.829850926277612],[33.89473105292519,2.827195315740297],[33.89489235349311,2.825714986588456],[33.894418216093136,2.823199424271933],[33.8934783287629,2.821775898137524],[33.89387979852832,2.820342819969681],[33.89210707927125,2.8109375594669133],[33.89209036303452,2.810885351304107],[33.894566245860105,2.806705744573389],[33.89539963872689,2.806549148935334],[33.900157537392424,2.8002754595444976],[33.90019544858423,2.800150981870252],[33.902101405690395,2.797712305771071],[33.9034,2.796],[33.90166159499115,2.7897218744823182],[33.90085569394915,2.789421717249257],[33.89214178117087,2.788723817460861],[33.88355262656816,2.783705155978739],[33.87413487838844,2.781739708863772],[33.86856612328784,2.783459473258284],[33.86643689402327,2.784933555359941],[33.85398901332183,2.798937246280182],[33.848830256492036,2.80114823326119],[33.84711055530028,2.801148435480145],[33.84317880199618,2.799428313961877],[33.83212351198297,2.78853686778872],[33.823260073942954,2.783204414342227],[33.804168828327725,2.781673923740339],[33.799859771179484,2.785587555081451],[33.79557677635609,2.794629432653145],[33.78669559779802,2.817819077248014],[33.78671926767778,2.817832475852126],[33.788721383814035,2.818964857938781],[33.78872206261756,2.818966180661428],[33.78872207180775,2.818966185863639],[33.78916200620111,2.819823458682832],[33.79103929219059,2.823481555036191],[33.791995047818276,2.827314455689069],[33.79213552764404,2.833612578697627],[33.789414456451055,2.837174511565784],[33.78356150968887,2.841012467988609],[33.780432005103044,2.844163367481089],[33.77570509183486,2.8458368829940386],[33.77539593257043,2.845946342906544],[33.775395921264646,2.845946341686433],[33.775394858608195,2.84594671790913],[33.77035614375575,2.845402473891881],[33.76368367019622,2.84609214544761],[33.76191553269365,2.847872784659313],[33.76205361832427,2.851432406024189],[33.759741562512765,2.855815334081914],[33.75974136636133,2.855815448791075],[33.75974133193014,2.855815514061199],[33.759274408920476,2.8560885250293757],[33.755521807042804,2.858283042805409],[33.751304342478,2.864309879495114],[33.74694862349421,2.867188041941428],[33.73782661067058,2.870069313593695],[33.73782587036541,2.870069369207794],[33.72638896372707,2.87130891834051],[33.72187943356115,2.871267316697882],[33.719443915861035,2.871450280600836],[33.71249853381268,2.871180795268307],[33.71249843290728,2.8711807744146873],[33.71249839462998,2.871180774061569],[33.70795591144283,2.8702419939766384],[33.69928786371206,2.868450611435155],[33.69383931249951,2.865989376699503],[33.687162660763775,2.859284314499733],[33.685662431099416,2.855451330871491],[33.68566241644558,2.8554509108301276],[33.68566236935761,2.855450790526886],[33.68557087914832,2.852827062462994],[33.685385391526,2.847510198085851],[33.68647292191947,2.844360370625072],[33.696394876813166,2.828342487837311],[33.69221247191937,2.830351183682149],[33.68763184729318,2.831005765276358],[33.68358692622982,2.833444483786457],[33.67977962822456,2.833801391825642],[33.67852962975386,2.8335426924745293],[33.677460025883384,2.833563466717712],[33.675919701167125,2.8330025423482175],[33.6759161500172,2.833001807403174],[33.675916413225536,2.833001345012005],[33.6759164026275,2.833001341152626],[33.67591614089815,2.833001800941518],[33.675908407134955,2.8329932391582755],[33.664088584226015,2.8201145324124153],[33.661269053741954,2.819779857469821],[33.661267605930085,2.819779817985707],[33.66126760860246,2.819779685933468],[33.66126374569574,2.819779227410997],[33.66127716636408,2.819155304020646],[33.65956008910196,2.819056474731413],[33.659573572370256,2.818441542955022],[33.655764980851174,2.817095748058947],[33.64611626340008,2.814975005738616],[33.636734960869966,2.811461073897414],[33.636752108916845,2.810783169769991],[33.62930328721198,2.808054557800918],[33.62818475425606,2.806897409083169],[33.62334792262497,2.807433949202611],[33.62175418180777,2.809017561722489],[33.61755339051459,2.809462805310228],[33.61573386983383,2.810811999740696],[33.61384783205143,2.810478655577696],[33.61180039225176,2.811935731592117],[33.61016580985703,2.8144437693536832],[33.61292601870178,2.816301447006015],[33.6147382640838,2.819009517490092],[33.61501632800776,2.831974075377491],[33.613995885724066,2.840138305139481],[33.61450983608592,2.844478290505667],[33.61713656243428,2.852472814938848],[33.615366436604425,2.857783959684848],[33.61011265784902,2.863780374264334],[33.61056861252915,2.865893716172926],[33.608685969229825,2.867776884067086],[33.60448128710485,2.867875838748327],[33.6045,2.8701],[33.604168021864666,2.870226467861081],[33.60418381948762,2.870571265202924],[33.603288119060046,2.870561668929507],[33.591449628258474,2.875071570187247],[33.58564786907327,2.87841538130808],[33.58199670361493,2.879955097389275],[33.57777219425828,2.880291996269638],[33.57713364307789,2.8810378932322322],[33.57636328455924,2.8872824660727674],[33.57210514835774,2.929038414195011],[33.5706289683941,2.933765180441768],[33.5706,2.934],[33.5801,2.946],[33.57958114952056,2.949152580630548],[33.58057790843414,2.954094120150656],[33.57763854071789,2.9609560406380497],[33.5747941950374,2.9782385323271137],[33.575264523877166,2.981463040166104],[33.57329775711818,2.9873310192492966],[33.57267052493905,2.991142136511639],[33.57297929152507,2.997132746688864],[33.57090870999874,3.00185566575975],[33.569918856529995,3.0145515868500814],[33.55956496438525,3.1480623013480873],[33.56758321459566,3.148975192693913],[33.581,3.1491]]]}},{"type":"Feature","properties":{"n":"Kiru Town Council","c":"314109","d":"Abim","od":"Abim","dc":"314","k":"KIRUTOWNCOUNCIL","a":["KIRU","KIRUTOWNCOUNCIL"],"lat":2.639659,"lon":33.667309},"geometry":{"type":"Polygon","coordinates":[[[33.64122025604683,2.6999312132782114],[33.64713614549469,2.697321888590538],[33.649554687364876,2.695322877209983],[33.65071929504335,2.694179607076658],[33.6512988612454,2.6920186818742255],[33.65181476448789,2.69009481600462],[33.65510095315673,2.688934333374077],[33.656233662247,2.686041002887046],[33.6564086491761,2.685853053959246],[33.656462262607725,2.685726715603684],[33.65675526376214,2.6854807642108525],[33.65803253383351,2.684108881512765],[33.66167686788061,2.6813494651710768],[33.66167702455783,2.681349333652885],[33.66167703909922,2.68134933552779],[33.661677866377225,2.681348709129547],[33.66567057703952,2.681864176223464],[33.6700459285245,2.6788757967813983],[33.671975789541726,2.6775576575236],[33.671975864877595,2.6775576439102786],[33.671976172575334,2.677557433751712],[33.677638632979,2.676533590086267],[33.678781432347506,2.674202394054721],[33.6787827145051,2.6742030774164056],[33.67878306312768,2.674202366659236],[33.68004518046056,2.6748759438947913],[33.68127979398038,2.675533965639977],[33.6825647719195,2.675082795678735],[33.682565624922546,2.6750831632397625],[33.68256578771836,2.675083106045908],[33.68462728248141,2.675971523273851],[33.68532666247803,2.674117576560352],[33.68496183126794,2.670707199647607],[33.689193685984584,2.659989879815492],[33.69499556134026,2.641599434547972],[33.69536565846643,2.633880855428791],[33.69438683096799,2.633597076380854],[33.69513439115483,2.618693119571238],[33.69814081630462,2.613615110007522],[33.7006232043614,2.607064611013765],[33.7013018952297,2.607081758195124],[33.703015882048284,2.602629633388371],[33.70608235079007,2.597960208122946],[33.70749329005105,2.594576027545424],[33.707304669101674,2.593056328395713],[33.70180954447971,2.58912756493269],[33.69779974409056,2.588447374190348],[33.68990654404285,2.585339315722274],[33.67963757545643,2.575821424271741],[33.67906132909473,2.576756817784838],[33.674785831129,2.58369718821468],[33.66802732462437,2.590211271641339],[33.66588521771182,2.597763357977324],[33.66594414933953,2.601500714364919],[33.662508896801505,2.609028123061151],[33.66162979978271,2.6125067405198874],[33.66103932848179,2.614843496349238],[33.661039213046934,2.614843712760754],[33.66103885713294,2.614845121124821],[33.65790328223104,2.62072421419796],[33.65254389309225,2.614633911294222],[33.647136642115285,2.61326033497671],[33.645592816663395,2.6135584693866694],[33.642324360427246,2.615993568921761],[33.64232359537052,2.615993729387481],[33.64232356343512,2.615993761528096],[33.642272298209626,2.6160044886365674],[33.63621822264043,2.617274291992152],[33.63779777863077,2.629075788441457],[33.63777323981164,2.6290765484469083],[33.63777324132672,2.6290765599394796],[33.63779777940902,2.629075799963959],[33.63882937252982,2.637084870450624],[33.63955875080649,2.637719556556209],[33.63948478905391,2.642604762178493],[33.63882297572994,2.650159024569557],[33.638821540522684,2.6501628860156132],[33.63684411862418,2.6576027562142084],[33.6364819823442,2.660355774550075],[33.63567506423031,2.6620012171355136],[33.63537407807982,2.663133650175189],[33.634657921061184,2.664075344184057],[33.63393041250558,2.665558857242029],[33.6283265483866,2.673044475686409],[33.62607533050289,2.6770029413256764],[33.62526198554075,2.678814257359484],[33.64089593180985,2.700074250495585],[33.64122025604683,2.6999312132782114]]]}},{"type":"Feature","properties":{"n":"Lotukei","c":"314110","d":"Abim","od":"Abim","dc":"314","k":"LOTUKEI","a":["LOTUKEI"],"lat":2.532058,"lon":33.589421},"geometry":{"type":"Polygon","coordinates":[[[33.57375696880151,2.563392106988648],[33.57504164947523,2.568793943234319],[33.57449135244426,2.571014656462394],[33.576972900232455,2.577998630343354],[33.58013527197807,2.583327296614164],[33.58364979180949,2.585755095091418],[33.59045923413849,2.587076645869762],[33.59867810299508,2.582490550867484],[33.599568919889656,2.581993463354686],[33.60274598528019,2.57865975346936],[33.61108825348234,2.587764624798839],[33.62131822910153,2.589311070069979],[33.62264429897384,2.589098241803238],[33.62614013458857,2.588536605189792],[33.626140300453685,2.588537149246189],[33.6261432718629,2.588536672348337],[33.62659658588357,2.5895531415707893],[33.62999566999768,2.590687679196304],[33.63063750197036,2.5904490256685984],[33.63533228422565,2.588702859628432],[33.63532581154789,2.5886722376717763],[33.63391249088276,2.584514723931189],[33.633907750033046,2.5845017446187204],[33.6326087357171,2.5842291650116413],[33.628339013902675,2.583333918874497],[33.62652588563925,2.5803216235230155],[33.62607304124947,2.5804906368492566],[33.62489367176259,2.580931749542363],[33.624855568712846,2.5811282801929982],[33.624296988947734,2.584042603652262],[33.624290590534585,2.584042365278149],[33.62429056900335,2.584042476333499],[33.622284197931855,2.583967680177047],[33.62228406314855,2.5839676117142703],[33.622283348456975,2.583967585088298],[33.61104039629031,2.57825688062748],[33.60975589081731,2.576402532864596],[33.6097873226805,2.5763921978883166],[33.61537129852683,2.57429927598389],[33.61555370672573,2.574123824928336],[33.6142053670943,2.572707856333114],[33.611350661966895,2.571791658381343],[33.60630608356429,2.568556048429236],[33.6030933810354,2.564475007001646],[33.5976626202515,2.561073632597216],[33.60116545914754,2.556140763964577],[33.60438493164842,2.549367005502935],[33.59451242268859,2.54420489983642],[33.59734602528364,2.534668115915755],[33.60032117920568,2.529446926538968],[33.6093162390636,2.529095191367616],[33.61282855508403,2.526774607306356],[33.6162737137644,2.522270824772916],[33.61491759580092,2.515111439484413],[33.61919687090263,2.512049310313829],[33.626468147265996,2.513034108350782],[33.63396574633102,2.51212398923054],[33.638154217205994,2.513057582194263],[33.638003304691566,2.516751407506228],[33.63240416630234,2.52104653365824],[33.632129877590785,2.526537402347746],[33.63439738932218,2.52685971968132],[33.64017610872513,2.523576916935351],[33.642431834917204,2.5217209356442],[33.64464473445249,2.518351620333691],[33.6445404328645,2.516456385537462],[33.6421757869416,2.513333557172219],[33.642346446947535,2.511440486733374],[33.64427559170789,2.509798292528385],[33.64396913352541,2.50868902646737],[33.644927811151035,2.508570448966132],[33.647345340761454,2.505496191845397],[33.64649657533724,2.505117168943847],[33.647032695685496,2.504196271886844],[33.64669719302499,2.497921633666818],[33.64393178412917,2.492906208019912],[33.63796537057526,2.488365451011183],[33.636923055762544,2.480028263350667],[33.63714473894002,2.4789275136782014],[33.63642934278188,2.4783421895488114],[33.630923387285236,2.48131861195655],[33.62501531652578,2.478795083011923],[33.622500262870076,2.478646859708684],[33.61824238838726,2.484744820651407],[33.618231400053865,2.484825498972139],[33.618193697323754,2.484814554084068],[33.61578666096121,2.488261817216348],[33.616106951579965,2.48848607262424],[33.615442406795935,2.488754844538484],[33.614324415949575,2.49035598720789],[33.61389264533283,2.491941985190646],[33.611750784011114,2.494447248250839],[33.61167885486552,2.496039954973555],[33.60385792134526,2.503430350588598],[33.599960311339736,2.506186645947322],[33.59214286038767,2.512654892166544],[33.591273083087785,2.514002694743511],[33.588141022879874,2.516003529199836],[33.58462946498002,2.522916546476126],[33.58460231757929,2.5229407135535977],[33.5753,2.5414],[33.57516419455354,2.5415075382494607],[33.57396980904701,2.542840725788228],[33.57283035485013,2.5433556013630154],[33.56956598544996,2.5459405092590757],[33.568446101941646,2.548552777928325],[33.56731707531436,2.549163678898977],[33.56777376465012,2.549579648191736],[33.57222177831657,2.553630911744026],[33.575521069413995,2.559668353013674],[33.5738009906968,2.5632990270450833],[33.57375696880151,2.563392106988648]]]}},{"type":"Feature","properties":{"n":"Magamaga","c":"314111","d":"Abim","od":"Abim","dc":"314","k":"MAGAMAGA","a":["MAGAMAGA"],"lat":2.70453,"lon":33.717839},"geometry":{"type":"Polygon","coordinates":[[[33.68628335223958,2.715332757300017],[33.68628554874191,2.715331797976364],[33.690239599272445,2.726381186179502],[33.69104241210071,2.726411005931098],[33.69257946475321,2.729033600008887],[33.69289921899495,2.734533229033075],[33.6946232970995,2.74209766504055],[33.696804619209594,2.7455153510624672],[33.69731249502511,2.746311013772665],[33.69731252839557,2.746311140972304],[33.69731270439615,2.746311416729241],[33.69892856094577,2.752471025285257],[33.70223564529844,2.7588195605213244],[33.702586949257224,2.759493938448996],[33.70258695042163,2.7594939530421625],[33.70258716711988,2.759494369032901],[33.70332260457274,2.7681232857195694],[33.704355440505346,2.768237674510826],[33.713969327161415,2.769302330814951],[33.720716065233674,2.772472841849218],[33.73664679425185,2.774916151248013],[33.74071466255927,2.7760693737970765],[33.74324925787997,2.776787908675223],[33.7432457665027,2.771160371430454],[33.74524798943142,2.760047675221772],[33.75141276871872,2.750808427570885],[33.75139963699731,2.729740152874541],[33.75267145889068,2.697848707221022],[33.758257173118935,2.680529056598395],[33.76456365325557,2.669414522745011],[33.766858282277184,2.666959523685655],[33.768004341495846,2.663928482051948],[33.766586880085676,2.660679989170546],[33.76184010558376,2.656992116724811],[33.761448730953965,2.652354773737977],[33.74652764724856,2.645346431681079],[33.73354575595316,2.642760551482415],[33.72950570678285,2.638131135196366],[33.71470207367287,2.634846850352707],[33.707012928742394,2.6342723066338],[33.70279471728102,2.635991917791693],[33.69536566972413,2.633880859029645],[33.695342760822705,2.634358398382263],[33.69499556134026,2.641599434547972],[33.689193685984584,2.659989879815492],[33.688546626840996,2.661628579689769],[33.68496184880482,2.670707363579185],[33.68532666247803,2.674117576560352],[33.68462728248141,2.675971523273851],[33.684627258167076,2.6759715127954014],[33.68462725392241,2.6759715240483],[33.68462727910685,2.675971534900334],[33.68410964544679,2.677345005432561],[33.68429702420542,2.67807465081119],[33.68528567128189,2.681923526549405],[33.685185502546865,2.687812867636167],[33.68512068978005,2.688149611799092],[33.68265066680867,2.7009844789836683],[33.68326084857278,2.701781789405923],[33.68328561394372,2.707278521779026],[33.683916721180225,2.707299801826739],[33.68382244159045,2.708700664641269],[33.68455703065449,2.70911778641551],[33.68506116207469,2.713890987884753],[33.68628553328322,2.715331793116503],[33.68628334504944,2.715332748839296],[33.68628335223958,2.715332757300017]]]}},{"type":"Feature","properties":{"n":"Morulem","c":"314112","d":"Abim","od":"Abim","dc":"314","k":"MORULEM","a":["MORULEM"],"lat":2.562379,"lon":33.700345},"geometry":{"type":"Polygon","coordinates":[[[33.64284510322197,2.535852067086456],[33.64522469641758,2.543228614537357],[33.64528430865002,2.54740085648248],[33.646503782672056,2.552665408642445],[33.64825064408849,2.553924330065849],[33.65892424386448,2.557403064319345],[33.66583039211456,2.557441141296915],[33.669313485627455,2.560295833480753],[33.67126046542928,2.5644629769567886],[33.67294996620987,2.568078873684794],[33.67555894126805,2.569272294222085],[33.679562112370796,2.575700255837619],[33.68988509791122,2.5853194381706834],[33.68990654404285,2.585339315722274],[33.69779974409056,2.588447374190348],[33.70180954447971,2.58912756493269],[33.707304669101674,2.593056328395713],[33.70730473668776,2.593056872929694],[33.70730499845002,2.593057060090535],[33.70746515166411,2.594349319521479],[33.70749329005105,2.594576027545424],[33.70608235079007,2.597960208122946],[33.703015882048284,2.602629633388371],[33.7013018952297,2.607081758195124],[33.7006232043614,2.607064611013765],[33.69814081630462,2.613615110007522],[33.69513439115483,2.618693119571238],[33.69438683096799,2.633597076380854],[33.69510777748303,2.633806091264455],[33.702794808647134,2.635991880545057],[33.707012928742394,2.6342723066338],[33.71470207367287,2.634846850352707],[33.72950570678285,2.638131135196366],[33.73354575595316,2.642760551482415],[33.74485946812266,2.6450141448615905],[33.74652763912522,2.645346419475359],[33.744520443481306,2.640697745518392],[33.741011152748065,2.635672482977228],[33.73531609963219,2.633127070230126],[33.73121643458518,2.627369153168556],[33.72694555812667,2.624962892705738],[33.72465182855927,2.621402144621726],[33.7254727000095,2.612169139533005],[33.72665942775311,2.608719585574069],[33.72683902983021,2.602649860882077],[33.72889452016633,2.599936674158389],[33.729304885763895,2.59805138019409],[33.72706457411306,2.593961697038572],[33.72797646546652,2.593454445461943],[33.72710691373224,2.591844509458136],[33.727150465289746,2.588029639325491],[33.72440680811818,2.585640851578236],[33.723810762101905,2.583893131672548],[33.724129116297185,2.580536930047264],[33.72563560567021,2.577087968385478],[33.72311913224134,2.57451246745006],[33.72256965975205,2.571572759611762],[33.72384713622738,2.568722399690834],[33.72581263857494,2.567295938677538],[33.72800757600367,2.56779923793018],[33.731252186082834,2.565682437050507],[33.72954633866891,2.559045623907744],[33.72830518644125,2.557374657853124],[33.72958933680143,2.552313207285177],[33.72914139165057,2.54652269504988],[33.7349645554263,2.537832772605829],[33.734144886757456,2.536208925966305],[33.73435334296627,2.533125079881344],[33.732011343147796,2.530607348621255],[33.730063222915454,2.520933566614302],[33.72769843129272,2.518745490802939],[33.72659651046034,2.515874556752837],[33.72397519669918,2.516980834240591],[33.72177402411637,2.514323503530008],[33.720626412095505,2.515383041742061],[33.719793549733595,2.515076689698506],[33.71724931374921,2.517552500154446],[33.716179710279114,2.521864855056112],[33.71188913737529,2.526223378105454],[33.703983588782826,2.522022147401524],[33.69809406505505,2.517096427667614],[33.690313544858206,2.514455394469381],[33.679499218125244,2.503855114957668],[33.67791441623208,2.500445379984116],[33.67383140511345,2.502682439840795],[33.673361185945836,2.5020430734127626],[33.6695,2.5054],[33.63699681431911,2.478806484442909],[33.63699681431911,2.47880648444291],[33.63714473894002,2.4789275136782014],[33.637040822505654,2.4794435022272565],[33.637964193228,2.488356033736378],[33.63796537057526,2.488365451011183],[33.64347630841687,2.4925595668569684],[33.64393123542352,2.492905727720373],[33.643931298322656,2.4929058382953984],[33.64393178412917,2.492906208019912],[33.64394048611623,2.4929219901956006],[33.6465949141406,2.497588405065946],[33.646606037636886,2.497756311615511],[33.64669719302499,2.497921633666818],[33.647032695685496,2.504196271886844],[33.64649657533724,2.505117168943847],[33.647345340761454,2.505496191845397],[33.647343185053586,2.505498933156297],[33.64734348019501,2.505499065217364],[33.6460107414648,2.507193338127864],[33.644927811151035,2.508570448966132],[33.644927451895626,2.5085704934019333],[33.64492701938666,2.508571043238308],[33.64475263331601,2.508592116468736],[33.64396913352541,2.50868902646737],[33.64427559170789,2.509798292528385],[33.642346446947535,2.511440486733374],[33.6421757869416,2.513333557172219],[33.6445404328645,2.516456385537462],[33.64464473445249,2.518351620333691],[33.642431834917204,2.5217209356442],[33.64165726474673,2.522358241603641],[33.641589632816505,2.522448949149358],[33.64142229136355,2.522551574555419],[33.64017610872513,2.523576916935351],[33.63439767493604,2.5268595574284256],[33.63439739835246,2.526859727048691],[33.64136035134703,2.533078314532211],[33.64284510322197,2.535852067086456]]]}},{"type":"Feature","properties":{"n":"Morulem Town Council","c":"314113","d":"Abim","od":"Abim","dc":"314","k":"MORULEMTOWNCOUNCIL","a":["MORULEM","MORULEMTOWNCOUNCIL"],"lat":2.601164,"lon":33.775711},"geometry":{"type":"Polygon","coordinates":[[[33.719616178325076,2.504733346274969],[33.718186614384,2.507613330314153],[33.71969128990541,2.514960238384152],[33.720626555047716,2.515382909760761],[33.72177402411637,2.514323503530008],[33.72397519669918,2.516980834240591],[33.72659651046034,2.515874556752837],[33.72769843129272,2.518745490802939],[33.72769992686432,2.518746874613673],[33.72966493016663,2.519945739965537],[33.72990418274444,2.5207864111745244],[33.730063222915454,2.520933566614302],[33.73034674994476,2.5223414769829837],[33.73200926680681,2.52818312798273],[33.73201135806557,2.5306073646583798],[33.73435334296627,2.533125079881344],[33.734144886757456,2.536208925966305],[33.7344892769709,2.536891197854983],[33.734964447033434,2.537831291399177],[33.73496408243901,2.537831835570092],[33.7349645554263,2.537832772605829],[33.72914139603111,2.5465226885127943],[33.72915913306237,2.546752035320428],[33.72958933680143,2.552313207285177],[33.729589245999215,2.552313565180143],[33.72958926439551,2.552313803051497],[33.729264707594446,2.5535927262068014],[33.72830518644125,2.557374657853124],[33.72954633866891,2.559045623907744],[33.731252186082834,2.565682437050507],[33.731251109350055,2.565683139516702],[33.731251206513996,2.565683517793282],[33.73015224840029,2.5664000422471855],[33.72800757600367,2.56779923793018],[33.72581263857494,2.567295938677538],[33.72384750160745,2.5687221345166735],[33.723225699077766,2.5701089767267535],[33.72256965975205,2.571572759611762],[33.72270892526838,2.5723178377329305],[33.7231194165795,2.5745127584577836],[33.72553276329228,2.576982713691538],[33.725635449747124,2.577087742422691],[33.72563542971079,2.577087788298675],[33.72563560567021,2.577087968385478],[33.724129116297185,2.580536930047264],[33.72393957788004,2.582535110542775],[33.72381084820513,2.5838933841435354],[33.72440680811818,2.585640851578236],[33.727150465289746,2.588029639325491],[33.72711332286763,2.5912831054450187],[33.72710695499561,2.5918445858554153],[33.72742510636167,2.5924336288285796],[33.72797573844529,2.593451037800583],[33.72797488283564,2.5934515152919033],[33.72797646546652,2.593454445461943],[33.72706457411306,2.593961697038572],[33.729304885763895,2.59805138019409],[33.72889452016633,2.599936674158389],[33.727322776921326,2.60201132896481],[33.72683901809659,2.602650257424472],[33.72665942775311,2.608719585574069],[33.72547271371075,2.6121690997064952],[33.72520684548928,2.6151594203343453],[33.72465182855927,2.621402144621726],[33.72694555812667,2.624962892705738],[33.73121643458518,2.627369153168556],[33.73489591249638,2.632536923803381],[33.735316141659396,2.6331270890142484],[33.7391664172336,2.63484797560249],[33.74101092094564,2.63567232169537],[33.741010979501645,2.6356724055444753],[33.741011152748065,2.635672482977228],[33.744520443481306,2.640697745518392],[33.74564224232155,2.6432958365761468],[33.746527653810425,2.645346422871251],[33.74686767628157,2.6455061412450496],[33.761448730953965,2.652354773737977],[33.76184009771568,2.6569920234970046],[33.76658681619336,2.660679919953652],[33.766586829119845,2.6606799495740807],[33.766586880085676,2.660679989170546],[33.76683197155258,2.6612416819826508],[33.76800404953241,2.663927443804015],[33.768003974776555,2.6639276416163624],[33.768004341495846,2.663928482051948],[33.766858282277184,2.666959523685655],[33.7645636895461,2.6694144839181586],[33.76136909365295,2.6750446111748034],[33.758257173118935,2.680529056598395],[33.75825592990924,2.6805329114246073],[33.75267195038178,2.698759389568882],[33.77724630414017,2.700019595980736],[33.79399781381562,2.706301291259429],[33.80237368681821,2.708109737628416],[33.814651703222324,2.705539919772304],[33.82074312094519,2.701827964569806],[33.82321776037908,2.695070298608603],[33.818744271660144,2.683838871941222],[33.816745674325105,2.673179481491052],[33.81902993203958,2.661281957456282],[33.821694905735406,2.654619461233595],[33.821683546151206,2.647132550361395],[33.81798606674816,2.645239168822433],[33.81237589220932,2.64036844648207],[33.80050712294734,2.62696026161579],[33.79891057986498,2.626816127503222],[33.795935370270534,2.624409982487894],[33.79768741861555,2.617072118892598],[33.80115150567081,2.614291771045101],[33.80950163602381,2.611982863146401],[33.81639572595706,2.609029358385945],[33.82117147543741,2.605380810403473],[33.823916968935876,2.600316746625568],[33.82362821028323,2.595326554714467],[33.82098371566751,2.591091734487404],[33.81451993746904,2.588534803779384],[33.80670260132834,2.588768193291216],[33.80505608839903,2.586037132003791],[33.801095479105484,2.584561054703352],[33.80420579107768,2.583596787771536],[33.803314036084764,2.581541726516245],[33.80702880432997,2.577651161251909],[33.81410475050947,2.572711196135316],[33.819223376345526,2.567784864616986],[33.82258550757455,2.566620527456355],[33.82685777740432,2.566391740485377],[33.83360407777123,2.568648473164918],[33.83727801181674,2.570982705744514],[33.84477773804998,2.578515253506054],[33.84612684269088,2.578589726625938],[33.84994641739366,2.574441521338616],[33.85622454733854,2.56035858444464],[33.85439908155172,2.559641434978047],[33.84686155757614,2.545923199440571],[33.83826811801466,2.534615981943974],[33.832035608631365,2.51913497981176],[33.81308462854039,2.517001994792764],[33.80713616318983,2.513968112805094],[33.79993101693131,2.505896051531917],[33.789383016117185,2.503628255436953],[33.77413429847172,2.502010480286829],[33.75966586329197,2.493153608531033],[33.74956779375036,2.494679821484855],[33.74550051561422,2.49635656132814],[33.7442140046575,2.495429350887935],[33.740144221157465,2.499569006092849],[33.7321858272046,2.497535169799394],[33.723441309960386,2.496785643541559],[33.718163197606586,2.499306152223653],[33.71918460972771,2.500129131475729],[33.719616178325076,2.504733346274969]]]}},{"type":"Feature","properties":{"n":"Nyakwae","c":"314114","d":"Abim","od":"Abim","dc":"314","k":"NYAKWAE","a":["NYAKWAE"],"lat":2.481963,"lon":33.910863},"geometry":{"type":"Polygon","coordinates":[[[33.85622455080975,2.560358573447338],[33.85683123091261,2.558306577661226],[33.85862875097195,2.557099405921734],[33.86469821028929,2.555361640620959],[33.86956786476182,2.552644832476187],[33.87346067890338,2.54570726824787],[33.880872921443746,2.536131060754807],[33.88814496648105,2.538913866375966],[33.912126570823915,2.538444847082853],[33.92846814470231,2.543709220495944],[33.93611728363985,2.550110474446721],[33.94451499437355,2.555531183259011],[33.96093082115485,2.559136994205648],[33.9861297369605,2.5714021880346265],[33.9864,2.5708],[34.01194531047073,2.5427001584821975],[34.01189108817626,2.541764865704733],[34.012497156162254,2.542055634169496],[34.01308884789925,2.541051101036331],[34.01283081311875,2.539775506354037],[34.01394887277681,2.540281601602772],[34.01428594416413,2.540125461419459],[34.01551690639301,2.5387714029676878],[34.01511533356327,2.537322781642649],[34.01416113648964,2.536998192592723],[34.014374065758666,2.534201233551948],[34.015804346187196,2.534273676292881],[34.01748666136985,2.533051274403994],[34.01663518428251,2.535005747685771],[34.0179223374996,2.536125428750446],[34.01807927850798,2.535952793641223],[34.0187715096491,2.532430093760411],[34.021051293369624,2.5326835772934184],[34.0214138477723,2.5322847674504674],[34.021740276736764,2.530787185168372],[34.02375438238997,2.527938482892857],[34.02481933012789,2.5285387368593213],[34.03333761660012,2.51916862173987],[34.033350458003305,2.519062919047625],[34.03250206612759,2.517408192911636],[34.031516751799266,2.51745065891539],[34.031371567772425,2.513801166096642],[34.03234072964223,2.510560907742919],[34.03462385588572,2.509310626786106],[34.03539843562032,2.507462051387543],[34.03595442372425,2.50422423831171],[34.03581168030754,2.501150723324471],[34.03678573501636,2.499286251302745],[34.03632379516492,2.496974844606639],[34.0366267624326,2.4963855326896307],[34.03659688355387,2.495882864494501],[34.03585733483191,2.495721936414149],[34.03655123267048,2.4951148555151885],[34.03652011072936,2.494591274623363],[34.035950682147714,2.494073814305531],[34.03580280207616,2.48733764886262],[34.034801635746526,2.487339850736676],[34.03599534127438,2.485762800263137],[34.035834855871684,2.4830628693706327],[34.0357870869787,2.482969003784978],[34.035827830097794,2.4829446710569703],[34.035704674692916,2.480872762480872],[34.03551837022246,2.480981746746585],[34.035416014499845,2.479287949999843],[34.03560147990983,2.47913666201245],[34.03511693544511,2.4709849139589726],[34.035075756754196,2.470983305356908],[34.035086113742125,2.4706414525343594],[34.0338880742647,2.4655902590619947],[34.03349804494879,2.465468079582719],[34.033757640189165,2.465040320797565],[34.02865023845148,2.4435064107683906],[34.028567223913925,2.443462833872347],[34.02810299610411,2.441311225917116],[34.02812386065745,2.4412870881773556],[34.02779022672391,2.4398804153764595],[34.02771168430469,2.439843760287885],[34.027761609681185,2.4397597597368788],[34.0277,2.4395],[34.02031284520092,2.432941311159694],[34.01802080665109,2.432517397854013],[34.017802587478904,2.4307125776681824],[34.01755362195165,2.4304915335084702],[34.016323352081116,2.430254978071178],[34.014591011083965,2.427861178065198],[34.01423717824623,2.4275470274148767],[34.01294752019488,2.427408152822743],[34.00961787381,2.424444109937759],[34.0098838023059,2.423681880551964],[34.00866930161088,2.4226035855423644],[34.008108066030516,2.423131735248536],[34.0074366607044,2.422554230534521],[34.00724526688465,2.421339255645247],[34.00647988265022,2.420659708895053],[34.00628812163112,2.420715886304596],[34.00631519628897,2.420513492032265],[34.0063,2.4205],[34.006070087082186,2.417998006482549],[34.004473052769804,2.418767153606617],[34.003351883125184,2.418216420733397],[34.004461693907935,2.417347475877303],[34.00370537013769,2.416551906702285],[34.00485894059136,2.41643367974611],[34.00410677805636,2.414596508603045],[34.00510813321479,2.414352835954774],[34.00474749384028,2.413376092266331],[34.00529514857286,2.413196605352119],[34.0057004671531,2.4139756719601424],[34.00550399871699,2.41183763309663],[34.00523763282022,2.411574266658941],[34.00544353475923,2.4111796429680217],[34.00524415783008,2.4090099528567173],[34.00506224637244,2.409033552670622],[34.004855576564786,2.407206831829101],[34.00348907699088,2.407452496625522],[34.00455294738397,2.406899493398861],[34.00376661414633,2.406076466670209],[34.00498211727567,2.4061583350587123],[34.00495799584129,2.4058958370963146],[34.004233075478915,2.404529738206477],[34.00324709627639,2.404681689286998],[34.00456399756354,2.402007085585901],[33.98584623023751,2.4056909014958077],[33.985821844834916,2.405746223739419],[33.98552921327598,2.4057011143486586],[33.97977138947141,2.4057248090968253],[33.98092921157115,2.406771943854169],[33.97643938878565,2.409262258535359],[33.978241228830676,2.406149746965797],[33.97787506713344,2.405732612892455],[33.97622655258554,2.4057393969029404],[33.97571841452604,2.406150638087639],[33.9754103688376,2.405742755683796],[33.96358073690972,2.405791437296668],[33.96284533447317,2.407272297434633],[33.96200465912164,2.405797923213491],[33.9615,2.4058],[33.960917875306635,2.403891924616188],[33.960083528630285,2.40242864960894],[33.96037688534802,2.4021186797518483],[33.9597,2.3999],[33.95263880317527,2.3976862193738695],[33.95310859360286,2.398865275084165],[33.95175261457693,2.39920333090264],[33.951917312540274,2.400525609197665],[33.95027845993342,2.400307977409855],[33.949207353036506,2.401022670015124],[33.94828027066378,2.399985657083588],[33.94846836165592,2.398427679138436],[33.94761143105142,2.398526309031412],[33.94792025686635,2.396709328628679],[33.94649412867657,2.396990851828712],[33.9459400859485,2.395695726746269],[33.944742719175075,2.395534581609359],[33.94457257951809,2.395157349254321],[33.93124348516087,2.3909784980504356],[33.92968288020555,2.392856923402884],[33.9218901031323,2.399816954561297],[33.915584586925625,2.411654676642767],[33.913561880683744,2.419269176500256],[33.90814873297072,2.428846375068983],[33.905769311447514,2.435270827065056],[33.90507908050131,2.440422447172961],[33.894437575234974,2.444632673947765],[33.89504320520594,2.442654867618584],[33.89310190082001,2.439400153106158],[33.89315867205212,2.435516485203223],[33.89131272638423,2.431936962378447],[33.89061978759919,2.422315237529026],[33.88430316241254,2.415106391277923],[33.88416008565209,2.412610843621131],[33.880890368966504,2.411910082945341],[33.87889146845601,2.410518163623075],[33.87382288826564,2.409697053430851],[33.867113138756835,2.406128049724615],[33.86478272403762,2.406048791398323],[33.863399209682235,2.401224467415183],[33.85606348106807,2.398368359035233],[33.85452827664481,2.396227153109628],[33.84692590319791,2.393550260265136],[33.842454662025666,2.395116063244693],[33.84154100841252,2.397000461448809],[33.83911677224851,2.404544561937532],[33.839982759959405,2.412085831213553],[33.834500630680004,2.420297688707874],[33.8334298724242,2.430350910263572],[33.83496485163759,2.440768474588439],[33.81684369850018,2.444546065441024],[33.81642730204945,2.447163582095046],[33.818390275429124,2.461083063825083],[33.81773038670797,2.467970835087327],[33.814156048578056,2.471971423790924],[33.80644908529803,2.475422337813094],[33.798740982656525,2.477150086594908],[33.793601337573975,2.477152975257333],[33.78853129573477,2.474193700907603],[33.786264089395345,2.477706464613726],[33.78576809561182,2.484578978405356],[33.7783742347878,2.502460305889856],[33.789383016117185,2.503628255436953],[33.79993101693131,2.505896051531917],[33.80713616318983,2.513968112805094],[33.81308462854039,2.517001994792764],[33.832035608631365,2.51913497981176],[33.83826811801466,2.534615981943974],[33.84686155757614,2.545923199440571],[33.85439908155172,2.559641434978047],[33.85620028003514,2.560349050832004],[33.85622455080975,2.560358573447338]]]}},{"type":"Feature","properties":{"n":"Opopongo","c":"314115","d":"Abim","od":"Abim","dc":"314","k":"OPOPONGO","a":["OPOPONGO"],"lat":2.678509,"lon":33.84951},"geometry":{"type":"Polygon","coordinates":[[[33.74324926333345,2.776787740963993],[33.745314661543645,2.7843693458201906],[33.74531566979584,2.7843707352350324],[33.75345745077096,2.7923858203104586],[33.75668521523836,2.795213498675913],[33.756674999240595,2.7952526867510428],[33.764201177272966,2.802962208177593],[33.7790501060926,2.813494854751204],[33.78669558781032,2.817819071400949],[33.79557675487587,2.794629485377683],[33.79557676160093,2.7946294711803565],[33.79557677635609,2.794629432653145],[33.799859771179484,2.785587555081451],[33.804168828327725,2.781673923740339],[33.823260073942954,2.783204414342227],[33.83212351198297,2.78853686778872],[33.84317880199618,2.799428313961877],[33.84711055530028,2.801148435480145],[33.848830256492036,2.80114823326119],[33.85398901332183,2.798937246280182],[33.86643689402327,2.784933555359941],[33.86856612328784,2.783459473258284],[33.87413487838844,2.781739708863772],[33.88355262656816,2.783705155978739],[33.89214178117087,2.788723817460861],[33.90085569394915,2.789421717249257],[33.90085569784042,2.789421718698559],[33.89644795222035,2.770893176018648],[33.88696167919295,2.736634178571109],[33.88613118916676,2.734144721978893],[33.88612087245659,2.733597665100372],[33.8859,2.7328],[33.88473490859382,2.7182829610790207],[33.88367145760339,2.71283711324927],[33.88209838122387,2.696551688172526],[33.88092378943203,2.6707964163231592],[33.8809,2.6705],[33.880909982609495,2.670493674153228],[33.88090825924454,2.670455885933403],[33.90654606690006,2.6542484287488417],[33.9658,2.6167],[33.98612973228325,2.57140219845626],[33.960930754081964,2.559136979472785],[33.94451499437355,2.555531183259011],[33.93611728363985,2.550110474446721],[33.928468167528884,2.54370923959858],[33.92846790642041,2.5437091437343713],[33.912126570823915,2.538444847082853],[33.88814496648105,2.538913866375966],[33.880872921443746,2.536131060754807],[33.87369597711874,2.5454032759647207],[33.87346065457875,2.5457073115979094],[33.86956786476182,2.552644832476187],[33.86469821028929,2.555361640620959],[33.85862875097195,2.557099405921734],[33.85683123091261,2.558306577661226],[33.85622455080975,2.560358573447338],[33.85620028003514,2.560349050832004],[33.85614752586069,2.560328325914375],[33.85614752586069,2.560328325914376],[33.85622454733854,2.56035858444464],[33.85586379890616,2.5611678058931497],[33.854512158487104,2.565166985569751],[33.84994665084055,2.574440997676665],[33.84994641739366,2.574441521338616],[33.84844096740174,2.576076498031632],[33.84612759187681,2.5785889614137],[33.846127549444006,2.5785889590648154],[33.84612684269088,2.578589726625938],[33.84477773804998,2.578515253506054],[33.83727801181674,2.570982705744514],[33.83727773073168,2.570982527157228],[33.83217422569875,2.5681701674679616],[33.82685793934914,2.566391794658205],[33.826857751834304,2.5663917418546927],[33.82258550757455,2.566620527456355],[33.822337742703084,2.56670633072437],[33.819222838816366,2.567785381952482],[33.81411747081816,2.572698953697673],[33.814104876988765,2.572711079017069],[33.81410485954803,2.572711091193067],[33.81410475050947,2.572711196135316],[33.80702880432997,2.577651161251909],[33.803314036084764,2.581541726516245],[33.80420579107768,2.583596787771536],[33.80419428885746,2.583600353719486],[33.801435548687685,2.584687795049004],[33.80505608839903,2.586037132003791],[33.805056431341356,2.5860377008402073],[33.8050565541392,2.586037736806398],[33.805124721457545,2.5861509732532664],[33.80670260132834,2.588768193291216],[33.81451993746904,2.588534803779384],[33.82098371566751,2.591091734487404],[33.82362821028323,2.595326554714467],[33.823916968935876,2.600316746625568],[33.82117147543741,2.605380810403473],[33.816748257337295,2.608760033610556],[33.816395977356265,2.609029176728399],[33.81639594634833,2.6090291900127647],[33.81639572595706,2.609029358385945],[33.80950163602381,2.611982863146401],[33.8011515212586,2.6142917667348944],[33.80108962722712,2.61434143596257],[33.79768741861555,2.617072118892598],[33.795935370270534,2.624409982487894],[33.79891057986498,2.626816127503222],[33.80050712294734,2.62696026161579],[33.81237588601295,2.640368439482018],[33.8124961843456,2.6404728834459306],[33.81798606674816,2.645239168822433],[33.821683546151206,2.647132550361395],[33.821694905735406,2.654619461233595],[33.81902993203958,2.661281957456282],[33.81674567663002,2.6731794694859183],[33.81874432480838,2.6838390053785757],[33.82321776037908,2.695070298608603],[33.820771013562926,2.701751796304299],[33.820743726522366,2.701826327392104],[33.82074371873764,2.7018263321373577],[33.82074312094519,2.701827964569806],[33.814651703222324,2.705539919772304],[33.80237368681821,2.708109737628416],[33.79399781381562,2.706301291259429],[33.77724630414017,2.700019595980736],[33.76050493329476,2.699161075626954],[33.752671949860314,2.698759401091312],[33.7513997047912,2.7297384529156044],[33.75139963699731,2.729740152874541],[33.751401600977296,2.7328911236024984],[33.75141280809872,2.750807469919428],[33.751412768159135,2.750807529782125],[33.75141276871872,2.750808427570885],[33.74524798943142,2.760047675221772],[33.7432457665027,2.771160371430454],[33.74324832292964,2.7752809194814683],[33.74324926333345,2.776787740963993]]]}},{"type":"Feature","properties":{"n":"Orwamuge Town Council","c":"314116","d":"Abim","od":"Abim","dc":"314","k":"ORWAMUGETOWNCOUNCIL","a":["ORWAMUGE","ORWAMUGETOWNCOUNCIL"],"lat":2.539041,"lon":33.619839},"geometry":{"type":"Polygon","coordinates":[[[33.60437602845421,2.5493857377912397],[33.60116545914754,2.556140763964577],[33.599458110908834,2.5585451350537545],[33.597990300874834,2.5612788643371873],[33.6030933810354,2.564475007001646],[33.60309358714636,2.5644752688208983],[33.60309365630919,2.564475307806087],[33.60360279287662,2.5651221042068912],[33.60630605872093,2.568556016871137],[33.60645661634593,2.5686526006735506],[33.611350661966895,2.571791658381343],[33.613588345416986,2.5725098274748874],[33.61420473411511,2.572707569997875],[33.61420484823326,2.5727076898082366],[33.6142053670943,2.572707856333114],[33.61555370672573,2.574123824928336],[33.617794053272185,2.571968926361472],[33.617794336450906,2.571968731539503],[33.61779434671218,2.571968720953496],[33.63753783104653,2.558385546781481],[33.637537857732646,2.5583855368891215],[33.63753824790135,2.558385268459932],[33.64639402933462,2.555102580519585],[33.64788784553245,2.5539269905123154],[33.64799647476533,2.55384148689291],[33.64764386703643,2.553487040294098],[33.646503782672056,2.552665408642445],[33.646405831967584,2.5522425488000264],[33.645908974902376,2.551743100596188],[33.64570651528559,2.54922355119763],[33.64528430865002,2.54740085648248],[33.64522469641758,2.543228614537357],[33.64522460594089,2.543228334066902],[33.64136093131545,2.5330793980054187],[33.64136035134703,2.533078314532211],[33.63439739835246,2.526859727048691],[33.63439767493604,2.5268595574284256],[33.63439738932218,2.52685971968132],[33.632129877590785,2.526537402347746],[33.63240416630234,2.52104653365824],[33.63240482635633,2.521046027327628],[33.632404841907096,2.521045716086321],[33.63800331958901,2.516751042867377],[33.638154217205994,2.513057582194263],[33.635357982292845,2.5124343129110907],[33.626470002035404,2.513033883203893],[33.626468147265996,2.513034108350782],[33.626467654268744,2.5130340415808363],[33.626467620526206,2.513034043857059],[33.626467196258496,2.513033979549417],[33.619512397219225,2.5120920441726],[33.61839841258796,2.5126206646761284],[33.61491759580092,2.515111439484413],[33.6162737137644,2.522270824772916],[33.61282855508403,2.526774607306356],[33.6093162390636,2.529095191367616],[33.60032117920568,2.529446926538968],[33.59734603547104,2.5346680980375793],[33.59729088161359,2.534853707666272],[33.59451242268859,2.54420489983642],[33.60438493164842,2.549367005502935],[33.604384034241704,2.5493688936434094],[33.604384844954716,2.549369317460925],[33.60437602845421,2.5493857377912397]]]}}]}
