{"type":"FeatureCollection","name":"Amolatar sub-counties","metadata":{"source":"Uganda Bureau of Statistics NPHC 2024 Map Explorer","retrieved":"2026-07-26","display_only":true,"clipped_to_dashboard_district":true,"positive_area_overlaps_removed":true,"source_gap_ratio":0.00456531},"features":[{"type":"Feature","properties":{"n":"Acii","c":"315101","d":"Amolatar","od":"Amolatar","dc":"315","k":"ACII","a":["ACII"],"lat":1.602797,"lon":32.511003},"geometry":{"type":"MultiPolygon","coordinates":[[[[32.34454706516499,1.647114165810395],[32.35222517575285,1.649196252943826],[32.3549,1.6496],[32.35589611140851,1.6501917072041998],[32.358370780010006,1.650862767564131],[32.367636952922595,1.655651433367317],[32.37542758583302,1.661182313798575],[32.377352487639115,1.6629371614608417],[32.3783,1.6635],[32.38036868047199,1.6656868907846683],[32.38190903817348,1.667091166630307],[32.39324111931121,1.6792948975575663],[32.3958,1.682],[32.41492241931512,1.6897282316403048],[32.41506838433267,1.689772625683178],[32.41558288540882,1.6897768215003768],[32.4401,1.6886],[32.449805943881714,1.6856699037338227],[32.45603594082254,1.68375034853108],[32.476984380431404,1.6726391898195712],[32.4968,1.6621],[32.54263829986577,1.6472495788771813],[32.54314633761041,1.647068142269347],[32.55308149796867,1.646227212467987],[32.566918761038885,1.64656084732709],[32.57846452015569,1.648784639260734],[32.582190109730625,1.6500819061762817],[32.586265397982174,1.6510099421147524],[32.601157957295044,1.624139539478855],[32.6044928914385,1.61672762452072],[32.61084698880669,1.611508352444298],[32.62115051666828,1.605440624768657],[32.628199493408424,1.605351969393428],[32.63500244323882,1.607505182075401],[32.650744596326454,1.614972234530469],[32.64843784958722,1.604660506524488],[32.65746693096069,1.607581970878308],[32.65757547055069,1.603018144716028],[32.66825399800725,1.602536950309813],[32.671986322538,1.600755117257624],[32.67417439344638,1.602575686103762],[32.67519210883047,1.606566224671533],[32.674960235572264,1.609783631218651],[32.678340575261586,1.607381737015102],[32.68560302911913,1.60551483374668],[32.68684858822514,1.614874054753151],[32.6900516333349,1.61647475523904],[32.69484232716896,1.615044414026655],[32.69595352977509,1.616738562567854],[32.69598452963438,1.621036491774141],[32.70072287724445,1.622956385383916],[32.701681077334264,1.622393436082622],[32.703049005826294,1.624221912969855],[32.70933919536174,1.626603722494105],[32.710267438747714,1.621539722741692],[32.70854924989173,1.618677069649795],[32.716727268176065,1.615609724913072],[32.71700944928492,1.610885656151341],[32.716173547291774,1.605893334839135],[32.71697636754781,1.602172974614561],[32.70720975859939,1.599616121692383],[32.69932989346585,1.600690310320391],[32.69771390764128,1.597620725268045],[32.69343054731626,1.595995155469831],[32.6897487551491,1.588827731272401],[32.6815175149562,1.578787045957245],[32.681804870244584,1.576479212435959],[32.67745970087483,1.576137186709804],[32.67347281124495,1.573492783399933],[32.66899018375002,1.567385861367177],[32.66782773359815,1.563362549369621],[32.660259924024324,1.559096034612715],[32.656072824590154,1.550126715911227],[32.65076586098086,1.541918031083169],[32.647781691341535,1.542112898416493],[32.64051887362503,1.542296406996557],[32.632114899013054,1.542381402154731],[32.62840975948817,1.541632106753969],[32.623402645708794,1.539214111274749],[32.588608753188744,1.548359214492345],[32.583571365018145,1.547916523240741],[32.5620014040555,1.533985984042811],[32.549548440669355,1.523420040574073],[32.54895156478035,1.5223079432832014],[32.5457,1.5226],[32.5335,1.5154],[32.52728938436626,1.517074165953442],[32.521497122190446,1.521727265595862],[32.5183444149019,1.52236890869217],[32.51340459858844,1.521309318682681],[32.51047953333408,1.521634342945091],[32.510449784215325,1.5216620312634268],[32.50316946694865,1.5306553643575478],[32.50083301245455,1.534641873094166],[32.497821746741096,1.537861613491878],[32.4970907904554,1.5381643176727309],[32.4969,1.5384],[32.47033276690279,1.5507210356392842],[32.46933404932991,1.551244021801028],[32.46512057965125,1.554490870936593],[32.459645131482034,1.560605145573344],[32.45412723565219,1.5628678096656428],[32.4364,1.5765],[32.4107,1.5904],[32.41056885686303,1.590414902629201],[32.404212460333014,1.592579605638454],[32.3843176939175,1.593415020608502],[32.38389563508416,1.593541940337806],[32.36194391216849,1.6012474430755508],[32.36108949783168,1.601565880091886],[32.346515802727474,1.61300892478886],[32.345139265753744,1.6134239487633193],[32.3444,1.614],[32.326245993611685,1.6195496703466872],[32.32403378403921,1.6218716533243143],[32.3128906411149,1.642477623970069],[32.312554453350344,1.6432082193736366],[32.31276979690613,1.6432407240613032],[32.33085362225312,1.644881323653196],[32.34454706516499,1.647114165810395]]],[[[32.64084831484538,1.542288076895987],[32.64084831499781,1.542288082928735],[32.640848314845385,1.542288076895987],[32.64084831484538,1.542288076895987]]]]}},{"type":"Feature","properties":{"n":"Agwingiri","c":"315102","d":"Amolatar","od":"Amolatar","dc":"315","k":"AGWINGIRI","a":["AGWINGIRI"],"lat":1.597728,"lon":32.756867},"geometry":{"type":"Polygon","coordinates":[[[32.7196843234611,1.62830899256783],[32.73096441768419,1.634511578862172],[32.735699774372456,1.629704608993225],[32.74091341179413,1.639166562979041],[32.745337596390605,1.64210898657],[32.747825729710335,1.642430318177591],[32.748988442359085,1.639631361037768],[32.75501763383096,1.639632775007972],[32.75545042888816,1.636707380017693],[32.758623558527916,1.63690356572821],[32.7601710905964,1.637361100026117],[32.760910596492025,1.640053814116179],[32.76354455446141,1.640687929274429],[32.76285832327533,1.64300526050585],[32.76568817855583,1.644371648616094],[32.76701169860721,1.64621979158352],[32.769833943804194,1.646911287974902],[32.77227964957061,1.646360687530212],[32.77546684179986,1.644286104446085],[32.780780155083505,1.647569948341127],[32.78413541177301,1.647834458279466],[32.78623857443396,1.649520749041816],[32.794955070920956,1.65072830251845],[32.798089699358506,1.649689541388009],[32.80282299241812,1.645499440142395],[32.80549015240557,1.644617001576544],[32.80346922737483,1.632916224441535],[32.79479925829668,1.602303186703496],[32.792878359814296,1.586640566403038],[32.79490569138693,1.584971053644757],[32.788199297932856,1.586320036430482],[32.761710893834305,1.541094258325081],[32.74965325167461,1.554904357312831],[32.735429970117146,1.568323396052807],[32.728103026518106,1.582036965688119],[32.72499361750359,1.583049365929403],[32.722839617692806,1.585754001401981],[32.72108616755235,1.592423671992556],[32.7216532078464,1.593153388848086],[32.716618937313804,1.6038293469041878],[32.7162821951093,1.6053898485160507],[32.71634997705383,1.6069470397811352],[32.71700944928492,1.610885656151341],[32.716727268176065,1.615609724913072],[32.71671249508821,1.6156152658829879],[32.714396020760866,1.616754229426903],[32.71954943583389,1.619779346818291],[32.7196843234611,1.62830899256783]]]}},{"type":"Feature","properties":{"n":"Amolatar Town Council","c":"315103","d":"Amolatar","od":"Amolatar","dc":"315","k":"AMOLATARTOWNCOUNCIL","a":["AMOLATAR","AMOLATARTOWNCOUNCIL","TOWNCOUNCIL"],"lat":1.635081,"lon":32.833923},"geometry":{"type":"Polygon","coordinates":[[[32.80346921813273,1.632916188602963],[32.80346921946295,1.6329161965052454],[32.80346922737483,1.632916224441535],[32.80549015240557,1.644617001576544],[32.80544156133771,1.6446330780895526],[32.80552512046455,1.645129468906493],[32.80909160893872,1.650631678545905],[32.809414022539805,1.655143291479758],[32.810713521947875,1.657873595750666],[32.81172637150451,1.658050003980283],[32.8115440402174,1.659404623004675],[32.81326002009123,1.660811159176182],[32.81838577315559,1.660462337757624],[32.82942074455414,1.668459762739746],[32.82708025748988,1.671510240300667],[32.83326995895316,1.675442205407618],[32.8333390689276,1.676550666789184],[32.83477397826123,1.677749300868547],[32.83721166037299,1.678058984708754],[32.83907139460806,1.680045133382976],[32.84022255634413,1.678649402423867],[32.84077891865906,1.678884503092676],[32.84837864427436,1.683571147007711],[32.85014280498442,1.686157918963649],[32.851129078326814,1.686308970730944],[32.85213101864044,1.684041081418657],[32.85951609063581,1.685306896721808],[32.858361036002584,1.679590012325283],[32.85865042636284,1.677075820800513],[32.86024698830424,1.674412124206175],[32.87026596000053,1.675650609090128],[32.874852503764906,1.674704039047462],[32.87354474128951,1.673102824626842],[32.87829369649027,1.669544314154806],[32.87707598203776,1.660874501285095],[32.874513903976975,1.65398129833252],[32.87388442739433,1.649064299034845],[32.87180145406133,1.643569246914019],[32.86917273384491,1.640405659944094],[32.86462323710896,1.640145068832158],[32.86536667966284,1.637246358869828],[32.86108873569909,1.630456084220971],[32.856732603836704,1.627807243422769],[32.85227421075153,1.626490610155387],[32.84643067379369,1.623506747530143],[32.83322974197961,1.615034751714495],[32.81367588570794,1.590603169451249],[32.80842590919953,1.587486872783074],[32.803589438159655,1.585851349795058],[32.794905707096675,1.584971058018343],[32.794874063361405,1.5849970994050302],[32.792878383005394,1.5866405473051057],[32.79404777301514,1.5961757266976302],[32.79479925829668,1.602303186703496],[32.803028600098564,1.6313604011951948],[32.80346921813273,1.632916188602963]]]}},{"type":"Feature","properties":{"n":"Muntu","c":"315104","d":"Amolatar","od":"Amolatar","dc":"315","k":"MUNTU","a":["MUNTU"],"lat":1.570944,"lon":32.924841},"geometry":{"type":"MultiPolygon","coordinates":[[[[32.86108832961314,1.630455814142957],[32.86108835324711,1.6304558516627203],[32.86108873569909,1.630456084220971],[32.86536667966284,1.637246358869828],[32.86462323710896,1.640145068832158],[32.86917273384491,1.640405659944094],[32.87180145406133,1.643569246914019],[32.87388442739433,1.649064299034845],[32.87418357435796,1.6514010109167476],[32.877016625536,1.6607148041941107],[32.877048409873645,1.660800319110085],[32.8885999050452,1.659705772495755],[32.88989991961921,1.657724319401044],[32.88832531146567,1.65598917773117],[32.89133774073937,1.652031242752209],[32.8915208112767,1.646050881126664],[32.894615580251305,1.644442123873672],[32.89683620535553,1.642155710916415],[32.90080291754233,1.642794727533865],[32.908896822285584,1.640431515718431],[32.91212451415486,1.641243143703105],[32.916608676011165,1.63914340624325],[32.9220927682586,1.640314663261498],[32.923299352584394,1.642928331017727],[32.92781019332673,1.642941761560814],[32.93271845724864,1.650614860827621],[32.93582128167694,1.653022784686695],[32.93791642117499,1.656193997946448],[32.93885706312813,1.655316289857235],[32.939727498177014,1.65560280846895],[32.94098763250266,1.659222945928641],[32.94295602535295,1.659968600932306],[32.945787635760844,1.664655865806837],[32.94768004954553,1.664104478229733],[32.948612007255576,1.662466819024839],[32.95073047436424,1.663696045107043],[32.95791410838928,1.660974334928543],[32.95766791543507,1.657576531666448],[32.96344901902948,1.652796104359054],[32.942498266126684,1.640844383235841],[32.941598341789714,1.631149749962078],[32.942891094454694,1.62425170164494],[32.94210333812032,1.62293746007234],[32.95889764079241,1.6211905854537],[32.961169847367714,1.620348211584132],[32.962664740699644,1.618482875902215],[32.96710978630469,1.6084592762580792],[32.9673,1.5824],[32.96742914286575,1.5819533809226387],[32.96966766387708,1.572819893526282],[32.97115514620055,1.5690676193897646],[32.974463829926144,1.5576250881720706],[32.974476787584294,1.557557694653583],[32.97381468963877,1.4887119724913283],[32.9737,1.4772],[32.954932240948715,1.4789123867747522],[32.950809754494664,1.480409215221699],[32.94323483939466,1.4797887594769885],[32.92130861356852,1.4804236887962783],[32.91683308940731,1.480689378210054],[32.91197580925065,1.4806939437475681],[32.8945,1.4812],[32.88012385998804,1.480756899794152],[32.878136568026726,1.527679903861641],[32.8793853352337,1.575338023096655],[32.88530353047863,1.586287487214091],[32.88445834523036,1.590858694759373],[32.88594454319122,1.597262368824572],[32.88255462409075,1.597466365285952],[32.88063607354649,1.596532063134173],[32.87623150812536,1.598889989344788],[32.875920835115906,1.597799362340943],[32.87203441200871,1.600999016815142],[32.867473619900714,1.601784116241055],[32.867067362086324,1.605131018417315],[32.86515361182659,1.605329634692187],[32.86542258720099,1.608167473822496],[32.86241927447786,1.611520116141205],[32.86440023600848,1.612320224289017],[32.86544896227931,1.613693730514927],[32.867924541026994,1.614152652425127],[32.868691142475974,1.615172901204414],[32.86867474288931,1.617947285269941],[32.858714697982684,1.623236062454825],[32.852746130729535,1.625400159841196],[32.85228200794617,1.626485663558482],[32.85673092182383,1.6278067466980395],[32.856732603836704,1.627807243422769],[32.859532424011,1.629509735023021],[32.86108832961314,1.630455814142957]]],[[[32.915496663393974,1.480677517306556],[32.91549666334038,1.480677523349073],[32.91549666339398,1.480677517306556],[32.915496663393974,1.480677517306556]]]]}},{"type":"Feature","properties":{"n":"Nalubwoyo","c":"315105","d":"Amolatar","od":"Amolatar","dc":"315","k":"NALUBWOYO","a":["NALUBWOYO"],"lat":1.561394,"lon":32.82631},"geometry":{"type":"Polygon","coordinates":[[[32.79448670254773,1.584889785020092],[32.80358619522362,1.585851021050432],[32.803589438159655,1.585851349795058],[32.80358949762289,1.5858513699034145],[32.80358956238318,1.585851376744447],[32.80732027937516,1.5871129879858572],[32.80842590919953,1.587486872783074],[32.81367588570794,1.590603169451249],[32.83322974197961,1.615034751714495],[32.843232567098674,1.6214542904066775],[32.852253999759306,1.6264802898947734],[32.85227421075153,1.626490610155387],[32.85227919140893,1.6264920810214818],[32.85230325016856,1.6264359816376814],[32.852746130729535,1.625400159841196],[32.858714671003185,1.6232360722371169],[32.85878417464288,1.6231991703947217],[32.86867474288931,1.617947285269941],[32.868691142475974,1.615172901204414],[32.867924541026994,1.614152652425127],[32.86544896227931,1.613693730514927],[32.86544863307804,1.6136932993633408],[32.865448568941595,1.613693287479814],[32.865282780554665,1.6134760839852484],[32.86440030320974,1.6123203123018361],[32.86242442066456,1.611522795709334],[32.862424815389026,1.6115223541090329],[32.86241927447786,1.611520116141205],[32.86542258720099,1.608167473822496],[32.86515361182659,1.605329634692187],[32.867067362086324,1.605131018417315],[32.867473619900714,1.601784116241055],[32.87203441200871,1.600999016815142],[32.87258015323801,1.6005497133507687],[32.875917904712864,1.5978014229369],[32.87591798577248,1.5978017081777667],[32.875920835115906,1.597799362340943],[32.87623136247634,1.5988894780394989],[32.88016018728778,1.5967868225883748],[32.88063607354649,1.596532063134173],[32.88255462409075,1.597466365285952],[32.88594454319122,1.597262368824572],[32.88445834523036,1.590858694759373],[32.8853034830469,1.586287743749908],[32.88394499803879,1.583774017889957],[32.8793853352337,1.575338023096655],[32.878136568026726,1.527679903861641],[32.880059780404565,1.4822699168116196],[32.88012384870194,1.4807568994462927],[32.87250095900036,1.4805219473664495],[32.8652914106285,1.48033099844945],[32.84256588225488,1.478248125413625],[32.8261978619542,1.4756946370746054],[32.8203,1.475],[32.81430653214973,1.4738395335597423],[32.80994552475295,1.473159195844521],[32.78305473813815,1.51710481989525],[32.76171090146984,1.541094249402354],[32.76543338141206,1.5474499601093525],[32.788199297932856,1.586320036430482],[32.78833328517935,1.5862930850608281],[32.79448670254773,1.584889785020092]]]}},{"type":"Feature","properties":{"n":"Namasale","c":"315106","d":"Amolatar","od":"Amolatar","dc":"315","k":"NAMASALE","a":["NAMASALE"],"lat":1.519884,"lon":32.708586},"geometry":{"type":"Polygon","coordinates":[[[32.656072765158235,1.550126615011821],[32.65607278022729,1.550126647291805],[32.656072824590154,1.550126715911227],[32.660259924024324,1.559096034612715],[32.661061441280026,1.5595479071348777],[32.667827220850555,1.563362071181464],[32.66782728613755,1.5633622971041208],[32.66782773359815,1.563362549369621],[32.66899017716772,1.567385838585433],[32.66937336423161,1.567907888532759],[32.67347281124495,1.573492783399933],[32.67745970087483,1.576137186709804],[32.681804870244584,1.576479212435959],[32.6815175149562,1.578787045957245],[32.6897487551491,1.588827731272401],[32.69343029569328,1.5959946656299535],[32.69606068237152,1.5969933129412157],[32.69771390764128,1.597620725268045],[32.69932980293292,1.60069013835198],[32.706439182210616,1.5997211671950409],[32.70720975859939,1.599616121692383],[32.71344522078133,1.6012485367696345],[32.71697637306359,1.602172964389686],[32.721646237391546,1.5931681707878291],[32.7216532078464,1.593153388848086],[32.72108616755235,1.592423671992556],[32.72109199083422,1.5924015217352345],[32.721449844077966,1.590569126489806],[32.72191451842196,1.5892728396385394],[32.722839617692806,1.585754001401981],[32.723451155250444,1.5849861340312745],[32.7235594410519,1.584684052665232],[32.72499267002281,1.583050107869189],[32.72499315140695,1.5830499511762168],[32.72499361750359,1.583049365929403],[32.72810301656697,1.5820369689281346],[32.728779075880986,1.5807716290727232],[32.735429970117146,1.568323396052807],[32.73543013318298,1.5683232422073823],[32.73543016636217,1.568323180107877],[32.74404129925241,1.5601989868718527],[32.74965325167461,1.554904357312831],[32.761710893834305,1.541094258325081],[32.761768943852644,1.541193371780116],[32.76176895146683,1.541193363163368],[32.76171090146984,1.541094249402354],[32.78305473813815,1.51710481989525],[32.79769730035542,1.49317556324845],[32.809945512794464,1.473159193303666],[32.79206099676011,1.469532311445579],[32.7764,1.4665],[32.774285504328816,1.4659275389768243],[32.77416011272193,1.465902110246],[32.773385417848395,1.4656838570272472],[32.73777904811584,1.4560440837581914],[32.71836707090054,1.454188781712673],[32.69977189185503,1.451311534944167],[32.69810565131869,1.4509055528512276],[32.6964,1.4507],[32.69439790803763,1.4500021554458093],[32.68170620415233,1.446909802094682],[32.65585419793671,1.43660065282294],[32.64960811666475,1.4365178704082804],[32.64566867693541,1.4367590605957912],[32.64344787246563,1.487041649077656],[32.64243760777064,1.49719991526133],[32.63994109273768,1.504726253640311],[32.64077139982824,1.507857361325506],[32.642794996628325,1.507558194938248],[32.64413840842289,1.50895978779644],[32.64311622756784,1.510247085707367],[32.64277113554,1.514846200262919],[32.638819857081785,1.517221146636021],[32.634360459834284,1.522546990695408],[32.63307772420355,1.526904017525615],[32.632661239797955,1.542375876635727],[32.63266895231119,1.5423757986337918],[32.64302217459034,1.542233156447865],[32.647781691341535,1.542112898416493],[32.65076586098086,1.541918031083169],[32.650899426537244,1.5421246271024591],[32.65113286367679,1.542121410907253],[32.656072765158235,1.550126615011821]]]}},{"type":"Feature","properties":{"n":"Namasale Town Council","c":"315107","d":"Amolatar","od":"Amolatar","dc":"315","k":"NAMASALETOWNCOUNCIL","a":["NAMASALE","NAMASALETOWNCOUNCIL"],"lat":1.4935,"lon":32.609309},"geometry":{"type":"Polygon","coordinates":[[[32.55915488442283,1.5315708026447106],[32.56200138222527,1.5339859655205517],[32.5623372203757,1.5342028644729586],[32.583571198428565,1.5479164156521068],[32.58725332347867,1.548240097828214],[32.58860874817298,1.5483592140515543],[32.59112980234172,1.5476965908808211],[32.623402645708794,1.539214111274749],[32.6284096981609,1.5416320771382936],[32.63266107473027,1.5423758783051693],[32.63266122830409,1.5423758767519722],[32.632772014252446,1.53826074836226],[32.63307772420355,1.526904017525615],[32.633077759106826,1.5269038989708015],[32.63307776619128,1.526903635819708],[32.634145184522914,1.5232782094165918],[32.634360459834284,1.522546990695408],[32.638819857081785,1.517221146636021],[32.64277113554,1.514846200262919],[32.64311622756784,1.510247085707367],[32.64413840842289,1.50895978779644],[32.64316979299484,1.5079492231491898],[32.64279466408705,1.507558244100795],[32.64077139982824,1.507857361325506],[32.640770817349534,1.5078551647845169],[32.64077041997702,1.507855223176218],[32.640118268728386,1.5053943884936034],[32.63994109273768,1.504726253640311],[32.63994115504856,1.5047260657893313],[32.639941141405465,1.504726014308318],[32.6415662427795,1.4998268522868787],[32.64243760777064,1.49719991526133],[32.64344787111048,1.4870416627037075],[32.64344787246564,1.487041649077273],[32.64382722532339,1.4784524896555262],[32.64566866550358,1.4367590612956995],[32.626042338352605,1.4379606731620853],[32.61529487671111,1.4479262715492602],[32.59223398899194,1.4705790019636678],[32.59151615630866,1.471322429889751],[32.59107130421372,1.4718507550032147],[32.5771,1.4898],[32.57283544920148,1.5020544563175973],[32.57090467298365,1.50851255343074],[32.57047962899537,1.5088240546109992],[32.5684,1.5148],[32.5624,1.5211],[32.54895156478035,1.5223079432832016],[32.549548428673354,1.523420018223157],[32.55915488442283,1.5315708026447106]]]}},{"type":"Feature","properties":{"n":"Abeja","c":"315201","d":"Amolatar","od":"Amolatar","dc":"315","k":"ABEJA","a":["ABEJA"],"lat":1.78537,"lon":32.812895},"geometry":{"type":"Polygon","coordinates":[[[32.79833754969146,1.826091178702136],[32.798494332648005,1.8261842386156606],[32.82148986605315,1.836152259533769],[32.82158497655947,1.836170673864987],[32.828918095436315,1.8345112087454651],[32.8359,1.8329],[32.836195209102954,1.8327297156559794],[32.851988285550874,1.822137520302642],[32.871462063510364,1.811725264226848],[32.86258314817081,1.778841566153062],[32.854948411512176,1.761606233749414],[32.85494389141684,1.758432443746996],[32.848875913027136,1.755673381938624],[32.8482624808997,1.754151664835145],[32.844471762528634,1.750762854593444],[32.84255427481284,1.753853920832123],[32.84101109675516,1.754368075921648],[32.841801553878376,1.75286032191814],[32.8412783444359,1.752146850710411],[32.83411690952467,1.748618946781383],[32.834152299728764,1.745380630100366],[32.832137448178365,1.744641149953559],[32.82542663583873,1.747389568944801],[32.82217682271194,1.746582245124213],[32.82173358974748,1.745698253997737],[32.8203302649402,1.745952191811361],[32.819113808122665,1.747372615837802],[32.81696291317776,1.746826623213235],[32.80747438494078,1.732884221959655],[32.80150936290928,1.729235794770883],[32.794119885470906,1.728043496524062],[32.76621347496595,1.740035899093501],[32.75865476066389,1.757591198546056],[32.75571522543049,1.768620762195383],[32.75256853731985,1.77644845227153],[32.76794023085624,1.79189779204925],[32.79833754969146,1.826091178702136]]]}},{"type":"Feature","properties":{"n":"Agikdak","c":"315202","d":"Amolatar","od":"Amolatar","dc":"315","k":"AGIKDAK","a":["AGIKDAK"],"lat":1.685802,"lon":32.94712},"geometry":{"type":"Polygon","coordinates":[[[32.887279758782554,1.680319673471588],[32.889187728396536,1.682051862888454],[32.89297138717664,1.681108458873345],[32.89575955795088,1.682561308470291],[32.896488891043944,1.684310274505879],[32.89922680551874,1.684789825570458],[32.90238889944725,1.688808602143263],[32.902517979576864,1.691322693889619],[32.90692579140648,1.687449096908865],[32.90892120587312,1.69043250225528],[32.913203458051825,1.692336307259687],[32.915658932319346,1.694568571443457],[32.918496478762584,1.695210128491003],[32.92637735270012,1.694997149191835],[32.924850120946445,1.701312534116596],[32.932564809258146,1.701471433157203],[32.94241473514167,1.696234130929999],[32.94725806805689,1.697074460738049],[32.94927065873619,1.696269718635141],[32.9522349559558,1.697189456005228],[32.95175671118538,1.694775725563116],[32.95232221334136,1.688510990325931],[32.98355169955284,1.725013316023441],[32.988180039764735,1.7306700872733713],[32.9886,1.727],[32.99967239499558,1.7125960879261033],[32.999653170524056,1.712278218992883],[32.99985148739492,1.7121000946101022],[32.994998003718194,1.6921003946318687],[32.9949089149577,1.692148461803603],[32.99482651343145,1.6913937363812925],[32.9941,1.6884],[32.99432652762322,1.686814306637436],[32.99383970658023,1.682355454550894],[32.996434452096814,1.671720800537441],[32.96344766985032,1.652797400169049],[32.961728171819175,1.6542190826644363],[32.95766791543507,1.657576531666448],[32.95791410838928,1.660974334928543],[32.95791263219431,1.660974894224142],[32.95791264876741,1.660975121434279],[32.950731953877316,1.663695782470832],[32.950731643542824,1.663695602132743],[32.95073047436424,1.663696045107043],[32.948612007255576,1.662466819024839],[32.94768004954553,1.664104478229733],[32.945787635760844,1.664655865806837],[32.94324299886437,1.6604436383372594],[32.94295567521339,1.6599684682944966],[32.94098763250266,1.659222945928641],[32.9409870732111,1.6592213391853734],[32.94098671371897,1.659221202927989],[32.93972737595769,1.6556027682383636],[32.93885706312813,1.655316289857235],[32.93791642117499,1.656193997946448],[32.93582129626496,1.6530228067671993],[32.93569756977662,1.652926778985015],[32.93271845724864,1.650614860827621],[32.927810339758814,1.6429419904784015],[32.92675797245212,1.6429386286863454],[32.923299352584394,1.642928331017727],[32.922627849861,1.641473741413976],[32.92209143213402,1.6403143779006348],[32.91720764729964,1.6392713306642304],[32.91646126805551,1.6392124309609795],[32.91212451415486,1.641243143703105],[32.912124321988266,1.6412430953813342],[32.91212426427924,1.641243125728046],[32.911974862975086,1.6412055127611307],[32.908896822285584,1.640431515718431],[32.90120010713149,1.6426787583990852],[32.90080334382802,1.642794651691876],[32.900803236598016,1.6427946343778181],[32.90080291754233,1.642794727533865],[32.89683620535553,1.642155710916415],[32.894615580251305,1.644442123873672],[32.8915208112767,1.646050881126664],[32.89133774073937,1.652031242752209],[32.88832531146567,1.65598917773117],[32.88989991961921,1.657724319401044],[32.8885999050452,1.659705772495755],[32.87711526891748,1.6607939839700034],[32.877048414121816,1.6608003305396701],[32.87707598203776,1.660874501285095],[32.87829369649027,1.669544314154806],[32.87354474128951,1.673102824626842],[32.873647033050304,1.6732280698801492],[32.88253942952172,1.683640137848772],[32.887279758782554,1.680319673471588]]]}},{"type":"Feature","properties":{"n":"Akwon","c":"315203","d":"Amolatar","od":"Amolatar","dc":"315","k":"AKWON","a":["AKWON"],"lat":1.742741,"lon":32.874332},"geometry":{"type":"MultiPolygon","coordinates":[[[[32.85469323212077,1.734096636046368],[32.85792727329938,1.739914163654665],[32.858133718373665,1.741568139053859],[32.858339112561524,1.747064113035043],[32.85534142222347,1.754029649716369],[32.85494840791375,1.761603707114307],[32.854948411512176,1.761606233749414],[32.86073068127784,1.77465964291266],[32.86258311344153,1.778841463902259],[32.862583129934336,1.7788415249844272],[32.86258314817081,1.778841566153062],[32.86595425589203,1.7913267047357968],[32.871462073932996,1.811725259741568],[32.873874087277244,1.8109955516713112],[32.8756,1.81],[32.878055770145544,1.8097304642523182],[32.887654791145934,1.8068264657702],[32.890152839859326,1.806419635015557],[32.893566493478765,1.805953076530641],[32.8993277890616,1.805746769996527],[32.8952099652598,1.785837816266321],[32.89274599772465,1.779495418262663],[32.89291888892219,1.778155233888979],[32.895089009709785,1.775698663054491],[32.892164500014154,1.769828113800249],[32.8935550993304,1.769350458607514],[32.89273369778896,1.767890149162449],[32.894070135662126,1.766173282441914],[32.89365540451281,1.763791934408183],[32.89247096497719,1.760818468369874],[32.890076947369785,1.761174628644908],[32.89009705236448,1.755337020701061],[32.89179709668325,1.747818033088368],[32.89077485527814,1.745667011600393],[32.89098356469642,1.744172347255655],[32.88966620237382,1.743560099586996],[32.891817405452876,1.741412287516096],[32.89062604747614,1.741921238430164],[32.88699364455009,1.740576419123948],[32.88352035934472,1.736786550649879],[32.884469808601295,1.736454811553719],[32.88467460990709,1.734693089543164],[32.890755154806904,1.730610610807929],[32.88983443982203,1.72739801455811],[32.88813818693663,1.725538003373314],[32.88771595427901,1.719375246046206],[32.88480156026743,1.715504037759288],[32.88702743111973,1.711539262618598],[32.88644589227215,1.70147057725979],[32.88498748523184,1.700246902373967],[32.875279458050855,1.697812289014514],[32.86990130370422,1.694450878644017],[32.876913310932544,1.689639507801392],[32.87574612337183,1.68793335388267],[32.874221525648,1.688090584256505],[32.877457452667386,1.683538780036365],[32.877617684805394,1.679626179087368],[32.87887578366238,1.679422476941993],[32.87485251063564,1.674704048438959],[32.87309053252099,1.6750676743426232],[32.87026596000053,1.675650609090128],[32.86024698830424,1.674412124206175],[32.85865042636284,1.677075820800513],[32.858361036002584,1.679590012325283],[32.85951609063581,1.685306896721808],[32.85936197332882,1.6852804807239965],[32.86099011587487,1.694534941872531],[32.857991839378315,1.701196793640675],[32.85793435957307,1.709013578769998],[32.856410733264,1.711608762937216],[32.85736391265352,1.714200244877979],[32.85580800933513,1.715896264597647],[32.855780108205245,1.718049336095886],[32.85411823161457,1.718563658990547],[32.85382233115652,1.72136974501856],[32.85167146890656,1.723048653699842],[32.85095366042055,1.727763130150214],[32.851449105692815,1.731057105914663],[32.85469323212077,1.734096636046368]]],[[[32.890616821073166,1.806359813328835],[32.8906168209096,1.806359812255607],[32.89061682104842,1.8063598133323],[32.890616821073166,1.806359813328835]]]]}},{"type":"Feature","properties":{"n":"Aputi","c":"315204","d":"Amolatar","od":"Amolatar","dc":"315","k":"APUTI","a":["APUTI"],"lat":1.745097,"lon":32.906803},"geometry":{"type":"Polygon","coordinates":[[[32.88498770861961,1.700247013960066],[32.885308815798936,1.7005165144466832],[32.88644589227215,1.70147057725979],[32.88702743111973,1.711539262618598],[32.88480156026743,1.715504037759288],[32.88771595427901,1.719375246046206],[32.88771598491717,1.7193756932298885],[32.887716147951146,1.71937590980562],[32.887956655900865,1.722888441098656],[32.88813818693663,1.725538003373314],[32.88983443982203,1.72739801455811],[32.88983475752651,1.727399123105507],[32.889834900566974,1.727399279986096],[32.890754549592,1.73060814914256],[32.89075446549081,1.7306082056181178],[32.890755154806904,1.730610610807929],[32.88467460990709,1.734693089543164],[32.884469808601295,1.736454811553719],[32.88352035934472,1.736786550649879],[32.886993629204724,1.7405764023798829],[32.88700521359295,1.7405807023140323],[32.89062604747614,1.741921238430164],[32.891817405452876,1.741412287516096],[32.891808076161524,1.7414216021013933],[32.891815140764535,1.741418577824627],[32.89026695453551,1.742960294409571],[32.88966620237382,1.743560099586996],[32.89098356469642,1.744172347255655],[32.89098340476138,1.7441734926241887],[32.89098360419824,1.744173585344114],[32.890774911898696,1.7456671307425415],[32.89176272868247,1.7477457152309663],[32.891796802696945,1.747817279740868],[32.89179678205827,1.7478173710479852],[32.89179709668325,1.747818033088368],[32.89016664800775,1.7550292117964172],[32.89009705205786,1.7553371097310497],[32.890076947369785,1.761174628644908],[32.89247096497719,1.760818468369874],[32.89247140512805,1.7608195733427974],[32.892471572496206,1.76081954837805],[32.89365524172154,1.763791283243086],[32.8936553161345,1.7637917125396123],[32.89365540451281,1.763791934408183],[32.894070135662126,1.766173282441914],[32.89406849549533,1.7661753894966745],[32.89406879780175,1.766177133535486],[32.89273385137695,1.7678904222152578],[32.893232256024085,1.7687764992152997],[32.89355532961296,1.769347973730214],[32.89355396497197,1.76934844191502],[32.8935550993304,1.769350458607514],[32.89216510277083,1.769827906760124],[32.89505094654966,1.7756222565181723],[32.895089009709785,1.775698663054491],[32.89291888892219,1.778155233888979],[32.89274599772465,1.779495418262663],[32.8952099652598,1.785837816266321],[32.89815276426151,1.800065731782447],[32.8993278006002,1.805746770311452],[32.90844691081381,1.806348856273571],[32.90924408222183,1.8065846429860255],[32.92773738222221,1.8106300523611092],[32.92762482149724,1.799415178300658],[32.93035057604795,1.794100367061253],[32.931583706907034,1.783221889043999],[32.93386490545879,1.774197472313436],[32.92994521527751,1.773244661002751],[32.92905245916548,1.773673188760064],[32.92799861816363,1.771196331716814],[32.924493268588805,1.770451971482366],[32.92221350700819,1.758260793090437],[32.924892803585955,1.758410510401589],[32.924832607987895,1.75663517113394],[32.92393401590104,1.755558333618149],[32.924413548502066,1.748869414701265],[32.922499747365286,1.74452608369528],[32.92210946934601,1.738562415472011],[32.923141599507325,1.736297420595505],[32.92588239811537,1.735023964486074],[32.92625372633946,1.733839253749855],[32.926289090464515,1.73182347344257],[32.92391496049001,1.727939707044715],[32.92468265310637,1.727457523984168],[32.92953235328838,1.729481169339288],[32.93076088066898,1.728409962046402],[32.93194415909758,1.730106199993966],[32.932821062978235,1.72929166801721],[32.93335076233377,1.729803923794329],[32.933544442345344,1.731234865092905],[32.9363943214867,1.731365936191466],[32.94101889727553,1.727356209675908],[32.939850082408576,1.725773231807932],[32.94110290789989,1.72016090331496],[32.93925533733461,1.715869649958257],[32.940556106242234,1.714908355954896],[32.939688290943806,1.712423869892298],[32.94238036057883,1.711343960534743],[32.93630482874707,1.707333683247927],[32.93268939764124,1.703622740627646],[32.932564816389736,1.701471443586377],[32.9324815379596,1.7014697180225256],[32.924850120946445,1.701312534116596],[32.92637735270012,1.694997149191835],[32.918496478762584,1.695210128491003],[32.915658932319346,1.694568571443457],[32.913203458051825,1.692336307259687],[32.90892120587312,1.69043250225528],[32.90892106358371,1.6904322895140218],[32.908921023616045,1.690432271744774],[32.90889936301684,1.6903998443311852],[32.90692593696981,1.687449314545071],[32.90252063168406,1.691321339365241],[32.90252058290852,1.6913204060747011],[32.902517979576864,1.691322693889619],[32.90238889944725,1.688808602143263],[32.89922680551874,1.684789825570458],[32.896488891043944,1.684310274505879],[32.896488551717106,1.6843094607883515],[32.89648768776318,1.684309309232819],[32.896270421488964,1.683786376940963],[32.89575955795088,1.682561308470291],[32.89297138717664,1.681108458873345],[32.889187728396536,1.682051862888454],[32.887279758782554,1.680319673471588],[32.88253942952172,1.683640137848772],[32.88244914060433,1.683534418951988],[32.87887579169942,1.679422486885991],[32.87886945717064,1.6794235012811647],[32.87761777056235,1.6796261652022295],[32.877609828548756,1.6798180157411138],[32.877457452667386,1.683538780036365],[32.87537241018804,1.6864716969716897],[32.87422201827356,1.6880905334524798],[32.87574612337183,1.68793335388267],[32.876913310932544,1.689639507801392],[32.87691178911458,1.689640552014601],[32.876911886481714,1.68964069447403],[32.876463825737936,1.6899479273293683],[32.869901482632294,1.6944507558704225],[32.87527971676847,1.6978123538966314],[32.88498748523184,1.700246902373967],[32.88498757968718,1.7002469816266188],[32.88498770861961,1.700247013960066]]]}},{"type":"Feature","properties":{"n":"Arwotcek","c":"315205","d":"Amolatar","od":"Amolatar","dc":"315","k":"ARWOTCEK","a":["ARWOTCEK"],"lat":1.715198,"lon":32.828364},"geometry":{"type":"Polygon","coordinates":[[[32.82173074664996,1.74569847887172],[32.821730880252524,1.745698744292801],[32.82173358974748,1.745698253997737],[32.82217675040445,1.7465821009129703],[32.82296788573502,1.7467787622768],[32.82542663583873,1.747389568944801],[32.832137448178365,1.744641149953559],[32.8321389535646,1.7446417024524437],[32.83213901234483,1.744641678388714],[32.83214673417412,1.7446445580505487],[32.834152299728764,1.745380630100366],[32.83411690952467,1.748618946781383],[32.8412783444359,1.752146850710411],[32.841801553878376,1.75286032191814],[32.84101109675516,1.754368075921648],[32.84255427481284,1.753853920832123],[32.843414995378296,1.7524664051474588],[32.84447124043425,1.750763526708044],[32.84447130808837,1.7507635871691662],[32.844471762528634,1.750762854593444],[32.8482624808997,1.754151664835145],[32.848875913027136,1.755673381938624],[32.85345406149936,1.757755029860147],[32.85494389189597,1.758432431575469],[32.85523182173869,1.7561418383620162],[32.85534142222347,1.754029649716369],[32.8555616510961,1.7535179183106362],[32.85565078265404,1.752808842308725],[32.85833310250631,1.7470780782066655],[32.85833909105199,1.7470641630153407],[32.8581708081137,1.7425605928730987],[32.858133718374326,1.7415681390715017],[32.8581337169208,1.7415681274139345],[32.85792728669375,1.7399142709662911],[32.855462243750544,1.7354799661093507],[32.85469323212077,1.734096636046368],[32.851449105692815,1.731057105914663],[32.85095366042055,1.727763130150214],[32.85115756024249,1.7264239415957188],[32.851072048271725,1.725065894642928],[32.851671193361916,1.7230504634426125],[32.85167146890656,1.723048653699842],[32.85167181066458,1.7230483869321778],[32.851671833643444,1.723048309634824],[32.85193283072511,1.7228446412736034],[32.85382233115652,1.72136974501856],[32.85411823161457,1.718563658990547],[32.854787875085144,1.7183564155826383],[32.85578011262268,1.718048995211479],[32.85580800933513,1.715896264597647],[32.85708871369847,1.7145002267914313],[32.85736388546063,1.7142001709465915],[32.85723419360445,1.7138475677463305],[32.85641078205867,1.711611989212541],[32.85641148137295,1.7116107968784349],[32.856410733264,1.711608762937216],[32.85793435957307,1.709013578769998],[32.8579513162954,1.7067076027085764],[32.85799158958616,1.70119837354531],[32.85799183171617,1.7011978356295347],[32.857991839378315,1.701196793640675],[32.86099011587487,1.694534941872531],[32.859361975477924,1.6852804929396423],[32.852130999428844,1.684041124904059],[32.851129078326814,1.686308970730944],[32.85014280498442,1.686157918963649],[32.850076133835564,1.6860601596965032],[32.849515661456635,1.685928459263303],[32.84837836315704,1.6835709736466122],[32.84077891865906,1.678884503092676],[32.84022255634413,1.678649402423867],[32.83907139460806,1.680045133382976],[32.83907001056222,1.6800436552573554],[32.83906956653052,1.680044192564085],[32.838123409937516,1.679032709961885],[32.83721166037299,1.678058984708754],[32.835080336334,1.6777882206866794],[32.83477434833254,1.67774946693647],[32.83477418030314,1.67774932653601],[32.83477397826123,1.677749300868547],[32.8333390689276,1.676550666789184],[32.833339037522414,1.6765501630784425],[32.83333897095376,1.676550107455618],[32.83333614618041,1.676503788571988],[32.83326995895316,1.675442205407618],[32.827502694623085,1.6717785905720814],[32.82708025068138,1.671510249662551],[32.82061187191697,1.680030321623767],[32.81544668332862,1.688993285030188],[32.80484777965738,1.687649298919817],[32.80417472659291,1.688384448444675],[32.800107163056936,1.700360858147911],[32.80121870303763,1.708402463407262],[32.80083111935141,1.71404680548258],[32.79411990676372,1.728043487204898],[32.79886651845172,1.728809369649533],[32.80150936290928,1.729235794770883],[32.80747438494078,1.732884221959655],[32.81696291317776,1.746826623213235],[32.819113808122665,1.747372615837802],[32.8203302649402,1.745952191811361],[32.82060269762757,1.7459028939149437],[32.82173074664996,1.74569847887172]]]}},{"type":"Feature","properties":{"n":"Awello","c":"315206","d":"Amolatar","od":"Amolatar","dc":"315","k":"AWELLO","a":["AWELLO"],"lat":1.710601,"lon":32.763081},"geometry":{"type":"Polygon","coordinates":[[[32.7506,1.7745],[32.75199643670837,1.7760106107788658],[32.75256852855758,1.77644844350913],[32.7537670025645,1.7734671544204916],[32.75571522543049,1.768620762195383],[32.75865476066389,1.757591198546056],[32.76621347496595,1.740035899093501],[32.783250230230145,1.7327145838864102],[32.79412022177805,1.7280428302214799],[32.80083108752884,1.7140468718506654],[32.80121868382978,1.7084023244451547],[32.80066821037054,1.7044198403763657],[32.80010716327079,1.700361090548045],[32.800107185950075,1.7003610237718112],[32.800107163056936,1.700360858147911],[32.80417472659291,1.688384448444675],[32.80484777965738,1.687649298919817],[32.81544668332862,1.688993285030188],[32.82061187191697,1.680030321623767],[32.820641186573724,1.6799917087048015],[32.82832030878907,1.669084158623027],[32.82940475083932,1.6684806081735462],[32.82942074455414,1.668459762739746],[32.81838577315559,1.660462337757624],[32.81326002009123,1.660811159176182],[32.81288566126911,1.660504308709888],[32.81265050976677,1.66050613670777],[32.81241816851721,1.6601211192124548],[32.8115440402174,1.659404623004675],[32.81162460315731,1.6588060856236329],[32.811102801070064,1.6579413965808314],[32.810713521947875,1.657873595750666],[32.809414022539805,1.655143291479758],[32.809118276449595,1.6510048435940397],[32.80882600737392,1.6502219210209137],[32.80552512046455,1.645129468906493],[32.80544156283893,1.6446330870076826],[32.80526161713768,1.6446926132140127],[32.80282310496402,1.6454994029062175],[32.801806496630164,1.6463992830664744],[32.798089699358506,1.649689541388009],[32.79808928744328,1.6496896778895216],[32.79808906924153,1.649689871037093],[32.7949551893147,1.650728286257831],[32.79495514042635,1.6507282794855744],[32.794955070920956,1.65072830251845],[32.792137187229265,1.6503379225930146],[32.78623931116809,1.64952091946666],[32.78623920808281,1.6495208368253513],[32.78623857443396,1.649520749041816],[32.78413543717783,1.6478344786487498],[32.78411537824237,1.647832878946364],[32.780780155083505,1.647569948341127],[32.78077448190027,1.647566442082957],[32.78077399718834,1.647566403427125],[32.77628795855552,1.6447935880257714],[32.77546684179986,1.644286104446085],[32.77254456557411,1.6461882504068641],[32.772280019747264,1.646360478960875],[32.77227994368243,1.6463604960891716],[32.77227964957061,1.646360687530212],[32.769833943804194,1.646911287974902],[32.7698214666426,1.6469082308655387],[32.76647881231143,1.646219859466439],[32.76599438476312,1.650213766229506],[32.76652170130013,1.650384319424439],[32.76492945412474,1.655183625117813],[32.765604939174004,1.663805328810508],[32.7675857024567,1.664473655969033],[32.76688593086987,1.669729412129169],[32.7616706429216,1.672294029628002],[32.749182240311775,1.675720885971941],[32.73803833524512,1.688527239924698],[32.72380537827845,1.712799993336197],[32.7089790661987,1.7428919185609197],[32.71028347352004,1.744086889814706],[32.734172402166095,1.7623695394741468],[32.7506,1.7745]]]}},{"type":"Feature","properties":{"n":"Etam","c":"315207","d":"Amolatar","od":"Amolatar","dc":"315","k":"ETAM","a":["ETAM"],"lat":1.679673,"lon":32.724807},"geometry":{"type":"Polygon","coordinates":[[[32.708979057212694,1.7428919103288107],[32.7238053165932,1.71280011754413],[32.72380531964737,1.712800112335585],[32.72380537827845,1.712799993336197],[32.73803833524512,1.688527239924698],[32.749182240311775,1.675720885971941],[32.7616706429216,1.672294029628002],[32.76688593086987,1.669729412129169],[32.7675857024567,1.664473655969033],[32.765604939174004,1.663805328810508],[32.76492945412474,1.655183625117813],[32.76616498920575,1.6514595107715588],[32.766521686831375,1.6503843147447228],[32.76599438476312,1.650213766229506],[32.76599479547962,1.650210380040113],[32.7659946277382,1.650210326185125],[32.76646396971168,1.646231076100329],[32.76647748560283,1.6462307976356159],[32.76647881231143,1.646219859466439],[32.76652697562005,1.64622977800448],[32.767011686220975,1.646219791626452],[32.766573628187196,1.6456080768118857],[32.76568819379043,1.6443716698894597],[32.76566727174416,1.6443615538175762],[32.76285832327533,1.64300526050585],[32.76354455446141,1.640687929274429],[32.760910596492025,1.640053814116179],[32.7601710905964,1.637361100026117],[32.760163197618525,1.637358766434352],[32.75545097802467,1.6367074139692641],[32.75545042888816,1.636707380017693],[32.75501763383096,1.639632775007972],[32.748988442359085,1.639631361037768],[32.747825729710335,1.642430318177591],[32.745337596390605,1.64210898657],[32.745337185826834,1.6421087135134615],[32.745336905872556,1.642108677468076],[32.74164139267594,1.6396507263482876],[32.74091341179413,1.639166562979041],[32.735699774372456,1.629704608993225],[32.73096441768419,1.634511578862172],[32.7307782415655,1.6344092061852018],[32.73075452489221,1.634431878208485],[32.72002085874346,1.62849404324991],[32.7196843234611,1.62830899256783],[32.71956134504296,1.6205324280063258],[32.719549319862494,1.6197792787416685],[32.71522775218473,1.6172424658991555],[32.71441146025358,1.616763494983338],[32.70858583673783,1.6186633469524487],[32.70854924989173,1.618677069649795],[32.710267438747714,1.621539722741692],[32.71026658097057,1.6215444023153038],[32.70993387027917,1.625653446611583],[32.70865153532247,1.632263183712255],[32.70781712881614,1.633914940747933],[32.706163481297224,1.633744719211737],[32.706070094657306,1.634803102493875],[32.70779211706502,1.63549053905004],[32.706900677783665,1.642441424811999],[32.70949874901273,1.652612675813159],[32.71171587637445,1.653073591025466],[32.70823499188169,1.658936804229825],[32.703903560344294,1.661210633656564],[32.709677488811764,1.664175950665789],[32.70969457997557,1.66942513066554],[32.705615547277034,1.669809666499571],[32.70517528891377,1.669163415067244],[32.702270229864254,1.672272740530508],[32.70141143250928,1.675372811846834],[32.70613122782772,1.683625839345356],[32.706972759674045,1.686633404095129],[32.682876090595876,1.718889067491375],[32.690747232928835,1.726189684293398],[32.708979057212694,1.7428919103288107]]]}},{"type":"Feature","properties":{"n":"Etam Town Council","c":"315208","d":"Amolatar","od":"Amolatar","dc":"315","k":"ETAMTOWNCOUNCIL","a":["ETAM","ETAMTOWNCOUNCIL"],"lat":1.660074,"lon":32.655733},"geometry":{"type":"Polygon","coordinates":[[[32.62951529236382,1.673732487143617],[32.63200766200548,1.675394109019965],[32.64,1.6797],[32.64175436751833,1.6813071810688924],[32.64180274794882,1.681184711763563],[32.68287608222692,1.718889059219404],[32.683673689205,1.7178214065554218],[32.706972759674045,1.686633404095129],[32.70618996830597,1.683835772923696],[32.706131102522804,1.6836256202373527],[32.70141143250928,1.675372811846834],[32.702270229864254,1.672272740530508],[32.70227041325539,1.6722725442444026],[32.70227041886678,1.672272523989236],[32.70516853398496,1.669168643249358],[32.7051693335184,1.669169789210476],[32.70517528891377,1.669163415067244],[32.705606161704765,1.6697958894994545],[32.705615759889916,1.669809646456272],[32.70969457997557,1.66942513066554],[32.709677488811764,1.664175950665789],[32.703903560344294,1.661210633656564],[32.70823499188169,1.658936804229825],[32.71171587637445,1.653073591025466],[32.70949874901273,1.652612675813159],[32.706900677783665,1.642441424811999],[32.70779211706502,1.63549053905004],[32.706070094657306,1.634803102493875],[32.706163481297224,1.633744719211737],[32.70781712881614,1.633914940747933],[32.70865153532247,1.632263183712255],[32.70865215708118,1.6322599788852896],[32.70933919318431,1.626603733783136],[32.70603909864222,1.6253541255219934],[32.703049005826294,1.624221912969855],[32.701681077334264,1.622393436082622],[32.70072287724445,1.622956385383916],[32.69598452963438,1.621036491774141],[32.69595352977509,1.616738562567854],[32.69484232716896,1.615044414026655],[32.69014150984169,1.6164479211151892],[32.69005754030249,1.616473040326759],[32.69005747916901,1.616473009868173],[32.6900516333349,1.61647475523904],[32.68697191150115,1.6149356847399507],[32.68684945766687,1.614874674456996],[32.686849431294576,1.6148744760714946],[32.68684858822514,1.614874054753151],[32.68560302911913,1.60551483374668],[32.678340575261586,1.607381737015102],[32.674960235572264,1.609783631218651],[32.675192057282125,1.606566939941601],[32.67425545909288,1.6028935506009903],[32.67417439344638,1.602575686103762],[32.67198638199978,1.600755166732375],[32.67144723978645,1.6010124784427668],[32.66825399800725,1.602536950309813],[32.65757547055069,1.603018144716028],[32.65746693096069,1.607581970878308],[32.64843784958722,1.604660506524488],[32.650744596326454,1.614972234530469],[32.650738766755566,1.6149694693616032],[32.65073939611126,1.614972284481969],[32.65055894371456,1.6148841730192056],[32.63700568534342,1.6084553896989693],[32.62820170761575,1.6053526702157803],[32.628199493408424,1.605351969393428],[32.6215740274777,1.6054352982494888],[32.620400335391075,1.6058824050752283],[32.613800771916566,1.6097688752706152],[32.609918333325034,1.6122711524681514],[32.6044928914385,1.61672762452072],[32.601157957295044,1.624139539478855],[32.60115792262818,1.6241396020277088],[32.601157922628104,1.624139602027883],[32.586265409522056,1.6510099447426458],[32.5871,1.6512],[32.59020484553186,1.6528727428668788],[32.59663292991438,1.655111137622995],[32.62951529236382,1.673732487143617]]]}},{"type":"Feature","properties":{"n":"Opali","c":"315209","d":"Amolatar","od":"Amolatar","dc":"315","k":"OPALI","a":["OPALI"],"lat":1.749974,"lon":32.95478},"geometry":{"type":"Polygon","coordinates":[[[32.92441358724414,1.74887030244035],[32.92440777199337,1.7489499902413],[32.92393401590104,1.755558333618149],[32.924832607987895,1.75663517113394],[32.92483261939905,1.7566355076813733],[32.92483276510939,1.756635681764474],[32.92484318431202,1.7569470969910752],[32.924892803585955,1.758410510401589],[32.924892145365675,1.7584104736206774],[32.92489221672159,1.758412606348079],[32.9239103514231,1.7583556116280161],[32.92221350700819,1.758260793090437],[32.924493268588805,1.770451971482366],[32.92799861816363,1.771196331716814],[32.92905245916548,1.773673188760064],[32.92994521527751,1.773244661002751],[32.9299466447155,1.7732450084752847],[32.92994688804551,1.773244891733638],[32.93011456308954,1.7732858266314813],[32.93386490545879,1.774197472313436],[32.93386396879522,1.7742011777525644],[32.933864429657326,1.7742012902639],[32.93158370243699,1.7832219284780237],[32.93035057604795,1.794100367061253],[32.92762482149724,1.799415178300658],[32.92773738222221,1.8106300523611092],[32.92773737507378,1.8106300507973903],[32.93924770987858,1.8131479365359398],[32.94131231037495,1.8130082431919334],[32.9574,1.8061],[32.9720426686161,1.7882698116851599],[32.972075899751374,1.788221904305097],[32.9721269129622,1.788122104031925],[32.984953212991634,1.7509980947918153],[32.98652985708234,1.7450912489760861],[32.98817860725666,1.7306826061483376],[32.95240189417263,1.6886041246040646],[32.95232221334136,1.688510990325931],[32.952314353045864,1.6885980681021553],[32.95223237336376,1.6971764215061478],[32.9522349559558,1.697189456005228],[32.94927065873619,1.696269718635141],[32.94725806805689,1.697074460738049],[32.942415174366936,1.6962342071366305],[32.94227565184707,1.6963080828822457],[32.932564809258146,1.701471433157203],[32.932555537025124,1.7014712421774936],[32.93255553758884,1.7014712513257473],[32.932564816389736,1.701471443586377],[32.93268939764124,1.703622740627646],[32.93630482874707,1.707333683247927],[32.94238036057883,1.711343960534743],[32.939688290943806,1.712423869892298],[32.940556106242234,1.714908355954896],[32.939255822087055,1.7158692917165919],[32.94102285441549,1.7199749673674585],[32.94110290789989,1.72016090331496],[32.939850082408576,1.725773231807932],[32.94101889727553,1.727356209675908],[32.9363943214867,1.731365936191466],[32.93495413795348,1.7312996995447643],[32.933547811051945,1.731235244880305],[32.9335477799904,1.7312350185972407],[32.933544442345344,1.731234865092905],[32.93335076233377,1.729803923794329],[32.93282108889612,1.7292916930815914],[32.93281421840305,1.7292980257554738],[32.93194415909758,1.730106199993966],[32.93194151697723,1.7301024124958613],[32.93194100160043,1.730102887529192],[32.93173842217407,1.7298112746674814],[32.93076088066898,1.728409962046402],[32.92953235328838,1.729481169339288],[32.92468265310637,1.727457523984168],[32.92391496049001,1.727939707044715],[32.926289090464515,1.73182347344257],[32.92625372633946,1.733839253749855],[32.92588239811537,1.735023964486074],[32.923141599507325,1.736297420595505],[32.92210946934601,1.738562415472011],[32.922499747365286,1.74452608369528],[32.924413548502066,1.748869414701265],[32.92441349918879,1.7488701025638433],[32.92441358724414,1.74887030244035]]]}}]}
