{"type":"FeatureCollection","name":"Amudat sub-counties","metadata":{"source":"Uganda Bureau of Statistics NPHC 2024 Map Explorer","retrieved":"2026-07-26","display_only":true,"clipped_to_dashboard_district":true,"positive_area_overlaps_removed":true,"source_gap_ratio":0.02623215},"features":[{"type":"Feature","properties":{"n":"Abiliyep","c":"324101","d":"Amudat","od":"Amudat","dc":"324","k":"ABILIYEP","a":["ABILIYEP"],"lat":2.102425,"lon":34.901693},"geometry":{"type":"Polygon","coordinates":[[[34.825235754777644,2.096089884201145],[34.82625414875865,2.095386118466959],[34.825625987628854,2.099544863441883],[34.82696799759861,2.100763143367784],[34.8274915407392,2.099271607620096],[34.828933076367164,2.100288718848332],[34.8312592087041,2.100336552328528],[34.832255014443504,2.101658930033425],[34.83617653627808,2.103192055684652],[34.83653307790799,2.104276696988302],[34.8373802772896,2.103767768136987],[34.837693066962686,2.1069571620168],[34.83891372729117,2.10807074626738],[34.840206098443765,2.107963964774949],[34.84126939624088,2.110040942806132],[34.84204324664791,2.109671363015935],[34.841262256951794,2.111175943754209],[34.84343363260699,2.110871979929974],[34.84516301448195,2.112285228731804],[34.847922621542345,2.111041780104695],[34.849191069042625,2.111715935761396],[34.85004455088124,2.11007773147429],[34.85063519767192,2.111751217200214],[34.85142529864392,2.110491818459161],[34.85199616155471,2.111360961703724],[34.853301971019526,2.110804215382655],[34.85427750552845,2.111672816887865],[34.85615242605584,2.11133781109238],[34.85799508831818,2.113259810996839],[34.85792379380644,2.114944196366343],[34.85906649796928,2.116756513056963],[34.85976451129685,2.116643370571956],[34.86147287464192,2.120841923842046],[34.86310741014337,2.122639813574992],[34.86390680243769,2.123153700996421],[34.86756107233681,2.122640486013329],[34.86813272797325,2.12343923706174],[34.87036012766256,2.123724913854816],[34.87732646315634,2.126922584502306],[34.87852621303528,2.128807302627654],[34.88766473806264,2.131606736220448],[34.89073724758489,2.134766580091044],[34.890381912312186,2.136599283959879],[34.89361253032637,2.138797622256385],[34.89351487090728,2.141212831686603],[34.89454480901234,2.141054859200898],[34.89633295131058,2.144034075685614],[34.895939078771534,2.145392332829336],[34.896785844492896,2.145457716419652],[34.896870000351456,2.146954985066353],[34.89831381132772,2.149030339892677],[34.90076060298459,2.149070773242437],[34.901204851653716,2.149851252630796],[34.90256041202955,2.148780698495266],[34.90541653598862,2.149387847589816],[34.90589159532689,2.149886581611954],[34.90452756072603,2.150000964833092],[34.904614661709424,2.15064582652239],[34.90609464939107,2.153134911675568],[34.90958788655854,2.155454203759527],[34.91343864368208,2.155370915493089],[34.91634520399397,2.157165106842297],[34.91559887313327,2.160235086104429],[34.917769150736,2.163834366103905],[34.91700508897132,2.164617265304883],[34.91853932162169,2.167655376144132],[34.921083033775794,2.168865737530895],[34.92297927266125,2.171107280107189],[34.926431178377186,2.172707715246259],[34.92770456713207,2.174558787753093],[34.92895078741984,2.175457452328688],[34.935255290483816,2.176493130108558],[34.94603955114091,2.181919664626393],[34.95099420103266,2.18544762430511],[34.9808,2.0493],[34.98205544731832,2.0306356832010257],[34.981024015176274,2.029360050759676],[34.97973954320357,2.029434690681227],[34.97846447355396,2.027132169695181],[34.97854492387205,2.025125269085255],[34.97535763409835,2.020734145099413],[34.972937133865884,2.019524834000422],[34.966397220139115,2.018579801302524],[34.952743314600134,2.021617509755472],[34.94198368236109,2.02207947942353],[34.94177425049731,2.02401673390114],[34.94548624286711,2.031583923522006],[34.946343812677334,2.038301549632089],[34.93879167212515,2.040740860315924],[34.929120602020745,2.045127707672287],[34.92269098930299,2.045761144061601],[34.91676639945678,2.045332827226281],[34.90916401963159,2.043227024769911],[34.90093538187119,2.042475670441763],[34.896815139286794,2.040199096373374],[34.89166273240699,2.038687604860376],[34.8869722279484,2.038896725374136],[34.88419445296025,2.040288503144245],[34.88049937367329,2.040625499480494],[34.86360333681961,2.049013365113686],[34.85766816065755,2.041831380952134],[34.85631690410149,2.043026569358512],[34.8559,2.0484],[34.85152842874978,2.056065220822295],[34.85198059887967,2.055873165994776],[34.85219526758057,2.056540834446732],[34.85269654995986,2.055853728149607],[34.85304622466912,2.056784058468728],[34.851055006275544,2.057084733192332],[34.850645987554245,2.0576125149733735],[34.847680401025436,2.0628124475170346],[34.847944433056966,2.063389855055377],[34.847135804334116,2.063767356784018],[34.8413,2.074],[34.840707057345206,2.074462654806879],[34.84042277675328,2.075488609420398],[34.83953800053299,2.075374833664838],[34.83804729592007,2.0765379843493608],[34.8388961752188,2.077173288616303],[34.837376551979496,2.0770613450922277],[34.834892047456876,2.078999927096426],[34.833454957537064,2.080812837861334],[34.832658577327244,2.0807426347312066],[34.832397169897995,2.08094660285986],[34.83259221687791,2.082270167506834],[34.83161830095871,2.08220038592837],[34.82975288510076,2.083984073755127],[34.82912506764088,2.083499723006669],[34.828585308131004,2.083920880651144],[34.828406030010854,2.084284787624378],[34.82897475307981,2.084628731173812],[34.82814936604516,2.085240789490312],[34.82706118211393,2.0851101090232147],[34.82633480523369,2.085676878427523],[34.82620036482722,2.086069465504375],[34.82709849526893,2.085734277072863],[34.82809371142151,2.086441095068432],[34.82480828354702,2.087075900252628],[34.824365985085926,2.088510298593691],[34.82281667572548,2.089253106203864],[34.82269449174528,2.091483252780353],[34.824169750303426,2.092977813537645],[34.825235754777644,2.096089884201145]]]}},{"type":"Feature","properties":{"n":"Achorichor","c":"324102","d":"Amudat","od":"Amudat","dc":"324","k":"ACHORICHOR","a":["ACHORICHOR"],"lat":2.121741,"lon":34.830265},"geometry":{"type":"Polygon","coordinates":[[[34.80472948387162,2.123200197093258],[34.807,2.1233],[34.81894686443364,2.1371052655677634],[34.82455293731564,2.130475038476652],[34.83550755945386,2.123800827912555],[34.83883510854558,2.127572627878745],[34.84710332717826,2.129476093653391],[34.85126737679014,2.131379603127508],[34.85733551943252,2.138577829362269],[34.86072585731325,2.144704287350375],[34.860964099611465,2.147619590217793],[34.863837581896604,2.152849975346562],[34.88045386993782,2.141611466100469],[34.89034820241637,2.136481176970161],[34.89045415240936,2.1362266930134033],[34.89062988286628,2.1353203324209806],[34.888781561892664,2.1327553051372545],[34.8880400614748,2.13199272798868],[34.88727177902798,2.131486359822842],[34.88417105995716,2.1305365066350817],[34.88349410101237,2.130520339388303],[34.878528694863775,2.128808062894113],[34.87852621303528,2.128807302627654],[34.87732646315634,2.126922584502306],[34.87036012766256,2.123724913854816],[34.86813272797325,2.12343923706174],[34.86756107233681,2.122640486013329],[34.86416311607887,2.123117703655049],[34.863908032378696,2.123153577345333],[34.863907969622,2.12315353707408],[34.86390680243769,2.123153700996421],[34.8631081851686,2.1226403117981043],[34.86310817965035,2.122640308257016],[34.86310817963655,2.122640308241838],[34.86310741014337,2.122639813574992],[34.86147287464192,2.120841923842046],[34.85976500380448,2.1166445809816348],[34.85957222364368,2.116674538892182],[34.85906649796928,2.116756513056963],[34.859064554275385,2.116753430379044],[34.859063966364054,2.116753521740079],[34.858241587840126,2.1154482143354354],[34.85792379380644,2.114944196366343],[34.85799508831818,2.113259810996839],[34.85615242605584,2.11133781109238],[34.85515614293315,2.1115158243015646],[34.854278900753805,2.111672724115935],[34.85427875410159,2.1116725937961487],[34.85427750552845,2.111672816887865],[34.853517592803286,2.1109962018313317],[34.85330168347195,2.1108043379817487],[34.853136731697575,2.1108746669968226],[34.851999154716104,2.111361459881237],[34.851998240265786,2.1113600754222457],[34.85199616155471,2.111360961703724],[34.851523221610464,2.110640906941264],[34.85142502993849,2.1104922467680587],[34.85063519767192,2.111751217200214],[34.85063494351728,2.1117504971012186],[34.850634763694266,2.111750783688307],[34.850315261274964,2.1108447380624917],[34.85004455088124,2.11007773147429],[34.84969238812915,2.1107536855533806],[34.84919196918927,2.111715212374086],[34.84919155910088,2.111714995125638],[34.849191069042625,2.111715935761396],[34.848493603969274,2.1113452463757914],[34.847921619258095,2.111042231722968],[34.84516301448195,2.112285228731804],[34.84452639090189,2.1117649807028633],[34.843432909637464,2.1108720811361295],[34.841262256951794,2.111175943754209],[34.84126289531342,2.1111747139471966],[34.84126266899353,2.111174745576503],[34.84203420282618,2.109675682214722],[34.84134065299566,2.1100069116080564],[34.84127073113299,2.110041413849478],[34.84127027468176,2.1100405232754396],[34.84126939624088,2.110040942806132],[34.84032269467662,2.1081917164121866],[34.8402059692434,2.107963975450062],[34.83891372729117,2.10807074626738],[34.837693066962686,2.1069571620168],[34.83741669066224,2.104139061046658],[34.8373801901603,2.103767820477216],[34.83653307790799,2.104276696988302],[34.83627715842203,2.1034981600052576],[34.836176238958366,2.1031919394470013],[34.835108056158624,2.102774331559154],[34.83225838264395,2.101660861061939],[34.83225772640573,2.101659990279684],[34.832255014443504,2.101658930033425],[34.8312592087041,2.100336552328528],[34.828933076367164,2.100288718848332],[34.8274915407392,2.099271607620096],[34.82696799759861,2.100763143367784],[34.825625987628854,2.099544863441883],[34.826205791675,2.0957062668637505],[34.82625406215301,2.095386178316173],[34.825235754777644,2.096089884201145],[34.824169750303426,2.092977813537645],[34.824166836830706,2.09297486194521],[34.822760622355474,2.09167214264688],[34.82278279644358,2.0915727128523067],[34.82269449174528,2.091483252780353],[34.822746087655084,2.090541505413619],[34.8210556433771,2.089818092604162],[34.82097108530553,2.091548424127579],[34.81976787660608,2.091915660720884],[34.81899294147422,2.091413707861669],[34.818612290362616,2.092152943353766],[34.81833491800682,2.093848970697431],[34.81746348698415,2.0943839528133887],[34.81557909342579,2.0980434997238313],[34.81585346439239,2.099362646856601],[34.81415324919823,2.100812530542571],[34.813119122137515,2.1028208352691773],[34.81322747269301,2.103236403032907],[34.81281641998478,2.1034086916237666],[34.81228214619633,2.104446266807122],[34.81229602907056,2.104658512270616],[34.812175818046825,2.1046527591554387],[34.8121,2.1048],[34.806842854896026,2.1064629744716656],[34.80674987821744,2.107151992744914],[34.80411791207578,2.10763357149932],[34.80377829215624,2.109162313431001],[34.80297985817534,2.107725326841323],[34.80219649183338,2.1082528687498505],[34.80209088555048,2.1086128901688403],[34.802850977950285,2.109750182949925],[34.80192543344121,2.11020438643611],[34.80213792298517,2.11252654988262],[34.80105868810516,2.1121317450960637],[34.7979,2.1229],[34.803897842778184,2.123163641440799],[34.80399788056761,2.123000097313721],[34.80472948387162,2.123200197093258]]]}},{"type":"Feature","properties":{"n":"Amudat","c":"324103","d":"Amudat","od":"Amudat","dc":"324","k":"AMUDAT","a":["AMUDAT"],"lat":1.914225,"lon":34.887063},"geometry":{"type":"Polygon","coordinates":[[[34.853873496461496,1.885458931882701],[34.85396543256767,1.891559265455207],[34.84914106898608,1.915379767206877],[34.85095018841402,1.921109009371157],[34.85095021438093,1.929248986092398],[34.84793496810582,1.936938826550703],[34.84835820750368,1.940380498731949],[34.85502038733942,1.953371323419378],[34.85411623660659,1.958648646474705],[34.857282251308796,1.963925335811956],[34.861202319652264,1.967243165821673],[34.866780359310475,1.988650547253674],[34.87214297067868,1.998798879091433],[34.87218798402865,2.000314065361822],[34.87243023418022,2.000419137716721],[34.87374005243445,2.00022116496021],[34.87471621640065,2.001316882070769],[34.874193705226105,2.004668038987751],[34.871978268113295,2.00467750459363],[34.86939972089637,2.007901639656295],[34.868761833135764,2.0088447743207447],[34.8696308729298,2.010387252639504],[34.86977907626313,2.013885509292769],[34.865497064998635,2.014948119784641],[34.866141090306236,2.019123673206462],[34.86458509391911,2.022193122454377],[34.863562288038054,2.023187634095334],[34.861550288968495,2.022729185188015],[34.86121718354554,2.025143839185393],[34.85771688331117,2.0251750375583315],[34.85770963166208,2.0251857593217086],[34.857693884771614,2.025278818499174],[34.857272159298304,2.0307143912663297],[34.85735283505695,2.030736087867423],[34.857250205935145,2.030997345724815],[34.85669528443307,2.038149667307076],[34.85671066365199,2.038092812095476],[34.8571135273134,2.038611584704901],[34.857668242565076,2.041831469097885],[34.857691013327155,2.0418590343033802],[34.86360333681961,2.049013365113686],[34.88049937367329,2.040625499480494],[34.88202071461298,2.0404867510848455],[34.884195186671576,2.0402881355251568],[34.88635252634717,2.0392072209745256],[34.88697193843376,2.038896748125254],[34.88697220636332,2.038896736189135],[34.8869722279484,2.038896725374136],[34.89166273240699,2.038687604860376],[34.896815139286794,2.040199096373374],[34.89681520054806,2.040199130222307],[34.89681526686476,2.040199149676719],[34.89699426258081,2.040298068081434],[34.90093538187119,2.042475670441763],[34.90916401963159,2.043227024769911],[34.91676639945678,2.045332827226281],[34.919845915742,2.0455554601348602],[34.922691045863566,2.045761138489333],[34.92416069228744,2.0456163509935426],[34.92912072716862,2.0451276509045635],[34.93870457232967,2.0407803692330777],[34.938791595367256,2.040740893522941],[34.938791607674375,2.040740889551129],[34.93879167212515,2.040740860315924],[34.946343812677334,2.038301549632089],[34.94548624286711,2.031583923522006],[34.94206070410856,2.0246006922119344],[34.941774593577044,2.024017467316469],[34.94177459660672,2.0240174394725083],[34.94177425049731,2.02401673390114],[34.94198368236109,2.02207947942353],[34.95274328174761,2.02161751116601],[34.95356711386048,2.021434231647275],[34.966397220139115,2.018579801302524],[34.97238893998272,2.0194456187131844],[34.97293697548079,2.019524802955929],[34.972936998452546,2.019524814432881],[34.972937133865884,2.019524834000422],[34.97535763409835,2.020734145099413],[34.97535768730474,2.0207342184017607],[34.97535775611448,2.020734252779899],[34.975598043645064,2.021065356944566],[34.97854492387205,2.025125269085255],[34.97854489572258,2.025125971297495],[34.97854540845944,2.025126677823175],[34.97846463578626,2.027132462654288],[34.979739172570675,2.029434021392277],[34.98102264967257,2.029359652692136],[34.981023018681775,2.0293601086653936],[34.981024015176274,2.029360050759676],[34.98205544731832,2.0306356832010257],[34.98205543703567,2.0306358360697496],[34.98205543703567,2.030635836069752],[34.98230368036859,2.026945285186983],[34.98251536738787,2.016835369963368],[34.98177913855175,2.016703707137633],[34.97927052084949,2.012653859445372],[34.97841505266597,2.013150484795931],[34.97871848152759,2.011131002631044],[34.97744294177145,2.011853263074604],[34.97534906566564,2.008884719664026],[34.972990940120624,2.008923091535965],[34.974130880075606,2.007837829145364],[34.970628598775384,2.004962328419069],[34.97137070582146,2.002108083421756],[34.97036261028421,2.002470426882842],[34.970571206905014,2.000699443210216],[34.96817896098105,1.999277101325228],[34.968819923942235,1.999062367162121],[34.96870573625734,1.997901335075632],[34.96769702803579,1.996854486820665],[34.96941001258995,1.994912706416607],[34.96739275261133,1.99287603840394],[34.968020424280795,1.992152413226958],[34.9679448032611,1.989087062827362],[34.96929581321217,1.988116848074118],[34.96767711192447,1.986496793746817],[34.966763016939396,1.982927574297515],[34.96320139127385,1.97947153609298],[34.96131370386389,1.975198787510061],[34.95575586318003,1.973390556629022],[34.955317461695884,1.971372611315024],[34.95305459521005,1.968162721941019],[34.94753866247303,1.967621942663622],[34.945795698966954,1.969016370188635],[34.94470109209129,1.972276329688233],[34.945631498944145,1.975712723294586],[34.944774951798635,1.975549640307237],[34.94423966734863,1.977055752725768],[34.945199957107945,1.978883774112508],[34.94495350310744,1.981235278299298],[34.94564827357515,1.981812550270862],[34.943883746127966,1.984869431503339],[34.94276221861338,1.98433487116984],[34.94381365506645,1.987313495227902],[34.94331735909072,1.988332061669605],[34.94107474993115,1.988389739238019],[34.939492175818714,1.990468956110764],[34.93840570264507,1.988773460114277],[34.93741958109748,1.988744639634615],[34.93687094818547,1.985952368888398],[34.93397209295183,1.982274443424155],[34.92959956329786,1.983041963397747],[34.932230925183006,1.973051665825651],[34.92611410437592,1.971736706950023],[34.92414280196825,1.969848548043172],[34.9241834814833,1.967963378636506],[34.925263730754445,1.966136018146152],[34.92797620667798,1.963685140073517],[34.92942783876782,1.963899045181357],[34.93132188639168,1.961816310620812],[34.93037017696174,1.961008320513193],[34.92588363553577,1.960795046946976],[34.92394192083878,1.96176548083531],[34.92220023063363,1.961066307149627],[34.91761739569802,1.962136962197443],[34.91206403012975,1.961323193586413],[34.909809454411366,1.960224092325455],[34.90955334650041,1.955688402660274],[34.906698105420645,1.949787320198955],[34.90669914394491,1.940747839564059],[34.91231352505657,1.938556277189507],[34.919166214783225,1.931322855803633],[34.92736288557947,1.927001725258957],[34.92505350839771,1.919489961613881],[34.924710550515954,1.913528760271639],[34.9256053739778,1.901085253580155],[34.92389552358687,1.892016746258334],[34.92501815072365,1.891856411438804],[34.94086558215431,1.901029081892927],[34.94571934067699,1.905097665168612],[34.947576250273904,1.907668145373755],[34.95389281932301,1.909703155024459],[34.954866762319675,1.914921295797191],[34.95446747644937,1.916823482869853],[34.94891354729323,1.921379257431594],[34.94905631523284,1.923663531487335],[34.95940647268561,1.9230830165432],[34.96388035223735,1.925214941186527],[34.96963524832689,1.924720132237608],[34.9678868432655,1.928162422771952],[34.965222519530805,1.92973209848291],[34.965593339555575,1.932654667015795],[34.96442324263596,1.933324541700588],[34.964803601977266,1.935452332384341],[34.96606998092137,1.935729080563391],[34.96646479107352,1.936744319441315],[34.964070486825975,1.93861565365487],[34.96330845758724,1.941241940494066],[34.96508167755712,1.942282082819405],[34.963962245598736,1.944097933638695],[34.96530493646896,1.946365127389798],[34.965641845793684,1.950591196271966],[34.96167178409667,1.951914653331055],[34.961091433507,1.953273252682518],[34.96188176068495,1.953294082123611],[34.961767755911644,1.954948992704457],[34.96276078087945,1.955845570972666],[34.96054947151462,1.957280865201376],[34.96236785539784,1.959407732932375],[34.96226458653804,1.961433498345845],[34.963135029301306,1.961752552542052],[34.96256439900335,1.963674950726845],[34.964649953244304,1.963804636693952],[34.96589832522228,1.964917642624201],[34.96806436312904,1.970670458580033],[34.97118367158818,1.97170375083288],[34.972896929507016,1.976271916075996],[34.97845003088505,1.980341588767149],[34.982163432671655,1.986628743752249],[34.98497914743491,1.9871700081343198],[34.9853,1.9824],[34.98539329317104,1.982265111147604],[34.98660394534657,1.979920296568243],[35.00100000032668,1.9596993339000772],[35.00107574289218,1.8052602428374827],[35.00099452743459,1.805236654165728],[35.001075791366844,1.8051614029982272],[35.001088390852985,1.77947105075981],[35.0009727800783,1.779658055671419],[34.99303982613631,1.783458351435743],[34.98704395063885,1.788883225211829],[34.9770933400882,1.792709325425009],[34.97327347265415,1.792745022756612],[34.96239567023163,1.788543496756739],[34.95986065844968,1.789945351505878],[34.958302320487896,1.789908404970972],[34.954908160152044,1.794900560917939],[34.95527148898026,1.797335792074778],[34.952929402688945,1.798919418336667],[34.95277669218021,1.800563376522653],[34.95155319031194,1.800436895169586],[34.95069132692894,1.801267081629476],[34.94953479687409,1.803509923466788],[34.94859507629291,1.815780969975963],[34.94677227525376,1.821173604081808],[34.94696776830581,1.823364928649956],[34.94345017911726,1.826611577944675],[34.93935748032161,1.827920226586059],[34.93702286571474,1.827811564320104],[34.92938035362654,1.823249055267309],[34.92745830185255,1.821135043935441],[34.91722750636617,1.837537473569203],[34.901380940892814,1.848101710477676],[34.88767469454783,1.845246856705458],[34.876967274342924,1.845675160582546],[34.8692580767667,1.84795931715285],[34.86426095199914,1.84795944123371],[34.85555284062682,1.850386196158987],[34.85247314226578,1.849146347232143],[34.850719867439544,1.85228317217293],[34.84983931124416,1.856197453935653],[34.84767850824131,1.859090509799634],[34.847181153941555,1.865175804098868],[34.85260847470464,1.877236601819861],[34.853873496461496,1.885458931882701]]]}},{"type":"Feature","properties":{"n":"Amudat Town Council","c":"324104","d":"Amudat","od":"Amudat","dc":"324","k":"AMUDATTOWNCOUNCIL","a":["AMUDAT","AMUDATTOWNCOUNCIL","TOWNCOUNCIL"],"lat":1.954122,"lon":34.93531},"geometry":{"type":"Polygon","coordinates":[[[34.92220076054731,1.961066327121022],[34.92282376804633,1.961316616274469],[34.92394192083878,1.96176548083531],[34.92588363553577,1.960795046946976],[34.93037017696174,1.961008320513193],[34.93132188639168,1.961816310620812],[34.92942783876782,1.963899045181357],[34.929427575294746,1.9638990063573067],[34.92942723137174,1.963899384734595],[34.928526280725556,1.9637661961822173],[34.92797620667798,1.963685140073517],[34.925263730754445,1.966136018146152],[34.92418350992569,1.9679633305230682],[34.9241829667646,1.9679872317218656],[34.92414280196825,1.969848548043172],[34.92611409075287,1.9717366939015504],[34.926144591220186,1.9717432608360574],[34.932230925183006,1.973051665825651],[34.92959956329786,1.983041963397747],[34.93397209295183,1.982274443424155],[34.93687094818547,1.985952368888398],[34.93741958109748,1.988744639634615],[34.93840570264507,1.988773460114277],[34.9391224590395,1.9898919944938647],[34.93949234835329,1.9904687294314602],[34.94107474993115,1.988389739238019],[34.94234522178165,1.988357064027199],[34.943317572909855,1.988331622840748],[34.94381365506645,1.987313495227902],[34.94337390629906,1.9860677268752525],[34.94276207890552,1.984336830322555],[34.94276307767046,1.98433730480059],[34.94276221861338,1.98433487116984],[34.943883746127966,1.984869431503339],[34.94564827357515,1.981812550270862],[34.94529038672939,1.9815151886893736],[34.944954872216904,1.981237591192922],[34.94495498487915,1.981236509476094],[34.94495350310744,1.981235278299298],[34.945199957107945,1.978883774112508],[34.94423966734863,1.977055752725768],[34.94424667621367,1.9770360321105347],[34.94477190069691,1.975552691392819],[34.94477374465829,1.9755530367986884],[34.944774951798635,1.975549640307237],[34.94563135691962,1.9757126962537117],[34.945403106702045,1.9748691722845206],[34.94470109209129,1.972276329688233],[34.945795698966954,1.969016370188635],[34.94579607576883,1.969016068734872],[34.945796271737215,1.969015484999074],[34.94721760850972,1.9678787962821276],[34.94753866247303,1.967621942663622],[34.95305459521005,1.968162721941019],[34.955317461695884,1.971372611315024],[34.95575586318003,1.973390556629022],[34.96131370386389,1.975198787510061],[34.96320139127385,1.97947153609298],[34.966763016939396,1.982927574297515],[34.96747725260371,1.9857164133854333],[34.96767733089385,1.9864970128992272],[34.968382600338515,1.9872028718643304],[34.969294173762286,1.988113477066506],[34.969293169314405,1.9881142019663738],[34.96929581321217,1.988116848074118],[34.96801277603106,1.9890382488388474],[34.967944809109056,1.989087299878495],[34.968020424280795,1.992152413226958],[34.96739275261133,1.99287603840394],[34.96941001258995,1.994912706416607],[34.96940913431761,1.99491370199594],[34.96940969929772,1.994914272874012],[34.9681824034812,1.9963042819012966],[34.967697051571406,1.996854460141502],[34.96782341366551,1.9969856511882162],[34.96870573625734,1.997901335075632],[34.96870577534345,1.9979017324935382],[34.96870580159137,1.997901759744523],[34.968718688997484,1.9980330353279765],[34.968819923942235,1.999062367162121],[34.96818070781594,1.9992765161040036],[34.97042813740835,2.000614379322956],[34.970571206905014,2.000699443210216],[34.97036272717707,2.0024694344633907],[34.970849262755905,2.0022955076074123],[34.97137070582146,2.002108083421756],[34.971370413848604,2.0021092063891937],[34.97137090751747,2.00210902991233],[34.97062860991837,2.0049623375678687],[34.974130880075606,2.007837829145364],[34.97412949315262,2.0078391495441705],[34.97413071500391,2.007840153124329],[34.97357956432821,2.0083627008663485],[34.97299123306373,2.008922812643961],[34.97534875068904,2.008884519223634],[34.97534889401108,2.0088847224572217],[34.97534906566564,2.008884719664026],[34.97744294177145,2.011853263074604],[34.97871848152759,2.011131002631044],[34.978415417166524,2.0131480588488624],[34.97871815606688,2.012974524034758],[34.97927052084949,2.012653859445372],[34.979272367721215,2.012656840987433],[34.979272932542955,2.012656517222513],[34.979782958784085,2.013481126025279],[34.98177913855175,2.016703707137633],[34.982508036160304,2.0168340588898404],[34.98251536896732,2.016835358542582],[34.98458468734463,1.9930343148098324],[34.984979145134766,1.9871700423298497],[34.9821645101229,1.986629557095289],[34.98216410612446,1.9866288732099695],[34.982163432671655,1.986628743752249],[34.97886662578537,1.9810469249669025],[34.97844989785697,1.980341491275549],[34.97476186329088,1.9776386604543748],[34.97289709653297,1.976272084681655],[34.972897072640905,1.9762720209737892],[34.972896929507016,1.976271916075996],[34.97118367158818,1.97170375083288],[34.96947432551403,1.971137518259543],[34.968064938923625,1.970670982841427],[34.96806479550365,1.9706706018070805],[34.96806436312904,1.970670458580033],[34.96589832522228,1.964917642624201],[34.964649953244304,1.963804636693952],[34.96278057389069,1.9636883931244475],[34.96256468289871,1.963675096970728],[34.96256472035735,1.9636749707095928],[34.96256439900335,1.963674950726845],[34.963135029301306,1.961752552542052],[34.96243901709395,1.961497434543788],[34.962265004978356,1.961433825163146],[34.96226501367857,1.9614336549109677],[34.96226458653804,1.961433498345845],[34.96236785539784,1.959407732932375],[34.96054947151462,1.957280865201376],[34.96054980433008,1.9572806491808978],[34.96054974271342,1.957280577211221],[34.96089911359873,1.9570539230677175],[34.962760486318636,1.9558457621632068],[34.961768314137196,1.954949666247348],[34.96176832508792,1.9549495065999722],[34.961767755911644,1.954948992704457],[34.96188176068495,1.953294082123611],[34.961091433507,1.953273252682518],[34.96109315196448,1.953269229777658],[34.96109192489255,1.953269192965534],[34.96167125714299,1.951915580939666],[34.96167140953394,1.95191553018152],[34.96167178409667,1.951914653331055],[34.965641845793684,1.950591196271966],[34.9653141447345,1.9464806325467752],[34.96530486711695,1.9463650102858157],[34.96473618548363,1.9454047658438387],[34.96396374274422,1.944100781890413],[34.963963839296994,1.94410062466968],[34.963962245598736,1.944097933638695],[34.96481186180031,1.9427197558368707],[34.96508091963914,1.9422816382369015],[34.96330845758724,1.941241940494066],[34.9633085335652,1.941241678640719],[34.9633085272209,1.941241674927418],[34.96333496160396,1.9411505960327753],[34.964070486825975,1.93861565365487],[34.966464205871304,1.9367447768221737],[34.966069751818964,1.9357290304964874],[34.964803601977266,1.935452332384341],[34.96480332350537,1.9354507745682619],[34.96480267259097,1.935450631818699],[34.96442283458119,1.933327506277846],[34.96442368513893,1.9333270171326304],[34.96442324263596,1.933324541700588],[34.965476218520415,1.932721718227703],[34.96559330364879,1.9326543840212678],[34.965222519530805,1.92973209848291],[34.965222934756376,1.9297318538544188],[34.965222890852196,1.9297315077455],[34.96788703336257,1.9281620485054924],[34.96963524832689,1.924720132237608],[34.96399318804888,1.9252052395049608],[34.96388080184355,1.925214971440842],[34.963880679340946,1.92521491306199],[34.96388035223735,1.925214941186527],[34.95940647268561,1.9230830165432],[34.94905631523284,1.923663531487335],[34.94891354729323,1.921379257431594],[34.95446747644937,1.916823482869853],[34.954866762319675,1.914921295797191],[34.95389281932301,1.909703155024459],[34.95388215378414,1.9096997189067895],[34.948931543140226,1.908488454828811],[34.9482948860919,1.9078996683435192],[34.947576250273904,1.907668145373755],[34.94663368794573,1.906363376519784],[34.9408667879723,1.9010300926500288],[34.940865590926144,1.9010290892457737],[34.94086554220049,1.9010290587672105],[34.92784820969803,1.8934944812074777],[34.9245983102965,1.891916373501819],[34.9240113004195,1.8920002108861185],[34.92560514946522,1.9010840628362125],[34.9256053739778,1.901085253580155],[34.924710550515954,1.913528760271639],[34.92505346135356,1.919489143905179],[34.92505350840189,1.9194899616274665],[34.92580207084535,1.9219248277001446],[34.927362743668546,1.926999942803221],[34.92736239424677,1.9270001270899253],[34.92736288557947,1.927001725258957],[34.91916624874373,1.9313228379002942],[34.918776636957276,1.9317340783585828],[34.91231352505657,1.938556277189507],[34.90669914394491,1.940747839564059],[34.906698105420645,1.949787320198955],[34.90955334650041,1.955688402660274],[34.909809454411366,1.960224092325455],[34.91206403012975,1.961323193586413],[34.91761739569802,1.962136962197443],[34.92220023063363,1.961066307149627],[34.92220045701906,1.9610663980284402],[34.92220076054731,1.961066327121022]]]}},{"type":"Feature","properties":{"n":"Karita","c":"324105","d":"Amudat","od":"Amudat","dc":"324","k":"KARITA","a":["KARITA"],"lat":1.570439,"lon":34.758882},"geometry":{"type":"Polygon","coordinates":[[[34.62662874157944,1.571824911103735],[34.62892625525072,1.572861964576991],[34.62980211202101,1.5762522880227632],[34.630225664261445,1.5767111362832278],[34.63052084686352,1.5768600872744358],[34.6413,1.5733],[34.65950045166954,1.5729976669157884],[34.66258292782303,1.572129029933327],[34.66590855214079,1.572754084829693],[34.670373740742406,1.572278043249036],[34.67191521053641,1.5726876402553562],[34.6902,1.5687],[34.69352753221568,1.5700505866051884],[34.69414315680677,1.569962423877553],[34.69540760839984,1.570813676350523],[34.7072,1.5756],[34.71969962769222,1.5842155625901193],[34.719964632784034,1.584121910729426],[34.72167421938877,1.584921035274266],[34.72468448903069,1.584409301590155],[34.72485443228839,1.5877685917468012],[34.7249,1.5878],[34.724979275756844,1.5879636660786438],[34.728113321808834,1.592406127247677],[34.728525736352104,1.594576416294623],[34.730345768318365,1.595749094552878],[34.730223949031235,1.5963926543508],[34.73220256418345,1.597176552278929],[34.733397128749736,1.60287233260819],[34.73294435268618,1.6044076958682458],[34.73337816229652,1.6053033028057158],[34.733724847193095,1.605343164195044],[34.73476352410889,1.6072982439573509],[34.74981996344795,1.6152668330225914],[34.75274684733677,1.615933502558177],[34.77245838342087,1.613712316678256],[34.78341058187896,1.610922966169978],[34.78818996082928,1.604994131587398],[34.787961535800015,1.597113359482368],[34.78617300708375,1.590020254132348],[34.80147410581854,1.593496491032952],[34.80452944060858,1.590369987889427],[34.802399475923515,1.585440208030941],[34.81243191532787,1.583987296026592],[34.821004634171054,1.580676633174602],[34.82494965940175,1.581126616612932],[34.82392927236802,1.583076685900039],[34.818159282540286,1.588251853688065],[34.81538403124921,1.591829675430652],[34.81928698058831,1.594106119791655],[34.820357905683096,1.596889923204235],[34.8288532052332,1.600603083026851],[34.82970891706685,1.601994179507116],[34.82942550322377,1.605724353537907],[34.83495034115109,1.605438295997329],[34.83825349724928,1.604162554940821],[34.839738911228565,1.607990900970142],[34.84279834196479,1.608539892113232],[34.84470823819066,1.604611570645534],[34.84754513486935,1.602124737251648],[34.84748998618144,1.600766642353258],[34.85344113567901,1.605819006693224],[34.86229272848621,1.606104542017478],[34.86450689186804,1.605418886364152],[34.86448187883295,1.608990316702667],[34.86101794537087,1.615876222106015],[34.8746611757709,1.615035722621178],[34.87123871666214,1.619170960114753],[34.87742011532448,1.621391152467606],[34.88465937754552,1.622176784408914],[34.886035012033176,1.622982910849782],[34.88544599000121,1.62477059840763],[34.88876374210429,1.625665745532953],[34.89320997476796,1.62557597052184],[34.895852471634186,1.624148314266193],[34.918400594155095,1.625024529617498],[34.918164595981345,1.623489191203434],[34.91928976973457,1.621406715039256],[34.91861942128424,1.620435154092273],[34.91903273283039,1.618397102186914],[34.92191935849284,1.615110519062426],[34.9244943041774,1.604902098038149],[34.929156036108374,1.597775599705695],[34.9316071308107,1.58945521730366],[34.93408193329984,1.585981726605046],[34.943741835488076,1.58355479716599],[34.94855533618371,1.5806928549589965],[34.9444,1.5739],[34.9063,1.55],[34.891,1.5525],[34.89098014869243,1.552479618313982],[34.890934878953395,1.552486981097313],[34.88940568717499,1.559859420497745],[34.88975518408734,1.562932155159966],[34.888751972811946,1.565883150710066],[34.87850804151462,1.564317077287224],[34.87707462342029,1.568134739340471],[34.873716546670884,1.572843939722736],[34.87138883749264,1.574508700051717],[34.86815483074392,1.575011924091222],[34.86586528518676,1.573839577356325],[34.86364692088692,1.573864793088654],[34.86104857010104,1.575238890439499],[34.858181868416914,1.5742417859195],[34.856241039915005,1.574429596548674],[34.85468197213386,1.576408037506208],[34.85052389163606,1.576934677568542],[34.84680583368444,1.579693753852425],[34.84173892941983,1.580010726849854],[34.8394697260289,1.582123313800523],[34.839379305254404,1.578597823143306],[34.83720238519688,1.574065729390212],[34.83673810534329,1.57067422026951],[34.83363290982498,1.567497640856907],[34.829889527506154,1.566874960401237],[34.828163182234746,1.568162603079502],[34.82730637920326,1.570204314972815],[34.82492464188459,1.57183003968784],[34.82255205625343,1.570189530468958],[34.820129044073404,1.568229809932078],[34.81962859788339,1.564985386212734],[34.816918160534236,1.562715312317535],[34.817100689302436,1.561202705429454],[34.81536574706762,1.55944749643796],[34.81649142031435,1.556643848216011],[34.814945125973225,1.557618746225444],[34.812724054870294,1.556104242747037],[34.813468061057776,1.553853146100856],[34.811148862641694,1.554776725365571],[34.810112198546285,1.55386301833759],[34.80838322090629,1.554577332916692],[34.80243141061294,1.554062876289478],[34.80160325200869,1.554614922505686],[34.8021694775006,1.555697328508567],[34.80163738423138,1.556425019582063],[34.79869957538636,1.556655037052193],[34.7976436988767,1.556012062857433],[34.80146057138409,1.548669268659197],[34.801130679214594,1.542373313560424],[34.793721149354134,1.543408306858831],[34.79304059390381,1.541326434007148],[34.790998182816324,1.540373114618365],[34.80306783764377,1.537409666173117],[34.8051092840494,1.529988093132429],[34.801916591419285,1.530851573024528],[34.795941754154185,1.529474375123418],[34.787675264388106,1.529937916767353],[34.79264619746118,1.527481566742955],[34.79425232987063,1.524120711113729],[34.79362772276963,1.519986271440205],[34.790624242984855,1.517547817364915],[34.78997648304758,1.515900401460482],[34.78804900406728,1.515353121449436],[34.78269409372842,1.517327924742324],[34.7739652020522,1.516699419191422],[34.77184700515273,1.51591379310472],[34.76791080067633,1.518174157426536],[34.76387727378778,1.518979283247823],[34.76352981264077,1.519797884807838],[34.762504819542016,1.519534782783011],[34.76220725416143,1.520429797519049],[34.760158096552004,1.520355422709505],[34.760116986738005,1.521677006880642],[34.7589130210559,1.521362900901517],[34.75622795642984,1.5234204236247],[34.754540126067106,1.521460305300717],[34.7497452661127,1.519195202845172],[34.74070320264177,1.517815077428847],[34.73633662299782,1.52040667133539],[34.73137559877329,1.519478710345171],[34.72947214993274,1.519718644128482],[34.727710241434934,1.521146079053412],[34.72257214029855,1.520275171058173],[34.721768532289964,1.521631569718549],[34.71836964986966,1.521472587591828],[34.71728640595691,1.52219813364776],[34.7168440798874,1.521507947290355],[34.713533357995225,1.523268629796325],[34.70958230655711,1.522498338349761],[34.70764930788974,1.523937416011136],[34.704623528413364,1.523344003077957],[34.70347260285486,1.524422979870376],[34.69972773032375,1.5242315007408003],[34.699547909852555,1.5242643821983894],[34.693477280637715,1.528695082712977],[34.69108044714267,1.528524466407013],[34.68779036966505,1.530046628640517],[34.68627017573398,1.528582879202236],[34.684488970181455,1.528657085695219],[34.684364117225286,1.529702793539324],[34.68274096412646,1.529954726879186],[34.68128205156327,1.527338481863209],[34.68130555607662,1.5269734887651547],[34.67498729860337,1.524511226661607],[34.673448319335215,1.52432562267172],[34.672678326952514,1.5236114068270834],[34.669166378943636,1.5222427800295055],[34.66848455447941,1.5223798689581132],[34.6555,1.5339],[34.65536877046162,1.5339614966874435],[34.65536909279822,1.533982574367478],[34.655228385286435,1.5340272838825095],[34.651182132925086,1.5359234356166973],[34.65053058019864,1.536914766523087],[34.64562217293189,1.539117582640462],[34.645161275284245,1.540158436391884],[34.642292706459294,1.5400891919521296],[34.6316,1.5451],[34.625008044630086,1.5639341581997541],[34.62449384463811,1.565659421961042],[34.62427557892026,1.5660269173706738],[34.62320901519475,1.5690742423006927],[34.6245155126494,1.568701957566471],[34.62662874157944,1.571824911103735]]]}},{"type":"Feature","properties":{"n":"Karita Town Council","c":"324106","d":"Amudat","od":"Amudat","dc":"324","k":"KARITATOWNCOUNCIL","a":["KARITA","KARITATOWNCOUNCIL"],"lat":1.546039,"lon":34.842996},"geometry":{"type":"Polygon","coordinates":[[[34.805102001,1.5299886664],[34.805101586976534,1.5299901748447706],[34.8051092840494,1.529988093132429],[34.80306783764377,1.537409666173117],[34.7932984485049,1.539808333033811],[34.79099883615014,1.5403734195696044],[34.79304059390381,1.541326434007148],[34.79304073747332,1.541326873197609],[34.7930411329,1.5413270572],[34.793121238423744,1.541573131960433],[34.793721060334335,1.5434080345402357],[34.794393043405755,1.5433144539621202],[34.801130679214594,1.542373313560424],[34.80146057138409,1.548669268659197],[34.80146045916416,1.548669484544808],[34.801460461,1.5486695195],[34.801440689030784,1.5487075177828489],[34.7976438846398,1.5560117054914946],[34.79846064292018,1.5565095395355462],[34.79869956600005,1.5566550313364176],[34.7990827307056,1.5566250376812851],[34.80163738423138,1.556425019582063],[34.8021694775006,1.555697328508567],[34.80160325200869,1.554614922505686],[34.80160347477625,1.5546147740099872],[34.8016034493,1.5546147254],[34.801742432119006,1.554522145768383],[34.80243141061294,1.554062876289478],[34.80243184268533,1.5540629136365192],[34.8024319774,1.5540628239],[34.80315994355798,1.5541258484917568],[34.80838322090629,1.554577332916692],[34.810112198546285,1.55386301833759],[34.810295129693834,1.5540242523148176],[34.81114931191446,1.5547765464507302],[34.813468061057776,1.553853146100856],[34.81286562916236,1.5556758895701122],[34.81272453135754,1.556104567654056],[34.81494469851418,1.5576184547497636],[34.8164911911,1.5566437215],[34.81649104545016,1.5566440845580491],[34.81649142031435,1.556643848216011],[34.81614855400625,1.5574978051860908],[34.81536620186964,1.559447956552761],[34.81694869641248,1.5610489370320169],[34.8171005172,1.5612024727],[34.81710051086768,1.561202524910311],[34.817100689302436,1.561202705429454],[34.816918160534236,1.562715312317535],[34.81962859788339,1.564985386212734],[34.81962862317428,1.5649855501751744],[34.8196286712,1.5649855904],[34.819657371324915,1.5651719262205364],[34.82012903746759,1.5682297671061627],[34.82092390510175,1.5688726896889587],[34.82255205625343,1.570189530468958],[34.82492464188459,1.57183003968784],[34.82704618402663,1.5703819188278076],[34.82730638763689,1.5702042948759682],[34.828163182234746,1.568162603079502],[34.829889527506154,1.566874960401237],[34.82989120077836,1.5668752387361258],[34.8298914494,1.5668750534],[34.8336320811,1.5674974988],[34.83363208600984,1.567497503822124],[34.83363290982498,1.567497640856907],[34.83673810534329,1.57067422026951],[34.83720235345298,1.5740654975047996],[34.837740333237754,1.5751856744920514],[34.839379305254404,1.578597823143306],[34.839469665541756,1.5821209554170967],[34.8417387121,1.5800108683],[34.841738782194994,1.5800108639134902],[34.84173892941983,1.580010726849854],[34.84680583368444,1.579693753852425],[34.847558892122294,1.5791349283302583],[34.8505232418,1.5769350844],[34.85052336433663,1.5769350688640436],[34.85052389163606,1.576934677568542],[34.852989020459624,1.5766224576396612],[34.854682167206995,1.5764077899604103],[34.85532010452305,1.575598254076409],[34.8562395729,1.5744301443],[34.8562406941317,1.5744300353441252],[34.856241039915005,1.574429596548674],[34.85723687693546,1.5743332311164975],[34.8581802663,1.5742415571],[34.85818112964162,1.5742418574095116],[34.858181868416914,1.5742417859195],[34.86104857010104,1.575238890439499],[34.86364692088692,1.573864793088654],[34.86364838800425,1.5738647764122056],[34.8636485755,1.5738646773],[34.865318905573396,1.5738457879512582],[34.86586528518676,1.573839577356325],[34.8658653458024,1.5738396083941655],[34.8658653895,1.5738396079],[34.86600810503911,1.573912707321813],[34.868154578249786,1.5750117948032645],[34.86954234741638,1.5747960210956353],[34.87138883749264,1.574508700051717],[34.87371649653961,1.5728439755762533],[34.87469714558318,1.5714687964138714],[34.87707462342029,1.568134739340471],[34.87850804151462,1.564317077287224],[34.888751972811946,1.565883150710066],[34.88975518408734,1.562932155159966],[34.88940568717499,1.559859420497745],[34.8904004628521,1.5550634730566892],[34.8909348694,1.5524869713],[34.86778809642787,1.528667931065256],[34.8648,1.5256],[34.86271139781975,1.5180274782490382],[34.8592942058,1.5057439249],[34.8542895925,1.50781299],[34.8421583757,1.5096397695],[34.8361550531,1.5082467118],[34.8318290688,1.5118014301],[34.8284874301,1.5132579201],[34.8241482912,1.5120586086],[34.8233946809,1.513090034],[34.8200790186,1.5137424732],[34.8147083056,1.5138284147],[34.8122032398,1.5132887042],[34.8099573249,1.5096100115],[34.8014454917,1.5106655892],[34.7988760905,1.5133541189],[34.7933316741,1.5139967857],[34.7899764945,1.5159003984],[34.78999724584044,1.515953206447652],[34.790624225644585,1.5175477732642613],[34.79078768731638,1.5176805139451666],[34.79362772276963,1.519986271440205],[34.79425232987063,1.524120711113729],[34.79412067379545,1.524396203382491],[34.7941928908,1.5250416831],[34.79264799626088,1.527477802728185],[34.79264619746118,1.527481566742955],[34.78767934936271,1.5299358982071896],[34.79592048630598,1.5294755677134533],[34.795941754154185,1.529474375123418],[34.801916591419285,1.530851573024528],[34.80257240175909,1.5306742057965932],[34.805102001,1.5299886664]]]}},{"type":"Feature","properties":{"n":"Katabok","c":"324107","d":"Amudat","od":"Amudat","dc":"324","k":"KATABOK","a":["KATABOK"],"lat":1.753584,"lon":34.917009},"geometry":{"type":"Polygon","coordinates":[[[34.81679509428814,1.667077301249266],[34.816404357371276,1.669111612817183],[34.81733349647577,1.672536127193749],[34.81665119305497,1.675513621472847],[34.81731648005378,1.676433993067903],[34.81694899605815,1.677055348944019],[34.819452813144636,1.6863877580845665],[34.82003133037091,1.687332484543168],[34.82002113617032,1.688506052998479],[34.8201,1.6888],[34.819835456075,1.6940908785000595],[34.82034551755745,1.694800365373693],[34.819760479706076,1.697348828017915],[34.820184136006404,1.701508249454802],[34.81940231113809,1.7027537772380865],[34.81902594200284,1.710281159943171],[34.81948705617105,1.710532599168469],[34.8189034808705,1.7127303825898588],[34.8189,1.7128],[34.8468,1.727],[34.84678463274439,1.727021694949102],[34.84683460503908,1.727047123898268],[34.842481053462215,1.73508625808186],[34.84156394544191,1.738232523995167],[34.84063133513677,1.738406336781174],[34.840761645643525,1.739414472015258],[34.83832801428343,1.740100513691655],[34.837401035184016,1.740848027696953],[34.837754773312035,1.741909452502164],[34.83589194171372,1.7423996116982756],[34.83548204767164,1.7429782856400322],[34.83524243073828,1.743641346925975],[34.83497322922962,1.743696617558186],[34.8349,1.7438],[34.83175986657546,1.7449455422364202],[34.83326777934986,1.751345694949643],[34.83315060787923,1.7628425353834913],[34.8366,1.7626],[34.84059095926274,1.7656750013991618],[34.84106063885233,1.765820317588833],[34.84113063807971,1.7660908195040446],[34.843910074277794,1.7682323523123997],[34.84517796511295,1.767207988743454],[34.84721520147305,1.76808707082776],[34.84903335990475,1.770899087582118],[34.848576620759474,1.771827888126154],[34.8488,1.772],[34.85311207745067,1.7807767948110966],[34.85746191613881,1.784029653317682],[34.86097631550777,1.788008016266808],[34.86189177853337,1.790594194369831],[34.860559042840194,1.795690034514498],[34.85895758097952,1.7969010566512642],[34.85542910240973,1.802772665521305],[34.85552997585737,1.80287036339761],[34.85796393204514,1.802531223270925],[34.861092956957236,1.803771652893948],[34.86159659629662,1.804615848258524],[34.86084345893578,1.808368378865965],[34.853833554447405,1.816021426222601],[34.853083775270335,1.818660573881125],[34.86203862256207,1.819998211560113],[34.86925037720952,1.823971733093924],[34.86925000104501,1.828907377884507],[34.86752476714009,1.831940799610564],[34.86508658954616,1.832059956218167],[34.86395740885301,1.831109769927615],[34.86347987941353,1.827539207649548],[34.8604734746691,1.825927782443896],[34.85815065924126,1.829831966605432],[34.85866731511781,1.83217438757181],[34.857894724498045,1.832691984975048],[34.85685983514054,1.831654145584207],[34.8531585764318,1.830972378065618],[34.85083622021224,1.8403060758391243],[34.85024574733951,1.843933266343014],[34.851932740856654,1.844900376434935],[34.852473147030395,1.849146336733607],[34.85253847639218,1.8491726499530625],[34.85555284062682,1.850386196158987],[34.86426095199914,1.84795944123371],[34.8692580767667,1.84795931715285],[34.876967274342924,1.845675160582546],[34.88767398930622,1.845246884915588],[34.88767423179296,1.845246875215476],[34.88767469454783,1.845246856705458],[34.901380940892814,1.848101710477676],[34.91722750636617,1.837537473569203],[34.92745830185255,1.821135043935441],[34.927458725344835,1.8211355097228346],[34.927459344293034,1.82113451745026],[34.92936280809617,1.8232297574260499],[34.92938035362654,1.823249055267309],[34.92938075763486,1.8232492964565403],[34.93746401263714,1.8278320970556001],[34.93843547610555,1.8278773128361656],[34.941598027584206,1.827203807108947],[34.94318035981345,1.8266978532077667],[34.946933633853455,1.823396433919537],[34.94696776830581,1.823364928649956],[34.94677227525376,1.821173604081808],[34.9485950558259,1.815781030526249],[34.94861683636401,1.8154968229115833],[34.94953479687409,1.803509923466788],[34.95069132692894,1.801267081629476],[34.95155319031194,1.800436895169586],[34.95277669218021,1.800563376522653],[34.952929402688945,1.798919418336667],[34.955271327176895,1.7973359014798223],[34.95490784536342,1.794901844311325],[34.95490826051835,1.7949012336285346],[34.954908160152044,1.794900560917939],[34.958302320487896,1.789908404970972],[34.95986065844968,1.789945351505878],[34.96239567023163,1.788543496756739],[34.97327347265415,1.792745022756612],[34.9770933400882,1.792709325425009],[34.98704385888189,1.788883260493214],[34.98901834704684,1.7870968553477726],[34.99303982613631,1.783458351435743],[35.0009727800783,1.779658055671419],[35.001088390852985,1.77947105075981],[35.00109332603253,1.7694082196739078],[34.99910342383006,1.768645780733359],[34.997912917433105,1.767121928944178],[34.997830600177856,1.76436046880194],[34.9965322684797,1.764350789336653],[34.9976561619492,1.760432411798197],[35.001053535004246,1.755822209855636],[34.99724760549428,1.725445849390119],[34.99362310126272,1.6784017735108163],[34.99343536857447,1.6764584307378902],[34.98457673683626,1.676580335628716],[34.96918808673697,1.671743789663792],[34.965038631917125,1.677280471895114],[34.953677009011464,1.681929816815235],[34.94982989803632,1.681932386984311],[34.949759039851045,1.682654085847566],[34.9383555863018,1.682120329708652],[34.92899719265673,1.682928400594202],[34.92901401981649,1.686615762190946],[34.93079841535111,1.691469913050195],[34.93072720636565,1.69365868024878],[34.92998227214441,1.696898935807948],[34.928459751603135,1.696309736455927],[34.92711856365633,1.697044613889383],[34.917334332499976,1.692118498168864],[34.91173427053127,1.692613017155665],[34.90888057397279,1.689206525420079],[34.908598249155574,1.686767450922336],[34.90531701846022,1.68489481151089],[34.90449136652614,1.681518241067069],[34.89932764630199,1.678700576408164],[34.89707370503381,1.679461439265506],[34.89438364050707,1.675336828832794],[34.891093050369626,1.674768520504665],[34.888094322818404,1.672626864764029],[34.884154051014356,1.67129736466256],[34.87938301145747,1.667313848057695],[34.86303771308304,1.661061197066918],[34.85374695894274,1.658511503994583],[34.844898036276135,1.657325835383533],[34.81198637955954,1.655443026407708],[34.81496383947953,1.664889994233408],[34.81679509428814,1.667077301249266]]]}},{"type":"Feature","properties":{"n":"Kongorok","c":"324108","d":"Amudat","od":"Amudat","dc":"324","k":"KONGOROK","a":["KONGOROK"],"lat":2.254143,"lon":34.91101},"geometry":{"type":"Polygon","coordinates":[[[34.93707849481308,2.269107419687386],[34.93984307216649,2.2518580145104834],[34.93961880929978,2.251251079243159],[34.940285480513666,2.245241438280582],[34.93775400599556,2.243278907601877],[34.93546944548672,2.23961445868182],[34.93085277573793,2.237948312167806],[34.925856819133045,2.23195268248307],[34.927412960371676,2.225683992382335],[34.920117179659506,2.22251682756659],[34.91304483944309,2.232661969498436],[34.90945840250336,2.233446848779124],[34.90801200676666,2.235083645403359],[34.901963335185606,2.236927172349961],[34.89866202896283,2.228110810882077],[34.89261959271106,2.228869781911375],[34.88420229653044,2.241748039996012],[34.880335515658366,2.242611213349694],[34.87179981167751,2.247369835031366],[34.869210435860445,2.2478606294420747],[34.871937775993814,2.2502504274797253],[34.87243127781021,2.249757507184087],[34.87232369056851,2.2505885803496324],[34.873898731334066,2.251968690327372],[34.87490287120474,2.250555999738344],[34.87571267224754,2.252227860511482],[34.87869181981965,2.251041900080199],[34.87948669522607,2.252028293385132],[34.881896437032474,2.25254069145868],[34.88210265507464,2.251548161791058],[34.882814513019405,2.255746120399526],[34.88182386626854,2.257263934998428],[34.88419419762925,2.259395255395805],[34.88304238956668,2.259980707689619],[34.8882,2.2645],[34.8954,2.275],[34.9056,2.2689],[34.9228,2.2856],[34.9349,2.2827],[34.93676167096343,2.2710842220169356],[34.936598821899445,2.270871047894926],[34.93707849481308,2.269107419687386]]]}},{"type":"Feature","properties":{"n":"Lokales","c":"324109","d":"Amudat","od":"Amudat","dc":"324","k":"LOKALES","a":["LOKALES"],"lat":1.442285,"lon":34.773348},"geometry":{"type":"Polygon","coordinates":[[[34.70012090886418,1.5242516043582301],[34.70302222291442,1.524399951487365],[34.70352106327453,1.524377548897198],[34.704623528413364,1.523344003077957],[34.704635245129005,1.5233463009488526],[34.70781822412874,1.5238116613532091],[34.709578648708465,1.522501061542674],[34.70958156126829,1.522498489702684],[34.709581990507914,1.5224985736418737],[34.70958230655711,1.522498338349761],[34.713533357995225,1.523268629796325],[34.7168440798874,1.521507947290355],[34.716844207381946,1.5215081462272981],[34.71684438352707,1.521508052384871],[34.716913472483704,1.521616224479008],[34.71728621302578,1.5221978326064125],[34.717686205053376,1.5219303521682712],[34.71836964986966,1.521472587591828],[34.718370677376534,1.521472635653281],[34.71837093848424,1.521472461046789],[34.719526224652725,1.5215266861736516],[34.72176830899084,1.5216315592737717],[34.72189420848867,1.521419442629535],[34.72257214029855,1.520275171058173],[34.727710241434934,1.521146079053412],[34.72947214993274,1.519718644128482],[34.730278904893545,1.519616950946177],[34.731375009547484,1.519478711709203],[34.731375242428996,1.5194787552631288],[34.73137559877329,1.519478710345171],[34.73529601494245,1.520212025303082],[34.73633666093657,1.5204066488184902],[34.73905475271431,1.5187934433663985],[34.740031423626135,1.517815070409313],[34.740573453471804,1.5178920844196009],[34.74070320264177,1.517815077428847],[34.7497452661127,1.519195202845172],[34.754540126067106,1.521460305300717],[34.755992884259605,1.5231474286137618],[34.756228040987956,1.523420358829145],[34.7589130210559,1.521362900901517],[34.760116701400065,1.521676932438027],[34.76012081214599,1.5215540289795488],[34.760158096552004,1.520355422709505],[34.76016089846947,1.5203555244059666],[34.760160944571645,1.52035414603896],[34.76153286359157,1.5204053203046266],[34.76220725416143,1.520429797519049],[34.762504819542016,1.519534782783011],[34.762505254081184,1.5195348943234053],[34.762505314950744,1.519534710346962],[34.76294347101212,1.5196473787508458],[34.76352981264077,1.519797884807838],[34.76387727378778,1.518979283247823],[34.76791074472617,1.518174168594658],[34.76794233034445,1.5181560515234214],[34.77184700515273,1.51591379310472],[34.77391190810314,1.5166796527964006],[34.773965453931694,1.516699437327477],[34.78269409372842,1.517327924742324],[34.782707253532394,1.5173230716219972],[34.78740672465089,1.515353315205218],[34.78781359990866,1.515439934650441],[34.78804900406728,1.515353121449436],[34.789976316497594,1.5159003541710008],[34.78997648587541,1.515900390229749],[34.79029347032763,1.5157205572937074],[34.7933316741,1.5139967857],[34.79333195147496,1.513996753548793],[34.793332118674165,1.513996658692648],[34.794848310452856,1.5138209886888572],[34.79887596228111,1.513354133762164],[34.79887644656929,1.513353746321811],[34.8014454917,1.5106655892],[34.80238167831683,1.510549489918853],[34.80268254387267,1.510308791379595],[34.804205416830854,1.5103233226924986],[34.8099573249,1.5096100115],[34.811764415721946,1.512569933006796],[34.81220338349302,1.513288735158321],[34.814327717455335,1.5137464178846471],[34.82005684088369,1.5137428280851346],[34.8200790186,1.5137424732],[34.8233946809,1.513090034],[34.824136436188674,1.51207483390875],[34.824148019446305,1.512058936620186],[34.82414804403561,1.5120589468804393],[34.8241482912,1.5120586086],[34.82797207114724,1.513115478031903],[34.83182668612011,1.5118024686172487],[34.8318290688,1.5118014301],[34.8361550531,1.5082467118],[34.84215828757001,1.5096397490496296],[34.85133553311168,1.5082578270861178],[34.8542895925,1.50781299],[34.85680498145533,1.5067730488120568],[34.859294201569114,1.505743915244119],[34.845095313099534,1.4547878269528518],[34.83862383387733,1.451241310090965],[34.83715910413484,1.451047406912825],[34.83181641476911,1.449053091979422],[34.82777344606232,1.4452950523618378],[34.8276,1.4452],[34.81631053772839,1.427416599253578],[34.81341057782114,1.4262493451500118],[34.805,1.4229],[34.80491376323261,1.4228004960376321],[34.801543461707084,1.420466662041616],[34.79853973099605,1.417538684400236],[34.795013555165035,1.411881169831902],[34.794902084410104,1.4112485589347303],[34.7946,1.4109],[34.794767151921455,1.4104827996757172],[34.794545243149386,1.40922343880142],[34.79519719317951,1.407549056963211],[34.79669851825167,1.4056622349328396],[34.804826166620884,1.3853761532308062],[34.80464886867442,1.382959406133502],[34.80531966233188,1.3788477523046023],[34.78778597616294,1.3638447012528212],[34.7874871775287,1.363624143211717],[34.78159498640155,1.3747184490277082],[34.78135754961095,1.375864544024229],[34.78041009632874,1.3769494582639101],[34.7764,1.3845],[34.7764222906605,1.3845638323459764],[34.77784414679634,1.386847050421199],[34.77858535285889,1.390751302472951],[34.7785840723294,1.3907543889432952],[34.7786,1.3908],[34.7785465440813,1.3908448435762388],[34.77741570543967,1.39357051289005],[34.7756882183824,1.394180773083875],[34.77584215233705,1.395103766386382],[34.772247658281714,1.396128908885897],[34.770642263033345,1.3974756571220246],[34.770769516271045,1.398497858639102],[34.76974311861752,1.398245572972136],[34.769150069267475,1.400045848005879],[34.768057846427816,1.3996436954966647],[34.767124148772375,1.4004269640853968],[34.76704668784913,1.400571118974563],[34.766890396998704,1.4006230558510886],[34.76369988864222,1.4032995378612445],[34.7611679713152,1.407501599641021],[34.75899921078637,1.409249810381183],[34.757010121337615,1.409640101880502],[34.75671446814718,1.4091595294987556],[34.75354769384138,1.4118161012775103],[34.75299257041234,1.41285864050212],[34.75171472840462,1.4133537556161242],[34.75038578819084,1.4144685887954642],[34.75042655697085,1.41545080526868],[34.752218748198636,1.415717589516641],[34.751781298913805,1.416866181886787],[34.75047369892025,1.416299791689046],[34.74806806190758,1.417120705918978],[34.74771501588918,1.41876167132232],[34.746844699428074,1.4174391688131154],[34.74602995951792,1.4181226450710827],[34.74600148077679,1.418266282410933],[34.746840405497885,1.419317585458603],[34.744310653543174,1.4195649517498985],[34.74369474300602,1.4200816322560652],[34.743564516969656,1.421057169814206],[34.7424570375628,1.4212110397882518],[34.742427787563976,1.4212542183579422],[34.74325624313296,1.421576899730204],[34.74324933358181,1.422885920191724],[34.74059343981324,1.424587630046614],[34.74018725655293,1.424561668898064],[34.738960831626756,1.4263721056938443],[34.73899840688646,1.427075282783206],[34.73827502673741,1.4273844843400183],[34.7356140446742,1.4313126007190413],[34.7350823026582,1.432343384708575],[34.734833725891335,1.4324644998747023],[34.7342,1.4334],[34.73391867337091,1.4335074156220184],[34.73415916716059,1.434300708492369],[34.73187119767703,1.435192369936582],[34.73099126955167,1.434736091873182],[34.73126085255855,1.436097179413685],[34.730281281688534,1.436629222482281],[34.72825353979569,1.435977459079214],[34.72889894260223,1.436702311959035],[34.72658315979446,1.438204633154104],[34.72661481718339,1.439369180528191],[34.723093748117996,1.4378208372449441],[34.71814552424441,1.448105380982194],[34.71932455582726,1.448745621839469],[34.718867422011556,1.450440314670423],[34.72029022901838,1.451420491197162],[34.72067700317039,1.453252836502946],[34.72152717980789,1.453301781599783],[34.721390841444745,1.454477069429912],[34.72254681151781,1.455182825011003],[34.72176874215461,1.455639081660391],[34.72168343273313,1.459793922386411],[34.72409268190932,1.462746473712305],[34.72292927905152,1.4668484467989515],[34.723593050044755,1.469411624018961],[34.72585427529245,1.470301061220263],[34.724461474514634,1.472765078510353],[34.7246,1.4733],[34.72390485478308,1.4737497998462437],[34.723485387645184,1.474491883205807],[34.72226487021885,1.4748109663289781],[34.7127,1.481],[34.712693015437424,1.4811123879614558],[34.712753090668706,1.481162795786377],[34.71267797842891,1.481354347098476],[34.712422446574564,1.485466086936518],[34.71281157444986,1.485892557973874],[34.712397093376225,1.485874042946138],[34.71212475136704,1.4902562734575995],[34.71290955246311,1.49257854453003],[34.71192141688595,1.4935281101078874],[34.711860365895866,1.4945104760391665],[34.71224279738316,1.494643227901508],[34.7122901300086,1.495704638400515],[34.71177644017395,1.495860917200958],[34.71160194180474,1.4986687545964323],[34.71161507739207,1.498705445772198],[34.70753393519124,1.500342068068143],[34.7066809979236,1.500310085788443],[34.70654257859669,1.500017036823778],[34.70204869913307,1.5011873179340958],[34.7019979043378,1.501222952490717],[34.70141872225614,1.5075663752898396],[34.7020805844167,1.507580112495881],[34.701796484951956,1.509491201334098],[34.7012010993446,1.5099498643210352],[34.70004392360618,1.5226236938370898],[34.699940745529744,1.524198397055279],[34.70012090886418,1.5242516043582301]]]}},{"type":"Feature","properties":{"n":"Loroo","c":"324110","d":"Amudat","od":"Amudat","dc":"324","k":"LOROO","a":["LOROO"],"lat":2.186624,"lon":34.897473},"geometry":{"type":"Polygon","coordinates":[[[34.82243005296069,2.141130283421241],[34.825,2.1441],[34.82655153742442,2.1555058967416847],[34.82764037139312,2.15557873738297],[34.827505578713414,2.156514708874651],[34.83011101184172,2.159958876359141],[34.82876663729569,2.164991430775673],[34.82977789856737,2.165895621430073],[34.83090395759264,2.164235879725778],[34.83107536848549,2.165995941035112],[34.83005311087871,2.167083079554785],[34.82956369037547,2.166728546695986],[34.82973334496897,2.169174290114154],[34.82860370311002,2.1705920877277385],[34.8287,2.1713],[34.8454,2.1878],[34.84719247984248,2.191317318936181],[34.849746659633745,2.194793189346466],[34.84939573848816,2.195640694391869],[34.85057154434936,2.197947936081752],[34.850595720769405,2.19797212541078],[34.8505914844345,2.197987063796002],[34.8507,2.1982],[34.85043297382358,2.199794527739215],[34.85108686604096,2.200279412983824],[34.849989482225496,2.202442806139206],[34.84994942419596,2.202682009801279],[34.85058813307341,2.203590608645815],[34.84971958317552,2.2040544890376017],[34.849545165127175,2.2050960139548783],[34.849930657547,2.207118627983456],[34.849302582648136,2.2086752100252],[34.85046043140679,2.209558884056056],[34.84851332625296,2.2112575660894507],[34.84773689176766,2.2158939891588223],[34.84781777855479,2.217155995011055],[34.84748370424599,2.217405880359658],[34.8472,2.2191],[34.84772682313714,2.2194915577370606],[34.84886343452442,2.219654825812023],[34.84943107484509,2.220489350554668],[34.84967407441858,2.219633017457562],[34.85116175324962,2.220255448373143],[34.8518578459321,2.222073278346751],[34.85168061842824,2.222430189372343],[34.85382821189098,2.224026373702753],[34.854226265622756,2.223087632697252],[34.85501277327472,2.223938257332428],[34.85493668658425,2.224850240028835],[34.85723249052349,2.2265565807944814],[34.85778235881989,2.226364145268116],[34.857849835966206,2.227015418623531],[34.86032329502172,2.2288538003539813],[34.86093093326478,2.228491574586982],[34.860712927250766,2.227315122723866],[34.861302723415385,2.227100541848995],[34.862601233981,2.229703731289864],[34.862282274941606,2.2303097989430842],[34.86377484722644,2.2314191432088384],[34.86390838108605,2.230910947698574],[34.86470589440592,2.230860880248577],[34.86492187283052,2.232271662238901],[34.86927041163921,2.235503684326436],[34.869431934650756,2.235158685246681],[34.86948265651556,2.240220066198943],[34.868811787041615,2.242090013583806],[34.869447207021636,2.24373796217299],[34.86843348558374,2.244445667526694],[34.8682101726104,2.2469841611487107],[34.8688006526934,2.2475015620135204],[34.87179801426807,2.247370175715209],[34.871799664037056,2.247369863015373],[34.87446673531408,2.2458830355044843],[34.880335515658366,2.242611213349694],[34.88420229653044,2.241748039996012],[34.89261959271106,2.228869781911375],[34.89262031288601,2.2288696914525103],[34.892620417294715,2.22886953171784],[34.89316789381809,2.228800911568648],[34.89866202896283,2.228110810882077],[34.90196333017853,2.2369271589782276],[34.90595237240626,2.2357113851297865],[34.90801200676666,2.235083645403359],[34.90945840250336,2.233446848779124],[34.90963826811505,2.233407485814071],[34.91304502306905,2.2326617060903637],[34.920117179659506,2.22251682756659],[34.92591389611607,2.225033234944001],[34.92741028857747,2.225682255336811],[34.92741015943496,2.2256827764702134],[34.927412960371676,2.225683992382335],[34.925856819133045,2.23195268248307],[34.92990225971537,2.2368076012827065],[34.93085287894984,2.23794834941677],[34.93546944548672,2.23961445868182],[34.93775400599556,2.243278907601877],[34.94000965134593,2.2450276011671195],[34.94028548334221,2.245241425641035],[34.942886394769296,2.232357983009739],[34.94298661839054,2.2322440570843867],[34.9447683483974,2.221127065633108],[34.94347786833339,2.219861015033961],[34.945155277517046,2.217672369648722],[34.946065033690516,2.209953071117163],[34.94669512244457,2.2091050810853075],[34.948696331128424,2.196618666339549],[34.94866509555032,2.19640658324086],[34.94890918748008,2.1952905626242787],[34.9491,2.1941],[34.95099419850154,2.1854476358668027],[34.949851028841906,2.1846336282644345],[34.94603960137663,2.18191970039675],[34.94126094544748,2.1795151169650335],[34.935255290483816,2.176493130108558],[34.92895078741984,2.175457452328688],[34.92770456713207,2.174558787753093],[34.926431189035604,2.172707730739963],[34.926431172218386,2.1727077123908054],[34.92297927266125,2.171107280107189],[34.92128505139448,2.169104542407703],[34.921082945811186,2.1688656956751493],[34.92108199910532,2.1688652452089996],[34.91895476208892,2.16818930412364],[34.91870706771304,2.167735193898441],[34.91853932162169,2.167655376144132],[34.91700508897132,2.164617265304883],[34.91763412663324,2.1639727191364067],[34.91776886269432,2.163833888403418],[34.91657762489674,2.161858289349159],[34.91559937583766,2.160236870832379],[34.9155995407513,2.160236193310356],[34.91559887313327,2.160235086104429],[34.91634520399397,2.157165106842297],[34.91343896812783,2.1553711157702895],[34.91163600265164,2.1554099049285735],[34.90958788655854,2.155454203759527],[34.90958754301775,2.1554539756698197],[34.909587350399484,2.155453979813826],[34.909033560974514,2.155086166069176],[34.90609464939107,2.153134911675568],[34.904614661709424,2.15064582652239],[34.9046146092326,2.150645438004502],[34.90461460922859,2.15064543799775],[34.90461460914104,2.150645437326633],[34.90452756072603,2.150000964833092],[34.90453050994996,2.1500007175213796],[34.90453046596742,2.150000380343171],[34.90563166818584,2.1499083782024773],[34.90589159532689,2.149886581611954],[34.90541653598862,2.149387847589816],[34.9025607984958,2.148780780649484],[34.90221212529859,2.1490557580255],[34.901204851653716,2.149851252630796],[34.901204412032406,2.149850480280991],[34.9012043231242,2.149850550397494],[34.90118934322394,2.149824006607052],[34.90076060298459,2.149070773242437],[34.89831381132772,2.149030339892677],[34.896873568139455,2.1469601134565397],[34.89687015439357,2.146955209784775],[34.89687015419064,2.14695520619702],[34.896870000351456,2.146954985066353],[34.89684770640246,2.1465583397061003],[34.89678545060185,2.1454576860050873],[34.896165054376866,2.145409781689189],[34.895939648388705,2.145392966294809],[34.89593981495538,2.1453923896742717],[34.895939078771534,2.145392332829336],[34.89613451024852,2.1447183934875116],[34.8963324354093,2.144033216144624],[34.89454480901234,2.141054859200898],[34.89351487090728,2.141212831686603],[34.89351499523781,2.141209756875595],[34.893513949483335,2.141209914786135],[34.89357931149408,2.139619155271395],[34.89361253032637,2.138797622256385],[34.890381912312186,2.136599283959879],[34.89039796464001,2.1365164912692447],[34.89034820607639,2.136481187907701],[34.88543234566599,2.1390300873193215],[34.88045386993782,2.141611466100469],[34.863837581896604,2.152849975346562],[34.860964099611465,2.147619590217793],[34.86072585731325,2.144704287350375],[34.86072564871084,2.144703910398601],[34.85640608336405,2.1374753023641646],[34.85126737679014,2.131379603127508],[34.84710337704024,2.12947611644677],[34.846857080310635,2.129419403995623],[34.83883510854558,2.127572627878745],[34.83550755945386,2.123800827912555],[34.8245529529481,2.1304750289524215],[34.81911686470265,2.1373017103230576],[34.82241376769374,2.141111464890536],[34.82242291730434,2.141110057553278],[34.82243005296069,2.141130283421241]]]}},{"type":"Feature","properties":{"n":"Losidok","c":"324111","d":"Amudat","od":"Amudat","dc":"324","k":"LOSIDOK","a":["LOSIDOK"],"lat":1.638418,"lon":34.888415},"geometry":{"type":"Polygon","coordinates":[[[34.75711368172647,1.6191270181839277],[34.76598509701181,1.6238221961900936],[34.76609675158796,1.623583671321156],[34.76621919376739,1.6239460914089259],[34.7701,1.626],[34.79007946944013,1.6353307812424893],[34.79112878115217,1.635223560267097],[34.791692930778574,1.6360842974876186],[34.79490299731116,1.6375834578471642],[34.795147378296925,1.637553499224988],[34.7952926205201,1.6377654190819464],[34.798085717992706,1.6390698471892056],[34.798609145843194,1.639159466366744],[34.7986064770856,1.6393130513038274],[34.808,1.6437],[34.80988209805527,1.6507150927514629],[34.81229867320502,1.653570391386584],[34.81198637911137,1.655443014867787],[34.831232835849754,1.6565440770466373],[34.844898036276135,1.657325835383533],[34.844898142750466,1.657325849650046],[34.844898142754765,1.657325849650292],[34.844898270592715,1.6573258667796504],[34.85374695894274,1.658511503994583],[34.853747121675184,1.6585115486537971],[34.853747121676676,1.658511548653997],[34.853747284619736,1.6585115933712204],[34.86303771308304,1.661061197066918],[34.86303782359117,1.6610612393401625],[34.86303782539096,1.661061239834087],[34.86306025817837,1.6610698213581012],[34.87938301145747,1.667313848057695],[34.87938332438478,1.6673141093322303],[34.879383999040904,1.667314367417755],[34.88185340076917,1.6693764670585005],[34.884154051014356,1.67129736466256],[34.88755615347275,1.6724452792706321],[34.88809401397396,1.672626723769885],[34.888094111592224,1.6726267934935075],[34.888094322818404,1.672626864764029],[34.89109303752121,1.6747685113284758],[34.89109354384117,1.6747686057307123],[34.89438364050707,1.675336828832794],[34.897055319316536,1.679433248892918],[34.89707385554894,1.6794613884561211],[34.89932764630199,1.678700576408164],[34.903822458221256,1.681153240794223],[34.904490343790435,1.681517639106958],[34.90449035618703,1.6815176897597417],[34.90449136652614,1.681518241067069],[34.90531699545906,1.6848947174458118],[34.90859776070117,1.686766921631852],[34.908597791783535,1.686767189894391],[34.908598249155574,1.686767450922336],[34.90888057181752,1.689206506800162],[34.91173441857457,1.6926130040825556],[34.917334332499976,1.692118498168864],[34.917337775617675,1.6921202316925272],[34.917338765156494,1.692120144610208],[34.9173650839528,1.692133980756383],[34.92680983119003,1.6968891748128356],[34.92845819633481,1.6963105886344751],[34.928459751603135,1.696309736455927],[34.928460166605554,1.6963098970574753],[34.92846023143865,1.696309874300665],[34.92998238402055,1.6968984491780121],[34.93072720636565,1.69365868024878],[34.93079841535111,1.691469913050195],[34.929066110830966,1.686757467120009],[34.92901408652687,1.686615960761069],[34.92901408646792,1.6866159435050638],[34.92901401981649,1.686615762190946],[34.92899719265673,1.682928400594202],[34.9383555863018,1.682120329708652],[34.93846245552829,1.68212533188676],[34.94975904982883,1.68265398422272],[34.94982989803632,1.681932386984311],[34.95367683956628,1.6819298169284376],[34.9650386397408,1.6772804614558623],[34.96918808673697,1.671743789663792],[34.98457673683626,1.676580335628716],[34.990611637615054,1.6764972885010867],[34.9934353674739,1.676458419345212],[34.99247212555878,1.66648727776229],[34.991984824305895,1.661634450887576],[34.991748414223245,1.6611082271548345],[34.9618139927361,1.6025956362867348],[34.961075562756406,1.601174904489723],[34.96055310612138,1.6003059758750657],[34.94855534073686,1.5806928624021703],[34.94807985520519,1.580975559619719],[34.943741835488076,1.58355479716599],[34.94374156574423,1.5835548649357518],[34.94374146014179,1.583554927721086],[34.940180262120506,1.5844495978675577],[34.93408193329984,1.585981726605046],[34.931631220972115,1.5894214057360831],[34.931607127202405,1.5894552295522082],[34.929179025848775,1.5976975597053298],[34.929156099887685,1.59777538975426],[34.92915609637656,1.5977753951218536],[34.929156036108374,1.597775599705695],[34.9244943041774,1.604902098038149],[34.92191935849284,1.615110519062426],[34.91903273283039,1.618397102186914],[34.91861942128424,1.620435154092273],[34.91928976973457,1.621406715039256],[34.9192890829192,1.6214079861999395],[34.91928945387395,1.621408525069756],[34.91846631236471,1.6229307732925218],[34.91816470933496,1.6234889814080973],[34.918172734702694,1.6235421394586032],[34.918400594155095,1.625024529617498],[34.90111883635013,1.6243529641036862],[34.895852415236966,1.6241483447357992],[34.89320997476796,1.62557597052184],[34.88876374210429,1.625665745532953],[34.88760773202562,1.6253538478785736],[34.88706907041918,1.625332487015391],[34.885463251134794,1.6247752555530792],[34.88544599000121,1.62477059840763],[34.886035012033176,1.622982910849782],[34.88479238918605,1.6222547296780534],[34.88465910600687,1.6221767549405197],[34.87742011532448,1.621391152467606],[34.87123871666214,1.619170960114753],[34.8746611757709,1.615035722621178],[34.86736006683102,1.615485511866304],[34.86102328600559,1.615876671956875],[34.861023689671995,1.6158758682248595],[34.86101794537087,1.615876222106015],[34.86448187883295,1.608990316702667],[34.86450689186804,1.605418886364152],[34.86229272848621,1.606104542017478],[34.85344113567901,1.605819006693224],[34.84748998618144,1.600766642353258],[34.84754513486935,1.602124737251648],[34.847543887291614,1.6021258308825832],[34.847543894287455,1.602126004699585],[34.84609276938824,1.6033978858318143],[34.84470823819066,1.604611570645534],[34.84279834196479,1.608539892113232],[34.839738911228565,1.607990900970142],[34.839738534647346,1.6079899304102683],[34.83973807686045,1.607989848189224],[34.83961010484788,1.6076589292754355],[34.83825349724928,1.604162554940821],[34.83495034115109,1.605438295997329],[34.83481964382471,1.6054450630656552],[34.82942992908198,1.605724612984967],[34.82942996579638,1.6057241224808945],[34.82942550322377,1.605724353537907],[34.82970891706685,1.601994179507116],[34.8288532052332,1.600603083026851],[34.820357905683096,1.596889923204235],[34.81928698058831,1.594106119791655],[34.81538403124921,1.591829675430652],[34.818159282540286,1.588251853688065],[34.82392927236802,1.583076685900039],[34.82494965940175,1.581126616612932],[34.821004634171054,1.580676633174602],[34.81243191532787,1.583987296026592],[34.81108863868599,1.584181831241757],[34.80239963382431,1.5854405734905987],[34.80452944060858,1.590369987889427],[34.8045290549235,1.5903703825583313],[34.80452930543361,1.590370961161447],[34.802891583038964,1.5920459963114046],[34.80147410581854,1.593496491032952],[34.80147352767572,1.5934963596854288],[34.8014732055812,1.593496689118325],[34.79722185400462,1.5925304274238987],[34.78617300708375,1.590020254132348],[34.787961535800015,1.597113359482368],[34.78802356124725,1.5992532668993764],[34.78818995674343,1.604993039057103],[34.78818993011954,1.6049930720868764],[34.78818996082928,1.604994131587398],[34.78341058187896,1.610922966169978],[34.77245838342087,1.613712316678256],[34.75468986012513,1.6157145550062666],[34.75410188913842,1.615954475191829],[34.75592314448786,1.61702554720766],[34.75711368172647,1.6191270181839277]]]}}]}
