{"type":"FeatureCollection","name":"Amuria sub-counties","metadata":{"source":"Uganda Bureau of Statistics NPHC 2024 Map Explorer","retrieved":"2026-07-26","display_only":true,"clipped_to_dashboard_district":true,"positive_area_overlaps_removed":true,"source_gap_ratio":0.0121542},"features":[{"type":"Feature","properties":{"n":"Abarilela","c":"216101","d":"Amuria","od":"Amuria","dc":"216","k":"ABARILELA","a":["ABARILELA"],"lat":1.949962,"lon":33.818071},"geometry":{"type":"Polygon","coordinates":[[[33.754300340321365,1.963261374157133],[33.75602683277226,1.966137355858442],[33.75760203435899,1.972460107214933],[33.75698031510152,1.976725785905067],[33.7644847883512,1.979292911261552],[33.76539884613058,1.980951700870808],[33.76951417809481,1.982378465372545],[33.77031524014653,1.9830192066910886],[33.7786,1.9844],[33.78220351956297,2.001347802944594],[33.78323968777898,2.001637024550368],[33.78266436744884,2.0035152281578155],[33.78440909558993,2.0117209026963887],[33.791531512431796,2.016542777550686],[33.80219646572824,2.0198783184993667],[33.802961368632886,2.019705983760162],[33.80655258174519,2.020491420796287],[33.80925803771567,2.022063872497351],[33.818909984932915,2.019082756163898],[33.820324463703834,2.017996481231921],[33.820638859419205,2.016377281539236],[33.82247347268489,2.015625446997042],[33.8253693894893,2.015479106956269],[33.82851037424943,2.016790600081815],[33.828598633932074,2.016766206702191],[33.82965279085215,2.0158711171648345],[33.8415,1.9968],[33.84154124929696,1.9967573283134956],[33.84336379873886,1.993315890223599],[33.85061209064935,1.983741001764814],[33.85365156249442,1.981558857881527],[33.85885220258919,1.9788494455973868],[33.8589,1.9788],[33.86109068891322,1.9786638554912686],[33.86337805722381,1.978496338487851],[33.863498818287724,1.9785141977335312],[33.88240418034196,1.9773392882273357],[33.88704089234993,1.97521904216356],[33.88887277470836,1.976356902453767],[33.8908430708795,1.975496719519458],[33.892123770181676,1.9767352459209129],[33.8943,1.9766],[33.89071906732631,1.9680560202873356],[33.89048783789036,1.967825481406166],[33.89055823127227,1.9676722711057777],[33.88957506105551,1.9653264614657804],[33.88903540286022,1.96514863065517],[33.88810960704968,1.966632479241141],[33.887136687800904,1.966732573299296],[33.88679976887646,1.963531352697361],[33.88760298478411,1.962746306009007],[33.88789259655183,1.963339997106871],[33.88859981780872,1.9629918924880607],[33.8882,1.9452],[33.88820307076734,1.9451925789789244],[33.88817998919648,1.945164280254451],[33.890841047642695,1.935648361362152],[33.89399177409243,1.9306079932036326],[33.89241035291875,1.929909225708288],[33.89102690787453,1.930754413287046],[33.89036953647405,1.9290074696048136],[33.89013815044125,1.9289052292647402],[33.88903835059307,1.929044744664669],[33.88563523800476,1.9269155702811733],[33.8856,1.9269],[33.88560991075251,1.9268872995541892],[33.88432767245953,1.923330055631482],[33.88458632411772,1.92031744251365],[33.89089126575383,1.91780914222542],[33.89402258816279,1.913410843568667],[33.89905514981226,1.909627043000917],[33.899062974165304,1.9095714104314383],[33.896787538634385,1.9078144285657945],[33.895714639364634,1.908307712302298],[33.89153351267446,1.904653914354256],[33.88799728182394,1.903124282540834],[33.88668365811918,1.9000126980413972],[33.8833,1.8974],[33.882671718365046,1.89713699838537],[33.88197846419955,1.897107149350118],[33.88237402733235,1.899473293574846],[33.880865795947294,1.900622597961191],[33.87911863435059,1.898879979729253],[33.878439501091336,1.896223364886082],[33.87540787932741,1.897083777255928],[33.872839430389796,1.894072090549256],[33.86811650082049,1.8910441166225327],[33.86796824284188,1.8909820551431138],[33.864814815220875,1.890095251252725],[33.864205892878296,1.8894071179490532],[33.858104675173344,1.8868531198400043],[33.85743525387026,1.888163400489961],[33.85591333076492,1.887286210361878],[33.85575721425194,1.8858704617798818],[33.84934299901581,1.883185441448478],[33.84889876154741,1.883047673481934],[33.8476418812229,1.884984306089062],[33.8455734621647,1.885212222168877],[33.84408255728001,1.886687183786474],[33.8396584268455,1.887359708757341],[33.83395049841932,1.889612324139208],[33.82581725347908,1.895168966903666],[33.823471185700555,1.895075499176155],[33.821691428858294,1.893234163648647],[33.81313835275776,1.892672313946483],[33.811802969465184,1.883658937772657],[33.81232821410955,1.881952033221908],[33.814610080942295,1.879664517489094],[33.81038918911583,1.876727619002325],[33.80060533029705,1.873181176602265],[33.795898379665736,1.877961938195913],[33.79070277757999,1.881048854997707],[33.779390229715965,1.890227149703222],[33.777480963550374,1.893041494178414],[33.77536626200395,1.903970391896352],[33.77399179133956,1.907463275221791],[33.768577965206646,1.910360118727761],[33.76257904357361,1.911792289328283],[33.75162508427528,1.919667114414138],[33.74918401766826,1.920482854364214],[33.749692688421035,1.922247526114785],[33.74776090762895,1.939119105367882],[33.74786838613945,1.954724383023672],[33.75093121488823,1.960205172213839],[33.754300340321365,1.963261374157133]]]}},{"type":"Feature","properties":{"n":"Abia","c":"216102","d":"Amuria","od":"Amuria","dc":"216","k":"ABIA","a":["ABIA"],"lat":1.980106,"lon":33.601036},"geometry":{"type":"Polygon","coordinates":[[[33.565111050354126,1.98159017097509],[33.57002020636064,1.983477241507613],[33.57284417676175,1.993684896238955],[33.573757850037424,1.994751651524321],[33.57332003995636,1.998815867700303],[33.57826408313532,2.000245165563091],[33.58102445798883,2.002617181542368],[33.5783802379325,2.006846762032422],[33.58848516844799,2.011858821841944],[33.5898659805882,2.015118903224024],[33.59322715053143,2.017294009242367],[33.590882020186335,2.018929169720533],[33.59014813126649,2.020786118421754],[33.59173340861976,2.020411342039673],[33.59767673613594,2.022355068795827],[33.599680278058955,2.02471641986501],[33.60320171459226,2.02572042446716],[33.607305421859095,2.024600522730926],[33.60982462219708,2.021951760771759],[33.612221423409146,2.022889587252826],[33.61251775731793,2.019967076777627],[33.610764631134,2.011287502009242],[33.61110560068484,2.009893172054042],[33.61265078233036,2.009730746238052],[33.61607709737108,2.01035191885821],[33.62075192593642,2.013571874974898],[33.621072053044756,2.017815569849446],[33.62535161403646,2.019032244369435],[33.631478488347824,2.017872327481752],[33.635665330867965,2.018370132884364],[33.641867259017644,2.021811380703377],[33.64094654513584,2.012447144047026],[33.642091019185564,2.008686734159387],[33.64215858863886,2.004670104788631],[33.6396806954162,1.999606305441819],[33.63394919854814,1.937334294209151],[33.633689919797085,1.9373506353069065],[33.63049770630051,1.939013425353389],[33.62726128537802,1.939267647550474],[33.62264756491692,1.938374162513416],[33.62068853062327,1.9388309663468601],[33.619221403866085,1.9397958334934755],[33.618883044427356,1.940753728705583],[33.616703141922,1.9414519877449914],[33.60958144082895,1.946135629004385],[33.607711022588454,1.948168534454072],[33.59962755643159,1.952739529120848],[33.59945925416033,1.9527186007717632],[33.584387734483684,1.9547104315660329],[33.58428116320188,1.954789790902927],[33.579023019831546,1.955419424691867],[33.5769,1.9557],[33.569416589113914,1.9695716884717736],[33.56875064069736,1.970869369635515],[33.568711651873045,1.9708784014060576],[33.5687,1.9709],[33.5671368145414,1.9724529013437444],[33.567104656763284,1.972624823627938],[33.566886529123614,1.9727015401469368],[33.56573981406073,1.9738407110317784],[33.56470011147462,1.97621789316492],[33.562432126309524,1.978621380959164],[33.56313686218143,1.978418761333113],[33.565111050354126,1.98159017097509]]]}},{"type":"Feature","properties":{"n":"Amolo","c":"216103","d":"Amuria","od":"Amuria","dc":"216","k":"AMOLO","a":["AMOLO"],"lat":1.802379,"lon":33.840276},"geometry":{"type":"Polygon","coordinates":[[[33.799115126804054,1.785163055559234],[33.80482822464705,1.793059812868969],[33.811203797465446,1.79612031767863],[33.81248990057309,1.798657511978524],[33.81111510857448,1.809285186973139],[33.80998273237222,1.830204471963691],[33.808509305970006,1.833987701742136],[33.80380278579376,1.840882820788152],[33.802852639419385,1.843899085028251],[33.806854426680616,1.856247503776596],[33.80685621143963,1.86002956855457],[33.8055734016325,1.864195265978664],[33.80060533741591,1.87318116700425],[33.80211101358589,1.8737269550272722],[33.81038918911583,1.876727619002325],[33.81040058981276,1.876735551612523],[33.81460694037856,1.879662081007843],[33.81460679262786,1.8796622294783898],[33.814610080942295,1.879664517489094],[33.81232821410955,1.881952033221908],[33.811802969465184,1.883658937772657],[33.81313835275776,1.892672313946483],[33.82061040368488,1.893163151340961],[33.82168786176618,1.893233532190686],[33.82168827201142,1.893233956276065],[33.821691428858294,1.893234163648647],[33.823471185700555,1.895075499176155],[33.82581725347908,1.895168966903666],[33.833352664285414,1.890020765141408],[33.83395028613531,1.889612432459205],[33.833950413320395,1.8896123822788964],[33.83395049841932,1.889612324139208],[33.8396584268455,1.887359708757341],[33.84408255728001,1.886687183786474],[33.84547239423445,1.8853122093105272],[33.8455734511346,1.885212214603524],[33.84489364441064,1.881639002120106],[33.84717289830111,1.880271307401163],[33.84631578201715,1.878435338751045],[33.84724040765728,1.876896885643006],[33.846512447129314,1.873785456983431],[33.847364870047535,1.871731409552309],[33.84676979751271,1.870492486827511],[33.842873507094666,1.870565251784845],[33.84389173745192,1.868631145078401],[33.84669575543883,1.868221847573492],[33.849098886416286,1.866028359143703],[33.84913332023536,1.8630900065825773],[33.847390338902166,1.862359448518419],[33.84705542757563,1.860495264588542],[33.849199465394015,1.857445619710833],[33.8492,1.8574],[33.8626,1.8365],[33.86289340857852,1.8363246293553652],[33.86331475163193,1.835448021357003],[33.86597303900834,1.832959271547273],[33.87114937756541,1.8313900272022847],[33.87128161843257,1.8313109866839816],[33.87001762088125,1.827422103295336],[33.87037874995876,1.8267479409727063],[33.867806964838266,1.814040296847912],[33.86720816480906,1.812496087795005],[33.866245499996495,1.8063248235120926],[33.8662,1.8061],[33.870945361064685,1.7985632500737356],[33.86994493415872,1.795578328191944],[33.869605648002334,1.789852019687386],[33.870516621523244,1.7815490519881318],[33.86983397877649,1.767213554306326],[33.86912202123014,1.7657145367910145],[33.86441028551077,1.7602558185795503],[33.860310833062165,1.7562824054585515],[33.8307,1.7398],[33.83028709017537,1.7394572578579834],[33.82864669813225,1.738804667174235],[33.827304441930956,1.737403023607484],[33.82715606018533,1.736858298323773],[33.822765494509696,1.7332138418479188],[33.822723942088764,1.733199043765446],[33.82263349738982,1.733104275611159],[33.815688684216425,1.7273396267678862],[33.81540695398905,1.727149868572159],[33.81229567135205,1.722673259048601],[33.81059734029795,1.715246943776296],[33.8105008004302,1.7153898556359892],[33.80491457955956,1.7260811874458268],[33.808414563301426,1.730880468045109],[33.80900284520132,1.733910066103481],[33.8056080537146,1.735530965703231],[33.80038469833342,1.735108100932297],[33.80006846828574,1.7353560415584002],[33.79300257981841,1.7488792730748077],[33.79264777853032,1.750182690062889],[33.789785063092076,1.755037199823783],[33.7897,1.7552],[33.78910915299238,1.7672138891549298],[33.78935998683362,1.777125687925549],[33.799115126804054,1.785163055559234]]]}},{"type":"Feature","properties":{"n":"Amuria Town Council","c":"216104","d":"Amuria","od":"Amuria","dc":"216","k":"AMURIATOWNCOUNCIL","a":["AMURIA","AMURIATOWNCOUNCIL","TOWNCOUNCIL"],"lat":2.041994,"lon":33.634595},"geometry":{"type":"Polygon","coordinates":[[[33.61222143434198,2.02288959218978],[33.61676792465619,2.024245822339263],[33.61205125060796,2.034814520540525],[33.61289007788455,2.036158891685212],[33.61255040540714,2.045287099260908],[33.611289504875565,2.047263993010799],[33.612387758741484,2.055913115508311],[33.61720909469899,2.061393827890182],[33.619260727295305,2.069055435690573],[33.622541591837745,2.071614361446023],[33.62593331689327,2.072707911992609],[33.62863974329386,2.077851662159181],[33.63277487574818,2.065236999378505],[33.639493939830494,2.062458969891848],[33.643061510172025,2.058004898311384],[33.64686671455164,2.055897443366195],[33.65065473618396,2.048532571757218],[33.654634704590876,2.044951932020183],[33.65875753148397,2.038473987498364],[33.659873268468985,2.039037056666693],[33.66015610958853,2.034385488579209],[33.66173793919187,2.031252071655069],[33.663280741164435,2.020904479140639],[33.6599992056749,2.01834675866719],[33.65562786430166,2.005691384174704],[33.649061671632836,2.005646128612605],[33.6417966175994,2.0039303841677256],[33.64215858863886,2.004670104788631],[33.642091019185564,2.008686734159387],[33.642090954944905,2.008686945235561],[33.64209095536983,2.008686951731178],[33.64208108949052,2.0087193602582056],[33.6409465452713,2.0124471436019573],[33.640946577601234,2.012447474240407],[33.641867259017644,2.021811380703377],[33.64186189232621,2.021808402901192],[33.64186198966461,2.021809398381559],[33.63680478872137,2.019002380914051],[33.635665330867965,2.018370132884364],[33.631478488347824,2.017872327481752],[33.62535161403646,2.019032244369435],[33.621072053044756,2.017815569849446],[33.62075192593642,2.013571874974898],[33.61726747489276,2.0111718341403497],[33.61265099058909,2.0097307839942467],[33.61265078233036,2.009730746238052],[33.61110560068484,2.009893172054042],[33.610764631134,2.011287502009242],[33.61251775731793,2.019967076777627],[33.61233517371238,2.021767756632346],[33.61222143434198,2.02288959218978]]]}},{"type":"Feature","properties":{"n":"Apeduru","c":"216105","d":"Amuria","od":"Amuria","dc":"216","k":"APEDURU","a":["APEDURU"],"lat":2.076703,"lon":33.709443},"geometry":{"type":"Polygon","coordinates":[[[33.658909556354075,2.061829805938021],[33.66391456594581,2.071538168164968],[33.670805061328466,2.071851909044703],[33.67190741065334,2.072812870604731],[33.6713719401544,2.080592432603887],[33.67349198372064,2.083135459550054],[33.674354397589106,2.085990067859033],[33.681315868609325,2.094204746841378],[33.68167913823646,2.097262441161931],[33.68653606945622,2.098759163471685],[33.68729804420929,2.105695374000725],[33.68982261844263,2.111678733014573],[33.68977686998696,2.115843031117839],[33.69438464972274,2.123378035091836],[33.68896593458182,2.129265284286288],[33.68298005121526,2.133319187516699],[33.6805556309116,2.138633861514084],[33.67972492101583,2.144808693304463],[33.68075766534335,2.148273658511924],[33.68589431358824,2.154142628828381],[33.68879038941466,2.155619649011235],[33.688709093143196,2.15754805233153],[33.690176107996784,2.15712649576668],[33.694265038650535,2.151619163762192],[33.695116799183396,2.1509631643201974],[33.7063,2.1367],[33.70771455147569,2.129099782749262],[33.705564185615955,2.127941129123808],[33.7071939707462,2.114142720673717],[33.711008175793125,2.1114035300606924],[33.7122,2.105],[33.71262366731963,2.104633364819551],[33.714116921589586,2.100575841126967],[33.72245494358737,2.096125529587849],[33.7226,2.096],[33.7442,2.0933],[33.75,2.0617],[33.74430563334926,2.059751927198433],[33.73603066861196,2.059741471238536],[33.73464465188884,2.057932264447286],[33.73504933529243,2.0565852989158313],[33.7348,2.0565],[33.73574458102695,2.0542712133071914],[33.73597348069117,2.053509333884577],[33.73622524245897,2.0531370683552432],[33.7437,2.0355],[33.74022532419439,2.026968682168342],[33.73857709221251,2.025363586712512],[33.73652113636663,2.021654979897821],[33.73210853332456,2.008666705980011],[33.73142597713056,2.007934249909192],[33.72842160654215,2.008747304009941],[33.72544008750852,2.007169845080038],[33.721968665509166,2.004700656927462],[33.72021266794947,2.001631262806659],[33.718585045088965,2.000530868684914],[33.71673826301281,2.000187917088684],[33.712378281207066,2.003139048842603],[33.70205994154508,2.003713422594913],[33.69653575314083,2.007732480241226],[33.6932103348774,2.011904456943178],[33.690814905776904,2.013315567597904],[33.688129206919555,2.010216150341366],[33.679833377631915,2.005476786118505],[33.6778798805471,2.00337247091603],[33.67865235379232,2.001470328513646],[33.67837797990256,1.998889677058308],[33.681344779400355,1.995324657830521],[33.67576990782088,1.990068651366419],[33.67047108683611,1.989039881186722],[33.6697630868455,1.99285720397026],[33.66674222176694,1.999362460126658],[33.66498684140248,2.005662137949114],[33.66114230566866,2.006341559062387],[33.660776657296466,2.005105438359435],[33.657090672491165,2.003703522538159],[33.655715554423054,2.005641923924323],[33.65999842719941,2.0183445049198756],[33.6599992056749,2.01834675866719],[33.663280741164435,2.020904479140639],[33.6625026416735,2.0261232023540576],[33.662628658382985,2.027213762422098],[33.662120147022726,2.0286885988569616],[33.66173793919187,2.031252071655069],[33.66015610958853,2.034385488579209],[33.659873268468985,2.039037056666693],[33.65875753148397,2.038473987498364],[33.654634704590876,2.044951932020183],[33.65065473618396,2.048532571757218],[33.64824784296513,2.053212180601575],[33.64686672710448,2.055897440207584],[33.6528497379655,2.057315398305785],[33.658909556354075,2.061829805938021]]]}},{"type":"Feature","properties":{"n":"Asamuk","c":"216106","d":"Amuria","od":"Amuria","dc":"216","k":"ASAMUK","a":["ASAMUK"],"lat":1.93694,"lon":33.695996},"geometry":{"type":"MultiPolygon","coordinates":[[[[33.63968353015402,1.9996120984854209],[33.64179616774251,2.003929464844424],[33.65100458532216,2.0056595195768296],[33.65562786430166,2.005691384174704],[33.65564287203543,2.0057348327354427],[33.655729402287754,2.005725379611181],[33.65573892543848,2.005711240066049],[33.655715554423054,2.005641923924323],[33.657090672491165,2.003703522538159],[33.660776657296466,2.005105438359435],[33.66114213358228,2.006340977302558],[33.662381567862134,2.0061225518902805],[33.66498684140248,2.005662137949114],[33.66674222176694,1.999362460126658],[33.6697630868455,1.99285720397026],[33.670404446002124,1.9893991884992286],[33.670471078127385,1.989039874681012],[33.67035014627118,1.982319922785351],[33.67142759866176,1.973431294460292],[33.67046393501489,1.971290321765079],[33.6681502506807,1.969703880082875],[33.675412379920914,1.969393005091054],[33.68470371976483,1.973324208743516],[33.687734258836755,1.963208030034001],[33.687728240197835,1.960084895371568],[33.691850017503874,1.957639001166973],[33.69256445601861,1.959507924074474],[33.69450688545807,1.960170395183359],[33.69768780889209,1.959795138503757],[33.704705273933776,1.961804492438419],[33.70616591195411,1.959916356973993],[33.710239055496764,1.958555662625904],[33.71169264690778,1.958522828375499],[33.714896571132634,1.960395867040295],[33.7201235148211,1.971531572436673],[33.718905760014046,1.975016538445644],[33.719748793694755,1.978951852099811],[33.728685069840715,1.979244054218281],[33.72862696142667,1.980050540244055],[33.735326925136874,1.986596546291206],[33.7399673914859,1.98924502713549],[33.74316476410088,1.992856659004536],[33.74497541503693,1.9915576741224472],[33.755612228293494,1.9807900803750285],[33.75699586181828,1.9766191183093722],[33.75760203435899,1.972460107214933],[33.75760190771423,1.9724595988715439],[33.755487363449745,1.9652387108054918],[33.75522021773709,1.9647937009354546],[33.75093399603899,1.9602076950520384],[33.75093121488823,1.960205172213839],[33.74786838613945,1.954724383023672],[33.74786838179979,1.9547237529290202],[33.74786828923596,1.95472358729862],[33.747768813163404,1.9402669446851142],[33.74776090762895,1.939119105367882],[33.74776091447632,1.939119045565016],[33.74776091392308,1.939118965163085],[33.74935848847973,1.9210881254764578],[33.749280643234506,1.9208180661022718],[33.73802761065455,1.913494797907433],[33.73374126391429,1.91378610757189],[33.73139695560218,1.912719656588186],[33.728718084073655,1.913896654835289],[33.72631766865294,1.91370315898973],[33.721555196887216,1.912020207888324],[33.71548783103132,1.908510099062327],[33.71102412314893,1.90295777070836],[33.70782856915633,1.897260193273232],[33.70785943545825,1.893397550521478],[33.70918183258745,1.88961506449864],[33.70236532259948,1.876662333253552],[33.701831452554565,1.874807730859226],[33.702606436886086,1.868086901611177],[33.6885214744256,1.880034260925499],[33.686519027469004,1.881265348097399],[33.68471828181132,1.8818759704400516],[33.66344767653149,1.892427530539497],[33.66313386397491,1.892627834005032],[33.656728041171164,1.90903467868442],[33.65703436047306,1.9170602443940816],[33.65745875100277,1.919046529228855],[33.65719006996132,1.9211398329864422],[33.6572,1.9214],[33.652756064699474,1.927223087635173],[33.652050579231044,1.928801049522111],[33.64581720009159,1.936601161683388],[33.64038506742639,1.937634736403149],[33.634834519425915,1.9372784966748373],[33.63394920976638,1.9373342935021194],[33.63855394415943,1.9873642910896974],[33.6396806906735,1.9996062539129738],[33.63968353015402,1.9996120984854209]]],[[[33.685682387534655,1.881536371049183],[33.68568238943078,1.881536376902318],[33.685682387534655,1.881536371049182],[33.685682387534655,1.881536371049183]]]]}},{"type":"Feature","properties":{"n":"Asamuk Town Council","c":"216107","d":"Amuria","od":"Amuria","dc":"216","k":"ASAMUKTOWNCOUNCIL","a":["ASAMUK","ASAMUKTOWNCOUNCIL"],"lat":1.984034,"lon":33.701543},"geometry":{"type":"Polygon","coordinates":[[[33.670710052087145,1.9718371203635796],[33.67142759866176,1.973431294460292],[33.6714275691443,1.9734315379696499],[33.671427578691166,1.973431559184052],[33.67035014662896,1.9823199426665439],[33.67041185242711,1.9857488158206809],[33.670471087749306,1.989039869167084],[33.67078986454476,1.989101772124641],[33.67576990782088,1.990068651366419],[33.67577016235098,1.9900688913381952],[33.67577034541215,1.990068926886667],[33.67667959798901,1.9909263101188848],[33.681344779400355,1.995324657830521],[33.67837797990256,1.998889677058308],[33.67865235379232,2.001470328513646],[33.6778798805471,2.00337247091603],[33.679833377631915,2.005476786118505],[33.688129206919555,2.010216150341366],[33.690814905776904,2.013315567597904],[33.6932103348774,2.011904456943178],[33.69653575314083,2.007732480241226],[33.70205994154508,2.003713422594913],[33.71005030717645,2.003268636278474],[33.71237839996713,2.0031389684577268],[33.71673826301281,2.000187917088684],[33.718585045088965,2.000530868684914],[33.72021266794947,2.001631262806659],[33.72021377011861,2.0016331893420776],[33.722695556901805,2.005217687589608],[33.7241520282012,2.0062536612274164],[33.72841787208539,2.0087453281875156],[33.72842160654215,2.008747304009941],[33.73135363506953,2.007953827390615],[33.73142597345933,2.007934239123269],[33.7317445736625,2.0061460263908573],[33.7314,2.0053],[33.73898574896627,1.9976209836284085],[33.74316475542631,1.992856666636687],[33.73996714200924,1.9892448847501991],[33.735326925136874,1.986596546291206],[33.72862696142667,1.980050540244055],[33.728685069840715,1.979244054218281],[33.719748793694755,1.978951852099811],[33.718905760014046,1.975016538445644],[33.7201235148211,1.971531572436673],[33.715242156726084,1.961132117435804],[33.71169242373999,1.958522833416494],[33.711691097212096,1.9585228633805876],[33.70616582684449,1.9599164669933733],[33.704705273933776,1.961804492438419],[33.69795109703116,1.9598705274162833],[33.69768773114432,1.9597951476757387],[33.696259887923105,1.959963591750957],[33.694507215996495,1.960170498477201],[33.694506906247575,1.9601703927308005],[33.69450688545807,1.960170395183359],[33.69256445601861,1.959507924074474],[33.691850017503874,1.957639001166973],[33.68801229494469,1.9599163351104136],[33.68773425426458,1.9632056574865804],[33.687734258836755,1.963208030034001],[33.68470371976483,1.973324208743516],[33.67560758315987,1.969475596374855],[33.67541228535677,1.9693930091391267],[33.6681502506807,1.969703880082875],[33.67046393501489,1.971290321765079],[33.67046401133138,1.971290491317534],[33.670464080228726,1.97129053842834],[33.670710052087145,1.9718371203635796]]]}},{"type":"Feature","properties":{"n":"Kuju","c":"216108","d":"Amuria","od":"Amuria","dc":"216","k":"KUJU","a":["KUJU"],"lat":2.106653,"lon":33.574452},"geometry":{"type":"Polygon","coordinates":[[[33.535543724998114,2.202716938712129],[33.536533288514995,2.203675537876109],[33.53754731473257,2.202318512728546],[33.538520860744605,2.202444448163664],[33.53807868344752,2.202004244897418],[33.54082076985325,2.198733591075686],[33.54481520977478,2.198823414727934],[33.55062575585247,2.197210935000783],[33.55197566518904,2.196639999222718],[33.56662581717997,2.1832962302118766],[33.5666330084739,2.182620884160687],[33.567475990391074,2.1819786484918686],[33.567383554041434,2.1799714591853503],[33.56730453153706,2.17974231188773],[33.56736908994074,2.1796573815703315],[33.56732223761395,2.178640016760067],[33.56617283256219,2.177546703350303],[33.56532988218972,2.173923279957831],[33.56662026673404,2.173276154724433],[33.56581136054734,2.170951706249845],[33.56688199466719,2.169765900940676],[33.56662318294045,2.167546908068273],[33.56680811717781,2.1674762587181244],[33.5668,2.1673],[33.573866353663526,2.162178514317262],[33.574452724263416,2.161176638996028],[33.576228534676225,2.160466474867691],[33.5784909685829,2.158826729192211],[33.578787432724766,2.158344330440607],[33.578006757829506,2.158005305870782],[33.578614894152125,2.156788671363881],[33.5799419758401,2.157131618840278],[33.58098062518331,2.155674426736232],[33.58240710605951,2.155692234643925],[33.584253284831206,2.154316756123081],[33.584584643997175,2.154410212148836],[33.58753244677972,2.1522737312330475],[33.59038735436272,2.14862642806933],[33.593590199696855,2.147428199320042],[33.59573366215666,2.144894806596022],[33.600232067788305,2.142413698572882],[33.598778422234744,2.116882150433585],[33.59985933281687,2.102252693769034],[33.59520442186425,2.07469614019837],[33.597121388943,2.065225346312851],[33.603102094599365,2.066856921378057],[33.605449576019616,2.068261327307073],[33.618593209005745,2.068040885310104],[33.617209065647636,2.061393794865699],[33.612387758741484,2.055913115508311],[33.611289504875565,2.047263993010799],[33.61255040540714,2.045287099260908],[33.61289007788455,2.036158891685212],[33.61205125060796,2.034814520540525],[33.61205157057843,2.034813803579532],[33.612051565899215,2.034813796084208],[33.61236795158,2.034104885539413],[33.61676792465619,2.024245822339263],[33.61222143434198,2.02288959218978],[33.61223595326571,2.0227463889626245],[33.61223594361475,2.02274638577734],[33.612221423409146,2.022889587252826],[33.60982490359276,2.0219518708769755],[33.60870386995476,2.023130152922775],[33.607305421859095,2.024600522730926],[33.60320171459226,2.02572042446716],[33.599680278058955,2.02471641986501],[33.59968012925535,2.0247162444868176],[33.59968005666595,2.02471622378805],[33.59929906031948,2.0242671210974823],[33.59767673613594,2.022355068795827],[33.59173340861976,2.020411342039673],[33.59014813126649,2.020786118421754],[33.590882020186335,2.018929169720533],[33.59322715053143,2.017294009242367],[33.5898659805882,2.015118903224024],[33.589865770091464,2.0151184062436873],[33.58986553844812,2.015118256391951],[33.589571451823744,2.0144235242412223],[33.58848516844799,2.011858821841944],[33.5792995655042,2.0073027498065934],[33.57838023218506,2.006846771987828],[33.574164471506734,2.010892889442522],[33.57230696704916,2.011130417505926],[33.569794037282804,2.015724278155761],[33.56519536943713,2.019864510654423],[33.568015808051825,2.021121970783467],[33.56998607445715,2.023483708803966],[33.559628957739946,2.032635940544667],[33.55800640103354,2.040031660690629],[33.558952635507595,2.040739560789924],[33.5590487244871,2.043007913809137],[33.557082738223485,2.050232962214873],[33.54924623441823,2.056467763208333],[33.54745650259185,2.061012137050296],[33.543943038106995,2.06492159413621],[33.542699643398215,2.071389455854753],[33.538893543833034,2.077100381682803],[33.53732695074688,2.081416388544266],[33.53745724132751,2.084356436238501],[33.5384588485967,2.084709544597046],[33.53819738150059,2.085894148049948],[33.53970657140734,2.089548646214689],[33.54147769298127,2.090823353319914],[33.543024754026746,2.094315361127957],[33.54628194269001,2.105061575698061],[33.5524594221144,2.108244387976528],[33.552798663119994,2.109926456018409],[33.55636613553555,2.112413439121965],[33.55751973129664,2.114773849379673],[33.55985753541709,2.116483355268844],[33.56017719371725,2.117830444777423],[33.55943836759236,2.122616948219757],[33.555295177637085,2.128797219369488],[33.55581904354533,2.131096266955447],[33.55510112168659,2.131511338923879],[33.555023637870285,2.133293584740193],[33.556044484024135,2.135787179405335],[33.55425864272821,2.140585428759334],[33.552587110609316,2.14242271040361],[33.55201814284399,2.144431897298296],[33.54920927140646,2.147001517753646],[33.54946111287284,2.147760284295326],[33.54688962998556,2.15164348346242],[33.54838558985028,2.156521007788553],[33.548407399037394,2.159213767709074],[33.54711935509346,2.160654034958068],[33.54744955602806,2.165646553488453],[33.545282997001635,2.168082146617088],[33.54511249563841,2.171917934423671],[33.54306463410862,2.1744971492871],[33.54361265926291,2.176487374020661],[33.54260439537108,2.178803052220157],[33.53856473792378,2.185255458786763],[33.53534180353981,2.199170651535439],[33.53613521012301,2.200624926956893],[33.535543724998114,2.202716938712129]]]}},{"type":"Feature","properties":{"n":"Wera","c":"216109","d":"Amuria","od":"Amuria","dc":"216","k":"WERA","a":["WERA"],"lat":1.848416,"lon":33.773224},"geometry":{"type":"Polygon","coordinates":[[[33.70918160447028,1.889614631030438],[33.70918183258745,1.88961506449864],[33.709180742626856,1.8896181821405365],[33.707845678307564,1.8951191353915902],[33.70783378116195,1.896607957193684],[33.708348349758836,1.898186946580774],[33.70895084714142,1.899261181439488],[33.71548799114897,1.9085101916940193],[33.72133167082034,1.9118908929864673],[33.72155524857409,1.9120202261533106],[33.72631766865294,1.91370315898973],[33.728718084073655,1.913896654835289],[33.73139695560218,1.912719656588186],[33.73374126391429,1.91378610757189],[33.73802761065455,1.913494797907433],[33.73802958187876,1.9134960807441714],[33.749184010914895,1.920482845084675],[33.749263092721115,1.9204564295712654],[33.75162508427528,1.919667114414138],[33.76257904357361,1.911792289328283],[33.762580021913415,1.9117920557613868],[33.77101568277814,1.9090557387674512],[33.77319456609686,1.9078898564806677],[33.77445715740319,1.9062806604116027],[33.77490557546519,1.9051411148307793],[33.77710222267309,1.894281026138786],[33.77733128341088,1.8938150496419075],[33.777480963550374,1.893041494178414],[33.778318205249896,1.891807362136521],[33.77849496041945,1.891447790454759],[33.75934683886437,1.886169613618683],[33.74658095010032,1.878024731820073],[33.7470693341589,1.874595019837207],[33.7457949025602,1.872194226074529],[33.74795646071889,1.866995055498804],[33.75131160821541,1.866964705509199],[33.75161592818605,1.864777588915328],[33.75056372345043,1.862093270620569],[33.747993548861764,1.859557206314401],[33.73980540670319,1.854426021108765],[33.74194352637645,1.844376913401698],[33.75287799195843,1.847682388489226],[33.757442502212356,1.847415322206569],[33.76006195248209,1.848096997805106],[33.76133734649043,1.848734101014524],[33.76010570260225,1.851295100075751],[33.768121411955896,1.852030645679012],[33.770952392379165,1.851246267772759],[33.77475108815336,1.853116159617618],[33.77937606715553,1.849513385148446],[33.78251861982209,1.850538764574853],[33.78830950249538,1.846731769404939],[33.793058372039674,1.851322746838306],[33.797252000795645,1.845748800043099],[33.80366377919494,1.841277525031533],[33.803691667373904,1.841235569085974],[33.80380278579376,1.840882820788152],[33.808509305970006,1.833987701742136],[33.809982702139,1.8302045495917394],[33.810018697216584,1.829540064828175],[33.81111510857448,1.809285186973139],[33.81248990057309,1.798657511978524],[33.81120384379587,1.7961204090782137],[33.80952838230251,1.7953160579971232],[33.80482822464705,1.793059812868969],[33.80482800959011,1.7930595156129925],[33.80482792878982,1.793059476822604],[33.80409743635147,1.792049702772199],[33.799115182066764,1.7851631319444479],[33.79140684157366,1.779422781225574],[33.7897608078245,1.7774559287697367],[33.78935998683362,1.777125687925549],[33.789356106356465,1.7769723493311742],[33.78915852105665,1.776736253848695],[33.788557078179906,1.778439410341922],[33.7885,1.7796],[33.787785044660296,1.7806256427386278],[33.78643666765612,1.784443955563976],[33.77959582226064,1.797048745632575],[33.777989228962355,1.803904467958513],[33.775395576417104,1.802216070655622],[33.7694487250285,1.807040288396989],[33.76903295971087,1.8072104779059115],[33.75981375006692,1.8124971998203823],[33.75902486480055,1.813132857950975],[33.75869362127552,1.8131395335623441],[33.752605503329384,1.8166307424410588],[33.75162996385876,1.819106239857723],[33.75008044875949,1.820445302485289],[33.734056200202666,1.827267772200167],[33.73403719963318,1.8272786680069644],[33.733931139145675,1.8273965339079374],[33.72835764805426,1.83520983917627],[33.72720951598747,1.83741792017084],[33.72628555869509,1.838114637343335],[33.7126,1.8573],[33.71258959329331,1.8573098021677146],[33.71257970304335,1.857326462674587],[33.70260645027609,1.86808688910195],[33.70183151691954,1.8748079544556502],[33.70183224001261,1.8748104663967966],[33.709181615269905,1.889614586532041],[33.70918160447028,1.889614631030438]]]}},{"type":"Feature","properties":{"n":"Wera Town Council","c":"216110","d":"Amuria","od":"Amuria","dc":"216","k":"WERATOWNCOUNCIL","a":["WERA","WERATOWNCOUNCIL"],"lat":1.865871,"lon":33.778048},"geometry":{"type":"Polygon","coordinates":[[[33.74579490256166,1.8721942260772806],[33.7470693341589,1.874595019837207],[33.74658095010032,1.878024731820073],[33.75883895958174,1.8858455768985285],[33.75934689490263,1.8861696290656211],[33.7784949329868,1.8914477828929541],[33.778494967241464,1.891447780323739],[33.77866563284143,1.8912952381904833],[33.779390229715965,1.890227149703222],[33.7844883332013,1.8860908669851209],[33.787212550073136,1.88365594247095],[33.788654670923265,1.8827105608052486],[33.79070277757999,1.881048854997707],[33.79589833467788,1.8779619649250119],[33.795899312586485,1.8779609906457855],[33.800432622237764,1.8733565929432114],[33.80557343316883,1.864195163570017],[33.80557384221658,1.8641938352599605],[33.8068556608826,1.8588628887154184],[33.80685485882801,1.8571632629530526],[33.80337713854123,1.846770460375812],[33.80285305469874,1.8439003664665168],[33.802852639419385,1.843899085028251],[33.80285672490548,1.8438861155469677],[33.803663774762754,1.841277539696053],[33.801573819446965,1.8427349654192602],[33.797252000795645,1.845748800043099],[33.793058372039674,1.851322746838306],[33.78830950249538,1.846731769404939],[33.78251861982209,1.850538764574853],[33.77937606715553,1.849513385148446],[33.77475108815336,1.853116159617618],[33.774749987805656,1.8531156179761377],[33.77474968948862,1.853115850349285],[33.7729177842688,1.852213723574655],[33.7709526498729,1.8512463945229578],[33.770272603026974,1.8514346165668316],[33.768121411955896,1.852030645679012],[33.76010570260225,1.851295100075751],[33.76133734649043,1.848734101014524],[33.76006195248209,1.848096997805106],[33.757442502212356,1.847415322206569],[33.75287799195843,1.847682388489226],[33.75287719975177,1.847682149006158],[33.75287706548332,1.847682156872057],[33.75275280162577,1.8476445436103246],[33.74194352637645,1.844376913401698],[33.73980540670319,1.854426021108765],[33.747993548861764,1.859557206314401],[33.75056372345043,1.862093270620569],[33.75161592818605,1.864777588915328],[33.75131160821541,1.866964705509199],[33.74795646071889,1.866995055498804],[33.745794927791756,1.8721941653853607],[33.74579490256166,1.8721942260772806]]]}},{"type":"Feature","properties":{"n":"Willa","c":"216111","d":"Amuria","od":"Amuria","dc":"216","k":"WILLA","a":["WILLA"],"lat":2.137459,"lon":33.646348},"geometry":{"type":"Polygon","coordinates":[[[33.59979563523419,2.1031148011818566],[33.59877842392266,2.116882127588673],[33.59877844324077,2.1168825193793155],[33.600085799542,2.139844671506618],[33.60061037444732,2.141590843713822],[33.60259196787493,2.140766256067391],[33.60353520473612,2.139201386322724],[33.60660711467329,2.1384489719340403],[33.609339570142176,2.1364685684290636],[33.610332396676064,2.135363596288992],[33.61289283846418,2.139577991329967],[33.620356546642846,2.148254072128665],[33.624139380645694,2.154870399939137],[33.62433007152944,2.156823002752895],[33.623277749009354,2.159490901815853],[33.625776120559664,2.162631822294357],[33.635199006429964,2.163559892379561],[33.64039257024575,2.163284840022793],[33.641065897296166,2.178216391832945],[33.63926387925781,2.1808652552860828],[33.6393,2.1809],[33.63649478478511,2.201407090536489],[33.645993319091474,2.2143363763921884],[33.64599956197849,2.214344339258281],[33.64693932529598,2.2148937716407886],[33.6613,2.2206],[33.6687168384195,2.207300841454682],[33.66869841781194,2.207291839390317],[33.668732778038276,2.207272260069289],[33.6717127207571,2.2019289145045025],[33.67169203996864,2.201449899553034],[33.67270099282709,2.2001568404479794],[33.6729,2.1998],[33.672937765326566,2.1994848548610566],[33.67190304404587,2.196183082664187],[33.67398562436561,2.190740651845579],[33.67405612978813,2.1901522962508286],[33.6738555943595,2.188882451089493],[33.674274202128665,2.1883325201676835],[33.67561812469345,2.177117718075349],[33.67577196418191,2.175094218453844],[33.67757736220381,2.172989364962899],[33.677976833078056,2.172823645680781],[33.68930185070517,2.158379606805537],[33.68928963999169,2.1573812282979574],[33.688709093143196,2.15754805233153],[33.68872721938914,2.1571180853448624],[33.68847243483836,2.157004783324594],[33.68879016736136,2.155624916267792],[33.68879038141861,2.1556198386830254],[33.68791582345257,2.155173613874494],[33.68589431358824,2.154142628828381],[33.685893605351325,2.154141819619485],[33.685893342924146,2.154141685721537],[33.68503450709501,2.153160241375304],[33.68075766534335,2.148273658511924],[33.67985648508023,2.145250104497486],[33.67972506350104,2.144809489501619],[33.67972509298548,2.1448092702806014],[33.67972492101583,2.144808693304463],[33.6805556309116,2.138633861514084],[33.680555676775555,2.138633760973776],[33.68055568355526,2.138633710565665],[33.682979586669354,2.133320053627835],[33.6829796871702,2.1333199855552167],[33.68298005121526,2.133319187516699],[33.68896593458182,2.129265284286288],[33.69438464972274,2.123378035091836],[33.69070483946546,2.117360519823729],[33.68977719628058,2.115843699915072],[33.68977719772864,2.115843567066819],[33.68977686998696,2.115843031117839],[33.689819580034104,2.1119553071343846],[33.689822595309,2.111678678186786],[33.68729804420929,2.105695374000725],[33.68653606945622,2.098759163471685],[33.68167913823646,2.097262441161931],[33.681330129865906,2.094324785952811],[33.68131579160312,2.094204655972472],[33.674354397589106,2.085990067859033],[33.67349198372064,2.083135459550054],[33.6713719401544,2.080592432603887],[33.67190741065334,2.072812870604731],[33.670805061328466,2.071851909044703],[33.66391456594581,2.071538168164968],[33.658909556354075,2.061829805938021],[33.65284988134422,2.057315505119214],[33.65284904228048,2.0573152334302356],[33.646866799825574,2.0558974574422955],[33.64686671967327,2.055897450107122],[33.64686666756268,2.0558974693903216],[33.643792295027055,2.057600164162319],[33.639497251198215,2.062454835686368],[33.639493939830494,2.062458969891848],[33.63949339385293,2.0624591956289064],[33.639493183273345,2.062459433646206],[33.63868732017731,2.0627924706820777],[33.63277577783567,2.0652366264060777],[33.62864268151954,2.077848748723614],[33.62864145882049,2.077846428762141],[33.62863974329386,2.077851662159181],[33.62595263471191,2.0727446268402083],[33.62593327814762,2.0727078995003456],[33.622541591837745,2.071614361446023],[33.62151650408921,2.0708148394275434],[33.62074480686909,2.070484114806633],[33.62018818472265,2.06977881048012],[33.619260727295305,2.069055435690573],[33.61907760238696,2.068371574833235],[33.61854403762769,2.06769548687017],[33.618521961321576,2.06769873158893],[33.618593209005745,2.068040885310104],[33.61588498939773,2.0680863069480373],[33.612822397345504,2.068536438860214],[33.60544991072742,2.068261357109518],[33.605449853140954,2.0682613226592577],[33.605449576019616,2.068261327307073],[33.603102164406,2.066856963140625],[33.60307944744567,2.0668507430885055],[33.597121399442365,2.0652253491771453],[33.59712129682488,2.0652258014232814],[33.59528338927246,2.0743060009752763],[33.59985846493243,2.1022475559899867],[33.59985933281687,2.102252693769034],[33.59985932453406,2.1022528058717276],[33.599859325041926,2.102252808973434],[33.59979563523419,2.1031148011818566]]]}},{"type":"Feature","properties":{"n":"Akeriau","c":"216201","d":"Amuria","od":"Amuria","dc":"216","k":"AKERIAU","a":["AKERIAU"],"lat":2.045328,"lon":33.388096},"geometry":{"type":"Polygon","coordinates":[[[33.35657634417585,2.084894050177562],[33.35649029482083,2.084990185678632],[33.36047807745404,2.0955105859149215],[33.36660023450586,2.098431115305472],[33.36780154012363,2.100882151010776],[33.36663759996338,2.105098523045583],[33.3722864389285,2.1099326256215],[33.375421581026494,2.111249093793929],[33.387,2.1137],[33.38703464840264,2.1137223391017024],[33.387035664601314,2.113722526354009],[33.38703675176777,2.1137236952186966],[33.40174026751283,2.123203593528009],[33.401759082735104,2.123209984537522],[33.401771221549545,2.1232235507358923],[33.4022,2.1235],[33.40287929298335,2.124461918531162],[33.408208965589175,2.130418298880901],[33.4112969602554,2.1363818269309984],[33.41540735877397,2.142202391256571],[33.41592280952218,2.1428663137149306],[33.42213731929682,2.1336884034458965],[33.422416373089156,2.131399672496219],[33.425173101524265,2.127490879631792],[33.42494997367258,2.126587855189237],[33.430904651045516,2.118556639482486],[33.42624358082731,2.108666349445682],[33.42543172233637,2.102742431234929],[33.42656143510926,2.096416710473086],[33.42627264203022,2.09349859680679],[33.42390652379044,2.092133284245369],[33.418928628962234,2.09273475954486],[33.41308560573224,2.089611327105932],[33.41168579992543,2.087976571814278],[33.407755354112254,2.08745957013868],[33.404773229604785,2.085405503196465],[33.40315498470263,2.076038982596294],[33.403818999402574,2.074027273820938],[33.4091927396969,2.075541923448017],[33.410360058441505,2.073037588465841],[33.41553708645571,2.075483148136984],[33.41856559473156,2.068221905687835],[33.42624343622079,2.060495705928363],[33.422281800942095,2.057047982497923],[33.42177561682894,2.054970340363753],[33.41947823889322,2.053034795530904],[33.41936946700502,2.050700276556162],[33.41711958480406,2.049187444620118],[33.41287476870693,2.042953243305889],[33.412706373282674,2.040858905926821],[33.410418254121424,2.039184061499754],[33.41019792013542,2.034981489290833],[33.41090703736729,2.033279184181622],[33.41032237493149,2.031062519503518],[33.41089994212517,2.029687525278668],[33.40979052946823,2.027326529744628],[33.41016200741309,2.025182175482917],[33.40941291334481,2.023736621603097],[33.412109450284845,2.019591279385725],[33.41500698591513,2.016453433834513],[33.41620368289919,2.01664940212411],[33.41667462684077,2.01497863706321],[33.4231719555138,2.007899862317047],[33.43269350338376,2.00331191619318],[33.43289069104517,1.999420539141685],[33.43382160964034,1.998207001220922],[33.43122534443208,1.992616569145295],[33.42232641085011,1.985155007063873],[33.420552879484774,1.98247791488302],[33.42040705112848,1.979483210469136],[33.42299459563641,1.971186254112321],[33.42277320559768,1.962483265975134],[33.419878410208476,1.955119222460235],[33.41476042911758,1.950460128217982],[33.41270650912345,1.949421904100872],[33.40807610836082,1.9623488142779415],[33.408,1.9627],[33.40780408778532,1.9664876361504962],[33.40769112671156,1.969326456465679],[33.40847449961918,1.976238078320997],[33.40713748765327,1.980110513585192],[33.40441395264067,1.982463652100823],[33.39773550385238,1.986038865439294],[33.393986683305705,1.9868366450468709],[33.3816,1.9932],[33.381504596833835,1.9933880960151056],[33.37731643253755,2.004825042959123],[33.37435078684835,2.008046752611278],[33.373601581163285,2.011765956818804],[33.369242151695005,2.020225138942248],[33.36448072000133,2.0269522168155474],[33.36410985180147,2.0276834171868665],[33.365620254687734,2.036005354576515],[33.363461658304935,2.042111310107156],[33.36039963277443,2.0477020197406137],[33.3602,2.0488],[33.35926659802404,2.0497707380549968],[33.35865965741584,2.05087890278824],[33.3562965822643,2.053666099848495],[33.35391173399357,2.055339796646688],[33.348999052735316,2.060448985155272],[33.34799145737458,2.0625689105737344],[33.35235521131537,2.074081182483304],[33.3534244720533,2.075632953426758],[33.35657634417585,2.084894050177562]]]}},{"type":"Feature","properties":{"n":"Morungatuny","c":"216202","d":"Amuria","od":"Amuria","dc":"216","k":"MORUNGATUNY","a":["MORUNGATUNY"],"lat":2.134893,"lon":33.519625},"geometry":{"type":"Polygon","coordinates":[[[33.48015816396029,2.120767523333339],[33.480683273688925,2.126128122261549],[33.48387303559863,2.130914742286324],[33.484206431794085,2.132877611409041],[33.48268550198727,2.137712827221308],[33.48463821993227,2.143361771733395],[33.484116537839114,2.148675350596386],[33.48525951437246,2.15173877217455],[33.48923345963979,2.153867915520581],[33.491184439263236,2.156212008683281],[33.493423571983676,2.160855963164525],[33.49475564679925,2.161431551462685],[33.495232904712076,2.16377574501124],[33.498134902587566,2.16501962204968],[33.49818399252472,2.165881188761943],[33.49913566859621,2.165977250397858],[33.500421148138436,2.167603877905822],[33.50123213608702,2.167081471789548],[33.50214611386876,2.168629489472817],[33.50608847957692,2.166961518094253],[33.508951407585954,2.163218650800332],[33.510550493687596,2.164823533394371],[33.51553824698658,2.16726044968871],[33.5171409191388,2.169826944430438],[33.517925740065266,2.162139544796445],[33.519109832835845,2.163792393964059],[33.529098813303634,2.167588306298268],[33.53316417199157,2.170795552421477],[33.53279519921922,2.173922665115569],[33.528286449418474,2.180659676594911],[33.52781775465718,2.183000964397339],[33.528941670546374,2.186122573747563],[33.52884072222152,2.18951056508194],[33.53562001860874,2.197653070580623],[33.53571687115262,2.1975512769207874],[33.53675969488924,2.1930488292848223],[33.53699968982398,2.19059334756445],[33.538564433011956,2.185256775259964],[33.53856473792378,2.185255458786763],[33.54260439537108,2.178803052220157],[33.54361265926291,2.176487374020661],[33.54306463410862,2.1744971492871],[33.54511249563841,2.171917934423671],[33.545282997001635,2.168082146617088],[33.547449309465684,2.165646830667901],[33.547295555393106,2.1633181196678692],[33.54711935509346,2.160654034958068],[33.54840706365985,2.1592141427221296],[33.54840103287382,2.1584277434513424],[33.54838558985028,2.156521007788553],[33.54688962998556,2.15164348346242],[33.54946111287284,2.147760284295326],[33.54920927140646,2.147001517753646],[33.54921057106276,2.1470003287980557],[33.54921041465534,2.146999858139601],[33.55127202893177,2.1451144595349483],[33.55201814284399,2.144431897298296],[33.552587110609316,2.14242271040361],[33.55425864272821,2.140585428759334],[33.556044241744395,2.1357878303694458],[33.55531232666974,2.1339987574515664],[33.555023637870285,2.133293584740193],[33.55510112168659,2.131511338923879],[33.555611808427834,2.1312160815106105],[33.55581879600399,2.1310951805909597],[33.555295177637085,2.128797219369488],[33.55941561747146,2.1226508838870517],[33.55943837160148,2.1226169222465296],[33.56017719371725,2.117830444777423],[33.55985753541709,2.116483355268844],[33.55751973129664,2.114773849379673],[33.55636613553555,2.112413439121965],[33.55382745458064,2.110643654830813],[33.55279990084022,2.109927481094938],[33.552799862613476,2.109927292218292],[33.552798663119994,2.109926456018409],[33.552505643138346,2.108473566955355],[33.55245924068263,2.108244294497741],[33.54628194269001,2.105061575698061],[33.54391431746261,2.0972502355069853],[33.543024721308925,2.0943152872776785],[33.54147773100672,2.090823439150522],[33.53970680968297,2.089549107934607],[33.539706639156655,2.0895486949750506],[33.53970657140734,2.089548646214689],[33.53819738150059,2.085894148049948],[33.53819743713408,2.0858938959967133],[33.538197325792794,2.085893626364143],[33.53827000596249,2.085565115488639],[33.5384588485967,2.084709544597046],[33.53745724132751,2.084356436238501],[33.53744603399474,2.0841035392699485],[33.53334353092963,2.081652764282011],[33.52994660553446,2.077267851643429],[33.52620516484341,2.077302012977616],[33.52394341970171,2.076002661017567],[33.51921083635394,2.075008632686369],[33.51403740297838,2.071730270831925],[33.510184322108884,2.071314073229759],[33.500867965781865,2.074740620881637],[33.50004903025345,2.074299140811775],[33.49800472875408,2.076625598473791],[33.497746937927445,2.080587824222993],[33.48633033296295,2.086320070847572],[33.48480487725657,2.093376975320792],[33.48289948126211,2.094958152259631],[33.48083043439245,2.095460476130614],[33.48391319764089,2.098949838383961],[33.48252960348242,2.101340591914875],[33.48330783996612,2.103249405509208],[33.48037578933832,2.109949810689645],[33.47863173618386,2.109963093085467],[33.4772532345716,2.113586385761128],[33.478730050577255,2.118995609655379],[33.48015816396029,2.120767523333339]]]}},{"type":"Feature","properties":{"n":"Ogolai","c":"216203","d":"Amuria","od":"Amuria","dc":"216","k":"OGOLAI","a":["OGOLAI"],"lat":2.052104,"lon":33.505853},"geometry":{"type":"Polygon","coordinates":[[[33.46195883295133,2.118575525783224],[33.46785822042618,2.115023897377486],[33.470407056049325,2.112324612362054],[33.47552986297097,2.099710981568681],[33.480808576607906,2.095462265635576],[33.48283640200609,2.0949734666618935],[33.48289947614375,2.0949581535022674],[33.48480487747146,2.093376974326699],[33.4855692097484,2.0898410998718813],[33.48632988356984,2.086320620452154],[33.48633025440569,2.0863204342609745],[33.48633033296295,2.086320070847572],[33.497746937927445,2.080587824222993],[33.49798236692666,2.076969298090974],[33.4980046375018,2.076626086080721],[33.498004701792155,2.0766260128766065],[33.49800472875408,2.076625598473791],[33.498616045728205,2.0759299070315964],[33.50004692480503,2.074300638742284],[33.50004746063965,2.0743009270649546],[33.50004903025345,2.074299140811775],[33.500867965781865,2.074740620881637],[33.510184322108884,2.071314073229759],[33.510184503742884,2.071314092849289],[33.51018456045568,2.071314071989786],[33.5140364730065,2.071730149763403],[33.514036512227754,2.0717301746158614],[33.51403740297838,2.071730270831925],[33.51921083635394,2.075008632686369],[33.52394341970171,2.076002661017567],[33.52517701722015,2.0767113515432776],[33.52620533310573,2.077302011441292],[33.52994660553446,2.077267851643429],[33.53334353092963,2.081652764282011],[33.533346500327866,2.0816545381568443],[33.53743929957316,2.0839515749410538],[33.53732752205664,2.0814292803276317],[33.537326807354596,2.081417336007971],[33.53732697256568,2.081416880892264],[33.53732695074688,2.081416388544266],[33.538893543833034,2.077100381682803],[33.542699406586856,2.0713898111823204],[33.543231463574116,2.0686230460151713],[33.543943038106995,2.06492159413621],[33.54745650259185,2.061012137050296],[33.54924623441823,2.056467763208333],[33.55708260454597,2.050233068570046],[33.55904871785278,2.0430077571941014],[33.558952635507595,2.040739560789924],[33.55800640103354,2.040031660690629],[33.559628957739946,2.032635940544667],[33.5596290898262,2.032635823824535],[33.559629106437875,2.032635748111919],[33.560215145666106,2.0321179462137837],[33.56998607445715,2.023483708803966],[33.56801583377404,2.021122001616421],[33.56800789074086,2.0211184409414],[33.56519536943713,2.019864510654423],[33.569784242775484,2.0157330962611058],[33.56979403901137,2.0157242749957907],[33.57230696704916,2.011130417505926],[33.574164471506734,2.010892889442522],[33.57838023218506,2.006846771987828],[33.578423813646644,2.006868387847254],[33.57842381973857,2.006868378669794],[33.5783802379325,2.006846762032422],[33.580835625660086,2.0029192296005998],[33.57826544690912,2.0002463374666943],[33.57826420223631,2.0002452679076868],[33.578098128431854,2.0001971888981633],[33.57332003995636,1.998815867700303],[33.573739402363834,1.9949229023397932],[33.57375780372713,1.9947515974549415],[33.57284417676175,1.993684896238955],[33.57002020636064,1.983477241507613],[33.565111050354126,1.98159017097509],[33.5651110010822,1.9815900918228229],[33.56511094300322,1.981590069510874],[33.565037718865646,1.9814723685321165],[33.56313686218143,1.978418761333113],[33.563132044039236,1.9784201466041178],[33.5595985627551,1.981821090141308],[33.55880387817005,1.9836753786262],[33.55318362062051,1.9864731043498853],[33.552442315838086,1.9875816295569317],[33.55187048696163,1.990524985146986],[33.54957951752244,1.9918625733344957],[33.53989876904863,2.006338877765248],[33.539041124559475,2.009340149017028],[33.53601580873774,2.0121453415634747],[33.53292985073745,2.0167599917213104],[33.53199011340307,2.018397887784442],[33.529669075563525,2.01977346524278],[33.526594060130584,2.020280975929797],[33.52425243150299,2.0188037320566896],[33.517384812982044,2.0192560901628593],[33.517183190003294,2.019476903136577],[33.516810275629524,2.0192939339405704],[33.51553347130155,2.0193780348244488],[33.515206812220036,2.019560352049308],[33.5146535978444,2.0190755737201123],[33.50280014430986,2.0120375856839785],[33.502638790491446,2.011956639502445],[33.497501906600014,2.014898470979338],[33.49507253204618,2.017232188307172],[33.49361063022816,2.016781421913902],[33.492217692817825,2.017902789954666],[33.490919655789654,2.017348833035],[33.4904,2.0176],[33.4877292571234,2.015987282186051],[33.486606041124624,2.015507932782838],[33.48451136798642,2.015924518892158],[33.48299484469794,2.014332912878035],[33.482585979116465,2.015228674492073],[33.48350059161619,2.019075201241701],[33.48172351045366,2.023534012739318],[33.48214287528315,2.024267509855368],[33.48057981575889,2.027840862626032],[33.47717617612875,2.030646262645448],[33.476056208999466,2.032772521700557],[33.476257311409626,2.035315275909814],[33.47442575748979,2.040444902342357],[33.467995007144275,2.045368654164955],[33.45767941288096,2.049831499541956],[33.4563952419621,2.053975243517171],[33.45803445649766,2.056906505082228],[33.460400930873796,2.070040490410824],[33.45788692340151,2.073543361792348],[33.45683420137918,2.07711688383064],[33.45356431700608,2.079135711102935],[33.45219402833627,2.081334719139474],[33.44901698220036,2.089360169951487],[33.448349173720196,2.096750079416348],[33.44726505289544,2.096987276149106],[33.444818881954646,2.103870478244106],[33.43754491775764,2.1110423656123194],[33.4551,2.1276],[33.455126657616965,2.1281564777540933],[33.46211851276183,2.120051858756702],[33.46195883295133,2.118575525783224]]]}},{"type":"Feature","properties":{"n":"Ogongora","c":"216204","d":"Amuria","od":"Amuria","dc":"216","k":"OGONGORA","a":["OGONGORA"],"lat":1.957662,"lon":33.434495},"geometry":{"type":"MultiPolygon","coordinates":[[[[33.419878217761266,1.955119043932672],[33.41987821999756,1.9551190493039494],[33.419878410208476,1.955119222460235],[33.41988040781081,1.9551243041425397],[33.42233779774513,1.961026630335128],[33.422425417207435,1.9615985302700503],[33.42277320559768,1.962483265975134],[33.42281546181593,1.9641443857266565],[33.42333305413039,1.96752275627552],[33.422958199580684,1.9697555012065058],[33.42299459563641,1.971186254112321],[33.42239544683051,1.9731074235757287],[33.422073964279356,1.975022269045897],[33.420407186387436,1.9794827767615573],[33.42040705112848,1.979483210469136],[33.42055287797334,1.9824778838445236],[33.42232644262359,1.9851550337052455],[33.42232783652875,1.9851562024643785],[33.42968700001236,1.990948822783719],[33.43056270686263,1.9920609619687326],[33.43122534443208,1.992616569145295],[33.43154906925668,1.9933136326183913],[33.431947606312036,1.993819770803558],[33.43376968816171,1.99770923745275],[33.433698139293156,1.99794113755373],[33.43382160964034,1.998207001220922],[33.43347785160836,1.9986551213997903],[33.432981839429026,2.000262767709259],[33.43662303763345,2.009531202355556],[33.43724320556236,2.015132545758829],[33.45423470324117,2.018423428181473],[33.454905236387816,2.01434635218124],[33.45432785694168,2.009383387676103],[33.45512312883582,2.008855318006995],[33.45899110183357,2.007992410805546],[33.46330950026435,2.008173254182353],[33.46804666476973,2.010571493344655],[33.47035205773064,2.005494127168118],[33.468720657172966,2.0045090122159825],[33.46851386075874,2.004407853399086],[33.4685009385674,2.0043763359810876],[33.4644,2.0019],[33.46438679959806,2.0018353518777023],[33.46410681213486,2.001807732780079],[33.464031967640764,2.0000975851124796],[33.46377270393462,1.9988278577310932],[33.461118627333086,1.997058977484918],[33.460219015162195,1.990762310169728],[33.46047621537877,1.982765578254159],[33.45882273651077,1.980350504043692],[33.453320008122006,1.97641598166519],[33.45065535804172,1.971351471808477],[33.44668762363068,1.9602339927333],[33.44670495158127,1.9602081091113461],[33.4467,1.9602],[33.45543751963269,1.9438171506887154],[33.45545380194741,1.943747389034203],[33.45540848245156,1.943604747041417],[33.44086613698931,1.9284688364582565],[33.44082082724972,1.928433971850562],[33.4408214940887,1.928422371398441],[33.4408,1.9284],[33.44084539616071,1.9280065666071766],[33.44140119092868,1.918337859753497],[33.442562892880844,1.9131215950326694],[33.4430785860465,1.9086522542636755],[33.439477844521036,1.8968303846568664],[33.439404559104844,1.8969308903704987],[33.438203116138695,1.900995609230522],[33.43633725811786,1.903601352270639],[33.43181696529238,1.9073367333133167],[33.41557274542503,1.9296145205599549],[33.4145761711215,1.933037209489436],[33.41270651212375,1.949421892861613],[33.41270661095581,1.9494219555755194],[33.41476042911758,1.950460128217982],[33.415721595172336,1.9513351144971474],[33.417291799536,1.952331488033919],[33.419878217761266,1.955119043932672]]],[[[33.43877409297674,2.028228601839146],[33.444223296431424,2.029717559670147],[33.444348819403075,2.027232521261247],[33.44596666861091,2.024623677242158],[33.44412927327176,2.02125013177826],[33.442149227795774,2.0210589324156],[33.438759285068414,2.018703582283425],[33.43502992668925,2.017762514590496],[33.43538362394916,2.021159756468441],[33.43877409297674,2.028228601839146]]]]}},{"type":"Feature","properties":{"n":"Olwa","c":"216205","d":"Amuria","od":"Amuria","dc":"216","k":"OLWA","a":["OLWA"],"lat":2.169228,"lon":33.493192},"geometry":{"type":"Polygon","coordinates":[[[33.45762556614477,2.2420824630348526],[33.458473192601474,2.241145250356038],[33.4598363067826,2.2421873318060714],[33.461807816367596,2.2414994309796534],[33.46128288318119,2.240801429675149],[33.467060790164446,2.238125414661589],[33.46975740381401,2.2387256540648983],[33.46984273696442,2.2386958795483873],[33.47051805709742,2.23664814863473],[33.472350465303144,2.235612659399175],[33.474099000376526,2.236373696555139],[33.475408442629586,2.234862773547047],[33.47879555089274,2.235572055983469],[33.48071353600597,2.234902830961944],[33.48147568497509,2.233661867111527],[33.482884930115475,2.234145186254672],[33.48757339884933,2.2325092816964562],[33.487600522494105,2.232389560647739],[33.48941558735591,2.231270945809552],[33.488568447279455,2.231176750407415],[33.48864422644725,2.230438887943606],[33.49184629193529,2.229205940552814],[33.492264764413484,2.230026439966313],[33.49367834640885,2.229899310773234],[33.49897832476817,2.228116480105486],[33.49920276151286,2.229182735468589],[33.50018241437786,2.22829103598542],[33.501550650961555,2.229761221897118],[33.50318816814565,2.2294397461309154],[33.50443828943789,2.228730455046357],[33.50445761841392,2.2287100037426875],[33.50450008258547,2.227090781669788],[33.50548634603851,2.2276215435463516],[33.5194,2.2129],[33.51941598244953,2.21289205810378],[33.51941039461716,2.212887807881644],[33.52099877227463,2.211226787938022],[33.52199856989477,2.211608735330067],[33.5262384330597,2.2095018897450234],[33.52632056449654,2.209370984887963],[33.526432191881256,2.2094056083553024],[33.52811531649805,2.208569240875966],[33.52788140475498,2.2079386236655],[33.52891240419086,2.206963836994202],[33.530916488301315,2.206554459688183],[33.5315228253113,2.205667682884966],[33.53268420581004,2.206298897730195],[33.535462145511964,2.204918501767201],[33.53660426242223,2.204109764529917],[33.535544911595956,2.2027180881802355],[33.535543724998114,2.202716938712129],[33.536135092027536,2.2006253446463693],[33.53594091743809,2.2002687979781044],[33.53534180353981,2.199170651535439],[33.53534632214745,2.199151142203651],[33.535620018433704,2.197653083179242],[33.528841043334346,2.189510974081231],[33.5288410440025,2.1895109515679763],[33.52884072222152,2.18951056508194],[33.52892497693228,2.1866828388134514],[33.52894160954658,2.186122404324272],[33.52781775465718,2.183000964397339],[33.528286449418474,2.180659676594911],[33.53094806548927,2.1766826677088607],[33.53279520117919,2.1739226485045045],[33.53316414851456,2.1707957513935363],[33.52909861448091,2.167588230743646],[33.519109832835845,2.163792393964059],[33.51910956981007,2.1637920268121436],[33.519109463630215,2.163791986460267],[33.518902689227325,2.163503246737234],[33.517925740065266,2.162139544796445],[33.5171409191388,2.169826944430438],[33.51561465126478,2.167382802334545],[33.51553804000267,2.1672603485605175],[33.510550493687596,2.164823533394371],[33.508951407585954,2.163218650800332],[33.50608847957692,2.166961518094253],[33.50214611386876,2.168629489472817],[33.50123213608702,2.167081471789548],[33.500421148138436,2.167603877905822],[33.500420074111105,2.167602518846929],[33.500419698184984,2.167602762770215],[33.49978228067097,2.1667954641097347],[33.49913566859621,2.165977250397858],[33.49818399252472,2.165881188761943],[33.498134902587566,2.16501962204968],[33.495232904712076,2.16377574501124],[33.49475564679925,2.161431551462685],[33.493423571983676,2.160855963164525],[33.493423317461165,2.160855435285604],[33.49342319297914,2.160855381616133],[33.493102771100126,2.1601906231035524],[33.491184439263236,2.156212008683281],[33.48923345963979,2.153867915520581],[33.48756489813208,2.1529739407945603],[33.48734930619516,2.153362581974502],[33.48614306743619,2.1522121584443523],[33.48525951437246,2.15173877217455],[33.485045621578074,2.1511654937365194],[33.484593320263365,2.150734121364107],[33.484598008002266,2.149965793614258],[33.484116537839114,2.148675350596386],[33.48463821993227,2.143361771733395],[33.48268550198727,2.137712827221308],[33.484206431794085,2.132877611409041],[33.48387303559863,2.130914742286324],[33.480683273688925,2.126128122261549],[33.48015816396029,2.120767523333339],[33.478730050577255,2.118995609655379],[33.4772532345716,2.113586385761128],[33.47863173618386,2.109963093085467],[33.48037578933832,2.109949810689645],[33.48330783996612,2.103249405509208],[33.4826929743237,2.1017412984986517],[33.48252950895079,2.101341553319153],[33.48252979452744,2.1013410604990903],[33.48252960348242,2.101340591914875],[33.48391319764089,2.098949838383961],[33.48084551901839,2.095477550333238],[33.48083042129068,2.095460476598423],[33.475572731558685,2.099676477622423],[33.47552986297097,2.099710981568681],[33.470407056049325,2.112324612362054],[33.47040697935058,2.112324693588073],[33.470406967882596,2.112324721826257],[33.46785850559128,2.115023664550555],[33.46785835426225,2.1150237556415115],[33.46785822042618,2.115023897377486],[33.46195883295133,2.118575525783224],[33.46211851276183,2.120051858756702],[33.45542628587603,2.1278091632245055],[33.45512665838038,2.1281564936904016],[33.4559,2.1443],[33.466,2.1558],[33.466059683713,2.156046562224198],[33.46640842963182,2.15638437349314],[33.468152403583396,2.1622819162228],[33.46847414711153,2.165186102404991],[33.46830810122904,2.1653351067166886],[33.46853455688061,2.1662706284248143],[33.46912166471364,2.166868032987955],[33.470665340042856,2.174222151361718],[33.47073705327039,2.175369465969481],[33.47182327475112,2.179856807168564],[33.4771871360013,2.187320473531842],[33.47863384668849,2.190998765386923],[33.4787,2.1911],[33.47864632987564,2.191337043049296],[33.478396486017736,2.19815877338476],[33.47531767344555,2.2060386089487953],[33.4751,2.207],[33.474913344530776,2.2070734382173987],[33.474811848507144,2.207333204590916],[33.469165844144726,2.2108365737056],[33.46291335952828,2.2117947437921512],[33.4629,2.2118],[33.45738966778479,2.2170849095336784],[33.456577665397774,2.218774515907155],[33.45336840662675,2.220983044160301],[33.45343929305135,2.222078985279681],[33.45198155763009,2.222271778818412],[33.4409,2.2329],[33.44124768218757,2.240114405392124],[33.44181642368226,2.241227914793636],[33.45762556614477,2.2420824630348526]]]}},{"type":"Feature","properties":{"n":"Orungo","c":"216206","d":"Amuria","od":"Amuria","dc":"216","k":"ORUNGO","a":["ORUNGO"],"lat":2.059035,"lon":33.441492},"geometry":{"type":"MultiPolygon","coordinates":[[[[33.45874708160494,2.025297526115528],[33.462276538925906,2.028357743814426],[33.468156285833906,2.027130312605157],[33.472692823672496,2.027135923039867],[33.476981253368265,2.03098104616158],[33.477015641038534,2.0309510387235297],[33.47717617612875,2.030646262645448],[33.48057979050808,2.027840883438637],[33.48057981662326,2.027840860649954],[33.48214287528315,2.024267509855368],[33.48172351045366,2.023534012739318],[33.48249393389992,2.021600970516697],[33.48350043653803,2.0190745490394795],[33.482585979116465,2.015228674492073],[33.48298154818921,2.0143620434839367],[33.482994833418985,2.014332909288107],[33.47936146567884,2.011159032052131],[33.477240263670105,2.011149955692736],[33.477320117683774,2.010207315024966],[33.4764137343614,2.010882476218327],[33.47565436311967,2.009345939695731],[33.474216337439806,2.009321444452796],[33.47359149082594,2.0074502463833577],[33.47035205773064,2.0054941271681193],[33.46804666476973,2.010571493344655],[33.46338210003089,2.0082100085747947],[33.46330944051018,2.008173251680003],[33.45899110183357,2.007992410805546],[33.45512312883582,2.008855318006995],[33.45432785694168,2.009383387676103],[33.45487646173743,2.0140990147163067],[33.4549052297706,2.014346009188127],[33.45490521027611,2.014346127733573],[33.454905236387816,2.01434635218124],[33.4542885460928,2.0180960448161005],[33.454234762764756,2.018423099680034],[33.45423475096096,2.018423138028483],[33.45423470324117,2.018423428181473],[33.45423466399067,2.0184234205795075],[33.45149439190614,2.027326078293517],[33.45588357228062,2.02970525395619],[33.45874708160494,2.025297526115528]]],[[[33.41168523409862,2.08797631693833],[33.411685408218496,2.087976520290062],[33.41168579992543,2.087976571814278],[33.41308560573224,2.089611327105932],[33.418928628962234,2.09273475954486],[33.42198504160114,2.0923654554975073],[33.423906247155855,2.092133306159122],[33.423906263653976,2.0921333156774637],[33.42390652379044,2.092133284245369],[33.42589360470645,2.09327988228497],[33.42627217527139,2.093498292893355],[33.426272178893115,2.093498329564477],[33.42627264203022,2.09349859680679],[33.42656143510926,2.096416710473086],[33.425431748431315,2.1027422851187283],[33.42574393691782,2.1050205790468297],[33.42624346728668,2.1086655209695078],[33.43043954251243,2.117569729164581],[33.430904651045516,2.118556639482486],[33.43090463228108,2.118556664790531],[33.430904666208136,2.11855673678485],[33.43586118570035,2.1134202859332873],[33.4375,2.111],[33.43764375267036,2.111135584905],[33.43764375267036,2.1111355849049986],[33.43754491775764,2.1110423656123194],[33.43787961645384,2.110712363802247],[33.43847398953799,2.109645853173051],[33.444797401592,2.1038916571690183],[33.444818881954646,2.103870478244106],[33.44726505289544,2.096987276149106],[33.448349173720196,2.096750079416348],[33.44901698220036,2.089360169951487],[33.452171648359474,2.081391252597058],[33.45219397901247,2.081334838325332],[33.45219398488354,2.0813348289042475],[33.45219402833627,2.081334719139474],[33.45356431700608,2.079135711102935],[33.45356451779691,2.0791355871346315],[33.45356459047092,2.079135470517435],[33.45406635214705,2.0788257545055124],[33.45683420137918,2.07711688383064],[33.45788692340151,2.073543361792348],[33.45788699875819,2.073543256794748],[33.457887012310366,2.073543210792854],[33.45792420871853,2.073491410606295],[33.460400930873796,2.070040490410824],[33.45814336756388,2.057510963917838],[33.45803443556461,2.056906467649533],[33.4563952419621,2.053975243517171],[33.4565070816529,2.0536143608354696],[33.45632199998224,2.053215448794911],[33.4576785493847,2.0498342858590637],[33.45767941288096,2.049831499541956],[33.4576798312211,2.0498313185550603],[33.460126061438764,2.048444183923223],[33.458263976880296,2.047005823475719],[33.45125361749241,2.051190664182029],[33.45142872363419,2.053257561012714],[33.44935742831845,2.054599758265425],[33.44878444258646,2.057574715438113],[33.4430723860968,2.056140374084273],[33.44324723026635,2.054736420292056],[33.44119283566119,2.052853787031308],[33.44358398425226,2.046159487776134],[33.43712301664632,2.047977638237671],[33.43684224401402,2.039490125948147],[33.44448111967898,2.033184556074153],[33.44422331076402,2.029717687137341],[33.441808118585755,2.0290576287285917],[33.43877409297674,2.028228601839146],[33.43538362394916,2.021159756468441],[33.43502992668925,2.017762514590496],[33.43503015959174,2.017762573361197],[33.43503015920306,2.017762569626808],[33.4370666401898,2.013537811109161],[33.4368613230647,2.011683391248586],[33.434642863472696,2.0044907970365133],[33.43317728470959,2.000760261036507],[33.43279089960033,2.0013898618448036],[33.43269350338376,2.00331191619318],[33.43268431848015,2.0033163419276816],[33.43156815608509,2.004401756743548],[33.43057296206353,2.004333696418782],[33.4231719555138,2.007899862317047],[33.42315418953313,2.0079192181756826],[33.41700858988932,2.015314838250279],[33.41667649887252,2.0149765975033076],[33.41667586298713,2.0149772902940923],[33.41656615794874,2.015363451515615],[33.41620368289919,2.01664940212411],[33.41500698591513,2.016453433834513],[33.412109450284845,2.019591279385725],[33.40941291334481,2.023736621603097],[33.40951050942668,2.023924956287327],[33.41016179691382,2.025180299911591],[33.410161606343095,2.025181401523662],[33.41016200741309,2.025182175482917],[33.40979052946823,2.027326529744628],[33.410050858168525,2.027880548030722],[33.410899886045605,2.029687291402113],[33.41089986058971,2.029687351759049],[33.41089994212517,2.029687525278668],[33.41032237493149,2.031062519503518],[33.41090021327154,2.0332533115907276],[33.410906929861675,2.033278658072836],[33.41090691071047,2.033278703980267],[33.41090703736729,2.033279184181622],[33.41019792013542,2.034981489290833],[33.41041824230413,2.039183836100939],[33.41109354672879,2.039678358335009],[33.412706373282674,2.040858905926821],[33.412706417509284,2.0408594559741005],[33.4127070087051,2.040859888903996],[33.41278563014516,2.041844625167037],[33.41287476870693,2.042953243305889],[33.41684623568338,2.0487859870755747],[33.41711966749402,2.049187500221256],[33.41806259556401,2.049821529726031],[33.41936840308411,2.050698726294078],[33.41936844366154,2.0506995884549366],[33.41936946700502,2.050700276556162],[33.4194672974293,2.0527999641276686],[33.41947835429918,2.053034892760624],[33.42177561682894,2.054970340363753],[33.42177582333129,2.0549711879564905],[33.42177600319476,2.054971339516961],[33.42189829064892,2.055473857346077],[33.42228178591676,2.0570479208261547],[33.42231647344078,2.0570781572055132],[33.42624343622079,2.060495705928363],[33.41856559473156,2.068221905687835],[33.41553708645571,2.075483148136984],[33.41130475549402,2.0734838508787057],[33.410359849531176,2.07303803665657],[33.4091927396969,2.075541923448017],[33.40919101609299,2.0755414376307133],[33.409190962923226,2.075541551932231],[33.40904831991379,2.075501217094781],[33.403818999402574,2.074027273820938],[33.40315498470263,2.076038982596294],[33.404773229604785,2.085405503196465],[33.40663014118744,2.0866845311803743],[33.41168523409862,2.08797631693833]]],[[[33.420670151406355,2.010812563379252],[33.42067015180612,2.010812563948718],[33.4206701514208,2.010812563369388],[33.420670151406355,2.010812563379252]]]]}},{"type":"Feature","properties":{"n":"Orungo Town Council","c":"216207","d":"Amuria","od":"Amuria","dc":"216","k":"ORUNGOTOWNCOUNCIL","a":["ORUNGO","ORUNGOTOWNCOUNCIL"],"lat":2.036437,"lon":33.45808},"geometry":{"type":"Polygon","coordinates":[[[33.444123564020366,2.0212495804751507],[33.44412927327176,2.02125013177826],[33.44596666861091,2.024623677242158],[33.444348819403075,2.027232521261247],[33.444348714299245,2.027234602052057],[33.4444799513587,2.0331688451617125],[33.44448111967898,2.033184556074153],[33.43684224401402,2.039490125948147],[33.437027977201254,2.0451046785359157],[33.43712314153713,2.0479776030927366],[33.44358398425226,2.046159487776134],[33.4411928783676,2.052853667469732],[33.44324694746465,2.054735935494385],[33.443246921737604,2.054736137558408],[33.44324723026635,2.054736420292056],[33.4430723860968,2.056140374084273],[33.44878444258646,2.057574715438113],[33.44935742831845,2.054599758265425],[33.45142872363419,2.053257561012714],[33.45125361749241,2.051190664182029],[33.45126074301678,2.051186410593479],[33.45410260887781,2.0489844937362],[33.45825715191512,2.047009897645175],[33.458263976880296,2.047005823475719],[33.46011102167111,2.0484325665093763],[33.46012607123074,2.048444177023166],[33.46703261260837,2.045785015830193],[33.46786915057826,2.0454231036110526],[33.46821270262334,2.0452019740025738],[33.47376098264936,2.040953892142352],[33.47453764753848,2.0401315322880484],[33.475067471065856,2.038647657453044],[33.476171178061975,2.0342261992939155],[33.476056208999466,2.032772521700557],[33.4769645075238,2.0310481157679083],[33.476981247261776,2.030981056257267],[33.47692902562109,2.0309342173378586],[33.472692823672496,2.027135923039867],[33.468156285833906,2.027130312605157],[33.462276538925906,2.028357743814426],[33.45874708160494,2.025297526115528],[33.45588357228062,2.02970525395619],[33.45149439190614,2.027326078293517],[33.45423466031753,2.0184234325128747],[33.44014626491992,2.016185026479303],[33.43724462570686,2.015133161112845],[33.43724456889215,2.0151328098060675],[33.43724320556236,2.015132545758829],[33.43724033891549,2.015106654265856],[33.43710783480937,2.014287331430295],[33.43511787357912,2.017615698125787],[33.4387498411352,2.0187011991977735],[33.438759285068414,2.018703582283425],[33.4418675985811,2.020863254948057],[33.444123564020366,2.0212495804751507]]]}}]}
