{"type":"FeatureCollection","name":"Bugiri sub-counties","metadata":{"source":"Uganda Bureau of Statistics NPHC 2024 Map Explorer","retrieved":"2026-07-26","display_only":true,"clipped_to_dashboard_district":true,"positive_area_overlaps_removed":true,"source_gap_ratio":0.00727715},"features":[{"type":"Feature","properties":{"n":"Eastern Division","c":"201101","d":"Bugiri","od":"Bugiri","dc":"201","k":"EASTERNDIVISION","a":["EASTERN","EASTERNDIVISION"],"lat":0.562761,"lon":33.759226},"geometry":{"type":"Polygon","coordinates":[[[33.749349670796576,0.564677280873468],[33.75438001826858,0.570475844855675],[33.756421506066395,0.575001437924029],[33.757974814890744,0.575753909507004],[33.75997796677661,0.580002943909538],[33.76435140763779,0.581611457555244],[33.764356164884276,0.573421359923295],[33.76358516295489,0.571060835501292],[33.761708981651616,0.56916985082451],[33.76603742833428,0.563988343126847],[33.76558761636714,0.563516971479132],[33.76902635450939,0.563504332338095],[33.76885272448261,0.561420038934351],[33.77260420695265,0.56027925551627],[33.77186783746656,0.55939939589186],[33.774669212022935,0.559057120266959],[33.77716555819974,0.55723313617769],[33.77655168179721,0.552898481507794],[33.777130818668525,0.548111954788041],[33.771900381982036,0.547462402616526],[33.774133114149706,0.54490539817781],[33.760824160042404,0.544654899621856],[33.75922267369031,0.545819525780631],[33.750389733547685,0.547885443521519],[33.75069493768504,0.551225879779044],[33.74861889096737,0.561059002688374],[33.74953997794082,0.562017266030761],[33.749349670796576,0.564677280873468]]]}},{"type":"Feature","properties":{"n":"Western Division","c":"201102","d":"Bugiri","od":"Bugiri","dc":"201","k":"WESTERNDIVISION","a":["WESTERN","WESTERNDIVISION"],"lat":0.56779,"lon":33.745567},"geometry":{"type":"Polygon","coordinates":[[[33.74630335412523,0.57972626621612],[33.74747129192423,0.57667861522384],[33.75136536350275,0.577447712280811],[33.75653872484819,0.575099134271826],[33.75651403821147,0.575046263401482],[33.756421506066395,0.575001437924029],[33.75438043372949,0.5704767658540792],[33.75437998670605,0.5704758084730311],[33.749349670796576,0.564677280873468],[33.74953997794082,0.562017266030761],[33.74861889096737,0.561059002688374],[33.75026510450347,0.553261769660015],[33.7455960625039,0.55435276785364],[33.7462757887109,0.557056313861549],[33.743868462385905,0.55763865538572],[33.743493718549026,0.559655113209],[33.74447492105388,0.561748054101532],[33.74118902002399,0.562641352834493],[33.739807781689855,0.56494000994849],[33.738984452941814,0.565104092932839],[33.739279404701946,0.573100162977145],[33.73597380960288,0.572969469597107],[33.74172082954788,0.580180544729192],[33.74630335412523,0.57972626621612]]]}},{"type":"Feature","properties":{"n":"Budhaya","c":"201201","d":"Bugiri","od":"Bugiri","dc":"201","k":"BUDHAYA","a":["BUDHAYA"],"lat":0.357086,"lon":33.773466},"geometry":{"type":"MultiPolygon","coordinates":[[[[33.741231859487435,0.372427748214524],[33.75710076522012,0.387915258851827],[33.755456778331734,0.390377920219091],[33.75425730986102,0.396583133997281],[33.75313739458599,0.398673939172874],[33.753709404075785,0.401414880408923],[33.755709729725154,0.404969985561274],[33.76626957923653,0.407501660590633],[33.77131014916768,0.410622205851234],[33.77201978612162,0.411816641766805],[33.777755005683886,0.410475122348923],[33.78109968628491,0.400709568184001],[33.78219901953552,0.39379236495391],[33.781792456775335,0.391494382275801],[33.782556576197976,0.390415591195639],[33.786199051097555,0.388778431385029],[33.79540712772411,0.395413628516452],[33.79994850066999,0.397519502765347],[33.80175556685218,0.397279930882768],[33.80520690289773,0.394091618599407],[33.80834528431162,0.389625499265631],[33.810353676474826,0.389235136380217],[33.81078176725044,0.386733836650924],[33.81341606377408,0.38404079585635],[33.817074678602204,0.381125865038034],[33.81917366228127,0.38018413210842883],[33.8143,0.3732],[33.813582342971344,0.3691656037307649],[33.81349648437006,0.36901926373731],[33.81160535158382,0.364764017657982],[33.81184796958938,0.362577968685589],[33.80992912598795,0.351593337160018],[33.80872196637353,0.34906666169185],[33.80623266026742,0.346637320127806],[33.80584549846803,0.34368341385804674],[33.80099177713778,0.33478492475259597],[33.7999764905378,0.3336426212986693],[33.7932358562885,0.33272937407779635],[33.78922127794028,0.333291427492947],[33.78485137661536,0.331591166774807],[33.780210353335114,0.32706795040579],[33.77993072700187,0.3267052660968404],[33.76495687158418,0.31195601851042415],[33.76486126563219,0.3118945364154886],[33.74184379212265,0.30864786120466936],[33.73882244598885,0.309223014452907],[33.73650253345553,0.308829343981295],[33.73079915244885,0.323270679857325],[33.73239850614536,0.346303796602592],[33.741231859487435,0.372427748214524]]],[[[33.780771349289154,0.401937259836717],[33.78077134802422,0.401937259498417],[33.780771349281494,0.401937259864079],[33.780771349289154,0.401937259836717]]]]}},{"type":"Feature","properties":{"n":"Bulesa","c":"201202","d":"Bugiri","od":"Bugiri","dc":"201","k":"BULESA","a":["BULESA"],"lat":0.464125,"lon":33.83453},"geometry":{"type":"Polygon","coordinates":[[[33.79675638176658,0.478640428705406],[33.79779699378811,0.478416045255697],[33.79970292334204,0.481391145275673],[33.80036963396875,0.4831254619619],[33.799869633577075,0.484167454359327],[33.802220262120514,0.487513900575484],[33.801637129790656,0.493729346738269],[33.80344075981399,0.499410434482853],[33.807160689336634,0.50412176203859],[33.80749592348388,0.505651835014299],[33.8114918098486,0.508727117354946],[33.816401084503866,0.510073956907291],[33.81950074925735,0.513632667287479],[33.82297178037075,0.511590979258631],[33.8289562851961,0.511379009031974],[33.83055394251879,0.510090672322307],[33.83038947354477,0.507667129563672],[33.84098749276024,0.503095731033303],[33.84507530520884,0.510917095124764],[33.84590149173999,0.50781920671119],[33.84787421601444,0.505473991220876],[33.85135144359837,0.498307723921325],[33.85116108336111,0.490860133897918],[33.845365589436966,0.486506078119017],[33.85527571637079,0.481434588081377],[33.85820741057297,0.477627784665936],[33.86091028496101,0.478008161866106],[33.862299887093,0.476961202426253],[33.86270697777109,0.475524384015815],[33.870124489155494,0.479429506271396],[33.87466713939979,0.487608926622157],[33.87985074494263,0.491629311407831],[33.8877329600916,0.495840102073679],[33.88816751488377,0.491734131149387],[33.89134058362398,0.489420820461751],[33.89132301881386,0.489382791760518],[33.8913,0.4894],[33.8768,0.4701],[33.873147623192445,0.4580723453406204],[33.87232022267604,0.456259552014002],[33.864170866113696,0.444916557924977],[33.86383230139319,0.44424582246665417],[33.85247820634365,0.4335467713622833],[33.85234932762484,0.4335194408722],[33.85034419230795,0.431656017772414],[33.85025728142187,0.4314539767244549],[33.8502,0.4314],[33.8433750805427,0.41820515571588396],[33.825131451798796,0.422758882592522],[33.82208984561953,0.422073936817876],[33.82159205789806,0.421189275291467],[33.81728602621068,0.419365674441379],[33.81041074818259,0.423855536959628],[33.79809717405365,0.423245322238054],[33.79730248288423,0.423981629664729],[33.797121811238554,0.426189106125688],[33.79591339222026,0.427763195158529],[33.796790250540475,0.434585766587321],[33.796206665103476,0.439378828471515],[33.796971874391254,0.442716122272631],[33.79471879127751,0.443730347074227],[33.793314762081,0.449484054070094],[33.795374419216586,0.46116100055825],[33.79277416712393,0.467088553625787],[33.79415203000806,0.473484248745621],[33.79675638176658,0.478640428705406]]]}},{"type":"Feature","properties":{"n":"Bulidha","c":"201203","d":"Bugiri","od":"Bugiri","dc":"201","k":"BULIDHA","a":["BULIDHA"],"lat":0.395934,"lon":33.731158},"geometry":{"type":"Polygon","coordinates":[[[33.7012809339218,0.312909313255986],[33.70138048919994,0.3172530574996383],[33.70255616262442,0.3246010164026125],[33.70323922795051,0.327004858876698],[33.70452233677985,0.328519763731242],[33.70428760608924,0.3354225380577294],[33.7043,0.3355],[33.7003075188737,0.35546240563147863],[33.700306639458574,0.355488343147106],[33.70318958822965,0.357217212531445],[33.70346144986737,0.3577623219234407],[33.7112,0.3633],[33.711180422744164,0.36333393391010815],[33.711183836972,0.363335609653182],[33.708903358176215,0.368181547417881],[33.7089502397432,0.369592913656883],[33.70564060779807,0.37293627981668587],[33.705593391888875,0.37301812072594676],[33.70525280458756,0.3740750479680498],[33.70592458490357,0.378846410725363],[33.70823150797622,0.389445123352167],[33.70800864515119,0.3936485822276863],[33.70908625649544,0.4013023858778806],[33.70914837456992,0.401427506066487],[33.70886486488623,0.402865784845573],[33.70728915921098,0.4078672885322068],[33.707,0.4089],[33.70696208955839,0.4089054520033092],[33.706961179737654,0.408908339897803],[33.70383740963263,0.410501858962706],[33.70207277788274,0.410176719990997],[33.695832011749566,0.411893477156077],[33.6956208999336,0.413809728093738],[33.69887477408687,0.420850384030199],[33.699065552819626,0.423123185877487],[33.70165956357068,0.42639573427282],[33.70261080148098,0.42952307630831],[33.700738611283825,0.432580308059816],[33.70161339641701,0.447475692237122],[33.700640040301074,0.449256094468866],[33.70246032496224,0.450441058947953],[33.70559289192281,0.450862166451685],[33.71042476314368,0.450233808173358],[33.71503550400937,0.452632023187536],[33.71586528510632,0.454487524915928],[33.71806977115947,0.454303813616977],[33.71692952838191,0.455848745602703],[33.7171534770743,0.468109563973993],[33.715030172876276,0.471122753196019],[33.71610178947984,0.472617261779323],[33.71619489820039,0.475293129245152],[33.71849052029696,0.481000347973702],[33.716617271327365,0.486130956113424],[33.71757708620038,0.491006978340147],[33.71989534944625,0.489468834955334],[33.729591489753425,0.487332742268265],[33.73311445693095,0.485025472976356],[33.733322846452126,0.481712273783656],[33.731712756663825,0.476925400557672],[33.7329169092418,0.473454161736139],[33.73630808024681,0.472025845737091],[33.73777254536498,0.469622511233894],[33.74042455142396,0.470336429761037],[33.743618938480175,0.469296938326527],[33.755506279505184,0.459487205246397],[33.755256872972566,0.45777865607557],[33.75307253276419,0.455265949194642],[33.75097385352135,0.456072585328782],[33.74991014648025,0.457550010646382],[33.74714039875471,0.457450319440797],[33.7431722570233,0.458856425004663],[33.73761404277893,0.457785579991308],[33.73763513349364,0.45278292869312],[33.729100710642,0.449183284851803],[33.7218190098644,0.449171714981823],[33.726756965416634,0.444886338808588],[33.7332828191247,0.434518279165651],[33.73303556576029,0.432564381842531],[33.73128522988369,0.429578746265794],[33.73127586006014,0.42764379391217],[33.73436779382811,0.421491068992538],[33.73447825838895,0.419563294565052],[33.73680518579168,0.415981704309947],[33.74350303552497,0.410815248626221],[33.748938242514654,0.410145941654726],[33.753613757294545,0.408147286293401],[33.757240260546446,0.407654624628362],[33.75595495725128,0.4050287777252834],[33.755709729725154,0.404969985561274],[33.753709404075785,0.401414880408923],[33.75335516939055,0.39971746721329493],[33.75311444348405,0.399225669379707],[33.75319166326322,0.3989339825076623],[33.75313739458599,0.398673939172874],[33.753380814196724,0.39821949141838364],[33.75545666025595,0.390378274435622],[33.75545672993856,0.39037817057164986],[33.755456778331734,0.390377920219091],[33.75710076522012,0.387915258851827],[33.741231859487435,0.372427748214524],[33.73239850614536,0.346303796602592],[33.7309537006648,0.3254964083552973],[33.73079918117791,0.323271195540821],[33.73079918719795,0.32327118029701485],[33.73079915244885,0.323270679857325],[33.7361954955004,0.3096067842805807],[33.73650252108321,0.308829341829996],[33.71744895578612,0.30523718677892],[33.693939297828,0.3042386837994381],[33.70020714969828,0.31040860048424457],[33.700350004967255,0.310530397236978],[33.7012809339218,0.312909313255986]]]}},{"type":"Feature","properties":{"n":"Buluguyi","c":"201204","d":"Bugiri","od":"Bugiri","dc":"201","k":"BULUGUYI","a":["BULUGUYI"],"lat":0.62527,"lon":33.879985},"geometry":{"type":"Polygon","coordinates":[[[33.85295427466948,0.6968697818153016],[33.8593,0.6985],[33.85976647982142,0.6983473729616555],[33.86006356845805,0.698156061325852],[33.861700593874204,0.695039146283026],[33.86492233415023,0.693494828848274],[33.869998151699406,0.6949996830845256],[33.881,0.6914],[33.88101707655927,0.691383256100976],[33.87550938146002,0.686345245419633],[33.87630532939259,0.685383081584879],[33.88042691892665,0.681845217982597],[33.88654767284641,0.68160913378461],[33.890119081871106,0.678280823439414],[33.892301231696806,0.678333293530849],[33.89416488889743,0.676351453525374],[33.896305265184694,0.676242896180994],[33.896379009188436,0.6760574395108457],[33.89601893369916,0.6718965671902813],[33.89490202009874,0.671059886960699],[33.89409798216221,0.665722011281605],[33.89533343440294,0.663975241989621],[33.8946,0.6555],[33.8946414993996,0.6553703895563252],[33.89385951069571,0.652289208732808],[33.89620433662703,0.649158506554282],[33.89752076395063,0.645648339435446],[33.89724175303241,0.644600078068684],[33.89824374451723,0.6441198993700924],[33.89834377145023,0.6438074964126772],[33.898046932490445,0.641586143817882],[33.899374082428885,0.6405896411097833],[33.90002753605137,0.6385487823323048],[33.90071577327909,0.635117969001931],[33.900262687295886,0.633535726222002],[33.90214979448068,0.631920569411796],[33.90250784137653,0.6308023214979236],[33.90219827741969,0.630105142270913],[33.903834727675246,0.62642400918382],[33.90363108555125,0.624116927405377],[33.90477841290821,0.6237108988156782],[33.9050508082824,0.6228601567411982],[33.904925625716004,0.622551135615736],[33.90533352145304,0.6219771902444972],[33.9084,0.6124],[33.9087140303163,0.6121094485858581],[33.908552606725955,0.610283680445661],[33.9105740493234,0.6103884964204055],[33.91417248297642,0.6070591045358394],[33.91364934332964,0.606727349602776],[33.915738387985556,0.605154273544397],[33.91542845231679,0.603643787849739],[33.91632630529693,0.602283469560502],[33.916782618208934,0.603001176807915],[33.91894537311941,0.602494222636184],[33.918780164354345,0.601275505359184],[33.91946742522297,0.600920101712232],[33.917177412860816,0.597318674553678],[33.91835804683505,0.595385162085682],[33.9211619791275,0.594858878793521],[33.92354682696481,0.588743460212291],[33.92393400798991,0.5886885486002741],[33.924,0.5885],[33.925505064755995,0.5882110936025966],[33.92587543701159,0.587259988113866],[33.92685364283106,0.587156769285417],[33.92723901131681,0.582801638288355],[33.9246981404945,0.582112465453866],[33.92163307396172,0.579580124437198],[33.914330891957874,0.561974721451474],[33.915103857803665,0.557185334744789],[33.912223910394395,0.552736885374938],[33.89922462003943,0.556130924112957],[33.891759062748875,0.554049735563425],[33.88277482584339,0.549926339573225],[33.8818970917481,0.559232124982925],[33.87875421266722,0.567537260123369],[33.874230475624394,0.573381856898982],[33.86219728819565,0.582393655509748],[33.85826860070812,0.588979797139044],[33.85500250459549,0.592228126499423],[33.853863394830014,0.595213591985982],[33.85408005820306,0.598153501428588],[33.860082190308894,0.612825058928436],[33.859800574006826,0.617059515147526],[33.83725963668396,0.668998319022769],[33.83365720476302,0.682043698008451],[33.83338529470176,0.691515467651181],[33.852990313427675,0.695817769825646],[33.85295427466948,0.6968697818153016]]]}},{"type":"Feature","properties":{"n":"Busowa Town Council","c":"201205","d":"Bugiri","od":"Bugiri","dc":"201","k":"BUSOWATOWNCOUNCIL","a":["BUSOWA","BUSOWATOWNCOUNCIL"],"lat":0.60641,"lon":33.695575},"geometry":{"type":"MultiPolygon","coordinates":[[[[33.67971038632656,0.6359146195274628],[33.68010519689018,0.636539082439037],[33.68586761156665,0.636174268875756],[33.69137050876063,0.638559698086317],[33.698293741584074,0.639837652671293],[33.70193877175328,0.629793505612972],[33.701986842448754,0.627325373064469],[33.70581502834993,0.613445565971661],[33.709844778320665,0.609853877090697],[33.716135247137764,0.607329760938576],[33.71553299787713,0.600047070779193],[33.717319022086436,0.596689764766906],[33.717817604939135,0.591777880402142],[33.71971528535091,0.589239075389744],[33.716692309406604,0.587955822402829],[33.718044154483266,0.585475432133322],[33.716435796542626,0.583048918878232],[33.71639756934355,0.577575620960214],[33.71567421454737,0.575377000433144],[33.71424654312621,0.574263415767764],[33.71012038919934,0.574971608723131],[33.70244191517223,0.580329078271313],[33.69487900455901,0.579337893275676],[33.69587152952518,0.581110779201212],[33.694689332044824,0.582607430975808],[33.69446569281339,0.586742780714267],[33.69190102694895,0.591416882684184],[33.688050745198524,0.594521227671901],[33.68333642091521,0.596645675432706],[33.67835768683501,0.604333545741776],[33.6758023508243,0.605491043475475],[33.673485882614756,0.608487418081765],[33.671346655333345,0.608992850900545],[33.67157387832595,0.611885049822531],[33.67086079895091,0.613585927605769],[33.67160950191873,0.616301952013772],[33.67971038632656,0.6359146195274628]]],[[[33.68995569260986,0.592902590736851],[33.68995569529915,0.592902596077977],[33.68995569260987,0.592902590736841],[33.68995569260986,0.592902590736851]]]]}},{"type":"Feature","properties":{"n":"Buwunga","c":"201206","d":"Bugiri","od":"Bugiri","dc":"201","k":"BUWUNGA","a":["BUWUNGA"],"lat":0.544754,"lon":33.680055},"geometry":{"type":"Polygon","coordinates":[[[33.622339122432585,0.532052878196879],[33.623859424003356,0.534658221390634],[33.626437558958756,0.536358610482115],[33.62943534095381,0.5430568028080596],[33.64176469897316,0.5591407801419451],[33.642497032166595,0.56006867606235],[33.647867606339375,0.562302880573367],[33.65145313005058,0.5665008803076538],[33.652053999470624,0.5669304611599931],[33.654519607011814,0.56806460788154],[33.66100258141587,0.5733280898810303],[33.6646,0.5759],[33.66481365888354,0.5764222772708787],[33.66616198737188,0.577516975828276],[33.66822869819459,0.58173217747228],[33.6683881812309,0.5851599985644285],[33.67067301144573,0.5907451390895457],[33.670936142927935,0.591295086817666],[33.671743122342306,0.595700193856747],[33.67237025031208,0.606800693814814],[33.67134665462361,0.608992839421336],[33.67149201297217,0.6089585074150431],[33.67348569479234,0.6084874624583553],[33.67580118429437,0.605492382203273],[33.67580138689469,0.6054922903279829],[33.6758023508243,0.605491043475475],[33.67739734751412,0.6047685533426735],[33.67835813384263,0.6043328554987212],[33.68333642091521,0.596645675432706],[33.683336612369615,0.5966455891563168],[33.683336647173476,0.596645535407542],[33.6842301655069,0.5962429212769822],[33.688050745198524,0.594521227671901],[33.69175311445101,0.5915361392610657],[33.694465543823384,0.5867430522484542],[33.69446569281339,0.586742780714267],[33.694689332044824,0.582607430975808],[33.69587152952518,0.581110779201212],[33.69487900455901,0.579337893275676],[33.70244191517223,0.580329078271313],[33.70244705114354,0.5803254947715488],[33.70862150559938,0.575599729272231],[33.709528848064075,0.5753843422438133],[33.71012038919934,0.574971608723131],[33.71424654312621,0.574263415767764],[33.71424755477844,0.5742642048571814],[33.71424783815617,0.574264137588328],[33.714248757327105,0.5742651428459482],[33.71567421454737,0.575377000433144],[33.715903990888535,0.5760754004202376],[33.71608346535237,0.576271683902595],[33.716105019634156,0.5766864227414967],[33.71639756934355,0.577575620960214],[33.71643579423742,0.5830485888232245],[33.71661691391826,0.5833221688194223],[33.718044154483266,0.585475432133322],[33.716692309406604,0.587955822402829],[33.71969788323179,0.5892316881919138],[33.7197152922401,0.589239065954914],[33.72138355142862,0.586468615238469],[33.72169299833393,0.582973241933885],[33.72732655036998,0.576989251501105],[33.728549819984146,0.569797343837193],[33.73294804296927,0.563464794735236],[33.73512376284253,0.556770625625018],[33.73366108031694,0.556236020748606],[33.7329287129462,0.551107506902627],[33.72996728734365,0.547732394784101],[33.73003171801448,0.545432493127273],[33.728716719315344,0.544076368509584],[33.73253524639304,0.541003297305862],[33.733924805679635,0.539290099059261],[33.734292796339524,0.537270706557649],[33.73261135679284,0.530034272091152],[33.72842496221526,0.524894744163697],[33.724700925205994,0.521757329116227],[33.723892592746274,0.522469906690063],[33.71638585786063,0.520851965698578],[33.712274140949276,0.522308887022532],[33.71004750366127,0.525111434068561],[33.70600075850383,0.520780783369406],[33.703577010740446,0.520111780317489],[33.70162854188259,0.518094416886084],[33.70054084234042,0.520563162436295],[33.69927281662209,0.521104709070393],[33.69744135384763,0.519712230549628],[33.691697794979575,0.518851970625973],[33.68931721105719,0.516630106080592],[33.68956818877996,0.515501405157961],[33.686687308020105,0.514436374155043],[33.68256718757278,0.509520773023271],[33.681983789274796,0.507615157378107],[33.67980421244208,0.507161673004775],[33.67741961597705,0.508217557704827],[33.675411674130665,0.507681293032999],[33.67586143999966,0.505308065378696],[33.675278472611055,0.503392605398383],[33.67042446627272,0.498324426027257],[33.669178634791336,0.498145259539249],[33.67093558160686,0.495254801951397],[33.67020610623057,0.490812939536266],[33.66784709920842,0.489067218227621],[33.665891348683424,0.488704838463071],[33.65641456115456,0.481487577925562],[33.6548205334385,0.482492795850829],[33.64924851971615,0.483655212569546],[33.64333223228205,0.482266414038844],[33.638529333015434,0.482534475043549],[33.6382707141752,0.48558188589863],[33.63624367456149,0.486603575361719],[33.63265133841208,0.493943856398963],[33.6302005386724,0.493045984470428],[33.62539977218736,0.489530656942093],[33.62380553872634,0.490351568724154],[33.6221280260389,0.492767455291683],[33.62304831195686,0.494301654499215],[33.62260498779811,0.4971062325175533],[33.618212000979824,0.5283147430392008],[33.6182051614734,0.528389432858812],[33.622339122432585,0.532052878196879]],[[33.68995569260987,0.592902590736841],[33.68995569529915,0.592902596077977],[33.68995569260986,0.592902590736851],[33.68995569260987,0.592902590736841]]]}},{"type":"Feature","properties":{"n":"Buwuni Town Council","c":"201207","d":"Bugiri","od":"Bugiri","dc":"201","k":"BUWUNITOWNCOUNCIL","a":["BUWUNI","BUWUNITOWNCOUNCIL"],"lat":0.524655,"lon":33.865618},"geometry":{"type":"Polygon","coordinates":[[[33.82188628372894,0.516063753752777],[33.82193432159976,0.517157033777212],[33.828094855751544,0.52028670908868],[33.8295693074184,0.522050125791434],[33.83195677997779,0.522015095764546],[33.834052701219235,0.525071015708869],[33.835716647982856,0.524238695308456],[33.840412795337244,0.526608008128094],[33.84376283319434,0.527104569389857],[33.844597876998726,0.528353410925184],[33.8468332423109,0.528733049736585],[33.84895154317993,0.528009044222171],[33.852955243979665,0.529980597063544],[33.85528378041162,0.529817207309239],[33.85542888114593,0.531364343992983],[33.85728483377176,0.533616617852822],[33.86017446194102,0.534702765480396],[33.86126963465974,0.537632618109397],[33.86345604164303,0.537850388838695],[33.8637093163752,0.541160333583183],[33.865685746648225,0.545107372509189],[33.86587756671117,0.547447200286921],[33.8677225234611,0.551228284859932],[33.86881522261827,0.551428145315838],[33.86855084147087,0.553324158255185],[33.8703156185122,0.553934661658409],[33.86973563440567,0.556501983821104],[33.870322186511125,0.561676373827723],[33.87113086155237,0.562491172839031],[33.87022938781095,0.564589298233438],[33.870943026911505,0.565522553226066],[33.87067391609709,0.570152698533142],[33.872960559270226,0.5743329125111415],[33.874230475619036,0.5733818569029927],[33.874230475625815,0.5733818568971445],[33.877846064923,0.5687105726584255],[33.87875422090821,0.5675372383463386],[33.88127933164107,0.5608645712340378],[33.882112452715916,0.5569488560944996],[33.88270531157677,0.5506633336715179],[33.88290811512559,0.546038853846772],[33.886859936935274,0.54385428997808],[33.88958154310736,0.539659450373131],[33.89183910167092,0.531880407338964],[33.89462025975702,0.527086783719567],[33.89506992002181,0.512396719952974],[33.88888689924434,0.502793478841688],[33.88773295907193,0.49584011452226],[33.88622784453081,0.49503604808192514],[33.87985074494263,0.491629311407831],[33.87466713939979,0.487608926622157],[33.87012449167731,0.47942951081213137],[33.87010142285666,0.47941736247919264],[33.86270697777109,0.475524384015815],[33.862299887093,0.476961202426253],[33.86091028496101,0.478008161866106],[33.85820741057297,0.477627784665936],[33.85527571637079,0.481434588081377],[33.845365589436966,0.486506078119017],[33.85045270029813,0.49032793777979056],[33.85116061554432,0.490859506486163],[33.851160622753234,0.4908597878510736],[33.85116108336111,0.490860133897918],[33.85134960600858,0.49823583067526817],[33.851351419557865,0.498306613756925],[33.85135141543954,0.4983066222445833],[33.85135144359837,0.498307723921325],[33.84787421601444,0.505473991220876],[33.84621998416559,0.507440576316786],[33.84590140554464,0.5078195299112971],[33.84507530520884,0.510917095124764],[33.84098749276024,0.503095731033303],[33.83038947354477,0.507667129563672],[33.83055394251879,0.510090672322307],[33.83055374615645,0.5100908306671623],[33.83055376431039,0.510091088126712],[33.830244416832706,0.5103402710931463],[33.8289562851961,0.511379009031974],[33.82895481390796,0.51137906114477],[33.828954786421434,0.511379083285488],[33.82784823140952,0.5114182561241135],[33.82297178037075,0.511590979258631],[33.819885129304,0.513406571895613],[33.81950075620116,0.513632676493182],[33.82016212707637,0.515429402034487],[33.82188628372894,0.516063753752777]]]}},{"type":"Feature","properties":{"n":"Iwemba","c":"201208","d":"Bugiri","od":"Bugiri","dc":"201","k":"IWEMBA","a":["IWEMBA"],"lat":0.625227,"lon":33.819143},"geometry":{"type":"Polygon","coordinates":[[[33.77111469515324,0.595216757851203],[33.773708338927555,0.597722845223291],[33.77551979901727,0.604515582550829],[33.7764181075926,0.612576368453022],[33.77798794581936,0.614131925067573],[33.77832328307108,0.616737480835593],[33.78188155985763,0.622246824425203],[33.78232620509464,0.628207844903582],[33.785211335416044,0.638746562943176],[33.79537089938565,0.643512181454249],[33.79848229075654,0.647076283923559],[33.80303335695968,0.649690171962441],[33.80930719508077,0.657912257056617],[33.82482198213106,0.670646852400333],[33.834879499937074,0.676561541385188],[33.836421023437566,0.672035164093458],[33.83725963668396,0.668998319022769],[33.83816838838313,0.6669043743212547],[33.83966750250046,0.662502523751846],[33.85979996592092,0.6170609162984291],[33.859800574006826,0.617059515147526],[33.86008218282683,0.6128251714306895],[33.86008119579576,0.6128226279495026],[33.85408005820306,0.598153501428588],[33.85400771456281,0.5971718691938257],[33.85384123811355,0.596742875895593],[33.85392521426081,0.5960524210219299],[33.853863394830014,0.595213591985982],[33.854103900492895,0.5945832564576541],[33.85413613859432,0.594318193639518],[33.85436102442922,0.5939093664946946],[33.85500250459549,0.592228126499423],[33.85562806981951,0.5916059641949635],[33.85577854177838,0.591332416413051],[33.84897473401497,0.586900738419315],[33.842277232197965,0.580053695240173],[33.83654506342645,0.575902271975388],[33.832871319776125,0.575866253542728],[33.83161017412334,0.573858518266916],[33.827853080150874,0.5719774221642],[33.82170601453227,0.572258468039429],[33.81768941060347,0.570848092259615],[33.81025992499039,0.57048729889821],[33.80195348657521,0.572677718155579],[33.79630687972513,0.577022344378759],[33.795586779066085,0.575419203546105],[33.79349447640335,0.574510060963798],[33.79173455765837,0.572236329896277],[33.78515141181964,0.57124810804057],[33.780324653850066,0.568183102932822],[33.77378095473033,0.568462222816922],[33.77318939689236,0.575853154281965],[33.77399794404968,0.579515656215813],[33.76933908323013,0.589092630522264],[33.76944222507256,0.591688963881661],[33.77111469515324,0.595216757851203]]]}},{"type":"Feature","properties":{"n":"Kapyanga","c":"201209","d":"Bugiri","od":"Bugiri","dc":"201","k":"KAPYANGA","a":["KAPYANGA"],"lat":0.571613,"lon":33.84567},"geometry":{"type":"Polygon","coordinates":[[[33.723557936044664,0.606006979089205],[33.73027272711875,0.60697639805729],[33.73363075754136,0.606619937606018],[33.733246354914584,0.611423138341944],[33.73146169149665,0.61451700073902],[33.73167573054899,0.620299326748755],[33.73091449355135,0.62253524938137],[33.729789332133066,0.623413417460518],[33.732226645167074,0.630413911466338],[33.732011658676825,0.635723888843437],[33.73555297669693,0.635890118125552],[33.73691531559895,0.634548933034874],[33.740398509452646,0.633782567853158],[33.75242702225604,0.637837561310612],[33.7577313737874,0.640560041370023],[33.76114314096626,0.640903553512269],[33.76418739683162,0.642648821007684],[33.767468539443016,0.643200160810578],[33.77401752993759,0.642602090851703],[33.77885352790506,0.639199542754679],[33.78521130434229,0.6387464494379071],[33.78232620509464,0.628207844903582],[33.78188155985763,0.622246824425203],[33.77832328307108,0.616737480835593],[33.77798794891577,0.6141319491265433],[33.77796370184759,0.6141079016554725],[33.7764181075926,0.612576368453022],[33.77551979901727,0.604515582550829],[33.773708338927555,0.597722845223291],[33.77111469515324,0.595216757851203],[33.76944222507256,0.591688963881661],[33.76933908323013,0.589092630522264],[33.77399794404968,0.579515656215813],[33.77318939689236,0.575853154281965],[33.77378095473033,0.568462222816922],[33.780324653850066,0.568183102932822],[33.78515141181964,0.57124810804057],[33.79173455765837,0.572236329896277],[33.79349444652995,0.5745100223687872],[33.793582365002464,0.5745482501174858],[33.795586779066085,0.575419203546105],[33.79630687972513,0.577022344378759],[33.80195348657521,0.572677718155579],[33.81025992499039,0.57048729889821],[33.81768941060347,0.570848092259615],[33.817689786489765,0.5708482242469705],[33.817689850128495,0.570848227337412],[33.82170715293214,0.5722584159914098],[33.827853080150874,0.5719774221642],[33.83161017412334,0.573858518266916],[33.83161042072366,0.5738589108529514],[33.831610665772025,0.573859033554635],[33.832871693185226,0.5758662572037376],[33.83654506342645,0.575902271975388],[33.842277232197965,0.580053695240173],[33.84897473401497,0.586900738419315],[33.8535776880357,0.5898988845676448],[33.85577855002091,0.591332408258838],[33.85826685331505,0.5889815350267322],[33.85826860070812,0.588979797139044],[33.86219728819565,0.582393655509748],[33.87296055460414,0.5743329160056259],[33.87289875509662,0.5742199282583128],[33.87067391609709,0.570152698533142],[33.87067393884076,0.5701523072204168],[33.87067389674351,0.570152230254221],[33.87071832701927,0.5693885931464648],[33.870943026911505,0.565522553226066],[33.87042439442128,0.5648443163406902],[33.87022957324295,0.56459030065787],[33.87022978217987,0.5645898139657718],[33.87022938781095,0.564589298233438],[33.87097098553961,0.5628632745508547],[33.87113076888533,0.5624910794702309],[33.870322186511125,0.561676373827723],[33.86973563440567,0.556501983821104],[33.87021039552812,0.5544004352822244],[33.87031555056742,0.5539346381537285],[33.86855084147087,0.553324158255185],[33.86881522261827,0.551428145315838],[33.8677225234611,0.551228284859932],[33.86587756671117,0.547447200286921],[33.86574009862926,0.5457703598581085],[33.86568532834663,0.5451065371381141],[33.8637093163752,0.541160333583183],[33.86345604164303,0.537850388838695],[33.86126963465974,0.537632618109397],[33.86069659010829,0.5360995849568121],[33.860174387167156,0.5347027373745469],[33.85728483377176,0.533616617852822],[33.85542888114593,0.531364343992983],[33.855283810100254,0.5298175238643407],[33.85450883418096,0.5298715840724662],[33.852955243979665,0.529980597063544],[33.848951568809234,0.5280090568428778],[33.84881662002392,0.5280551590637423],[33.8468332423109,0.528733049736585],[33.844597876998726,0.528353410925184],[33.844597336682064,0.5283526028599239],[33.84459606642961,0.528352387050742],[33.84430997391671,0.5279228403071136],[33.84376297817218,0.5271047862100355],[33.8412327405106,0.5267295449665491],[33.840412795337244,0.526608008128094],[33.840412617641945,0.5266079184767859],[33.8404125225279,0.52660790437111],[33.83571655893976,0.5242387398485767],[33.834052701219235,0.525071015708869],[33.83195677997779,0.522015095764546],[33.8295693074184,0.522050125791434],[33.82915948238937,0.5215599826978045],[33.82809434745838,0.5202864508655254],[33.82809377634517,0.5202861607285234],[33.82299443321035,0.518797227757309],[33.82175822529422,0.520544460607314],[33.819190472950254,0.520377456095351],[33.817784795656685,0.522005397820882],[33.815909492572736,0.521287430395256],[33.81415013997659,0.521886044714577],[33.812105499455576,0.522700111298593],[33.81091738827759,0.52432751654491],[33.80949037384377,0.52382535724995],[33.809324564744365,0.524782019469039],[33.8052343682042,0.528278038635506],[33.8031664802719,0.529020221202437],[33.80052714144623,0.531336437483538],[33.79724082647908,0.531909545553628],[33.795815104379194,0.535237452817262],[33.79390067225669,0.536355550438909],[33.79104532097276,0.540341146682867],[33.78955643025649,0.543780484532876],[33.78666725109477,0.544647884962405],[33.78334814887324,0.547550372165042],[33.7770398792028,0.548085121521441],[33.77703832243919,0.5481004679600338],[33.777130818668525,0.548111954788041],[33.77655171386805,0.552898216444479],[33.77658513741454,0.5531347156215739],[33.77716555819974,0.55723313617769],[33.774669212022935,0.559057120266959],[33.77186783746656,0.55939939589186],[33.77260420695265,0.56027925551627],[33.77259547779535,0.5602819099543433],[33.772595583710725,0.560282037890321],[33.76885275391346,0.561420392228727],[33.76902635450939,0.563504332338095],[33.766925749107706,0.563512053149287],[33.765590485903225,0.5635199785533119],[33.76603742833428,0.563988343126847],[33.766034864414216,0.5639914123506427],[33.76603507905987,0.563991636301019],[33.76351219322253,0.5670112578418037],[33.761708981651616,0.56916985082451],[33.76351117621828,0.5709862649973817],[33.76358484700634,0.571060333556254],[33.76358493638628,0.5710606071450204],[33.76358516295489,0.571060835501292],[33.7642810921189,0.5731915147188438],[33.7643556955653,0.573419873175884],[33.76435569552244,0.5734199229099389],[33.764356164884276,0.573421359923295],[33.76435140763779,0.581611457555244],[33.75997796677661,0.580002943909538],[33.758249880169075,0.5763373709203921],[33.7579747550511,0.5757538805188028],[33.75795723000942,0.575745390838158],[33.756538734729475,0.575099142894797],[33.75454313282768,0.5760050836577919],[33.75136536350275,0.577447712280811],[33.74747129192423,0.57667861522384],[33.74630335412523,0.57972626621612],[33.74172082954788,0.580180544729192],[33.73930202761983,0.5771455522287794],[33.73597680604788,0.572976665166614],[33.73597962988605,0.5729767725992989],[33.73597380960288,0.572969469597107],[33.739279404701946,0.573100162977145],[33.738984452941814,0.565104092932839],[33.739807781689855,0.56494000994849],[33.741026766074995,0.5629113758890976],[33.7411886813157,0.562641782662117],[33.741188777438204,0.562641756545801],[33.74118902002399,0.562641352834493],[33.74447492105388,0.561748054101532],[33.743493718549026,0.559655113209],[33.743493742605025,0.5596549837661352],[33.74349374245289,0.559654983442784],[33.743493949408496,0.5596538709780687],[33.743868462385905,0.55763865538572],[33.74600563170754,0.5571216658827818],[33.74627574586859,0.5570561434603195],[33.7455960625039,0.55435276785364],[33.75021372802249,0.5532737746169099],[33.75026510590245,0.5532617630337663],[33.75031021299515,0.553048114861565],[33.75039273270879,0.5479182691135357],[33.750389733547685,0.547885443521519],[33.75039327406849,0.5478846154365739],[33.75039327900818,0.547884308360658],[33.75842112318917,0.5460069987368356],[33.75922267369031,0.545819525780631],[33.760824160042404,0.544654899621856],[33.77368121891108,0.5448968926931712],[33.77413312396571,0.544905387141673],[33.77785880857254,0.54055990158564],[33.777124110044234,0.539877606302413],[33.77469608773422,0.540519211116565],[33.773227031287355,0.539249991330378],[33.77218291725109,0.536350151797167],[33.77641820167576,0.531467860944253],[33.770601367028945,0.529057065156497],[33.77077095325792,0.526241983796636],[33.7693204539652,0.522055137710811],[33.76981926146219,0.521215505055848],[33.768665200655605,0.513729791934996],[33.76384366646038,0.506215378086236],[33.759723321160834,0.509901667908699],[33.75681472521046,0.510870608293742],[33.751768122407015,0.506991364429019],[33.75012024009255,0.506876928940142],[33.75047973714337,0.502968780969738],[33.74851683311926,0.500589485773287],[33.74578750325405,0.499804202040003],[33.74264742662134,0.503696261049396],[33.73829333578536,0.504553388010072],[33.7379658267873,0.505628029723185],[33.73084737670608,0.505737512820965],[33.72963201518459,0.504097627499895],[33.72853981625377,0.506865047040754],[33.7281078431111,0.511614702024973],[33.72453760666435,0.516201062067612],[33.7247009340712,0.521757321645286],[33.724701300385554,0.5217576451963307],[33.72842496221526,0.524894744163697],[33.72886590001276,0.52543607204919],[33.72985159682961,0.526306699231744],[33.731116103068594,0.5281985879166243],[33.73261135679284,0.530034272091152],[33.73275434078598,0.5306496342658861],[33.733061507744864,0.531109201546749],[33.733483470754734,0.5337876009247906],[33.734292796339524,0.537270706557649],[33.734153036752005,0.5380376539120998],[33.73423670982527,0.538568766597675],[33.733992607500966,0.5389180285028117],[33.733924805679635,0.539290099059261],[33.73253524639304,0.541003297305862],[33.728716719315344,0.544076368509584],[33.73003171801448,0.545432493127273],[33.72996728734365,0.547732394784101],[33.7329287129462,0.551107506902627],[33.73366100021108,0.556235459795135],[33.73380038984998,0.5562869378508417],[33.73512376284253,0.556770625625018],[33.73294804296927,0.563464794735236],[33.72855001032327,0.5697970697874591],[33.72780116002805,0.57419890275238],[33.72732655036998,0.576989251501105],[33.72732643916604,0.5769893696225489],[33.72732642906819,0.576989428978939],[33.72579257153421,0.5786186523868336],[33.72169299833393,0.582973241933885],[33.72138355142862,0.586468615238469],[33.7197152922401,0.589239065954914],[33.71969788323179,0.5892316881919138],[33.71971528535091,0.589239075389744],[33.71781761005131,0.5917778735628304],[33.717806099368744,0.5918912297301812],[33.717319022086436,0.596689764766906],[33.71553299787713,0.600047070779193],[33.71610289468677,0.6069385394097325],[33.71613525855444,0.607329759261119],[33.723557936044664,0.606006979089205]]]}},{"type":"Feature","properties":{"n":"Mayuge Town Council","c":"201210","d":"Bugiri","od":"Bugiri","dc":"201","k":"MAYUGETOWNCOUNCIL","a":["MAYUGE","MAYUGETOWNCOUNCIL"],"lat":0.402937,"lon":33.806829},"geometry":{"type":"Polygon","coordinates":[[[33.78973606094387,0.417749378025327],[33.79378053201798,0.415198034218011],[33.796135631264015,0.415631937558469],[33.79857071585904,0.417993207287912],[33.79831916011603,0.41962112128248],[33.79918785122126,0.42088724590325],[33.798097178198525,0.423245311287316],[33.798097277505185,0.4232453273647253],[33.81041074818259,0.423855536959628],[33.81728602621068,0.419365674441379],[33.81728703472084,0.4193661015445965],[33.817287678877385,0.419365680981694],[33.82132885253807,0.42107780803969797],[33.82159205789806,0.421189275291467],[33.82182356281115,0.4216007026548786],[33.822091110944335,0.4220742217590638],[33.825131451798796,0.422758882592522],[33.8251844402927,0.422745656324205],[33.8417055947448,0.418183315207735],[33.84336216855867,0.418180192546762],[33.8367,0.4053],[33.83660430879122,0.40516287108027826],[33.82799750001115,0.399327949993831],[33.82755685861142,0.394821873653004],[33.82676925518643,0.392813653199063],[33.82514475157966,0.391502189733062],[33.824934560371105,0.388589166153057],[33.823285070054304,0.387349579381803],[33.82234186208951,0.3847242755836268],[33.81917366228127,0.38018413210842966],[33.817074678602204,0.381125865038034],[33.81341606377408,0.38404079585635],[33.81078176725044,0.386733836650924],[33.810353676474826,0.389235136380217],[33.808345309022734,0.38962549446263367],[33.806262684335145,0.39258917346351624],[33.80520690289773,0.394091618599407],[33.80461666998022,0.3946368703037039],[33.80175623667423,0.397279696262183],[33.80175575136592,0.39727976043068547],[33.80175556685218,0.397279930882768],[33.79994850066999,0.397519502765347],[33.79540712772411,0.395413628516452],[33.787199944046854,0.389499659313008],[33.786199035238525,0.38877843851308447],[33.782646058077226,0.39037537234979286],[33.78255653448709,0.39041565008346085],[33.781792456775335,0.391494382275801],[33.78219901953552,0.39379236495391],[33.78109968628491,0.400709568184001],[33.78109952688165,0.4007100335980094],[33.78109947703457,0.400710347232089],[33.777755016693334,0.410475125903999],[33.78791858126306,0.41744198068184],[33.78973606094387,0.417749378025327]]]}},{"type":"Feature","properties":{"n":"Mutelele Town Council","c":"201211","d":"Bugiri","od":"Bugiri","dc":"201","k":"MUTELELETOWNCOUNCIL","a":["MUTELELE","MUTELELETOWNCOUNCIL"],"lat":0.437044,"lon":33.778395},"geometry":{"type":"Polygon","coordinates":[[[33.759610691853936,0.436363106095898],[33.76393845820128,0.440641068477131],[33.7667548963157,0.44176941279746],[33.763594497884306,0.444972379324755],[33.75974567446872,0.447354271791347],[33.76298292844393,0.453156069600526],[33.761419676637736,0.454960836119458],[33.75999641777896,0.461676782799087],[33.76093267417982,0.464658934475455],[33.764018243549124,0.464015969419701],[33.76777952951548,0.461883206823271],[33.769083041300114,0.459413306168393],[33.7763262285223,0.453380525874668],[33.777397038411245,0.45323574418463],[33.781335172102146,0.448727606015316],[33.78305531227288,0.449207973953653],[33.78441073341736,0.448035061970693],[33.7886186435719,0.447293492511549],[33.79332398705458,0.4494462501589496],[33.79471682797247,0.4437383926917579],[33.794718498593404,0.443731467363752],[33.794718520285855,0.4437314575971303],[33.79471879127751,0.443730347074227],[33.796971789380834,0.44271616054004925],[33.796596070557534,0.4410771356257814],[33.796206665103476,0.439378828471515],[33.79640809825415,0.4377244322246703],[33.79679015687043,0.43458503776881846],[33.79597970498722,0.4282791548965821],[33.795913445842366,0.427763734668642],[33.79591345821952,0.42776370867899],[33.79591339222026,0.427763195158529],[33.79591421020951,0.42776212964409],[33.79721695584105,0.4250266134189741],[33.79730248288423,0.423981629664729],[33.7980400703192,0.42329823072047035],[33.799173951479794,0.4209172975305694],[33.79918785122126,0.42088724590325],[33.79831916011603,0.41962112128248],[33.79852969000333,0.41825870138420007],[33.79613685237295,0.41563312165185895],[33.796135631264015,0.415631937558469],[33.79428345152889,0.41529069207781527],[33.793058994157136,0.41565319661608285],[33.78973758935281,0.41774841387041023],[33.789736925954024,0.417748965239876],[33.78973675978094,0.41774893718310135],[33.78973606094387,0.417749378025327],[33.78791858126306,0.41744198068184],[33.77929665768778,0.41153188004317776],[33.77724897308247,0.41059348792385986],[33.772060706274516,0.41180707017515084],[33.77140177701308,0.412761093754346],[33.77021243742011,0.412570014400098],[33.76488753983024,0.41821874079114],[33.76051243070305,0.418842114034778],[33.75761208202673,0.421858302661089],[33.75342837772343,0.430331858230293],[33.754950352281384,0.433395468181956],[33.759610691853936,0.436363106095898]]]}},{"type":"Feature","properties":{"n":"Muterere","c":"201212","d":"Bugiri","od":"Bugiri","dc":"201","k":"MUTERERE","a":["MUTERERE"],"lat":0.458321,"lon":33.782634},"geometry":{"type":"Polygon","coordinates":[[[33.73008939627946,0.44960029209737146],[33.73763513349364,0.45278292869312],[33.73761404277893,0.457785579991308],[33.74317209004555,0.45885639283474544],[33.74713969807718,0.457450478945067],[33.747139925514084,0.45745048713296144],[33.74714039875471,0.457450319440797],[33.74991014648025,0.457550010646382],[33.75097385352135,0.456072585328782],[33.75097423073213,0.45607244034624217],[33.75097431312346,0.456072325914054],[33.75136933112865,0.4559205818583252],[33.75307253276419,0.455265949194642],[33.755256872972566,0.45777865607557],[33.755506279505184,0.459487205246397],[33.75549963098631,0.4594926917715527],[33.75429970347308,0.460753622010162],[33.743763985749794,0.4691772416680416],[33.743618938480175,0.469296938326527],[33.740438596944664,0.47033185918201786],[33.74042478425089,0.470336383917067],[33.74042473391546,0.47033637037614034],[33.74042455142396,0.470336429761037],[33.73984015044892,0.4701791093499652],[33.73777234443836,0.46962284097467716],[33.73638945473093,0.471892302026863],[33.736308270376554,0.472025633432612],[33.736308188641146,0.47202566785108174],[33.73630808024681,0.472025845737091],[33.732917178188764,0.4734540484592655],[33.732349130366245,0.47509091119041985],[33.731712842011774,0.4769251545231388],[33.73246251327034,0.479154462471988],[33.733322846452126,0.481712273783656],[33.73311445693095,0.485025472976356],[33.729591489753425,0.487332742268265],[33.729589375715385,0.4873332079980346],[33.727079145269165,0.487996461985312],[33.72807515346421,0.490799795552481],[33.7353039544232,0.500615468200536],[33.7383238067813,0.502153232715716],[33.73829333966411,0.504553376495711],[33.73837477927508,0.5045373554068399],[33.74264715039207,0.5036963154266627],[33.74287259366693,0.5034171712274217],[33.74578750325405,0.499804202040003],[33.74851683311926,0.500589485773287],[33.75047973714337,0.502968780969738],[33.750479707834096,0.5029690995953845],[33.75047973992068,0.502969138481422],[33.75047085892689,0.5030652974325314],[33.75012024009255,0.506876928940142],[33.751768122407015,0.506991364429019],[33.75622544310334,0.5104176364456123],[33.757273727156246,0.5107177010045647],[33.75927004433752,0.5100526679881893],[33.7605075310732,0.5092000701520878],[33.76384366646038,0.506215378086236],[33.76394508469821,0.5063734395206176],[33.76760570754052,0.502635259588915],[33.770291837012145,0.49772815311076],[33.770777806654735,0.492086080660869],[33.77241773493778,0.490557611539125],[33.77528277577375,0.489887738397789],[33.77636040885008,0.488530637870532],[33.777277982814006,0.484920807296841],[33.78103609476474,0.47889556607932],[33.78173440157021,0.476488416675429],[33.78538169787667,0.475602169314842],[33.78709548196971,0.476271443013995],[33.789030485606055,0.478786077799182],[33.79675637007206,0.478640429760976],[33.796756076148064,0.47863982363196983],[33.79415203000806,0.473484248745621],[33.79406888398161,0.47309830567268973],[33.793637232201746,0.472208154934631],[33.79277469741187,0.46709101508986367],[33.79277416712393,0.467088553625787],[33.795374240887845,0.4611614070777022],[33.79537331320152,0.4611547301560097],[33.793314762081,0.449484054070094],[33.79332398705458,0.44944625015894946],[33.7886186435719,0.447293492511549],[33.78441073341736,0.448035061970693],[33.783098477534374,0.449170620948898],[33.78305553038743,0.449207796042339],[33.7830555192268,0.4492077948663403],[33.78305531227288,0.449207973953653],[33.7830541569832,0.4492076513263857],[33.781096060794916,0.4490013262329255],[33.777397038411245,0.45323574418463],[33.77739684751168,0.45323576999571163],[33.777396626244155,0.453236043483333],[33.777172569002964,0.4532660941661047],[33.7763262285223,0.453380525874668],[33.769083041300114,0.459413306168393],[33.76777952951548,0.461883206823271],[33.764018243549124,0.464015969419701],[33.76093267417982,0.464658934475455],[33.75999641777896,0.461676782799087],[33.75999666630795,0.46167561006269897],[33.75999664697332,0.461675548438925],[33.761419570565096,0.454961264744494],[33.76141959072911,0.4549612414974051],[33.761419676637736,0.454960836119458],[33.76298292844393,0.453156069600526],[33.75974567446872,0.447354271791347],[33.763594497884306,0.444972379324755],[33.7667548963157,0.44176941279746],[33.76393845820128,0.440641068477131],[33.759610691853936,0.436363106095898],[33.754950352281384,0.433395468181956],[33.75342837772343,0.430331858230293],[33.75342847410535,0.43033166302110043],[33.75342843642598,0.430331587173711],[33.75409389550298,0.428033974113838],[33.75631429366557,0.42448680625459817],[33.75761208202673,0.421858302661089],[33.758607853253366,0.420822760323475],[33.75903854521569,0.42013471404793],[33.75970042503677,0.41968655121405146],[33.76051243070305,0.418842114034778],[33.76106351532345,0.4187635945287841],[33.761795909477755,0.418267686012986],[33.76488340660479,0.41821932970037257],[33.76488753983024,0.41821874079114],[33.764893735989205,0.4182121678184062],[33.769737724014725,0.412904646828912],[33.76994164536673,0.4128572744257822],[33.77021243742011,0.412570014400098],[33.770783357933446,0.41266173851628724],[33.771601704676875,0.41247163065632775],[33.771988944788646,0.41191096926357695],[33.77131477429527,0.41062999070301054],[33.77131014916768,0.410622205851234],[33.77130925454746,0.4106216520045597],[33.76560324684951,0.40734191048589463],[33.75595495725128,0.4050287777252842],[33.757240260546446,0.407654624628362],[33.753613757294545,0.408147286293401],[33.748938242514654,0.410145941654726],[33.74893818261293,0.4101459490311961],[33.748938160639426,0.41014595842425],[33.747437442826524,0.4103307544311276],[33.74350303552497,0.410815248626221],[33.737311259800876,0.41559133888741234],[33.73447825412058,0.41956336905449226],[33.73438570309663,0.42117852504547876],[33.73436791592345,0.421490637540986],[33.734367806019705,0.42149085623070226],[33.73436779382811,0.421491068992538],[33.731275983837705,0.42764354760375417],[33.731281571698645,0.4288232983400992],[33.73128522988369,0.429578746265794],[33.73303556576029,0.432564381842531],[33.73303559300169,0.43256459711523615],[33.73303571752517,0.432564809503475],[33.73308636805668,0.43296584238955577],[33.7332828191247,0.434518279165651],[33.726756965416634,0.444886338808588],[33.724654698478105,0.44671077901523837],[33.72181918209958,0.44917171525548694],[33.729100710642,0.449183284851803],[33.72910097076053,0.4491833945644422],[33.7291011031993,0.449183394718314],[33.73008939627946,0.44960029209737146]]]}},{"type":"Feature","properties":{"n":"Muwayo Town Council","c":"201213","d":"Bugiri","od":"Bugiri","dc":"201","k":"MUWAYOTOWNCOUNCIL","a":["MUWAYO","MUWAYOTOWNCOUNCIL"],"lat":0.535599,"lon":33.914514},"geometry":{"type":"MultiPolygon","coordinates":[[[[33.899224726318195,0.556130896364194],[33.912223910394395,0.552736885374938],[33.91222532582165,0.5527390716844731],[33.91222544073989,0.55273904170119],[33.91510343459732,0.557184440448971],[33.915103403518465,0.5571846330428455],[33.915103857803665,0.557185334744789],[33.914330891957874,0.561974721451474],[33.92163307396172,0.579580124437198],[33.9246981404945,0.582112465453866],[33.92723901131681,0.582801638288355],[33.92685490139566,0.5871425459799895],[33.92685363711987,0.587156889117731],[33.92809452866067,0.587714030147403],[33.935791702442934,0.5862365104999852],[33.93644043935276,0.58582912026431],[33.93742734832833,0.5859225382550747],[33.93915448706455,0.5855910033971166],[33.93950544639398,0.584443894954257],[33.94298564326185,0.583737855469182],[33.94411528298847,0.5846387482380448],[33.9533522201383,0.5828656615822274],[33.95335140015332,0.582827009197753],[33.95341585319721,0.5828534468268614],[33.957911369781996,0.5819905048864551],[33.9590183977301,0.581347121828964],[33.959571251452765,0.581671880434113],[33.9613446276373,0.5813314700147775],[33.96279061058885,0.580636576736609],[33.96336939685527,0.5809428031630655],[33.97869682199392,0.5780006100377303],[33.97700633771712,0.57264135065191],[33.97412147982895,0.567259338159697],[33.97195708154546,0.560674532852717],[33.971916823986696,0.555328245070735],[33.973017536285056,0.5524787594556909],[33.97300420861157,0.5524189018344303],[33.96517443718687,0.5458173206924847],[33.956,0.5381],[33.95591752010334,0.5381418554699479],[33.95292416817853,0.542259835192688],[33.949559378088836,0.542924851234833],[33.94876737549425,0.546403430074277],[33.94652147033861,0.546936884857223],[33.94307487321352,0.5446590195632875],[33.9426,0.5449],[33.94222667084289,0.5440984403391522],[33.94109750633915,0.54335217248687],[33.93956476443917,0.54107634182503],[33.93930936738564,0.5378348182103465],[33.9324,0.523],[33.9203,0.5064],[33.9004,0.4915],[33.90158903077592,0.4817895819966702],[33.90157967702947,0.481739206655394],[33.90139348176472,0.4818543874186054],[33.8913,0.4894],[33.89132301881386,0.489382791760518],[33.89134058362398,0.489420820461751],[33.88816751488377,0.491734131149387],[33.88816137560141,0.49179213928852206],[33.88773843488019,0.495873110418135],[33.888738425158756,0.5018988099205924],[33.89506603458609,0.5123906852366998],[33.89506992002181,0.512396719952974],[33.895069908143086,0.5123971080220429],[33.89506996336221,0.512397199581452],[33.89475984092983,0.5225267714397787],[33.89462025975702,0.527086783719567],[33.891839130101005,0.5318803583366711],[33.89140903644521,0.5333623161373888],[33.88958154310736,0.539659450373131],[33.886859936935274,0.54385428997808],[33.88290811512559,0.546038853846772],[33.8829065740299,0.5460739950755892],[33.88277482660268,0.549926326802726],[33.89175910450718,0.5540497472044721],[33.89286896222844,0.5543591444927398],[33.899224726318195,0.556130896364194]]],[[[33.8911750581959,0.4892336981503967],[33.8911750581959,0.4892336981503984],[33.8913,0.4894],[33.8911750581959,0.4892336981503967]]]]}},{"type":"Feature","properties":{"n":"Nabukalu","c":"201214","d":"Bugiri","od":"Bugiri","dc":"201","k":"NABUKALU","a":["NABUKALU"],"lat":0.678475,"lon":33.792621},"geometry":{"type":"MultiPolygon","coordinates":[[[[33.7402534387,0.7070309182],[33.7414584524,0.7062667981],[33.74446613050121,0.7112307571558008],[33.7591,0.7188],[33.76366083833787,0.7128003257579195],[33.7635450882,0.7118833272],[33.76653933630232,0.7090137302213502],[33.7759,0.6967],[33.779197411059776,0.694155701342766],[33.7809244565,0.692799961],[33.78097285716837,0.692785758357735],[33.78511893098843,0.6895866273237381],[33.7854138625,0.6886379584],[33.7911362834,0.6845120622],[33.79170062107216,0.6845081627529606],[33.7921,0.6842],[33.79472458352964,0.6844872678490157],[33.8019085425,0.6844376283],[33.809152009529896,0.6860663891027753],[33.8122,0.6864],[33.82317839738105,0.6892203526180617],[33.833385283,0.6915154656],[33.8336571391,0.6820442117],[33.83365719754126,0.6820439495728108],[33.83365720476302,0.682043698008451],[33.83365745842308,0.6820427794368555],[33.8348794979,0.6765615531],[33.831539343003755,0.6745972406698166],[33.82482198213106,0.670646852400333],[33.80930719508077,0.657912257056617],[33.80303335695968,0.649690171962441],[33.79848229075654,0.647076283923559],[33.79537103326568,0.6435123348139832],[33.795370222556535,0.6435118639692288],[33.78521158918645,0.6387466819810577],[33.7852113292,0.6387465741],[33.7814666807,0.6395069586],[33.779733985104336,0.6391367960889802],[33.77916790755597,0.6391771381734292],[33.77404047641713,0.6425859459937392],[33.77401752993759,0.642602090851703],[33.767468539443016,0.643200160810578],[33.76418739683162,0.642648821007684],[33.764177785256635,0.6426433107056096],[33.7608986185,0.6408978765],[33.7583458004,0.6448022015],[33.7561444015,0.651404215],[33.7588355311,0.6517717371],[33.7635659759,0.6577723971],[33.7685865205,0.6612939326],[33.7712277392,0.6641492638],[33.7736799864,0.6648703746],[33.7720351975,0.6717761633],[33.7704167016,0.671560355],[33.7668266848,0.6735774628],[33.7624417066,0.6721133223],[33.7588006015,0.6761987116],[33.7556166377,0.6777080252],[33.7459631633,0.6792415682],[33.7431348839,0.6868534979],[33.7393312437,0.6916891887],[33.7391157037,0.6944341666],[33.7326530309,0.6942809931],[33.72624128,0.6958695978],[33.7230331,0.6990279497],[33.7224107862,0.7007092956],[33.7243018986,0.7007794696],[33.7402534387,0.7070309182]]],[[[33.640184191350556,0.7316889348510692],[33.66899185415948,0.727902784881897],[33.6707282781,0.7270872897],[33.67508048,0.727094457],[33.6765636215,0.725257784],[33.678778099741464,0.7241921829269038],[33.68138011300867,0.7221350939041392],[33.6821388215,0.7211218587],[33.6847032029375,0.7195079390389423],[33.69389971579164,0.7122373974631601],[33.6941526952,0.7119657698],[33.69566624474995,0.7114544205581587],[33.69680539613712,0.7110305502745585],[33.6977425559,0.7070171436],[33.6961914537,0.6998951894],[33.6972323401,0.6929354969],[33.6942171825,0.6907178403],[33.6892937024,0.6850466942],[33.6905625383,0.6830736612],[33.6919403989,0.6757077066],[33.694223351,0.6727203301],[33.6984309524,0.6696324653],[33.7001432836,0.6661133846],[33.7036494157,0.6649402618],[33.7052434821,0.6630739808],[33.7098669072,0.6630065388],[33.71197134,0.6601098317],[33.7140631312,0.6597745826],[33.7152516178,0.6571713861],[33.7152513683,0.6545381654],[33.7178194964,0.6505398067],[33.7312748512,0.6386785223],[33.73206711886113,0.6343540710299063],[33.73219761408263,0.6311309537394304],[33.72979697466912,0.6234353684890033],[33.729789332133066,0.623413417460518],[33.73091449355135,0.62253524938137],[33.73167573054899,0.620299326748755],[33.73146169149665,0.61451700073902],[33.733246313486696,0.6114232101606294],[33.733630648803604,0.6066199491487098],[33.73035154030032,0.6069680319084667],[33.7302735108,0.6069764435],[33.730272997329145,0.6069763693740126],[33.73027272711875,0.60697639805729],[33.723557936044664,0.606006979089205],[33.71734382484207,0.6071143831352089],[33.709850335977215,0.6098516470231032],[33.709844778320665,0.609853877090697],[33.70581502834993,0.613445565971661],[33.701986842448754,0.627325373064469],[33.70193877175328,0.629793505612972],[33.701373836418824,0.6313502262200195],[33.698294342,0.6398364174],[33.6982941994072,0.6398363911062065],[33.698293741584074,0.639837652671293],[33.69137050876063,0.638559698086317],[33.691370428155146,0.6385596631449657],[33.6913703547,0.6385596496],[33.69067121931539,0.6382565658615094],[33.68586776806679,0.6361743367163867],[33.680105201,0.6365390932],[33.68008762771355,0.6368279407801759],[33.6802,0.6371],[33.67831411704391,0.6600283664661806],[33.6783622265,0.6600759223],[33.6839552995,0.6621215157],[33.684601632100346,0.663449279051743],[33.6847,0.6635],[33.684665758883405,0.6635810149294611],[33.6847624586,0.6637796655],[33.684694094,0.667927006],[33.6831361135,0.672252232],[33.6814960495,0.6732565945],[33.6814465995,0.6765257552],[33.67794089345925,0.6794921344297442],[33.67296653228089,0.6912615380020851],[33.6724210314,0.6929616253],[33.6725837763,0.6952707278],[33.6694328847,0.699703946],[33.66927187546462,0.6998005204688219],[33.66108847162754,0.7062208332353054],[33.6547164555,0.7125948491],[33.6531240354,0.7130028963],[33.6480495049,0.7174273463],[33.64498592822685,0.7188541294805549],[33.6448,0.719],[33.64011552117926,0.7316580597921937],[33.6401405847,0.7316772708],[33.640184191350556,0.7316889348510692]]]]}},{"type":"Feature","properties":{"n":"Nabukalu Town Council","c":"201215","d":"Bugiri","od":"Bugiri","dc":"201","k":"NABUKALUTOWNCOUNCIL","a":["NABUKALU","NABUKALUTOWNCOUNCIL"],"lat":0.672417,"lon":33.728404},"geometry":{"type":"Polygon","coordinates":[[[33.69483805837021,0.6911744961880234],[33.6972323401,0.6929354969],[33.69723211422466,0.6929370071732497],[33.69723261379656,0.692937374959552],[33.696329593317664,0.6989715446477837],[33.6961914537,0.6998951894],[33.6977425559,0.7070171436],[33.696815267407935,0.7109882763467607],[33.696805402019244,0.7110305480858626],[33.697985681731446,0.7105913742394637],[33.722410774721425,0.700709295368937],[33.72245419934112,0.7005920034769115],[33.7230331,0.6990279497],[33.723033342640925,0.6990277108276721],[33.723033376382276,0.699027619690739],[33.723555997199455,0.6985131739195288],[33.72624128,0.6958695978],[33.73224403215132,0.6943823284987994],[33.73265291734569,0.69428100489638],[33.73265297746303,0.6942810063397874],[33.7326530309,0.6942809931],[33.7391157037,0.6944341666],[33.7393312437,0.6916891887],[33.7431348734145,0.6868535112305572],[33.743153149960044,0.6868043372813603],[33.7459631633,0.6792415682],[33.74596406755509,0.6792414245507793],[33.74596407851003,0.679241395075991],[33.74799423353135,0.6789189140542758],[33.7556166377,0.6777080252],[33.7588006015,0.6761987116],[33.7624417066,0.6721133223],[33.76244366945894,0.6721139776969333],[33.762443972230315,0.6721136379746],[33.766612304209964,0.6735058813029043],[33.7668266848,0.6735774628],[33.76832726235403,0.6727343395341894],[33.7704158172819,0.671560819101517],[33.7704158643429,0.6715608254261601],[33.7704167016,0.671560355],[33.7720351975,0.6717761633],[33.7736799864,0.6648703746],[33.7712277392,0.6641492638],[33.7685865205,0.6612939326],[33.76750226910199,0.6605334115622992],[33.763566715305885,0.657772988632188],[33.76356658676729,0.6577728255775876],[33.7635659759,0.6577723971],[33.7588355311,0.6517717371],[33.7561444015,0.651404215],[33.7583458004,0.6448022015],[33.76065010411384,0.6412779587826913],[33.760898605824075,0.640897875766794],[33.75774345587548,0.6405612578492671],[33.7577313737874,0.640560041370023],[33.75772205431314,0.6405552581118462],[33.748441231789755,0.6364938911056788],[33.745134822052215,0.6353792504121439],[33.73934829745086,0.6340136333480443],[33.738307206360666,0.6342426920786328],[33.735557742899054,0.6358854259309576],[33.73555297669693,0.635890118125552],[33.732081016374934,0.6357271444901482],[33.73160744783832,0.638056456513417],[33.73132033361236,0.6384302646901797],[33.7312748512,0.6386785223],[33.73082520174202,0.6390749013015679],[33.73022899110589,0.639851137345291],[33.72304104362258,0.6459368618103498],[33.71818596241705,0.650216756307364],[33.71684436428147,0.6520580051067542],[33.715534729112996,0.6540969965300062],[33.71525161769462,0.6571702739362625],[33.7152516178,0.6571713861],[33.71501940423331,0.6576800140845825],[33.71406406301581,0.659773562460981],[33.7140635600358,0.6597736433013535],[33.7140631312,0.6597745826],[33.71214567278109,0.6600818915748281],[33.71197127491018,0.660109921294758],[33.70987550365542,0.6629947059615071],[33.70986706578112,0.663006322899968],[33.70986706403118,0.6630063229252136],[33.7098669072,0.6630065388],[33.7052434821,0.6630739808],[33.703792231643895,0.6647730575464045],[33.703650067279334,0.664939733810583],[33.70364978638033,0.6649398278195445],[33.7036494157,0.6649402618],[33.7001432836,0.6661133846],[33.6984309524,0.6696324653],[33.69843023221943,0.6696329938244566],[33.69843006797935,0.669633331412804],[33.69422323880747,0.6727204769104963],[33.691940582479496,0.6757074663754806],[33.6906665923609,0.6825173948487409],[33.6905625383,0.6830736612],[33.6892937024,0.6850466942],[33.69421613653476,0.6907166354973912],[33.69483805837021,0.6911744961880234]]]}},{"type":"Feature","properties":{"n":"Namayemba Town Council","c":"201216","d":"Bugiri","od":"Bugiri","dc":"201","k":"NAMAYEMBATOWNCOUNCIL","a":["NAMAYEMBA","NAMAYEMBATOWNCOUNCIL"],"lat":0.511246,"lon":33.792082},"geometry":{"type":"Polygon","coordinates":[[[33.77038646293257,0.5251321578064975],[33.77077095325792,0.526241983796636],[33.770770941194684,0.5262421840428512],[33.77077099882938,0.526242350439832],[33.77076383013218,0.5263602255820421],[33.770601367028945,0.529057065156497],[33.77641820167576,0.531467860944253],[33.77218291725109,0.536350151797167],[33.77322694489223,0.5392497513833993],[33.774696093744595,0.540519209528323],[33.777124110044234,0.539877606302413],[33.77785880857254,0.54055990158564],[33.77413312396571,0.544905387141673],[33.77410349091942,0.5449048301300108],[33.77410348200782,0.5449048404473759],[33.774133114149706,0.54490539817781],[33.771900381982036,0.547462402616526],[33.77581552390414,0.5479486122945559],[33.78333218729247,0.5475517252215037],[33.78334814887324,0.547550372165042],[33.78666725109477,0.544647884962405],[33.78666732714844,0.5446478621292797],[33.786667395200574,0.544647802616103],[33.7895566833383,0.5437798999138522],[33.79104532097276,0.540341146682867],[33.79390067225669,0.536355550438909],[33.795815104379194,0.535237452817262],[33.79724082647908,0.531909545553628],[33.800479446447085,0.5313447551247825],[33.80052720815235,0.5313363789439504],[33.8031664802719,0.529020221202437],[33.80316666840967,0.5290201536781902],[33.803166721214254,0.529020107334485],[33.803621369326926,0.528856957651615],[33.8052343682042,0.528278038635506],[33.80523699005349,0.5282757976587493],[33.80947508077413,0.523913593070508],[33.80949037384377,0.52382535724995],[33.80954286147711,0.5238438273875521],[33.809628256967116,0.523755931062801],[33.810911294216304,0.524325372074998],[33.81091719763427,0.5243274494584732],[33.811272706344,0.5238408226259389],[33.812105499455576,0.522700111298593],[33.81415013997659,0.521886044714577],[33.815909492572736,0.521287430395256],[33.816109975049706,0.5213641859283252],[33.81778567087986,0.5220043842082079],[33.819190472950254,0.520377456095351],[33.82175822529422,0.520544460607314],[33.82175868886492,0.5205438054052726],[33.82247213851973,0.518964621448883],[33.82286567230252,0.5189792159851967],[33.82299443321035,0.518797227757309],[33.823727127913045,0.5190111638019798],[33.82475259549176,0.519049194142628],[33.82448819437728,0.5184544525372599],[33.82193432159976,0.517157033777212],[33.82189392323115,0.5162376189767267],[33.82188592350951,0.5160636212208451],[33.82016212707637,0.515429402034487],[33.82015898806965,0.515420874393243],[33.81943537089505,0.5135576067002651],[33.81873591887595,0.5127545691595125],[33.81778310317566,0.512415465083299],[33.81640253760205,0.5100756252024192],[33.81640137925973,0.510074295315098],[33.81502436191955,0.5096962586607333],[33.8114918098486,0.508727117354946],[33.81149047533232,0.508726090295123],[33.81148955489905,0.508725837605847],[33.81147011443149,0.5087104203002752],[33.80749592348388,0.505651835014299],[33.80747122124585,0.5055390892598631],[33.80730569762199,0.505407820385728],[33.80716215833977,0.5041284668508106],[33.80716070851666,0.5041218495799338],[33.807160271068014,0.5041212322972393],[33.80344075981399,0.499410434482853],[33.80313145286963,0.4984361770862891],[33.80265573273172,0.497764889598046],[33.802308532752825,0.49584413696170865],[33.801637129790656,0.493729346738269],[33.801735919744736,0.49267637195096764],[33.80147006932019,0.491205654972709],[33.80199246221712,0.4899419567180018],[33.80222024909251,0.4875140394373977],[33.7998700421444,0.484168139377487],[33.7998700623485,0.4841680647750088],[33.799869633577075,0.484167454359327],[33.79987099738543,0.48416461220566587],[33.80024220010587,0.48279396780847805],[33.799978205374806,0.4821072373907861],[33.797805000174584,0.47842854298967685],[33.79779699378811,0.478416045255697],[33.79675638176658,0.478640428705406],[33.796756076148064,0.47863982363196983],[33.79675637007206,0.478640429760976],[33.796702224694265,0.4786414505072852],[33.794528299051365,0.47909299416756],[33.78903810074955,0.4787859342388278],[33.789030485606055,0.478786077799182],[33.78709548196971,0.476271443013995],[33.78538169787667,0.475602169314842],[33.78523910204958,0.47563681831639565],[33.78173425800807,0.47648891155177725],[33.78103609476474,0.47889556607932],[33.777277982814006,0.484920807296841],[33.77636040885008,0.488530637870532],[33.77528277577375,0.489887738397789],[33.77528074419841,0.4898882133989616],[33.7716558849088,0.49126768176398206],[33.771076017031746,0.4918081384131752],[33.770292043325675,0.49772575782555345],[33.770291837012145,0.49772815311076],[33.770290682338015,0.497730262506068],[33.768604103208176,0.501175066244562],[33.76813054988599,0.5016764609529377],[33.76760570754052,0.502635259588915],[33.763945085951214,0.5063734382410642],[33.76396206428456,0.5063999023919152],[33.768665200655605,0.513729791934996],[33.76981926146219,0.521215505055848],[33.76932059656795,0.5220548976704611],[33.77038646293257,0.5251321578064975]]]}},{"type":"Feature","properties":{"n":"Nankoma","c":"201217","d":"Bugiri","od":"Bugiri","dc":"201","k":"NANKOMA","a":["NANKOMA"],"lat":0.483185,"lon":33.698971},"geometry":{"type":"Polygon","coordinates":[[[33.61409094878791,0.4831141912559362],[33.617181240437546,0.4869942241049213],[33.61990044468717,0.488801107208213],[33.622128019178525,0.492767445666302],[33.62234424781044,0.49245606135864356],[33.62380553872634,0.490351568724154],[33.62380568121142,0.4903514953549206],[33.623805734043344,0.490351419273272],[33.62491623469923,0.4897796428220032],[33.62539977218736,0.489530656942093],[33.6302005386724,0.493045984470428],[33.63265133841208,0.493943856398963],[33.63594941437898,0.48720484215521376],[33.636242964823445,0.486604639970953],[33.636243215315325,0.4866045137471544],[33.63624367456149,0.486603575361719],[33.6382707141752,0.48558188589863],[33.638529333015434,0.482534475043549],[33.64333182812292,0.4822664365959073],[33.6433319791006,0.482266428132415],[33.643331979228215,0.48226642816236853],[33.64333223228205,0.482266414038844],[33.64754502085516,0.48325533059262243],[33.64924858677371,0.4836551985802005],[33.64924988190762,0.4836549283932647],[33.65640972724157,0.48149062626402245],[33.65641456115456,0.481487577925562],[33.65641605301739,0.4814887140872295],[33.65641688022964,0.481488464034728],[33.661673577982526,0.4854927003895817],[33.665891348683424,0.488704838463071],[33.66784709920842,0.489067218227621],[33.66784731416493,0.48906737730055044],[33.66784745474144,0.489067403309258],[33.670205608440696,0.49081242536198],[33.67020563568833,0.4908125913238136],[33.67020610623057,0.490812939536266],[33.67093558160686,0.495254801951397],[33.669178634791336,0.498145259539249],[33.67042446627272,0.498324426027257],[33.67042543215006,0.4983254345219495],[33.670425668621306,0.498325468063404],[33.67274223342338,0.5007444598799671],[33.675278472611055,0.503392605398383],[33.67527857682573,0.5033929478172812],[33.67527871849058,0.503393095745844],[33.67586113481177,0.505306992470315],[33.6758611266144,0.5053070356865921],[33.67586143999966,0.505308065378696],[33.675411674130665,0.507681293032999],[33.67741870804233,0.5082173152210543],[33.67980320364607,0.507161944565819],[33.6798034722811,0.5071620007435204],[33.67980421244208,0.507161673004775],[33.681983789274796,0.507615157378107],[33.68256718757278,0.509520773023271],[33.686687308020105,0.514436374155043],[33.68956818877996,0.515501405157961],[33.68931721105719,0.516630106080592],[33.691697794979575,0.518851970625973],[33.697082404315935,0.5196584677339549],[33.69744127147377,0.519712207668071],[33.697441288668585,0.5197122207872275],[33.69744135384763,0.519712230549628],[33.69927281662209,0.521104709070393],[33.70054084234042,0.520563162436295],[33.700874983921864,0.5198047631630133],[33.70162756476855,0.518094220016612],[33.70162829541669,0.5180949762883571],[33.70162854188259,0.518094416886084],[33.703576920437854,0.5201116868219509],[33.70383768179521,0.5201837307629169],[33.70600075850383,0.520780783369406],[33.70600147499836,0.5207815501306879],[33.70600148907555,0.520781554019977],[33.71004805318617,0.5251107424115127],[33.71225328947943,0.5223351316316281],[33.71227390582188,0.522309123668509],[33.71227398259347,0.5223090863363504],[33.712274140949276,0.522308887022532],[33.71227506794449,0.522308558556559],[33.71467492099009,0.521141568410348],[33.71578499330232,0.5210648724736994],[33.71638585786063,0.520851965698578],[33.716988031840586,0.5209817534133461],[33.718476777187846,0.520878894601734],[33.72389266089496,0.5224698466142571],[33.72395386964736,0.522415888637239],[33.72470008449386,0.5217284197461628],[33.72453760666435,0.516201062067612],[33.7281078431111,0.511614702024973],[33.72827355318813,0.5097926774230762],[33.72853965661687,0.50686588514107],[33.728539764929316,0.5068656113662673],[33.72853981625377,0.506865047040754],[33.72963201518459,0.504097627499895],[33.73084737670608,0.505737512820965],[33.73084775263956,0.5057375070390375],[33.73808397523857,0.5052403541025995],[33.73815379470191,0.5050112583887675],[33.738323268255485,0.502195656794912],[33.7383238067813,0.502153232715716],[33.7353039544232,0.500615468200536],[33.72807515346421,0.490799795552481],[33.727176895728476,0.48827158737600784],[33.72707913427917,0.487996465508261],[33.719903401654356,0.48946706102650084],[33.71989534944625,0.489468834955334],[33.71757708620038,0.491006978340147],[33.71757462362513,0.4909944680405264],[33.717248922703746,0.490383700350303],[33.71661728318043,0.486131641586158],[33.71661736315396,0.4861314226080883],[33.716617271327365,0.486130956113424],[33.71849052029696,0.481000347973702],[33.71619489820039,0.475293129245152],[33.71619489203682,0.4752929521091253],[33.716194874148336,0.475292907635413],[33.71610142589471,0.47261675471261844],[33.715030172876276,0.471122753196019],[33.717153437208225,0.4681096205480915],[33.71714803482928,0.46781161011228134],[33.71692952838191,0.455848745602703],[33.71759926305843,0.4549413120770842],[33.718069053955325,0.4543038733853319],[33.71586528510632,0.454487524915928],[33.71503550400937,0.452632023187536],[33.71042491860546,0.45023388903471867],[33.70559311304068,0.450862147352341],[33.705593087891884,0.4508621409669845],[33.70559289192281,0.450862166451685],[33.70246032496224,0.450441058947953],[33.701517589141105,0.44982735907724647],[33.70098267870682,0.449691543643633],[33.699176783886166,0.450812145760085],[33.69762315727471,0.452484282008611],[33.699069128047725,0.454887738842437],[33.70149478907135,0.456587867953378],[33.70194661238312,0.459818387873921],[33.705465008421506,0.466423382319253],[33.70503865653325,0.467308953848372],[33.700829986429795,0.469081605864898],[33.697714951791255,0.471954514912938],[33.69279395072119,0.473558448924544],[33.689584270618596,0.475928510282627],[33.68466353284631,0.48131389714793],[33.67940869925088,0.483541137078027],[33.67710767571628,0.485675096671103],[33.677400670554405,0.482574035693531],[33.6762827141482,0.479104244963576],[33.67886623697172,0.474201241855386],[33.669229324252434,0.471702458292322],[33.66919652958495,0.470523020854907],[33.665867940029536,0.467028287534869],[33.66515396326017,0.465215325175805],[33.663988684927475,0.458997761711791],[33.66722159929729,0.454958731359719],[33.667245096699546,0.4519427804929],[33.66539034839408,0.45005798333046],[33.66310774914671,0.449603408578035],[33.655000980753215,0.450394037963856],[33.65081544044433,0.449245510233692],[33.6483659253769,0.446564847277036],[33.6442998267687,0.445080877303555],[33.63959662953068,0.441350702486737],[33.638740411433126,0.44267002208811146],[33.6347,0.449],[33.6137,0.4635],[33.61399600805673,0.4827405236874677],[33.61402597364088,0.483019938683673],[33.61409094878791,0.4831141912559362]]]}},{"type":"Feature","properties":{"n":"Nankoma Town Council","c":"201218","d":"Bugiri","od":"Bugiri","dc":"201","k":"NANKOMATOWNCOUNCIL","a":["NANKOMA","NANKOMATOWNCOUNCIL"],"lat":0.445823,"lon":33.673824},"geometry":{"type":"Polygon","coordinates":[[[33.66310720274926,0.449603376701547],[33.663107489907894,0.44960343386083795],[33.66310774914671,0.449603408578035],[33.663903757307814,0.4497619318988417],[33.66538964604654,0.450057699940836],[33.66538982174599,0.45005787844962153],[33.66539034839408,0.45005798333046],[33.667245096699546,0.4519427804929],[33.66722159929729,0.454958731359719],[33.66722143525981,0.45495893629937767],[33.66722143519315,0.454958945167172],[33.66398869905178,0.4589978370746882],[33.66515396326017,0.465215325175805],[33.665867940029536,0.467028287534869],[33.66915578325562,0.47048024070661265],[33.66919616261991,0.470522624908994],[33.66919616289061,0.47052263585732274],[33.66919652958495,0.470523020854907],[33.669229322707345,0.471702402724244],[33.669506467311905,0.4717743195347956],[33.67886623697172,0.474201241855386],[33.67628291086633,0.47910387163240736],[33.67740055243202,0.482573589254987],[33.67740054634009,0.4825736501707239],[33.677400670554405,0.482574035693531],[33.677108210847734,0.48566943283315955],[33.67939512655861,0.4835537243360185],[33.67940869925088,0.483541137078027],[33.68466353284631,0.48131389714793],[33.689116172268356,0.47644080962140944],[33.689584048194256,0.475928734243142],[33.6895841028744,0.4759286938663585],[33.689584270618596,0.475928510282627],[33.69279395072119,0.473558448924544],[33.69533785574875,0.4727292973478839],[33.69771510610066,0.47195437259770273],[33.700829986429795,0.469081605864898],[33.700830383265576,0.46908143872142455],[33.70083043466773,0.469081391313678],[33.70083132738457,0.46908104106743775],[33.704618552946286,0.46748589750332187],[33.705462263415626,0.4664290839453605],[33.705465008421506,0.466423382319253],[33.702001905662456,0.45992218852596],[33.70194666545153,0.459818507410694],[33.70194666167251,0.4598184804036267],[33.70194661238312,0.459818387873921],[33.70186990907843,0.4592699620904478],[33.701494592013496,0.4565877298368867],[33.699069128047725,0.454887738842437],[33.69762315727471,0.452484282008611],[33.699176783886166,0.450812145760085],[33.6992941183631,0.4507393368336285],[33.70068355461685,0.4492844213122572],[33.700640040301074,0.449256094468866],[33.701403211580526,0.44786014921625045],[33.70073901008136,0.4325870985758183],[33.700738611283825,0.432580308059816],[33.70261071786462,0.42952321285137113],[33.701659329250575,0.42639543865959717],[33.699065552819626,0.423123185877487],[33.69887477408687,0.420850384030199],[33.6956208999336,0.413809728093738],[33.69582540159234,0.4119534772083464],[33.69583199916621,0.411893478960098],[33.68565358005346,0.412457711867292],[33.68495249993395,0.4120707107118399],[33.68221412081067,0.4124645244319107],[33.6811321574282,0.412917996008956],[33.67764327193803,0.41312187059085204],[33.6771,0.4132],[33.6672,0.4061],[33.66655231338102,0.40681800688047365],[33.66559707327044,0.408637289991341],[33.66394675529068,0.40970645413490153],[33.65630471556328,0.4181782010327122],[33.65687119319325,0.420612443754261],[33.65632633619026,0.423561139884128],[33.6497297464367,0.425535260194019],[33.64962035251423,0.42562478106103796],[33.64021612846368,0.4403580654069135],[33.639596634877016,0.441350692228229],[33.64000701034327,0.44167618153746624],[33.6442998267687,0.445080877303555],[33.6483659253769,0.446564847277036],[33.65081544044433,0.449245510233692],[33.65500074967922,0.4503939745562979],[33.66310720274926,0.449603376701547]]]}}]}
