{"type":"FeatureCollection","name":"Bugweri sub-counties","metadata":{"source":"Uganda Bureau of Statistics NPHC 2024 Map Explorer","retrieved":"2026-07-26","display_only":true,"clipped_to_dashboard_district":true,"positive_area_overlaps_removed":true,"source_gap_ratio":0.01397192},"features":[{"type":"Feature","properties":{"n":"Busembatia Town Council","c":"235101","d":"Bugweri","od":"Bugweri","dc":"235","k":"BUSEMBATIATOWNCOUNCIL","a":["BUSEMBATIA","BUSEMBATIATOWNCOUNCIL"],"lat":0.77479,"lon":33.624794},"geometry":{"type":"Polygon","coordinates":[[[33.61196622718296,0.789575929149408],[33.6303,0.7864],[33.63381748573173,0.781763314262711],[33.635376853642285,0.77950088726051],[33.634470458916276,0.77748192766094],[33.63464430873779,0.775163859915537],[33.633031938446116,0.774416485373062],[33.631851489604145,0.772124648738891],[33.62906025527998,0.770982655610368],[33.63011695599803,0.768887383998461],[33.625811838837215,0.761789251937116],[33.62232383292704,0.760118245642565],[33.619537277756926,0.763910348082522],[33.61723516553961,0.76737217979953],[33.621510944562324,0.771448439002388],[33.61828077561165,0.773216890408799],[33.61666232871143,0.772849374802539],[33.614329352140864,0.777812132005119],[33.61297477371273,0.777554001245591],[33.61198135259222,0.778797265946513],[33.61020865591793,0.784032079235501],[33.611188001639576,0.789427485954572],[33.61196622718296,0.789575929149408]]]}},{"type":"Feature","properties":{"n":"Busesa Town Council","c":"235102","d":"Bugweri","od":"Bugweri","dc":"235","k":"BUSESATOWNCOUNCIL","a":["BUSESA","BUSESATOWNCOUNCIL"],"lat":0.641348,"lon":33.577859},"geometry":{"type":"Polygon","coordinates":[[[33.5603467015915,0.647063293564848],[33.56227097746845,0.649814357408617],[33.5621017486487,0.6538484781109478],[33.562210067532604,0.6542141884021457],[33.5646574084184,0.656725272894165],[33.56711910788699,0.664586395636412],[33.568337464344296,0.670980950489913],[33.56811241557964,0.674121699301354],[33.56813097184202,0.6741541309671237],[33.570464107367044,0.675841158987565],[33.57270838644635,0.679956210208389],[33.57361091654263,0.6837316919753977],[33.5746949465927,0.6856263030539073],[33.57643872504685,0.686796199189891],[33.57739319238186,0.690187830144761],[33.57851747947449,0.688577358149581],[33.58030207250407,0.680208782647801],[33.57849704190394,0.677024671881285],[33.57874695727299,0.672384397065703],[33.58148230041419,0.662341061760802],[33.580961433524536,0.658496131253903],[33.58213921790686,0.65110815180766],[33.58446985470483,0.644897735884158],[33.5902780442673,0.643100372146231],[33.593643238691584,0.642943143720316],[33.59858667151466,0.640536465147163],[33.60370156050468,0.639891336548215],[33.60642199517268,0.637660731711306],[33.6092925839794,0.636803749080729],[33.61518294582879,0.636296415092229],[33.616579532267835,0.635081733743516],[33.62030962419195,0.635608784345221],[33.62059034467677,0.634699508043787],[33.61682536224248,0.625943449512643],[33.61475866625064,0.618130196720814],[33.61523322189998,0.616418325749997],[33.617213921985204,0.614542935694293],[33.616394197961604,0.611268205944992],[33.61412241803424,0.609882348393595],[33.61309864593023,0.607318302764675],[33.61130772470387,0.605659025174499],[33.61074461899715,0.60338634087854],[33.6069026934515,0.605672973642279],[33.60660258400036,0.611669569443321],[33.600078398848964,0.61680885185979],[33.59988255928271,0.618170872781117],[33.59524630243562,0.619532828512577],[33.587883617748496,0.620113274412261],[33.588659311618464,0.619061018589032],[33.588587629843694,0.615889443753731],[33.584639523990745,0.607463500491084],[33.585388284691916,0.604376337894069],[33.58450827545756,0.601504216781353],[33.58211807183858,0.59890668334521],[33.57991291514888,0.593919900262861],[33.57642007288804,0.592294492292679],[33.573533167193666,0.59913139699913],[33.57501713442741,0.605355263044976],[33.574018387497496,0.608458509373023],[33.571486957490606,0.611670189952373],[33.56733887362997,0.614104667898213],[33.56636362208572,0.619243024184106],[33.56106251038861,0.620702560707799],[33.55865493438982,0.622935825147119],[33.559146107507,0.63140320338847],[33.55811399456404,0.6328183424657211],[33.558,0.64],[33.558035901057124,0.6401212104997972],[33.55930178395115,0.642159791434444],[33.5603467015915,0.647063293564848]]]}},{"type":"Feature","properties":{"n":"Buyanga","c":"235103","d":"Bugweri","od":"Bugweri","dc":"235","k":"BUYANGA","a":["BUYANGA"],"lat":0.667983,"lon":33.631376},"geometry":{"type":"Polygon","coordinates":[[[33.5792,0.6935],[33.57918512709711,0.6935546579181214],[33.579371631688275,0.693905076307856],[33.579252489504015,0.695724287420107],[33.58522706766324,0.689630674524085],[33.588367665935294,0.688595796975926],[33.590972214441294,0.689499296026655],[33.592234098278574,0.690879945004421],[33.592162948875696,0.693123625111426],[33.59540185308552,0.69368896197286],[33.59538125100194,0.694988618787719],[33.60022084208438,0.698540680229301],[33.59956855252461,0.702339409650638],[33.60092068902071,0.705879930373161],[33.600397127323696,0.708794317534405],[33.60128735718204,0.712982885380203],[33.60044272118948,0.719007334578847],[33.598385971745664,0.723595220324703],[33.59755644597801,0.728498712378527],[33.61189757729809,0.723937083430296],[33.614677241169524,0.724371038743863],[33.62738678669522,0.722388027072288],[33.628227503169796,0.72084151796426],[33.63050954059816,0.720822497203391],[33.63156794980357,0.719456771145958],[33.6349898955627,0.719383429014676],[33.63805681430846,0.718333651198807],[33.641608740057976,0.719174419041413],[33.643485883544386,0.718477786260768],[33.64486421432325,0.718911597844245],[33.64502632202441,0.718822438411744],[33.66109199213322,0.7062180712125526],[33.66486054349051,0.702448441950961],[33.669271434697045,0.6998008662742744],[33.6694,0.6997],[33.67296719031002,0.6912599810965693],[33.67502513908276,0.684845934611362],[33.67713756404653,0.680172928897677],[33.677940295076546,0.6794935502110475],[33.68466581361916,0.6635808854239423],[33.68460184286858,0.6634493877291119],[33.6783,0.6602],[33.678314098804165,0.6600285882230402],[33.677008060184995,0.658736983688081],[33.677721468305705,0.655914589642708],[33.67675997596489,0.65261421999073],[33.67726018155241,0.64629823625295],[33.67980165453425,0.641530045429748],[33.68017345433105,0.6370357315383356],[33.679811430081536,0.6361592517763557],[33.67324606635822,0.625689608769723],[33.67268871106171,0.620216838906836],[33.670789011895955,0.614327538232387],[33.6707906449576,0.6143194562131448],[33.6707,0.6141],[33.67073072811277,0.6105969951434157],[33.668783324276994,0.611204082515275],[33.66010410691592,0.607759004951316],[33.651043926597524,0.611606843208908],[33.64823879552478,0.611697977026757],[33.63449639663007,0.621174001539545],[33.632611820890325,0.625767392998733],[33.633235307422616,0.628499130618583],[33.63491791399631,0.629739410817228],[33.63173827412387,0.63237387582357],[33.623167080855076,0.634052812951138],[33.62048036279053,0.63563269449226],[33.620309687600084,0.6356085789611422],[33.62030962419195,0.635608784345221],[33.616579532267835,0.635081733743516],[33.61518294582879,0.636296415092229],[33.6092925839794,0.636803749080729],[33.60642199517268,0.637660731711306],[33.60446680039684,0.639263882478128],[33.60370220764194,0.639890862775024],[33.60370212571212,0.6398908731096135],[33.60370156050468,0.639891336548215],[33.59858667151466,0.640536465147163],[33.593643238691584,0.642943143720316],[33.59364303641722,0.6429431531709677],[33.5936429968373,0.642943172441601],[33.58729502185019,0.6440234784368015],[33.58480153054252,0.6447950976839055],[33.58213921266903,0.6511081846633937],[33.580961433524536,0.658496131253903],[33.58148230041419,0.662341061760802],[33.57874695727299,0.672384397065703],[33.57849704190394,0.677024671881285],[33.58030207250407,0.680208782647801],[33.57851747947449,0.688577358149581],[33.577457331360634,0.6900959550091365],[33.57739319431797,0.690187844291412],[33.57857004977677,0.6923990059161619],[33.5792,0.6935]]]}},{"type":"Feature","properties":{"n":"Ibulanku","c":"235104","d":"Bugweri","od":"Bugweri","dc":"235","k":"IBULANKU","a":["IBULANKU"],"lat":0.580824,"lon":33.622444},"geometry":{"type":"Polygon","coordinates":[[[33.584508338785355,0.601504380091957],[33.58454344954694,0.6016190158548018],[33.585388284691916,0.604376337894069],[33.58479667209206,0.6068155742045921],[33.58463971340655,0.6074639047372935],[33.588587629843694,0.615889443753731],[33.58864386476021,0.6183775691754702],[33.58865930726529,0.619059924097646],[33.588659287482436,0.6190599506854049],[33.588659311618464,0.619061018589032],[33.587883617748496,0.620113274412261],[33.59524630243562,0.619532828512577],[33.5960122536884,0.6193078211988868],[33.59988258440372,0.6181706980700544],[33.600078398848964,0.61680885185979],[33.60570263991308,0.6123784804745432],[33.60660259101155,0.611669429350232],[33.6069026934515,0.605672973642279],[33.61026317758532,0.6036728846163211],[33.61140591753295,0.600737137506861],[33.617144567942375,0.594860236622063],[33.61928673780946,0.593765524250784],[33.621141996082564,0.59443185313967],[33.62275257402577,0.59404115992095],[33.634480453256735,0.598599163752771],[33.63342949072768,0.601739625843967],[33.6290789159936,0.608506345950753],[33.62574286986888,0.610359599277575],[33.62866117789445,0.613079841646676],[33.63033630491014,0.616867028978216],[33.631529769940684,0.616362388320803],[33.635270553911624,0.620419350009845],[33.64821760921908,0.6117125859719444],[33.64823879552478,0.611697977026757],[33.65104386882273,0.6116068450859102],[33.657724652626584,0.608349125441013],[33.66010025032193,0.6077606428381297],[33.66010410691592,0.607759004951316],[33.66333575608705,0.6090417567929726],[33.66878339728544,0.6112040597554832],[33.67073072811277,0.6105969951434157],[33.6709,0.5913],[33.67083416895469,0.5911390796670111],[33.66926096141413,0.588734769825512],[33.66892884604161,0.5864816236572676],[33.664813519396695,0.5764219363030351],[33.661004414990195,0.5733294007622187],[33.6520532130169,0.5669298988989578],[33.65166805564928,0.566752700301137],[33.651452752701886,0.5665006105289486],[33.6425,0.5601],[33.642288718417426,0.5598243775239689],[33.64212782076365,0.559752899373089],[33.636985370457964,0.553085319260974],[33.63320883481686,0.550454462028618],[33.633219908607735,0.548019441571826],[33.62989342998302,0.545188153913776],[33.626281221590965,0.543822466207031],[33.62041137154046,0.545017234319416],[33.61842843773818,0.544710075004338],[33.617476992177245,0.542746814579304],[33.61514820159731,0.541552873528633],[33.609325246470256,0.541996573355893],[33.606015009956955,0.539208858051753],[33.60407411204253,0.542107511386981],[33.60370398017167,0.550026547030976],[33.60150321954128,0.554482994802264],[33.59578752072845,0.558381974900708],[33.59481060343681,0.560266758810892],[33.59356138871164,0.565596749253003],[33.59352305541048,0.576177006780908],[33.59112475257971,0.577009939611241],[33.58966283257544,0.578683643249988],[33.58826119039468,0.578810550115612],[33.5835782977105,0.577652346324382],[33.58163418901071,0.578441678749201],[33.57755357661342,0.576639549410544],[33.577045684513436,0.578975506996324],[33.57950079067643,0.582672303756439],[33.579401328683154,0.5845003880823],[33.57642007523322,0.592294480841045],[33.57645987123103,0.5923130126091053],[33.57991291514888,0.593919900262861],[33.58211807183858,0.59890668334521],[33.58450827545756,0.601504216781353],[33.58450831886188,0.6015043584417614],[33.584508338785355,0.601504380091957]]]}},{"type":"Feature","properties":{"n":"Idudi Town Council","c":"235105","d":"Bugweri","od":"Bugweri","dc":"235","k":"IDUDITOWNCOUNCIL","a":["IDUDI","IDUDITOWNCOUNCIL"],"lat":0.615425,"lon":33.62299},"geometry":{"type":"Polygon","coordinates":[[[33.61309911104756,0.607319317684619],[33.6132049144716,0.6075844531978897],[33.61412241803424,0.609882348393595],[33.616394197961604,0.611268205944992],[33.617213921985204,0.614542935694293],[33.6154900919699,0.6161751129696574],[33.615233174316906,0.6164184973970548],[33.61475866625064,0.618130196720814],[33.61682536224248,0.625943449512643],[33.61682857951996,0.6259509317971998],[33.62043339731054,0.634085963793935],[33.62041640918807,0.6342949937209892],[33.62059034467677,0.634699508043787],[33.620309687600084,0.6356085789611424],[33.62030994908923,0.6356086159082208],[33.62316391120622,0.634054676812401],[33.623167080855076,0.634052812951138],[33.63161153682474,0.6323987013000553],[33.631880460077056,0.6322560687972729],[33.63491329142238,0.6297432408136269],[33.63491679614059,0.6297385868252502],[33.633235307422616,0.628499130618583],[33.63323528160922,0.6284990175200089],[33.63323526048548,0.628499002026005],[33.63323521276056,0.628498715867204],[33.632611820890325,0.625767392998733],[33.63273117269649,0.6254764895579674],[33.632630853594094,0.62487497580501],[33.633759747948446,0.6229694803262141],[33.63449639663007,0.621174001539545],[33.63504935697686,0.6207927096093002],[33.63527054580764,0.620419358183282],[33.6350088970141,0.6201355774057163],[33.631529769940684,0.616362388320803],[33.63033630491014,0.616867028978216],[33.62936665016208,0.6146747986915538],[33.628660854314106,0.6130795400277405],[33.6258207978483,0.6104322382826073],[33.62575022664207,0.610366476250788],[33.62575023972475,0.6103664689410967],[33.62574286986888,0.610359599277575],[33.6290789159936,0.608506345950753],[33.63342949072768,0.601739625843967],[33.634480453256735,0.598599163752771],[33.62275289514469,0.5940412847228217],[33.62251299425505,0.5940992770658897],[33.621141996082564,0.59443185313967],[33.62114006829137,0.5944311607600782],[33.6211400641746,0.594431161755244],[33.619286335409285,0.5937657298892158],[33.61928466537223,0.59376658332771],[33.615738794237274,0.596299876980317],[33.61140591753295,0.600737137506861],[33.6114034085813,0.6007435831094321],[33.610679938747346,0.602954145014415],[33.61130605484922,0.6056522856717999],[33.61130772470387,0.605659025174499],[33.61309864593023,0.607318302764675],[33.61309901599517,0.6073192295953427],[33.61309911104756,0.607319317684619]]]}},{"type":"Feature","properties":{"n":"Igombe","c":"235106","d":"Bugweri","od":"Bugweri","dc":"235","k":"IGOMBE","a":["IGOMBE"],"lat":0.570887,"lon":33.571171},"geometry":{"type":"Polygon","coordinates":[[[33.54739766175467,0.5651205874280928],[33.55148739567006,0.5819481384341055],[33.551517641076614,0.581989758563076],[33.55413083928201,0.583780105178614],[33.553940518734535,0.585427629553694],[33.551837678841984,0.586504153718282],[33.552074719342734,0.588611985310428],[33.551140238414185,0.5894522042775552],[33.55107931545256,0.590714179911223],[33.55121845429629,0.591027445914096],[33.550808551857145,0.596492052103227],[33.55349719436358,0.601359034788377],[33.55459887879584,0.606142738274167],[33.55394673225001,0.6068212817800223],[33.5583,0.6211],[33.55828535401233,0.6220226972235103],[33.558654933176186,0.622935810817048],[33.55876091766425,0.6228375151963335],[33.56106251038861,0.620702560707799],[33.56106836573417,0.6207009485760062],[33.56638800639438,0.6191145493650728],[33.56733887362997,0.614104667898213],[33.567339283868904,0.614104427132193],[33.56733932672955,0.614104158025734],[33.56960875276751,0.6127724936014275],[33.571486852124416,0.6116702517909662],[33.57421022637157,0.6078624391737338],[33.57501713442741,0.605355263044976],[33.573533167193666,0.59913139699913],[33.573535388753825,0.5991261357967563],[33.57939919531474,0.5845059654917951],[33.579401328683154,0.5845003880823],[33.57950078284176,0.5826724477554321],[33.579192314606,0.5822078133181277],[33.577045684513436,0.578975506996324],[33.57755357661342,0.576639549410544],[33.58163418901071,0.578441678749201],[33.5835782977105,0.577652346324382],[33.58826117254316,0.5788105457004569],[33.58833391283418,0.5788039657126993],[33.58966283257544,0.578683643249988],[33.59112475257971,0.577009939611241],[33.59352305541048,0.576177006780908],[33.59356138871164,0.565596749253003],[33.59481060343681,0.560266758810892],[33.59578752072845,0.558381974900708],[33.598360837489615,0.5566265795995692],[33.601503526749454,0.554482372718624],[33.60229927059849,0.5528710248720697],[33.60370401239592,0.5500258575875612],[33.60407411204253,0.542107511386981],[33.605920102847286,0.5393505980206326],[33.60601500336119,0.53920884629901],[33.600440087081004,0.531548576965597],[33.59777838124821,0.533122967849278],[33.597063416683234,0.534431647831521],[33.59625686301883,0.533602599961799],[33.59352407530417,0.534362751795176],[33.589210732599,0.533503772651667],[33.58493310219731,0.533911293637227],[33.58010692255843,0.536797653280302],[33.57678079766356,0.537205034927849],[33.57501083465013,0.535911603331938],[33.57268334569296,0.537296157899081],[33.565588501333444,0.535143521302605],[33.56011196849033,0.530720553281347],[33.55794982347598,0.52688437869991],[33.55524707024348,0.5266096587214643],[33.55515647505056,0.5266153805231225],[33.550607140114025,0.528006508161891],[33.545900885663855,0.527238289854693],[33.54534687181233,0.5293157153178549],[33.545211758699566,0.529832522974183],[33.54585128424305,0.534294564554209],[33.54192671731757,0.542509874864285],[33.54196258544472,0.542757513027779],[33.54673500105063,0.5623940147395802],[33.547470788740796,0.563544033221769],[33.54739766175467,0.5651205874280928]]]}},{"type":"Feature","properties":{"n":"Makuutu","c":"235107","d":"Bugweri","od":"Bugweri","dc":"235","k":"MAKUUTU","a":["MAKUUTU"],"lat":0.495704,"lon":33.584248},"geometry":{"type":"Polygon","coordinates":[[[33.54754517478973,0.5015954730806464],[33.55217624088033,0.5163377001357261],[33.55266500049309,0.516698778399303],[33.55373282026408,0.520669514575519],[33.5571298490517,0.523653953928567],[33.556417446411054,0.525237971505202],[33.557495757382426,0.5268382253826431],[33.55794982347598,0.52688437869991],[33.56011186574001,0.5307203709771282],[33.5617653860088,0.5320558895277423],[33.565588501333444,0.535143521302605],[33.57268170548016,0.5372956602444563],[33.574364512491165,0.536296081330979],[33.57501083465013,0.535911603331938],[33.57678079766356,0.537205034927849],[33.579022806287526,0.5369304351470489],[33.58492660053206,0.5339151820428812],[33.58493310219731,0.533911293637227],[33.589210732599,0.533503772651667],[33.58921274983784,0.5335041743739992],[33.58921290849435,0.533504159268942],[33.59076084938856,0.533812470124427],[33.59352403938838,0.5343627446427386],[33.59370953979878,0.5343111630183198],[33.59625686301883,0.533602599961799],[33.597063416683234,0.534431647831521],[33.5977435292385,0.5331867613989006],[33.59777800896486,0.53312337642868],[33.597778229146634,0.5331232462578805],[33.59777838124821,0.533122967849278],[33.600440087081004,0.531548576965597],[33.60044058928307,0.5315492670213476],[33.60044123681807,0.531548884200616],[33.6005083417912,0.5316423630310904],[33.60601500336119,0.53920884629901],[33.605978827998904,0.539262880989377],[33.605978832630235,0.5392628874409268],[33.606015009956955,0.539208858051753],[33.609156097011876,0.541854124158709],[33.61514645208472,0.541552773750362],[33.6151468478618,0.5415529766811038],[33.61514820159731,0.541552873528633],[33.617476992177245,0.542746814579304],[33.61747758565002,0.5427480391807636],[33.61747816684764,0.54274833718403],[33.61770899045864,0.5432255314531145],[33.61842843773818,0.544710075004338],[33.62041137154046,0.545017234319416],[33.626281221590965,0.543822466207031],[33.62628169039753,0.5438226434513378],[33.62628209526138,0.543822561061823],[33.6262851313982,0.5438239444095869],[33.62989342998302,0.545188153913776],[33.63060095111431,0.5457903510335586],[33.63080788107734,0.545884634038125],[33.62962264181444,0.5433011417908588],[33.6182,0.5284],[33.618221199530964,0.5282493949987671],[33.6189790330446,0.521812322719823],[33.618278463394056,0.519641160993736],[33.619824724353,0.514258151734421],[33.619171868993625,0.512513110675609],[33.62014676979789,0.510621296114114],[33.62065981561764,0.501584305553764],[33.62209756194578,0.500316788945206],[33.62260486203974,0.49710712592599043],[33.623,0.4943],[33.61718060112881,0.4869934214172836],[33.616414691743,0.486484560581583],[33.61409211113889,0.4831156506521633],[33.614,0.483],[33.613996029025245,0.48274188664115214],[33.61249990468072,0.468789793037661],[33.613641267408816,0.46319998757475284],[33.61,0.4446],[33.60994556830159,0.44459900732464913],[33.60960160740404,0.44469522493569],[33.609240492081355,0.4445861487917572],[33.60051973445587,0.444427107619256],[33.597043360121845,0.444948788406161],[33.590930217856204,0.44425222281804627],[33.58322456304,0.4441116941587841],[33.58279620993491,0.444349440823789],[33.577101165131836,0.4442073934670215],[33.57719857867349,0.4615470038813517],[33.57723408265616,0.46179227291818],[33.56808782766297,0.469679675207038],[33.56537505067093,0.4711060252116305],[33.545169354894114,0.4870075491069955],[33.54350962125695,0.48874896100129733],[33.546926316424624,0.499625440618402],[33.547387284463404,0.500119927918292],[33.54754517478973,0.5015954730806464]]]}},{"type":"Feature","properties":{"n":"Namalemba","c":"235108","d":"Bugweri","od":"Bugweri","dc":"235","k":"NAMALEMBA","a":["NAMALEMBA"],"lat":0.744524,"lon":33.603577},"geometry":{"type":"Polygon","coordinates":[[[33.55708602462434,0.7712682678736259],[33.558973907048276,0.7793246963571722],[33.559805681810985,0.781056821959069],[33.56297137810848,0.792835598097422],[33.564133035535924,0.801185845618281],[33.566230320055666,0.8012],[33.58766663745674,0.8012],[33.5914767040484,0.8007715912783308],[33.6049,0.7908],[33.605193536237785,0.7907491512029035],[33.605403475793146,0.790540855496585],[33.6111879901363,0.789427486699933],[33.610208676282504,0.784032614618553],[33.610208726290146,0.7840324669297573],[33.61020865591793,0.784032079235501],[33.61198135259222,0.778797265946513],[33.61297477371273,0.777554001245591],[33.614329352140864,0.777812132005119],[33.61666232871143,0.772849374802539],[33.61666297920681,0.7728495225165013],[33.6166631724388,0.772849111387684],[33.61730186559049,0.7729946003170748],[33.61828067728344,0.7732168680805079],[33.621509256301096,0.771446829520158],[33.61723516553961,0.76737217979953],[33.619537277756926,0.763910348082522],[33.62232383292704,0.760118245642565],[33.625811838837215,0.761789251937116],[33.62581241515803,0.7617902021554535],[33.62581247643554,0.761790231458419],[33.630116499267466,0.768886476527292],[33.63011645665112,0.7688865606921228],[33.63011695599803,0.768887383998461],[33.62906025527998,0.770982655610368],[33.631851489604145,0.772124648738891],[33.633031938446116,0.774416485373062],[33.63464430873779,0.775163859915537],[33.6344704632163,0.7774818703255272],[33.6353768605476,0.779500877578514],[33.63873404336954,0.7752823973765135],[33.6413,0.7719],[33.643509336502746,0.7598927363981047],[33.64355279102125,0.75902637465391],[33.64334587198699,0.7573887582970286],[33.63950212878806,0.749435796672881],[33.639865494748854,0.748296234105027],[33.63866453649269,0.743773021531341],[33.64011923026164,0.7318521937850042],[33.6401,0.7317],[33.64011551694211,0.7316580712415244],[33.63669529750548,0.729036578754633],[33.63359432229872,0.72497454998716],[33.62729716110377,0.7224020109392609],[33.614677241169524,0.724371038743863],[33.614677062603604,0.7243710108665249],[33.61467700032503,0.724371022030833],[33.61189693997322,0.7239372861506744],[33.607282726403476,0.7254049758135936],[33.597563436644506,0.728497149676398],[33.59756355383509,0.7284964515104069],[33.59755644597801,0.728498712378527],[33.598385971745664,0.723595220324703],[33.60044272118948,0.719007334578847],[33.60128735718204,0.712982885380203],[33.600397127323696,0.708794317534405],[33.60092068902071,0.705879930373161],[33.60068377109401,0.7052595693138796],[33.599568700681296,0.702341150487748],[33.59956886101091,0.7023402174109042],[33.59956855252461,0.702339409650638],[33.60022084208438,0.698540680229301],[33.597528640754916,0.6965647148279939],[33.59538262867551,0.694989996461288],[33.59538263406777,0.694989633901336],[33.59538125100194,0.694988618787719],[33.59540185308552,0.69368896197286],[33.592162948875696,0.693123625111426],[33.592234098278574,0.690879945004421],[33.59097222306884,0.6894993054662002],[33.59092613049927,0.6894833098402663],[33.588367665935294,0.688595796975926],[33.58522706766324,0.689630674524085],[33.580535481129814,0.6944157340615097],[33.57925248900656,0.695724305568502],[33.57927581629158,0.698067197893422],[33.57736153993964,0.7023468537841],[33.577432235795804,0.704717859629139],[33.57542698043246,0.7073658469106934],[33.57441681533297,0.7110782036513305],[33.574685711978795,0.712559976301541],[33.574292399340095,0.716025300327883],[33.57127312346421,0.7226312712690126],[33.5712,0.7229],[33.57284335363199,0.7388145825413611],[33.573324391922306,0.740019525404421],[33.573086104309326,0.7411654312061219],[33.5731,0.7413],[33.572882725983966,0.7414133603561908],[33.5671797739246,0.745275508950664],[33.56521248676575,0.7454152242961287],[33.564536758847034,0.7457677779928513],[33.56152473683635,0.7475122174450481],[33.559143694745586,0.7542259754714716],[33.55908515272681,0.755508592260729],[33.55983969735716,0.757824834712003],[33.558649056351086,0.760367077015291],[33.55705479882392,0.761199498180283],[33.556644441072315,0.763397657475186],[33.55554819008834,0.764465626129764],[33.55686986218722,0.767931314558879],[33.55708602462434,0.7712682678736259]]]}}]}
