{"type":"FeatureCollection","name":"Buhweju sub-counties","metadata":{"source":"Uganda Bureau of Statistics NPHC 2024 Map Explorer","retrieved":"2026-07-26","display_only":true,"clipped_to_dashboard_district":true,"positive_area_overlaps_removed":true,"source_gap_ratio":0.01093001},"features":[{"type":"Feature","properties":{"n":"Bitsya","c":"420101","d":"Buhweju","od":"Buhweju","dc":"420","k":"BITSYA","a":["BITSYA"],"lat":-0.312051,"lon":30.456503},"geometry":{"type":"MultiPolygon","coordinates":[[[[30.409596986586774,-0.28269377718377015],[30.408467179892668,-0.281286391862085],[30.409555023839324,-0.28121459033611407],[30.409596986586774,-0.28269377718377015]]],[[[30.420350963402466,-0.28606611546404015],[30.4254,-0.2876],[30.425499630311517,-0.2875907815370128],[30.432675420351867,-0.289025344855868],[30.434935427676553,-0.288935420563734],[30.43715788245345,-0.287806258019101],[30.440672644684845,-0.288502855392341],[30.445820559188512,-0.287749501114236],[30.44883343197321,-0.28843472625958],[30.451979066621508,-0.287765844641384],[30.453827968821397,-0.285890272016687],[30.458115150402886,-0.300566490292198],[30.460375256227742,-0.30106702100803],[30.458862796437657,-0.305199983869915],[30.461086994325676,-0.30804939740207],[30.460723352265756,-0.308772476676281],[30.46670038425415,-0.309397520939793],[30.47149364253849,-0.307157655577889],[30.4757715895391,-0.306822414186854],[30.481683596603155,-0.308732961042116],[30.48443277255417,-0.310787356724636],[30.486142223844404,-0.314566369432743],[30.485642458854645,-0.318392468524588],[30.484121779365687,-0.320783854134161],[30.483574288326274,-0.325495306365026],[30.484523339894714,-0.329033593461481],[30.48747325264036,-0.332378145440671],[30.48426716260234,-0.334524077001071],[30.47989384774693,-0.335743119910392],[30.479801369793858,-0.336858824079622],[30.47792351008571,-0.336531834924492],[30.476447769965226,-0.337349640053779],[30.47516315988459,-0.338287232988726],[30.474586184989548,-0.340198126883977],[30.47111695608542,-0.340594365870049],[30.47101652487375,-0.339353719070135],[30.468874018643596,-0.337892667543994],[30.466359246446366,-0.339612386765317],[30.457993998423632,-0.336591004855097],[30.456446052300713,-0.334892769073545],[30.45753434255926,-0.333247522041722],[30.454266770502805,-0.326630437465538],[30.45202435612584,-0.325192001352614],[30.446982931745637,-0.323981210341993],[30.444479600982746,-0.321477792521863],[30.444532579363837,-0.320138689861554],[30.437186340330367,-0.321714696496305],[30.429347126595164,-0.318494519020385],[30.42653070702724,-0.315013302301474],[30.42655489380798,-0.313315569013817],[30.430066008483095,-0.310246714839762],[30.427500741064335,-0.304960043914323],[30.42448908174386,-0.301604735172065],[30.421620501566547,-0.294897214559159],[30.418078272152886,-0.295852989259341],[30.417313198397093,-0.2924187371187],[30.41489460267728,-0.289343748074465],[30.413523383714928,-0.288957628952924],[30.412808447392525,-0.286694251621349],[30.409708790958895,-0.2828330504178913],[30.416770428494768,-0.28497835802372673],[30.418947901970096,-0.286358738600957],[30.420350963402466,-0.28606611546404015]]]]}},{"type":"Feature","properties":{"n":"Buhunga","c":"420102","d":"Buhweju","od":"Buhweju","dc":"420","k":"BUHUNGA","a":["BUHUNGA"],"lat":-0.298424,"lon":30.478469},"geometry":{"type":"Polygon","coordinates":[[[30.46509487521198,-0.2642134741198156],[30.4714,-0.2571],[30.494530484571516,-0.2560903359909259],[30.494875133962413,-0.256223330355194],[30.496236396762633,-0.25601587156988515],[30.4966,-0.256],[30.49685964903495,-0.25613651650291147],[30.503438453544778,-0.260930738029012],[30.506308358216646,-0.26112003318593296],[30.5126,-0.2762],[30.508334634332925,-0.2796339808336606],[30.506478644689818,-0.280771364880182],[30.501057431040316,-0.285352852293978],[30.500961847823966,-0.2855696987857916],[30.5008,-0.2857],[30.500724352468804,-0.28610849666847077],[30.499583445774046,-0.288696834074265],[30.498824237798758,-0.29636911588669657],[30.4988,-0.2965],[30.507831752688244,-0.32349600803519424],[30.50785537057983,-0.323660449431554],[30.507354414733626,-0.332719387418806],[30.503657332561534,-0.333005541461843],[30.5006985847858,-0.331345280678593],[30.500651896048623,-0.330039719180235],[30.497611248264914,-0.330181512660362],[30.49647820377926,-0.334280343766953],[30.48911810315929,-0.338120025476722],[30.487793167201385,-0.332712911445211],[30.484582502795757,-0.3291006711735462],[30.484523339894714,-0.329033593461481],[30.483574288326274,-0.325495306365026],[30.484121779365687,-0.320783854134161],[30.485642458854645,-0.318392468524588],[30.485973237862723,-0.31586009173081436],[30.48614217404386,-0.314567131206238],[30.48614213548111,-0.3145670459241515],[30.486142223844404,-0.314566369432743],[30.485123992876012,-0.3123154086763136],[30.48443381110069,-0.310789061595546],[30.48443340714621,-0.3107887595907982],[30.48443277255417,-0.310787356724636],[30.481732574392936,-0.3087695610130371],[30.481683776051437,-0.308733078360925],[30.481683736491366,-0.30873306557734526],[30.481683596603155,-0.308732961042116],[30.4757715895391,-0.306822414186854],[30.47149364253849,-0.307157655577889],[30.46670038425415,-0.309397520939793],[30.463149754236586,-0.30902621609674696],[30.46072350703602,-0.3087721689253891],[30.461086994325676,-0.30804939740207],[30.458862796437657,-0.305199983869915],[30.458958342964007,-0.304938892469291],[30.460375043536818,-0.301069701552405],[30.46037433293465,-0.30106954400804076],[30.460375256227742,-0.30106702100803],[30.458115150402886,-0.300566490292198],[30.458051123890783,-0.30034730968387197],[30.453905172238088,-0.286016942189391],[30.453861598679925,-0.28600539640200595],[30.453827968821397,-0.285890272016687],[30.453744950512718,-0.28597448786494395],[30.4528740683949,-0.285743728197992],[30.452686060015154,-0.28507531117297485],[30.4535,-0.285],[30.4439,-0.2669],[30.4636,-0.2659],[30.46416762176071,-0.2652596062186873],[30.46506102062203,-0.264647110355737],[30.46509487521198,-0.2642134741198156]]]}},{"type":"Feature","properties":{"n":"Karungu","c":"420103","d":"Buhweju","od":"Buhweju","dc":"420","k":"KARUNGU","a":["KARUNGU"],"lat":-0.371787,"lon":30.478244},"geometry":{"type":"Polygon","coordinates":[[[30.437182598616655,-0.32171315948218315],[30.437186340330367,-0.321714696496305],[30.437186899905488,-0.32171457644928547],[30.43718706650772,-0.321714631332809],[30.43731458070439,-0.3216871847750853],[30.444532579363837,-0.320138689861554],[30.444479600982746,-0.321477792521863],[30.446141030363016,-0.3231392796809354],[30.446982410673225,-0.323980766268924],[30.446982512037177,-0.3239807906189356],[30.446982931745637,-0.323981210341993],[30.45202435612584,-0.325192001352614],[30.45426665867662,-0.32663036573266685],[30.45466409536539,-0.3274350508526433],[30.45753434255926,-0.333247522041722],[30.456446052300713,-0.334892769073545],[30.457993998423632,-0.336591004855097],[30.457994472622914,-0.3365911761276206],[30.457994971791706,-0.336591724004117],[30.46048021563707,-0.3374889832166647],[30.466359246446366,-0.339612386765317],[30.468874018643596,-0.337892667543994],[30.47101652487375,-0.339353719070135],[30.47111695608542,-0.340594365870049],[30.474567367984537,-0.34020027607366493],[30.474585323116457,-0.340198241141279],[30.474585328069956,-0.34019822475729694],[30.474586184989548,-0.340198126883977],[30.47516315988459,-0.338287232988726],[30.47637110743618,-0.3374055934101273],[30.476447868594757,-0.33734958539663823],[30.47792351008571,-0.336531834924492],[30.478191481184698,-0.33657849636723836],[30.479799178069605,-0.336859807467023],[30.479799289310346,-0.3368584618078599],[30.479801369793858,-0.336858824079622],[30.47989384774693,-0.335743119910392],[30.48426716260234,-0.334524077001071],[30.484267485226383,-0.3345238610591894],[30.484267537835883,-0.334523846418158],[30.487473260900718,-0.332378154634773],[30.48909560937018,-0.3380282274679348],[30.48911810315929,-0.338120025476722],[30.49647820377926,-0.334280343766953],[30.496478289749426,-0.33428003276665114],[30.49647855150594,-0.334279896224865],[30.496564239746867,-0.3339691054133167],[30.49761122298123,-0.3301816041250373],[30.497983684211423,-0.33016414498322993],[30.500651896048623,-0.330039719180235],[30.5006985847858,-0.331345280678593],[30.500700070409298,-0.33134611431586847],[30.50070007417343,-0.331346221478714],[30.503656644114013,-0.333005244761851],[30.503656784476643,-0.3330052339115135],[30.503657332561534,-0.333005541461843],[30.507235754118536,-0.33272857174665615],[30.50735441438223,-0.332719399049282],[30.505361904916008,-0.347161028528256],[30.50650820412142,-0.35783562523252577],[30.50604292387826,-0.3692472354068903],[30.501660963127584,-0.3880644067864869],[30.4882,-0.3943],[30.485747065335435,-0.4026504158793647],[30.484958312041172,-0.403287229300871],[30.483967180645735,-0.4087095978017529],[30.483830766475272,-0.40917398646715547],[30.48311364825879,-0.4104831593439813],[30.479397485742485,-0.4122448956480064],[30.47612431316397,-0.413323668835366],[30.469987197337446,-0.416693052164801],[30.469871492068698,-0.4168264999948743],[30.46290960762937,-0.42367960498983864],[30.458554934519732,-0.425321006429711],[30.456264341609703,-0.425463010834439],[30.456109859251573,-0.42348375010757],[30.45454491516508,-0.422580295684369],[30.453719742587325,-0.420908811787337],[30.454392569161158,-0.419748986360796],[30.453797177378803,-0.418738158259171],[30.454882368090242,-0.417494039460285],[30.45413981360462,-0.415348165817497],[30.457214032076596,-0.410581009631751],[30.457484172868057,-0.408357561560288],[30.461036490258607,-0.405633223586909],[30.462546108384597,-0.401780365518516],[30.462421134888643,-0.398257923539151],[30.464595743152866,-0.393588271836633],[30.467558488586654,-0.39206845401513],[30.468601779274422,-0.389065004210828],[30.46756330666555,-0.387333846085369],[30.465241207117675,-0.386967244893012],[30.46524614978911,-0.386183932220636],[30.463884859922967,-0.385881775883336],[30.46287885023964,-0.384607630534069],[30.459746063910853,-0.383859412012276],[30.456521274247507,-0.385286229287685],[30.454482207456827,-0.384232251088926],[30.45397328517552,-0.382390145522237],[30.451606740612498,-0.381734971488373],[30.45034825843221,-0.374326322963349],[30.45177354299551,-0.369074026649861],[30.448744236451212,-0.362533588208962],[30.446568512686504,-0.359649689683037],[30.44588253409998,-0.359940992629571],[30.441294922610656,-0.356427412034869],[30.436187434406353,-0.357640147838712],[30.436514353527,-0.356058702788823],[30.438512554954237,-0.354821739316047],[30.438079305329023,-0.351430951691706],[30.438976729374936,-0.351765662414174],[30.43994904562666,-0.347627811771356],[30.43726815104622,-0.34099280338772],[30.436578905958182,-0.336193611729712],[30.43472620669068,-0.335211986711825],[30.434573731788614,-0.332261528432979],[30.431588122186696,-0.327091263039939],[30.432287482160188,-0.320100568639421],[30.437182598616655,-0.32171315948218315]]]}},{"type":"Feature","properties":{"n":"Kashenyi-Kajani Town Council","c":"420104","d":"Buhweju","od":"Buhweju","dc":"420","k":"KASHENYIKAJANITOWNCOUNCIL","a":["KAJANI","KASHENYI","KASHENYIKAJANI","KASHENYIKAJANITOWNCOUNCIL"],"lat":-0.317944,"lon":30.413426},"geometry":{"type":"Polygon","coordinates":[[[30.37522276909468,-0.295534550585543],[30.38470470449161,-0.296429832375947],[30.393192938318432,-0.294445884535481],[30.394057416666016,-0.293566678184668],[30.391462872509212,-0.286359721637589],[30.390469381063586,-0.285232703469507],[30.389364550038767,-0.286967122548652],[30.38895763221972,-0.286574418967049],[30.389582976040888,-0.283632740736191],[30.393059475801607,-0.283825993242891],[30.394045813667226,-0.281902137327803],[30.39651948598927,-0.280344588562831],[30.39817381607698,-0.280836608221069],[30.399376728813724,-0.280018440187974],[30.40277933527006,-0.281645018739658],[30.405128091211196,-0.281820715190787],[30.407252548021912,-0.277893847545493],[30.408652679158116,-0.28127414825824226],[30.408467179892668,-0.281286391862085],[30.40886089428012,-0.2817768366901507],[30.40935754052904,-0.282975876998445],[30.41280462552811,-0.286689490775174],[30.412808447392525,-0.286694251621349],[30.412810299707804,-0.28670011576377075],[30.41301680874917,-0.288286953123989],[30.41338812666248,-0.28852942613701843],[30.413523383714928,-0.288957628952924],[30.41443846814599,-0.2892153059588273],[30.41516856777807,-0.2896920657682995],[30.417312378421784,-0.2924176946066891],[30.41731322449528,-0.2924188542678777],[30.417564193682736,-0.29354540116969924],[30.418076905826222,-0.295850978873475],[30.418077772127273,-0.2958507447515183],[30.418078272152886,-0.295852989259341],[30.421620501566547,-0.294897214559159],[30.42448908174386,-0.301604735172065],[30.427500741064335,-0.304960043914323],[30.430066008483095,-0.310246714839762],[30.42668943727934,-0.31319797265714044],[30.426555763450057,-0.313314704427057],[30.42655576188669,-0.3133148102784274],[30.42655489380798,-0.313315569013817],[30.426531551002935,-0.3149540614439549],[30.426530681307405,-0.315012946093784],[30.426530711569,-0.3150129835035263],[30.42653070702724,-0.315013302301474],[30.428455954198242,-0.3173929912924398],[30.429346696228002,-0.318494137161817],[30.429346918106614,-0.318494261319497],[30.429347126595164,-0.318494519020385],[30.429348074438572,-0.3184949083737168],[30.43228194105612,-0.320136626192382],[30.43158808292438,-0.327090323113142],[30.431588196534232,-0.3270905198734318],[30.431588122186696,-0.327091263039939],[30.434573731788614,-0.332261528432979],[30.43472620669068,-0.335211986711825],[30.435228013062677,-0.33547786131841995],[30.435318210509248,-0.335921385947164],[30.430991071673922,-0.338342864480716],[30.42726077131582,-0.336283251893339],[30.42652006002331,-0.337648173205826],[30.42712960941447,-0.341728942794311],[30.429469024956045,-0.344849666995433],[30.430525503859357,-0.348366502992384],[30.427139830445388,-0.34845950344889],[30.422827331238405,-0.346596022702241],[30.41867252338675,-0.348137826823583],[30.41724810047695,-0.347925389497166],[30.415193313575863,-0.356669924284491],[30.413926208569176,-0.357106111579889],[30.41267984940689,-0.354642754106209],[30.40664713340908,-0.349332563990679],[30.402685814355234,-0.34893196306485],[30.39960702803177,-0.349731291859678],[30.397241656839658,-0.34524902768234],[30.399046190455614,-0.343637520283291],[30.397557455216244,-0.341686652781767],[30.39035531313861,-0.341510162319937],[30.391187107031122,-0.339792596566703],[30.390894531056848,-0.337900340015659],[30.392152212348925,-0.335674334460352],[30.39160999175993,-0.33398002385895],[30.393834254634278,-0.329977806296532],[30.39384362679038,-0.327330022845885],[30.395831803950674,-0.326005726432864],[30.39632070740691,-0.324669672793633],[30.399451590114815,-0.323393860402882],[30.399313332101364,-0.322383168656355],[30.39753620545394,-0.321888706536205],[30.398422988997797,-0.31915952578903],[30.397401505362204,-0.316527303896071],[30.398458611309998,-0.316198012680015],[30.398864550235164,-0.314957858697829],[30.397787042219413,-0.312737082225783],[30.395539032956776,-0.310666532573608],[30.394466173685082,-0.311378246982522],[30.391611089090688,-0.307515437396006],[30.38899345261922,-0.31169352447408],[30.38872670296759,-0.310285242113834],[30.385976189695484,-0.309866044629128],[30.38580178443433,-0.308658800865417],[30.384015731158946,-0.308448011005896],[30.382815954303364,-0.306918115754367],[30.381036252997212,-0.307211254576072],[30.380817620559228,-0.308381319204795],[30.379368256832876,-0.308655193788053],[30.377548083222287,-0.302528314404649],[30.370979980150878,-0.297363275959106],[30.372928096113274,-0.29712900045003],[30.37522276909468,-0.295534550585543]]]}},{"type":"Feature","properties":{"n":"Nsiika Town Council","c":"420105","d":"Buhweju","od":"Buhweju","dc":"420","k":"NSIIKATOWNCOUNCIL","a":["NSIIKA","NSIIKATOWNCOUNCIL"],"lat":-0.364678,"lon":30.423495},"geometry":{"type":"Polygon","coordinates":[[[30.398865086332535,-0.34832534817047994],[30.39960702803177,-0.349731291859678],[30.399837875057703,-0.3496713582833786],[30.400030363045143,-0.350025440742548],[30.402685386937176,-0.34893207403311033],[30.402685814355234,-0.34893196306485],[30.406646552450685,-0.3493325052394225],[30.41091611509428,-0.35309025859396653],[30.41267984940689,-0.354642754106209],[30.412822691208408,-0.3549250727427442],[30.413924673395854,-0.357103928725408],[30.413925040576256,-0.35710380310880413],[30.413926208569176,-0.357106111579889],[30.415193313575863,-0.356669924284491],[30.41724810047695,-0.347925389497166],[30.41867252338675,-0.348137826823583],[30.422827279217067,-0.3465960420067955],[30.423522761923223,-0.34689652633820467],[30.427139830445388,-0.34845950344889],[30.430525503859357,-0.348366502992384],[30.430524838671086,-0.3483642886953935],[30.43052490747601,-0.348364286761663],[30.42949002244806,-0.3449195640236956],[30.429469024956045,-0.344849666995433],[30.42946848875769,-0.3448489517196902],[30.426942922114215,-0.34047912142052644],[30.426714297364096,-0.33894854007473674],[30.427252259186332,-0.336298937339299],[30.42726077131582,-0.336283251893339],[30.430991071673922,-0.338342864480716],[30.434704081907466,-0.33626505396491174],[30.435318220213386,-0.335921392947281],[30.436570327699783,-0.336189066667703],[30.436578905958182,-0.336193611729712],[30.437188872491383,-0.34044078932822586],[30.437268040875832,-0.340992394204776],[30.437268124168988,-0.34099261624242455],[30.43726815104622,-0.34099280338772],[30.43726875633645,-0.3409943014346037],[30.43987515365378,-0.34794227113262394],[30.438976729374936,-0.351765662414174],[30.438079305329023,-0.351430951691706],[30.438080089344165,-0.35143708771279564],[30.43807936985138,-0.351436818842465],[30.43831406428861,-0.35326827070721667],[30.438512551179237,-0.354821709771354],[30.438297935007608,-0.3549545973106857],[30.436514353527,-0.356058702788823],[30.43651429071544,-0.3560590066347062],[30.43651405552776,-0.356059152259856],[30.436186395977646,-0.357636534009834],[30.43618827342649,-0.3576360891460221],[30.436187434406353,-0.357640147838712],[30.441294922610656,-0.356427412034869],[30.44588253409998,-0.359940992629571],[30.446568512686504,-0.359649689683037],[30.44658052293685,-0.3596656091411165],[30.449213129763763,-0.3635459545050869],[30.45170659571292,-0.36892948380675133],[30.450348264046493,-0.374325991728262],[30.45034829956051,-0.3743261714020308],[30.45034825843221,-0.374326322963349],[30.451571465143914,-0.3815273058158812],[30.45006894926273,-0.38379254326924],[30.445715154275145,-0.38686298621431],[30.447249284478087,-0.390466934815029],[30.444966842780154,-0.393023612291035],[30.440770727628745,-0.39288639060282],[30.438995986574085,-0.391295055860249],[30.43957117013015,-0.387559875916945],[30.435179985062195,-0.382444721273883],[30.4348855886383,-0.380271572572623],[30.42730309706507,-0.381747145714144],[30.426408893792953,-0.379815426075133],[30.41558443839774,-0.37944341193509],[30.407613864059,-0.378134712946576],[30.40443055526713,-0.379648043581249],[30.402722021531947,-0.37912902140895],[30.400672637483517,-0.375403881907424],[30.40036313198947,-0.371739153903387],[30.398578664572774,-0.368669865805972],[30.39790049836415,-0.365505192507976],[30.396604124218694,-0.363851805781327],[30.394581174187365,-0.363304184511556],[30.393730060235722,-0.351896714342776],[30.398865086332535,-0.34832534817047994]]]}},{"type":"Feature","properties":{"n":"Rwengwe","c":"420106","d":"Buhweju","od":"Buhweju","dc":"420","k":"RWENGWE","a":["RWENGWE"],"lat":-0.408,"lon":30.426238},"geometry":{"type":"Polygon","coordinates":[[[30.38368000556737,-0.416809430963966],[30.388152942010578,-0.412286065113813],[30.388303915107116,-0.413285998397939],[30.392407359341743,-0.409048769094156],[30.398008270181673,-0.406275351321263],[30.401589873442212,-0.407642770421039],[30.403599651810314,-0.407537144925955],[30.401776868679203,-0.404387166891306],[30.40266635338672,-0.402961008754635],[30.400269283638103,-0.400355489713857],[30.39925219794111,-0.397139070249904],[30.401571343997706,-0.394713684417231],[30.403141943424757,-0.390382352753276],[30.403262570112936,-0.386530284084579],[30.401787278382987,-0.384013765312742],[30.401932538899437,-0.381691454515473],[30.403092791592197,-0.381684731421377],[30.40557525763362,-0.3791038572417991],[30.407075698874184,-0.3783905542469172],[30.41087884092313,-0.37867079375305424],[30.41558443839774,-0.37944341193509],[30.426408893792953,-0.379815426075133],[30.42730309706507,-0.381747145714144],[30.427305046456105,-0.3817467663574344],[30.427305210350927,-0.381747120621407],[30.430488936872255,-0.3811271727662981],[30.4348855886383,-0.380271572572623],[30.435179985062195,-0.382444721273883],[30.438212057047785,-0.3859766874413684],[30.439571127794878,-0.38756015083764217],[30.43914741697524,-0.3903116831764571],[30.438995901509436,-0.391293119919011],[30.438996247177343,-0.3912933635308146],[30.438995986574085,-0.391295055860249],[30.440770727628745,-0.39288639060282],[30.44128028425183,-0.3929030541636466],[30.441745822291043,-0.393231145256964],[30.443207116554,-0.3929660655853712],[30.444966842780154,-0.393023612291035],[30.445368187430937,-0.39257404600870544],[30.44581349790534,-0.392493266416734],[30.447236772050786,-0.3904809506127086],[30.447249284478087,-0.390466934815029],[30.445715154275145,-0.38686298621431],[30.445741649137652,-0.3868443011444111],[30.449129537160335,-0.384624838102168],[30.4494975646101,-0.384195502981536],[30.45006894926273,-0.38379254326924],[30.450841893240444,-0.3826272300305612],[30.45160673271046,-0.381734980155356],[30.451630026959165,-0.3817414182757772],[30.45397328517552,-0.382390145522237],[30.454482207456827,-0.384232251088926],[30.456460129548535,-0.3852546240553403],[30.456520779459304,-0.385286023596543],[30.45652083163016,-0.385286000502127],[30.456521274247507,-0.385286229287685],[30.459746063910853,-0.383859412012276],[30.46249422929113,-0.38451576965134604],[30.46287894541266,-0.3846077510739219],[30.46357254148639,-0.38548621400152794],[30.46388371415192,-0.385880986812469],[30.46388434901569,-0.3858811288019565],[30.463884859922967,-0.385881775883336],[30.46420009533371,-0.3859517465629585],[30.46524613864847,-0.3861856977845039],[30.465241720533026,-0.3868858790249498],[30.46524064687492,-0.386966669384138],[30.465241210189053,-0.386966758142409],[30.465241207117675,-0.386967244893012],[30.467563010146094,-0.38733379927239475],[30.46769730048938,-0.38755721692336853],[30.468601779274422,-0.389065004210828],[30.467558488586654,-0.39206845401513],[30.464595743152866,-0.393588271836633],[30.462421134888643,-0.398257923539151],[30.462546108384597,-0.401780365518516],[30.461036490258607,-0.405633223586909],[30.457484172868057,-0.408357561560288],[30.457483995382724,-0.4083590223889962],[30.457483881222654,-0.408359109953461],[30.457458204490113,-0.40857129951354826],[30.4572140752301,-0.4105806544481434],[30.454140184582037,-0.415347419744337],[30.454140223051258,-0.4153475308931748],[30.45413981360462,-0.415348165817497],[30.454882232091336,-0.4174936464433808],[30.454218627603478,-0.4182549859081853],[30.453797177378803,-0.418738158259171],[30.45379729991637,-0.4187383662976777],[30.45379709326295,-0.4187386033868],[30.454179602573706,-0.4193874217277518],[30.454392521467042,-0.41974890538797266],[30.454375555622725,-0.4197783144748107],[30.453719742587325,-0.420908811787337],[30.45454491516508,-0.422580295684369],[30.455554636574043,-0.4231632157266889],[30.456141043471362,-0.4238832889434161],[30.456264341609703,-0.425463010834439],[30.45666776078533,-0.4254380010216347],[30.457159788339617,-0.429270314851033],[30.45706046125542,-0.4292753755156621],[30.43691013349167,-0.425719435322059],[30.436847936491983,-0.425666639195448],[30.436656420792684,-0.4257145660065395],[30.432700636728345,-0.42611587743335644],[30.431489256226165,-0.425854497674028],[30.429961482240433,-0.42639376267126056],[30.4023,-0.4292],[30.402246968725624,-0.42928617582086337],[30.401732165188402,-0.428990381199391],[30.40088930097402,-0.431465780011109],[30.397205427545796,-0.43694747932987066],[30.396174971751677,-0.4367637546533995],[30.39372786794227,-0.434247059397845],[30.390240145514895,-0.432872263690385],[30.38646397210671,-0.433394866539349],[30.38418913727753,-0.43459608602159],[30.38236268682398,-0.427921655489531],[30.383514140524294,-0.426245485131821],[30.38368000556737,-0.416809430963966]]]}},{"type":"Feature","properties":{"n":"Bihanga","c":"420201","d":"Buhweju","od":"Buhweju","dc":"420","k":"BIHANGA","a":["BIHANGA"],"lat":-0.243453,"lon":30.330739},"geometry":{"type":"Polygon","coordinates":[[[30.301512741669782,-0.201334009622713],[30.301542658332195,-0.20126151800802183],[30.308665072310657,-0.1948364033001769],[30.3095138073452,-0.194267892662462],[30.309815843885747,-0.19379829467649243],[30.31389299624791,-0.19012030408405303],[30.314399689758755,-0.190038784254162],[30.314765657786886,-0.1893330779405025],[30.315606479862645,-0.18857457410992],[30.316390248943332,-0.18926429309559212],[30.3214,-0.1966],[30.321439659802497,-0.1965953270927574],[30.321447007610107,-0.196610300235257],[30.32383935602728,-0.196330597312041],[30.323879821351724,-0.19630781561112606],[30.3483383809342,-0.19342599137029057],[30.349852922857014,-0.196578526616039],[30.359275292923964,-0.210259643657128],[30.36058910150129,-0.210842937984056],[30.363925643986498,-0.221381733704634],[30.368359792681876,-0.22373203658399343],[30.36991084876881,-0.22576034069767884],[30.37205830773393,-0.228651468690715],[30.372110471079186,-0.22863676987278134],[30.3782,-0.2366],[30.379059125705123,-0.2385810428023985],[30.3774552047322,-0.239811968195597],[30.379294063457934,-0.244807118257431],[30.380630329648742,-0.246333355027204],[30.38108342513206,-0.249481519273048],[30.384687089604487,-0.251618647668935],[30.38505157596783,-0.2523989281140466],[30.3867,-0.2562],[30.386836366759553,-0.256219749668625],[30.38703550549064,-0.2566460593289],[30.387232063801303,-0.2562770575160504],[30.392194656845074,-0.256995777887907],[30.39458705601754,-0.25929965938326],[30.40120973722044,-0.25831265838657397],[30.405955969399763,-0.26448276021969086],[30.405992481734724,-0.264571320646932],[30.409213037119613,-0.26915955846637013],[30.40923152554617,-0.2698112755024399],[30.40730875915471,-0.275127967304082],[30.407252543844308,-0.277893834125294],[30.407238146995514,-0.2779204665496227],[30.405128091211196,-0.281820715190787],[30.40277933527006,-0.281645018739658],[30.399376728813724,-0.280018440187974],[30.399370502472497,-0.280022675069856],[30.3993667591886,-0.280020892522818],[30.398420770333715,-0.2806686408595772],[30.39817381607698,-0.280836608221069],[30.39651948598927,-0.280344588562831],[30.396517949278625,-0.2803455561533026],[30.396517528792796,-0.280345431265862],[30.394061512086193,-0.2818922528120353],[30.394045813667226,-0.281902137327803],[30.393519981084278,-0.28292777586436896],[30.39305934141068,-0.2838259857723358],[30.391664520150222,-0.2837484501118913],[30.389584337376164,-0.283631710554528],[30.389584104559756,-0.2836328034685698],[30.389582976040888,-0.283632740736191],[30.389034899196407,-0.2862109475844419],[30.388957534005364,-0.286574124321918],[30.388957667545213,-0.28657425279249327],[30.38895763221972,-0.286574418967049],[30.389364550038767,-0.286967122548652],[30.389383751303566,-0.28693697944146007],[30.39047017669836,-0.28523360603877695],[30.391371312061732,-0.28625585533029374],[30.391462988777267,-0.2863600445994498],[30.39405737011884,-0.2935665488889443],[30.393640508138247,-0.29399068952786234],[30.393192962470017,-0.29444585997242734],[30.391759332793306,-0.29478095996385406],[30.38470470449161,-0.296429832375947],[30.37522276909468,-0.295534550585543],[30.372928096113274,-0.29712900045003],[30.370979980150878,-0.297363275959106],[30.371188609633215,-0.29752733844189977],[30.362114255609278,-0.299604356967976],[30.35814702295216,-0.296596311430964],[30.355081938198612,-0.2958534275705],[30.3534437181218,-0.29291185828171],[30.353720837954732,-0.29005694908851],[30.355301604055455,-0.288860525223397],[30.35644522195882,-0.280972647037317],[30.354047345304647,-0.279635649272353],[30.353497023876088,-0.27841292504076],[30.34973576127789,-0.276619684094486],[30.34815296613088,-0.273210360896891],[30.344243638217783,-0.272418700453618],[30.34077091520327,-0.270270097674687],[30.339315120075934,-0.268410402401933],[30.338329457189733,-0.270061805891777],[30.331958067970483,-0.271888941150752],[30.329647593524385,-0.273624468977307],[30.327723258919864,-0.272740618547387],[30.327096717777486,-0.280116121046111],[30.325842612913632,-0.281816415341737],[30.32477694003469,-0.285808532613476],[30.325564614983087,-0.288606870809342],[30.32658996790025,-0.289221941230488],[30.325975619563355,-0.291294333200726],[30.32704598581427,-0.291990488692494],[30.322156265392348,-0.294283026632038],[30.318445438692592,-0.291827129652645],[30.316669852254407,-0.288701973551056],[30.317844900066532,-0.278586554920412],[30.31603072152615,-0.276502147460604],[30.31371523281933,-0.269919229349695],[30.312300086455828,-0.270286929419607],[30.31081887635337,-0.269592129227054],[30.30898098716616,-0.26676834003091],[30.298806303841747,-0.259326887675863],[30.29138214520047,-0.25513885068867],[30.281674066278427,-0.242099616885746],[30.269205567468525,-0.23267674022032],[30.25915974209143,-0.22092778191529844],[30.2691,-0.2186],[30.2841,-0.2113],[30.29595304627336,-0.2044879044405975],[30.297800109896443,-0.203836365419099],[30.301512741669782,-0.201334009622713]]]}},{"type":"Feature","properties":{"n":"Engaju","c":"420202","d":"Buhweju","od":"Buhweju","dc":"420","k":"ENGAJU","a":["ENGAJU"],"lat":-0.322764,"lon":30.322466},"geometry":{"type":"Polygon","coordinates":[[[30.29644190093885,-0.327669259339095],[30.2960280879837,-0.325661418084919],[30.292742725117694,-0.324154843828655],[30.28992909736893,-0.31990937407482],[30.289734010360593,-0.316148098379224],[30.2921326335489,-0.311293016688566],[30.292793031711547,-0.310802717260543],[30.294366460552077,-0.314216413501121],[30.29566588669887,-0.314802265093084],[30.29591630849284,-0.316365717593402],[30.30191579570904,-0.317236916358823],[30.306085162703635,-0.315457647637186],[30.306464904759387,-0.313185610585588],[30.304851378772817,-0.311457589784179],[30.30502697523836,-0.310291681088144],[30.302108099772163,-0.30973156571308],[30.301158708137976,-0.307171538932161],[30.29935268581039,-0.305508027816366],[30.301836840422187,-0.302174408122954],[30.30509463007156,-0.30238076095086],[30.306001681774347,-0.301730133163048],[30.304604445336377,-0.299102463837352],[30.30452867464825,-0.295112146767385],[30.307795847649317,-0.288794204783783],[30.310378767490636,-0.289008050814059],[30.31136405055296,-0.287896236147732],[30.313776125862425,-0.289840581615958],[30.3171597628532,-0.2895642504102013],[30.318445438692592,-0.291827129652645],[30.321968480995963,-0.29415874728159297],[30.32410751001107,-0.297060904987778],[30.32534547173742,-0.297504891782798],[30.325185764404207,-0.298626874102708],[30.327244440671425,-0.301123913052341],[30.32782136397636,-0.30485368903403],[30.32894699452938,-0.306495692632337],[30.33270032897952,-0.305325290133973],[30.334984386245473,-0.303350420017005],[30.33547206301193,-0.301447122700186],[30.340456192810787,-0.299825235013352],[30.345543120887672,-0.301759426000444],[30.348708900485274,-0.308062624239244],[30.350715228431596,-0.307786632388267],[30.351696847565197,-0.30695833834562],[30.353486088829445,-0.307157922149732],[30.356218074976148,-0.30211367127969],[30.357141190729703,-0.30174253508909],[30.357934013804186,-0.304126981631878],[30.359211981415932,-0.301772699265846],[30.3621142655656,-0.29960436545976],[30.362114716356373,-0.2996042515080996],[30.37118860220128,-0.29752734014298693],[30.371544409747763,-0.2978071332701144],[30.377548001238765,-0.3025282499342767],[30.378928173590733,-0.308131919637067],[30.379294941601025,-0.3084084076683652],[30.379368256832876,-0.308655193788053],[30.379571391147213,-0.30861680913368855],[30.37970113890663,-0.308714619470358],[30.380485350996953,-0.3084441055062891],[30.380817620559228,-0.308381319204795],[30.380827972512087,-0.30832591821310934],[30.380884086754264,-0.308306561605019],[30.381170568503563,-0.3089524950025],[30.379761284731195,-0.310419540266745],[30.377734628254196,-0.315291373965814],[30.36683586748777,-0.316690861158028],[30.364348233715063,-0.315596442144031],[30.361128528420515,-0.317042206294761],[30.35694083268285,-0.316261475495295],[30.35658653374085,-0.317980038261876],[30.353454739550635,-0.321374120708957],[30.352113795560875,-0.32678419239219],[30.34944677721534,-0.332404873919512],[30.347698409094015,-0.334293317348896],[30.342348573364067,-0.335764288601656],[30.342131737052657,-0.3397414009677],[30.340100235496706,-0.346278823489939],[30.340371283818396,-0.350187143685288],[30.338867391406183,-0.352121264583371],[30.338743355677096,-0.355187095123893],[30.336847985725186,-0.354039743650594],[30.33118884008342,-0.353668511076668],[30.330642644804122,-0.35491290697908],[30.327969856444273,-0.355048525914075],[30.325415045098413,-0.351905306162305],[30.320041808670222,-0.352304416867548],[30.319245202738063,-0.353480596150301],[30.32046237444098,-0.354776131156211],[30.31955818415774,-0.355785016414825],[30.314255577282413,-0.351949849108265],[30.30735452362486,-0.351701446238567],[30.304784706618477,-0.349788363683942],[30.30422289701321,-0.347026169593233],[30.304807706975257,-0.345398399731203],[30.3041759389276,-0.344354575257496],[30.30156265544824,-0.345027416380625],[30.30059117856185,-0.343742184062727],[30.296968615123852,-0.34200220999129],[30.29153342745418,-0.341581957426442],[30.290653030847135,-0.340356539245035],[30.291835690150446,-0.337667594989455],[30.290143706661585,-0.334889290436507],[30.2885685036839,-0.329725866916463],[30.295456054230925,-0.329090000405681],[30.29644190093885,-0.327669259339095]]]}},{"type":"Feature","properties":{"n":"Kyahenda","c":"420203","d":"Buhweju","od":"Buhweju","dc":"420","k":"KYAHENDA","a":["KYAHENDA"],"lat":-0.297621,"lon":30.247152},"geometry":{"type":"Polygon","coordinates":[[[30.20678184227387,-0.26668990852930846],[30.2078,-0.2662],[30.22449393765703,-0.2545224672546895],[30.22780806928027,-0.252732025531498],[30.227954772772758,-0.25210158751856404],[30.2281,-0.252],[30.23749236556397,-0.22602111652519646],[30.237510883657617,-0.226011555541168],[30.241971240179677,-0.226997412027026],[30.246653643796982,-0.23066684907254],[30.249083065811142,-0.230839053977711],[30.25081806028777,-0.229617850072758],[30.25099183086428,-0.226475219314429],[30.25012497186334,-0.224378262042833],[30.25064571926081,-0.222977651090542],[30.25420739885646,-0.2220875078627272],[30.25915973018149,-0.2209277847043349],[30.26336828393788,-0.2258498247363515],[30.269205567468525,-0.23267674022032],[30.281674066278427,-0.242099616885746],[30.29138214520047,-0.25513885068867],[30.298806303841747,-0.259326887675863],[30.30898098716616,-0.26676834003091],[30.31081887635337,-0.269592129227054],[30.310820796758613,-0.2695930300431699],[30.31082082618206,-0.269593075233244],[30.310917491872104,-0.2696383874056153],[30.312300086455828,-0.270286929419607],[30.31371523281933,-0.269919229349695],[30.31603072152615,-0.276502147460604],[30.317844900066532,-0.278586554920412],[30.317844531544946,-0.27858972734462745],[30.31657138480305,-0.287314957223054],[30.316763381827606,-0.28789682266486516],[30.316669852254407,-0.288701973551056],[30.317152299638945,-0.289551114632031],[30.313390541918373,-0.28952976694475124],[30.312038230539134,-0.2884396846859011],[30.311729362424387,-0.287919952152943],[30.311561429703755,-0.2880553411540571],[30.31136405055296,-0.287896236147732],[30.310378944203013,-0.2890078514080022],[30.309922244406565,-0.28897025419037115],[30.307795847649317,-0.288794204783783],[30.30452867464825,-0.295112146767385],[30.30452870245462,-0.2951136111361772],[30.304528666576342,-0.295113680502434],[30.304548197753817,-0.29614029344687154],[30.304604445336377,-0.299102463837352],[30.306001400562195,-0.30172960431014745],[30.305200668758236,-0.30230469944750654],[30.30509463007156,-0.30238076095086],[30.301836840422187,-0.302174408122954],[30.29982190794317,-0.3048783535863536],[30.299353242434442,-0.305506778144007],[30.299353464490277,-0.30550698286425737],[30.29935268581039,-0.305508027816366],[30.301158708137976,-0.307171538932161],[30.302108099772163,-0.30973156571308],[30.30502697523836,-0.310291681088144],[30.304851378772817,-0.311457589784179],[30.306464904759387,-0.313185610585588],[30.306463885777166,-0.3131917072644398],[30.305738213686528,-0.3156057074109937],[30.30191579570904,-0.317236916358823],[30.299593230710787,-0.3168996515749888],[30.29591629601786,-0.31636563970865955],[30.29566588669887,-0.314802265093084],[30.29436649018484,-0.3142164268611725],[30.29279593393556,-0.310806671943958],[30.292795127378746,-0.31080726400015324],[30.292793031711547,-0.310802717260543],[30.2921326335489,-0.311293016688566],[30.289734010360593,-0.316148098379224],[30.289734021265765,-0.3161483086308033],[30.28973399465299,-0.316148362500259],[30.289929010403476,-0.319908994236724],[30.289929083379704,-0.31990910436264997],[30.28992909736893,-0.31990937407482],[30.291387528239287,-0.3221099935956097],[30.292739883037747,-0.324150785947481],[30.292740102628418,-0.32415088676684845],[30.292742725117694,-0.324154843828655],[30.2960280879837,-0.325661418084919],[30.29644190093885,-0.327669259339095],[30.295456054230925,-0.329090000405681],[30.2885685036839,-0.329725866916463],[30.290143706661585,-0.334889290436507],[30.290144161073354,-0.33489003659880295],[30.290144221287697,-0.33489023402189],[30.29027844569161,-0.33511053731216583],[30.291835199060895,-0.337666788600771],[30.29069832744409,-0.340243265857143],[30.28028244020498,-0.333830724389291],[30.2766919939193,-0.332121343483073],[30.276033094713846,-0.332508642910368],[30.272987357483455,-0.337690448007378],[30.273427325805518,-0.340032171835397],[30.2754144377258,-0.340574751026545],[30.27424294668017,-0.342383184453343],[30.275425145271566,-0.344083265434404],[30.27427023709752,-0.345451324439967],[30.27438934141538,-0.349576610554828],[30.27130024209786,-0.354740365011232],[30.26816451653208,-0.354549387653607],[30.26697932152843,-0.355456697863008],[30.269256522942477,-0.358661074530596],[30.27110686933768,-0.365657130503335],[30.26851306204782,-0.366164826249683],[30.269369823136223,-0.367947936744125],[30.268692431656937,-0.36797953310337],[30.268619171412556,-0.369700738535624],[30.26725099202921,-0.369373560251027],[30.26687216426527,-0.367969573385983],[30.264936857245182,-0.369456882205741],[30.263132368859292,-0.369327067393006],[30.263259437220775,-0.371699483060054],[30.261349805414746,-0.371063393581063],[30.259419850386674,-0.373707817530083],[30.2582659282227,-0.374112319544584],[30.257280355922614,-0.373482932332374],[30.256195686838588,-0.374136120159089],[30.253605847390247,-0.370786184983977],[30.252960802583313,-0.372641819436809],[30.250712573158097,-0.374655952246437],[30.25028736608825,-0.37412085225875447],[30.24698835085438,-0.3534534921171555],[30.24704352588567,-0.353230180094177],[30.246940335818984,-0.3531526920424609],[30.2469,-0.3529],[30.24127323254229,-0.3487720657952182],[30.241713546473544,-0.348089596653341],[30.24114355786361,-0.3472467625351],[30.236994623721024,-0.34563317373420194],[30.23548295192392,-0.34452417433719956],[30.233641241033986,-0.342642619701334],[30.231681434289317,-0.341735288037579],[30.23069949173954,-0.34101491097049214],[30.230059952293743,-0.339342768229686],[30.225066089099172,-0.33688210903345495],[30.224,-0.3361],[30.21744197413154,-0.33308595780792916],[30.21741664458394,-0.33289775853635],[30.212770834526534,-0.33093912091875977],[30.2042,-0.327],[30.188456109849863,-0.3280960936180477],[30.188403176350764,-0.32806254553060116],[30.188823006011987,-0.3231120541086519],[30.18926878519413,-0.322875411528137],[30.1897918115625,-0.321519307995478],[30.18940571526275,-0.31624094086006127],[30.189704438491685,-0.3127184961188693],[30.191575708011584,-0.308861415052541],[30.19018475425948,-0.3070547726902858],[30.19046900841587,-0.30370294242952467],[30.190635883912826,-0.303629804324347],[30.190487868204197,-0.3034805540921729],[30.19067072623496,-0.30132435314611555],[30.191110593623808,-0.300742067169108],[30.19078475597289,-0.299668887111505],[30.19073025858424,-0.29965840379224357],[30.1842,-0.2864],[30.18419766449353,-0.2863322703124383],[30.18572831945986,-0.283165684577614],[30.18822711596452,-0.281430531388049],[30.184059284468688,-0.2776233568456114],[30.20113719454089,-0.2694059524175631],[30.20501611201912,-0.268120579423457],[30.20678184227387,-0.26668990852930846]]]}},{"type":"Feature","properties":{"n":"Nyakashaka Town Council","c":"420204","d":"Buhweju","od":"Buhweju","dc":"420","k":"NYAKASHAKATOWNCOUNCIL","a":["NYAKASHAKA","NYAKASHAKATOWNCOUNCIL"],"lat":-0.42207,"lon":30.323894},"geometry":{"type":"MultiPolygon","coordinates":[[[[30.29076768180912,-0.415361049094307],[30.292102153621897,-0.415360871487345],[30.29254938377236,-0.414392608187896],[30.292917481311125,-0.412746580659128],[30.291942838958338,-0.412107903684916],[30.2917792506341,-0.410400049856876],[30.293473187825384,-0.407855933483241],[30.295838662169544,-0.406505695031015],[30.298295450248844,-0.40644025841934],[30.300193915400044,-0.409123017442696],[30.30543781086645,-0.406969025877347],[30.306557240708408,-0.408952723505967],[30.309102711826274,-0.408618144282425],[30.311349722106183,-0.406127946822736],[30.31234435011213,-0.40749370560799],[30.313890983870696,-0.407105904577423],[30.315304805938155,-0.40806889881983],[30.317195912248486,-0.407170268561098],[30.31855745730133,-0.403920413683421],[30.314995672068154,-0.400501255648866],[30.318667967883666,-0.397031620665518],[30.318980158440603,-0.392897023797059],[30.322126406802823,-0.391421412779778],[30.322055609671718,-0.388709180250218],[30.32472230493973,-0.38968722367113],[30.326150459689345,-0.392372281101257],[30.329234057171526,-0.394373569195049],[30.33018564282573,-0.396020788274627],[30.330161341377366,-0.398239466987492],[30.333403411004813,-0.39905308077171],[30.334424399533845,-0.40081090697089],[30.33616773188145,-0.401800237860943],[30.340080562962786,-0.403122179728449],[30.34151416587722,-0.400664984195227],[30.34306839330606,-0.401299784735619],[30.344199384086867,-0.400766109830522],[30.346815551118816,-0.403305429452344],[30.35153954179238,-0.403904623384611],[30.35221330554538,-0.405188349882728],[30.35614240205107,-0.404327868657406],[30.357935905086077,-0.405333776451158],[30.36295162284005,-0.405271757278651],[30.363222970480084,-0.406024199179527],[30.361658399054388,-0.4105319386781],[30.35576588935804,-0.414739211890553],[30.355812822381157,-0.417847109090575],[30.354875836511646,-0.417840236358049],[30.355222283391686,-0.418878833599057],[30.353707281086407,-0.41981856621213],[30.355031132757816,-0.421133247526745],[30.35557475950601,-0.42449652431123],[30.354411914290974,-0.427438942000351],[30.355145079904013,-0.428690234324687],[30.35469552071308,-0.430470703199784],[30.349171668280718,-0.435493297263207],[30.349984030232164,-0.437619756978922],[30.349236959524713,-0.439729615078901],[30.35091443823669,-0.441806896931869],[30.350828699242015,-0.443790679893621],[30.351749629915233,-0.445026305840872],[30.350136645492665,-0.44604081666171],[30.350521958222505,-0.448661162357341],[30.349467755533148,-0.449981382554329],[30.347022240326474,-0.449458794742946],[30.33952011331054,-0.453025979626412],[30.33800351292202,-0.4563914550265656],[30.3371,-0.4568],[30.336919220940413,-0.45679886302478245],[30.33620089257199,-0.456748279539197],[30.334701292391664,-0.45630484431505],[30.33287071597531,-0.455978934418095],[30.331800854208407,-0.455960456794854],[30.330341212141807,-0.45675749190026294],[30.32139652949326,-0.45670123603454876],[30.321195478095245,-0.456670396820052],[30.321166697185856,-0.4566501532072121],[30.31708342435728,-0.45053841581218096],[30.316376529533414,-0.443898670323356],[30.31239736214702,-0.441710430159305],[30.308179968818386,-0.434975740035085],[30.306013537652497,-0.43396929506695925],[30.3057,-0.4335],[30.304140965647342,-0.4330314819043816],[30.304406928079377,-0.431305318277946],[30.303122031591904,-0.428711287654283],[30.299599430141782,-0.42746308765268],[30.29573887548893,-0.428132027982791],[30.29396849519145,-0.423007477631284],[30.290810510389534,-0.420836179299053],[30.289482774565613,-0.418087910028541],[30.29049655007235,-0.418008877835794],[30.29076768180912,-0.415361049094307]]],[[[30.33317459332024,-0.456033041878976],[30.333174594332093,-0.456033036195606],[30.333174593320244,-0.456033041878977],[30.33317459332024,-0.456033041878976]]]]}},{"type":"Feature","properties":{"n":"Nyakishana","c":"420205","d":"Buhweju","od":"Buhweju","dc":"420","k":"NYAKISHANA","a":["NYAKISHANA"],"lat":-0.380792,"lon":30.365655},"geometry":{"type":"Polygon","coordinates":[[[30.32940034494451,-0.357150579262913],[30.32917791873247,-0.355228365064209],[30.330400760517666,-0.35492518033742515],[30.330642644804122,-0.35491290697908],[30.330666137199383,-0.35485938428946934],[30.330793950362267,-0.354827694990545],[30.331183042253258,-0.3536817202646118],[30.331188825681522,-0.3536685438884933],[30.332537882248907,-0.3537570064834186],[30.336847985725186,-0.354039743650594],[30.338743355677096,-0.355187095123893],[30.338867203732363,-0.35212590337683897],[30.338867395287096,-0.352121259592219],[30.340210621757734,-0.35039376740818945],[30.34037017456366,-0.350188794190755],[30.340370160359598,-0.3501885885394034],[30.340371283818396,-0.350187143685288],[30.340100235496706,-0.346278823489939],[30.342131737052657,-0.3397414009677],[30.342348547116515,-0.3357647700222569],[30.347697599107814,-0.334293682830334],[30.34769777648758,-0.334293491288047],[30.347698409094015,-0.334293317348896],[30.34944677721534,-0.332404873919512],[30.352113795560875,-0.32678419239219],[30.352269905470813,-0.3261543631005374],[30.35345496457138,-0.3213738768426904],[30.35658653374085,-0.317980038261876],[30.35694083268285,-0.316261475495295],[30.361128528420515,-0.317042206294761],[30.361128584945355,-0.31704218091306324],[30.361128659263542,-0.317042194849664],[30.36434859682658,-0.31559660189268635],[30.36683586748777,-0.316690861158028],[30.368219439207643,-0.3165131995923723],[30.377732845276604,-0.315291761900133],[30.377732915208778,-0.3152915939344118],[30.377734628254196,-0.315291373965814],[30.37964388304649,-0.31070175952312545],[30.379761460705886,-0.31041935707948365],[30.379766430069036,-0.3104141840399449],[30.381113304541344,-0.309181297913966],[30.381090464483297,-0.3090358821995183],[30.381170568503563,-0.3089524950025],[30.381026262276336,-0.30862712624216],[30.38091000072918,-0.3078869242730365],[30.381005270887876,-0.3073770628641407],[30.382789034445903,-0.3069225497879147],[30.382815954303364,-0.306918115754367],[30.384015731158946,-0.308448011005896],[30.3840162332989,-0.30844807026841164],[30.384016531572616,-0.308448451228121],[30.384300769942627,-0.30848165125952004],[30.38580178443433,-0.308658800865417],[30.38593987708482,-0.30961468654234686],[30.385975216922372,-0.309865460959133],[30.385976125379823,-0.30986559943224123],[30.385976189695484,-0.309866044629128],[30.38872670296759,-0.310285242113834],[30.38899345261922,-0.31169352447408],[30.391611061007406,-0.3075154822205621],[30.391880970899265,-0.30788057615211967],[30.394466173685082,-0.311378246982522],[30.395539032956776,-0.310666532573608],[30.397787042219413,-0.312737082225783],[30.398864540659915,-0.3149578389629541],[30.398458237593783,-0.31619812909357575],[30.397401505362204,-0.316527303896071],[30.398333204857778,-0.31892816449182815],[30.39842296678766,-0.31915959414333933],[30.39753620545394,-0.321888706536205],[30.399254503175484,-0.322366800281339],[30.399313353545928,-0.32238332542008535],[30.39944321131802,-0.3233326098427331],[30.399451510977535,-0.3233938926507593],[30.396357937183627,-0.3246545019249455],[30.396320924951677,-0.324669570203856],[30.396320918962278,-0.324669586586329],[30.39632070740691,-0.324669672793633],[30.395831999785607,-0.3260051912638614],[30.394822924137245,-0.3266777268686283],[30.39384362679038,-0.327330022845885],[30.39384362539679,-0.32733041655718376],[30.393843332244884,-0.327330611939062],[30.393834189372782,-0.32997792372451684],[30.39160999175993,-0.33398002385895],[30.391610107458668,-0.3339803853900362],[30.391609880642875,-0.333980793546586],[30.392152010439712,-0.3356746918251575],[30.390894531056848,-0.337900340015659],[30.390894554095436,-0.3379004890194032],[30.390894438661338,-0.337900693295637],[30.391019106741037,-0.3387060423809815],[30.391187064575732,-0.33979232198335835],[30.39098897794365,-0.3402017120199703],[30.39035531313861,-0.341510162319937],[30.39686125425497,-0.34166959218675824],[30.39904221465712,-0.3436323103199111],[30.399046190455614,-0.343637520283291],[30.397241656839658,-0.34524902768234],[30.397242619523823,-0.3452508519223392],[30.397242430338444,-0.345251021008943],[30.397244520778287,-0.34525445470773075],[30.398865086332535,-0.34832534817047994],[30.393730060235722,-0.351896714342776],[30.393731166676194,-0.3519115439512745],[30.393549788968492,-0.355214272667347],[30.394576223483117,-0.3632378302813965],[30.394581174187365,-0.363304184511556],[30.394584838933078,-0.3633051765739742],[30.394585028431916,-0.363306657871443],[30.396328585873555,-0.3637772163668087],[30.396603928012034,-0.3638517526673408],[30.397686553934715,-0.3652323292446102],[30.397900470923723,-0.3655051575106389],[30.398227338633326,-0.36703039777390867],[30.398578664572774,-0.368669865805972],[30.399759822005645,-0.37070145933128384],[30.400363134081992,-0.37173917868009126],[30.400672637483517,-0.375403881907424],[30.400778622379477,-0.37559652931424514],[30.400790820360868,-0.375709799425402],[30.40270274294943,-0.37909397897299335],[30.402722021531947,-0.37912902140895],[30.404104622731516,-0.37954903107176646],[30.40443054841904,-0.379648056209129],[30.403098600384812,-0.38167869236077273],[30.403092791592197,-0.381684731421377],[30.401932538899437,-0.381691454515473],[30.401932324631346,-0.3816948800650481],[30.401932254847107,-0.381694880561054],[30.401787225218516,-0.384013265709378],[30.401787300407346,-0.3840134132046404],[30.401787278382987,-0.384013765312742],[30.40178882325107,-0.38401640051326386],[30.403251444333662,-0.3868855725070522],[30.403223533676453,-0.38777686588325705],[30.40267497535743,-0.39167013723939403],[30.40191356052586,-0.39376993436945734],[30.401212584084895,-0.3950888790745006],[30.39925219794111,-0.397139070249904],[30.399252770833574,-0.39714088195807473],[30.399252579279853,-0.397141031538097],[30.400046555686846,-0.3996511375440128],[30.400269283638103,-0.400355489713857],[30.400269385780305,-0.40035560073835097],[30.400269427076573,-0.400355731293876],[30.400820102674025,-0.40095420799769094],[30.40266635338672,-0.402961008754635],[30.401776868679203,-0.404387166891306],[30.403599651810314,-0.407537144925955],[30.401589873442212,-0.407642770421039],[30.398008270181673,-0.406275351321263],[30.392407359341743,-0.409048769094156],[30.392406657213158,-0.4090494941143217],[30.39240656523049,-0.409049539659118],[30.39240590967853,-0.4090502660209053],[30.388303915107116,-0.413285998397939],[30.388216932340264,-0.41270988937112013],[30.388153823393875,-0.412285478630916],[30.388152976452425,-0.4122862932309462],[30.388152942010578,-0.412286065113813],[30.3881476601408,-0.41229140653318797],[30.383844095914654,-0.416430634282119],[30.383836693588123,-0.4166509763891706],[30.38368000556737,-0.416809430963966],[30.383514140524294,-0.426245485131821],[30.38236268682398,-0.427921655489531],[30.382362823056656,-0.42792215332702543],[30.3823628070982,-0.427922176549232],[30.38236295034725,-0.4279226184873231],[30.38418913727753,-0.43459608602159],[30.38447683431237,-0.4344441684938653],[30.384570064809242,-0.434731794190226],[30.381787710829563,-0.44040570206694196],[30.3742,-0.4558],[30.361725090264386,-0.4474833935095917],[30.36109437074348,-0.446427088450422],[30.360516474522722,-0.44667764968181595],[30.3601,-0.4464],[30.34994146735941,-0.45099342345487414],[30.34946776128668,-0.449981393269052],[30.34950046795672,-0.449940415477762],[30.350521958222505,-0.448661162357341],[30.350521888727112,-0.4486606897491535],[30.35052204622459,-0.448660492422469],[30.350136721378025,-0.4460407689324709],[30.350942003824816,-0.4455342744216309],[30.351749205887135,-0.445027117230182],[30.351748929614555,-0.4450267463055205],[30.351749629915233,-0.445026305840872],[30.350828811868737,-0.4437908310065178],[30.350896917745835,-0.44221227667033364],[30.35091443823669,-0.441806896931869],[30.349236959524713,-0.439729615078901],[30.349672074327774,-0.4385007749135656],[30.34998378937938,-0.437620484763566],[30.34998378064135,-0.4376204618669595],[30.349984030232164,-0.437619756978922],[30.34948321250313,-0.43630880350084517],[30.349171907779244,-0.43549307949781674],[30.35266770120068,-0.4323145095594545],[30.354694979289643,-0.430471632590738],[30.354695122627792,-0.43047106516108424],[30.35469552071308,-0.430470703199784],[30.355145079904013,-0.428690234324687],[30.354411914290974,-0.427438942000351],[30.355487223815103,-0.4247180211725672],[30.355574786877593,-0.424497099164153],[30.355574712982516,-0.42449664203244086],[30.35557475950601,-0.42449652431123],[30.355031132757816,-0.421133247526745],[30.35503100106912,-0.4211331167502585],[30.355030983380477,-0.42113300732431],[30.354902157594132,-0.4210051657775542],[30.353707281086407,-0.41981856621213],[30.35448680283721,-0.4193350408674629],[30.355221880204642,-0.418879488782634],[30.355221766984315,-0.41887915391860164],[30.355222283391686,-0.418878833599057],[30.354875836511646,-0.417840236358049],[30.355812822381157,-0.417847109090575],[30.355804837118328,-0.4173183262775821],[30.35576636160195,-0.4147388747066946],[30.361658399054388,-0.4105319386781],[30.361658463004265,-0.41053175442995526],[30.361658498535487,-0.410531729061801],[30.36165860132789,-0.41053135590109446],[30.363222970480084,-0.406024199179527],[30.363039957343272,-0.40551670719422483],[30.363059161092377,-0.405446993047735],[30.36301446090206,-0.4054460060424154],[30.36295162284005,-0.405271757278651],[30.35793600073272,-0.4053337752684906],[30.35789493183999,-0.4053107961122508],[30.35614240205107,-0.404327868657406],[30.35221345640795,-0.4051883168434765],[30.35217084755523,-0.405107454395593],[30.35153954179238,-0.403904623384611],[30.347127268173747,-0.40334496783859536],[30.346815268045507,-0.4033051546940447],[30.344796163642616,-0.4013453595562886],[30.344199837876584,-0.400766219245505],[30.3441996085439,-0.4007663276943428],[30.344199384086867,-0.400766109830522],[30.34306839330606,-0.401299784735619],[30.34151416587722,-0.400664984195227],[30.340080562962786,-0.403122179728449],[30.340072515399225,-0.4031194608757862],[30.33442572855604,-0.4008116611831969],[30.334424399533845,-0.40081090697089],[30.333403411004813,-0.39905308077171],[30.33270605159704,-0.3988780748983277],[30.330161348981232,-0.3982387727682626],[30.33018564282573,-0.396020788274627],[30.330185203956074,-0.39602002858003965],[30.330185206735337,-0.39601978301592],[30.33004737942053,-0.39578145078772226],[30.329234057171526,-0.394373569195049],[30.326150459689345,-0.392372281101257],[30.32472230493973,-0.38968722367113],[30.324695270852228,-0.38967730858569116],[30.32077237802894,-0.388063314928142],[30.32132946092837,-0.386995628265304],[30.319851626312936,-0.383736897406894],[30.31855052999,-0.382966078348057],[30.319534891721776,-0.378973049589863],[30.325150165623956,-0.381450631582099],[30.330110593429385,-0.380132678730716],[30.330733325141633,-0.377867476301623],[30.328151748784613,-0.377737382516164],[30.327667673804577,-0.376655022643829],[30.326609856807817,-0.377394740470968],[30.326281494452964,-0.376880780227214],[30.329277253567263,-0.370337272045444],[30.327559027116354,-0.368496983514884],[30.325634837207676,-0.367958668713107],[30.323338672567758,-0.368458106801919],[30.322260208757374,-0.365806857791701],[30.320583255977528,-0.365557543721261],[30.318477435509724,-0.363644460347612],[30.326152385759485,-0.357458227397049],[30.32940034494451,-0.357150579262913]]]}},{"type":"Feature","properties":{"n":"Rubengye","c":"420206","d":"Buhweju","od":"Buhweju","dc":"420","k":"RUBENGYE","a":["RUBENGYE"],"lat":-0.370655,"lon":30.306125},"geometry":{"type":"Polygon","coordinates":[[[30.271301052588957,-0.354739280210167],[30.274388984772774,-0.349577230999007],[30.274388984103982,-0.34957720783841517],[30.27438934141538,-0.349576610554828],[30.27427023709752,-0.345451324439967],[30.275425145271566,-0.344083265434404],[30.27424294668017,-0.342383184453343],[30.2754144377258,-0.340574751026545],[30.273427367389502,-0.3400321831898678],[30.27298750433768,-0.3376901981598291],[30.276033094713846,-0.332508642910368],[30.2766919939193,-0.332121343483073],[30.278707518470878,-0.3330809175611532],[30.28230365787621,-0.335075087143491],[30.289533041867372,-0.3395258577371197],[30.291530707169937,-0.34157817108089694],[30.29153342745418,-0.341581957426442],[30.291534471252643,-0.3415820381336793],[30.291534497609856,-0.341582065211919],[30.29308101328507,-0.3417016178603188],[30.296968615123852,-0.34200220999129],[30.300212620169873,-0.34356035652600075],[30.300591202388286,-0.34374221558432727],[30.30156265544824,-0.345027416380625],[30.301562845120433,-0.34502736754579594],[30.30156289955561,-0.3450274395746],[30.301849395130077,-0.34495358962164707],[30.304175665334544,-0.344354645699398],[30.30445768666008,-0.34482008657872404],[30.304807706975257,-0.345398399731203],[30.30422289701321,-0.347026169593233],[30.304513156148406,-0.3484532581664635],[30.30478441710827,-0.349787387400634],[30.304784524281764,-0.3497874672069312],[30.304784706618477,-0.349788363683942],[30.30735452362486,-0.351701446238567],[30.307354861843805,-0.35170145841273065],[30.30735506256402,-0.351701607878207],[30.308226826226917,-0.3517328447003597],[30.314255577282413,-0.351949849108265],[30.3161670424561,-0.3533323368004723],[30.319556485823853,-0.355784196629166],[30.319556708299473,-0.3557839489845029],[30.31955818415774,-0.355785016414825],[30.32046237444098,-0.354776131156211],[30.319245689715995,-0.3534811144805871],[30.320042056652166,-0.35230439844806277],[30.325415045098413,-0.351905306162305],[30.327969856444273,-0.355048525914075],[30.328006626098944,-0.3550466601990482],[30.32918969871719,-0.355026149433774],[30.329209216962195,-0.35522060515173026],[30.32917791873247,-0.355228365064209],[30.329400247895823,-0.3571497405651573],[30.326690364084882,-0.3574072698515301],[30.326152385759485,-0.357458227397049],[30.32612923931474,-0.35747688410419515],[30.31849162704541,-0.363425833502309],[30.31860518866861,-0.36354148758879135],[30.318477435509724,-0.363644460347612],[30.320583255977528,-0.365557543721261],[30.321668988651272,-0.36571896056945963],[30.322260371714734,-0.36580725839905825],[30.323338672567758,-0.368458106801919],[30.323339826278882,-0.3684578558585551],[30.323339961963928,-0.368458189121796],[30.32473425990594,-0.3681545530145144],[30.325634837207676,-0.367958668713107],[30.325635913354677,-0.36795896977791215],[30.32832294583823,-0.3693151706993523],[30.329277225888404,-0.3703372424002896],[30.329277196693074,-0.37033739627329443],[30.326282007306755,-0.3768796600226636],[30.326281753958813,-0.376880125175545],[30.326281777601068,-0.3768801617589508],[30.326281494452964,-0.376880780227214],[30.326609856807817,-0.377394740470968],[30.32661293583669,-0.3773925873456594],[30.326613611092725,-0.377393632219175],[30.326926037314877,-0.37717363950701827],[30.32766756163576,-0.37665510108204064],[30.327749781401682,-0.37683860983999945],[30.328151748784613,-0.377737382516164],[30.32815248662947,-0.37773741969849645],[30.328152564149033,-0.377737592716733],[30.3283842852579,-0.3777491007634222],[30.330733325141633,-0.377867476301623],[30.330110593429385,-0.380132678730716],[30.32593039158281,-0.38124333070654454],[30.3195894587132,-0.37899712574316824],[30.319534891721776,-0.378973049589863],[30.31953381561156,-0.37897741479311625],[30.319533719514315,-0.378977380751735],[30.319532401471267,-0.37898315120349724],[30.31855052999,-0.382966078348057],[30.318614055079,-0.38300371303232544],[30.31858211554268,-0.383143545759546],[30.319850214216185,-0.3837360608269504],[30.319851615535416,-0.3837368910218814],[30.321328814380283,-0.38699686741798633],[30.320998104336656,-0.3876306953513368],[30.32076306653309,-0.388021445191417],[30.320787453807316,-0.38803442118985143],[30.32077237802894,-0.388063314928142],[30.321078344728388,-0.3881891986406402],[30.322055598747312,-0.388709176662865],[30.322056899918408,-0.38875860949946844],[30.322126406802823,-0.391421412779778],[30.32032003406667,-0.39226861338313546],[30.31898080878074,-0.392896350721187],[30.318980779951815,-0.39289673230424355],[30.318980158440603,-0.392897023797059],[30.31866798751899,-0.3970313606187464],[30.316751061537293,-0.39884273982729185],[30.314995672068154,-0.400501255648866],[30.318555428645933,-0.40391846626296946],[30.31855745688998,-0.4039204146652716],[30.317195959985632,-0.4071701546178972],[30.3168918130941,-0.4073147727067896],[30.315304805938155,-0.40806889881983],[30.313890983870696,-0.407105904577423],[30.31234435011213,-0.40749370560799],[30.311349722106183,-0.406127946822736],[30.309102772350183,-0.4086180772081942],[30.308950939041498,-0.408638093446306],[30.306558048398266,-0.40895261734241867],[30.306121409971432,-0.4081804049853986],[30.30543781086645,-0.406969025877347],[30.305436706380643,-0.4069694795578464],[30.305436590146304,-0.406969273992812],[30.300193765444337,-0.4091228055372917],[30.298295450248844,-0.40644025841934],[30.297760054205547,-0.4064545187062865],[30.297486811814256,-0.406154822874103],[30.29678908875788,-0.4064803803951656],[30.295838662169544,-0.406505695031015],[30.293643346867384,-0.40775880485359844],[30.29229535422704,-0.407006455827951],[30.29163148692549,-0.404222491870707],[30.292795057702413,-0.402743790836624],[30.291988410267855,-0.40188824300422],[30.293079629883923,-0.400738915202519],[30.290503685144408,-0.399561232692893],[30.290411801634676,-0.396930120435062],[30.288778071494708,-0.39380428855758],[30.288909925416117,-0.391968728629708],[30.293519400391876,-0.387245326112575],[30.29255377898646,-0.384473495418404],[30.293486140881875,-0.384158643863916],[30.29321051050149,-0.382198728849104],[30.2949857285065,-0.379213305514015],[30.292209525571273,-0.378165206313612],[30.292476685261832,-0.377039961485743],[30.29081741391307,-0.376994183915328],[30.290162588200808,-0.375796845822807],[30.291830886318753,-0.373647648505087],[30.292061373462328,-0.371606046950305],[30.28975878975794,-0.37185520682009],[30.288990229504968,-0.370972448638478],[30.28722521290098,-0.373332276061519],[30.285991423820462,-0.372357002023808],[30.28477271243922,-0.372597200907831],[30.284692350832376,-0.371217556324522],[30.28318145030185,-0.371083275036202],[30.282911543902312,-0.369278358060828],[30.28170915763609,-0.36928975183116],[30.280652428958042,-0.366439455125298],[30.279412971945863,-0.367835302908777],[30.2786842236862,-0.366518337374302],[30.277405303060796,-0.366809161598882],[30.276046031128345,-0.36574039152999],[30.27528492378469,-0.366839865351096],[30.27387035723823,-0.366337336945229],[30.273659779209094,-0.368314195315381],[30.271599071945023,-0.368335666479942],[30.271898635280923,-0.366815070633565],[30.269256776794645,-0.35866203433141125],[30.269256522942477,-0.358661074530596],[30.26697932152843,-0.355456697863008],[30.26816451653208,-0.354549387653607],[30.27130024209786,-0.354740365011232],[30.271300896737632,-0.35473927071198824],[30.271301052588957,-0.354739280210167]]]}},{"type":"Feature","properties":{"n":"Burere","c":"420207","d":"Buhweju","od":"Buhweju","dc":"420","k":"BURERE","a":["BURERE"],"lat":-0.398373,"lon":30.262417},"geometry":{"type":"Polygon","coordinates":[[[30.2429,-0.395],[30.24295915265785,-0.394833733069822],[30.243096182241224,-0.395015593241995],[30.24434020948622,-0.393875086975503],[30.244597353399364,-0.392378141439957],[30.245881884268037,-0.392706296351419],[30.245960785689945,-0.391621471149738],[30.247565683297708,-0.391058679503695],[30.24727912543564,-0.389151825939445],[30.249517725945704,-0.384825713800159],[30.248325642044847,-0.383766505389142],[30.247812391597865,-0.381508399190536],[30.24906513157604,-0.38084081894015],[30.248248036381913,-0.37996768152111055],[30.2491792649155,-0.3773501742915646],[30.249714324494512,-0.377060170942025],[30.249932120624504,-0.3752340393257155],[30.25025759020202,-0.3743192059186504],[30.2506213634215,-0.3745411697501185],[30.250712573158097,-0.374655952246437],[30.250751834222406,-0.37462077923567777],[30.25080568462124,-0.374653637181815],[30.251886925377786,-0.373974313475975],[30.252272057843843,-0.3732588487140114],[30.252960802583313,-0.372641819436809],[30.253605126899664,-0.3707882576572716],[30.25617686002955,-0.3741117678426281],[30.256195686838588,-0.374136120159089],[30.257280355922614,-0.373482932332374],[30.2582659282227,-0.374112319544584],[30.258427003678975,-0.37405585529718055],[30.258492106658874,-0.374088392190881],[30.258570286086144,-0.3740056283198754],[30.259419850386674,-0.373707817530083],[30.261349805414746,-0.371063393581063],[30.263259437220775,-0.371699483060054],[30.263132368859292,-0.369327067393006],[30.2645515202624,-0.36942916108065604],[30.26493633406479,-0.369457064185417],[30.264936595927132,-0.3694568634065324],[30.264936857245182,-0.369456882205741],[30.26506007515136,-0.3693621876292689],[30.26687288484543,-0.3679722439533962],[30.26725099202921,-0.369373560251027],[30.267255434050785,-0.36937462248966063],[30.268488432121288,-0.36979582884973],[30.268502207554707,-0.36967276849394926],[30.268619171412556,-0.369700738535624],[30.268692410608537,-0.367980027622859],[30.268890420029525,-0.367970298101251],[30.269369823136223,-0.367947936744125],[30.269356270657966,-0.3679197310208122],[30.268513863028,-0.366164669470792],[30.27104515558829,-0.36566920996975444],[30.27189075942127,-0.3667907649525559],[30.271898635280923,-0.366815070633565],[30.271599071945023,-0.368335666479942],[30.271664496764764,-0.3683349847979314],[30.27166149488009,-0.368354075240062],[30.2736294514712,-0.3683145113097303],[30.273659779209094,-0.368314195315381],[30.27365981056338,-0.3683139009685199],[30.273660274698777,-0.368313891637511],[30.273754915189723,-0.36742108049053085],[30.27387028654882,-0.3663380005612328],[30.274996442486078,-0.36673738162738806],[30.27528492378469,-0.366839865351096],[30.275285021843096,-0.3668397236987338],[30.2752851503887,-0.366839769286275],[30.27537313651264,-0.3667124357764372],[30.276046031128345,-0.36574039152999],[30.277405303060796,-0.366809161598882],[30.2786842236862,-0.366518337374302],[30.27893572055928,-0.3669728327497395],[30.279411700754256,-0.367834350370539],[30.2794121966219,-0.36783390177344644],[30.279412971945863,-0.367835302908777],[30.279422464014687,-0.367824613160687],[30.280728066891697,-0.36664347206702824],[30.280812982859445,-0.3668725144959599],[30.28067575866619,-0.367727776718154],[30.281231144131958,-0.3680004139486063],[30.28170915763609,-0.36928975183116],[30.28188895874005,-0.3692880480421684],[30.2818954840442,-0.369419875462751],[30.282884724884575,-0.3692786121969049],[30.282911341410934,-0.3692783599796292],[30.28291382503701,-0.3692936124554798],[30.28318145030185,-0.371083275036202],[30.283205592861307,-0.37108542070623224],[30.283211457409053,-0.371121436140987],[30.283308206703136,-0.37109454051167423],[30.28436255201882,-0.3711882454541661],[30.284772466568878,-0.3725929798164504],[30.28477271243922,-0.372597200907831],[30.285991284275557,-0.37235702952706384],[30.286771181222807,-0.373263674658521],[30.28708054419984,-0.37321791970148827],[30.28722521290098,-0.373332276061519],[30.28733937738756,-0.37317963812850746],[30.2879291899498,-0.373092404521236],[30.28899027707783,-0.37097250328003983],[30.28929113080644,-0.3713180599092981],[30.289758360384813,-0.371854957586355],[30.289758561368085,-0.3718549444945114],[30.28975878975794,-0.37185520682009],[30.289765225876366,-0.37185451037529815],[30.292050126002955,-0.3717056743316356],[30.291830886318753,-0.373647648505087],[30.291546983136467,-0.3740133888672551],[30.290162475867582,-0.375796416754589],[30.29016266011895,-0.3757967531737326],[30.290162588200808,-0.375796845822807],[30.29081741391307,-0.376994183915328],[30.29185961737466,-0.37702293722465574],[30.292476273856884,-0.3770416942744352],[30.292209525571273,-0.378165206313612],[30.292210920321192,-0.3781657328732009],[30.292210839849698,-0.37816606998148],[30.292513242987486,-0.3782798686738607],[30.2949857285065,-0.379213305514015],[30.29321051050149,-0.382198728849104],[30.293486140881875,-0.384158643863916],[30.29255377898646,-0.384473495418404],[30.292554256835096,-0.38447486709007134],[30.292553695041473,-0.384475057194509],[30.292691078235876,-0.3848676149684571],[30.293519400391876,-0.387245326112575],[30.288909925416117,-0.391968728629708],[30.288778071494708,-0.39380428855758],[30.288778168740404,-0.3938044746187197],[30.288778119449347,-0.393805155864348],[30.289923962318817,-0.3959967326941539],[30.290411731954144,-0.39692998711461913],[30.290420722404576,-0.397185569395447],[30.290503685144408,-0.399561232692893],[30.290504299434907,-0.3995615135371083],[30.29050432373916,-0.399562204463105],[30.292155935898393,-0.40031661644963024],[30.293079629883923,-0.400738915202519],[30.291988410267855,-0.40188824300422],[30.292604354442105,-0.4025415268065152],[30.29279465302391,-0.4027443051143377],[30.29163148692549,-0.404222491870707],[30.2916321503068,-0.4042252737966401],[30.29162481869264,-0.405850564668265],[30.292174563629747,-0.40649991383010287],[30.29229535422704,-0.407006455827951],[30.292879355626877,-0.4073324018835852],[30.29340688611075,-0.4079555117194793],[30.2917792506341,-0.410400049856876],[30.291779379360886,-0.41040139375800916],[30.29177905482595,-0.410401851995901],[30.291883761919543,-0.41149114238897155],[30.291942838958338,-0.412107903684916],[30.292917481311125,-0.412746580659128],[30.29254938377236,-0.414392608187896],[30.292102153621897,-0.415360871487345],[30.29076768180912,-0.415361049094307],[30.290767657332736,-0.4153612881267139],[30.290767560613993,-0.415361288088726],[30.290496462900308,-0.4180088846315765],[30.289482774565613,-0.418087910028541],[30.289483877773524,-0.41809019354935995],[30.28948300141079,-0.418090263492782],[30.290809867493277,-0.420834947264435],[30.290809938900345,-0.4208349963783675],[30.290810510389534,-0.420836179299053],[30.29396849519145,-0.423007477631284],[30.293970185519793,-0.4230123704629046],[30.295350671687025,-0.428320017677518],[30.28736461900616,-0.42798988550444134],[30.2864,-0.4277],[30.2861209354113,-0.42793847337579694],[30.285428819303124,-0.427909862270418],[30.280937437539627,-0.432363570444743],[30.28080970823983,-0.4323734949994341],[30.274921995210264,-0.43064516633591676],[30.26860353152178,-0.4273075507532],[30.265898170350113,-0.42799623710277507],[30.265300914527362,-0.42782091361932273],[30.261445009507394,-0.425877247299624],[30.252015129364217,-0.42392089281336715],[30.250123860016373,-0.4233657137467416],[30.24969878299485,-0.42316767424068275],[30.24146409295322,-0.4177523187556762],[30.240273818085342,-0.416742330798038],[30.239380186051765,-0.41638188506455015],[30.222018949153217,-0.4049646648668602],[30.223630081120028,-0.4026223234680788],[30.2429,-0.395]]]}},{"type":"Feature","properties":{"n":"Nyakaziba Town Council","c":"420208","d":"Buhweju","od":"Buhweju","dc":"420","k":"NYAKAZIBATOWNCOUNCIL","a":["NYAKAZIBA","NYAKAZIBATOWNCOUNCIL"],"lat":-0.287069,"lon":30.340347},"geometry":{"type":"Polygon","coordinates":[[[30.32703902916225,-0.29199375030815095],[30.32704598581427,-0.291990488692494],[30.325975619563355,-0.291294333200726],[30.32658996790025,-0.289221941230488],[30.325564666102533,-0.28860690147396295],[30.325486256493814,-0.28832849004587774],[30.32477694003469,-0.285808532613476],[30.325842612913632,-0.281816415341737],[30.327096717777486,-0.280116121046111],[30.327723258919864,-0.272740618547387],[30.329647593524385,-0.273624468977307],[30.331957952377483,-0.27188902797918135],[30.334281229478535,-0.27122272375960116],[30.338329457189733,-0.270061805891777],[30.338329524547387,-0.2700616930391331],[30.338329636364858,-0.270061660970443],[30.338369755708328,-0.26999428877697595],[30.339314821897197,-0.2684109019778139],[30.340770738256566,-0.270269899666758],[30.34077078081209,-0.27026992599761956],[30.34077091520327,-0.270270097674687],[30.343457119532747,-0.2719320747638387],[30.344242957853734,-0.272418305403941],[30.34424302007694,-0.27241831800470906],[30.344243638217783,-0.272418700453618],[30.348152635974063,-0.2732102940383165],[30.348321346521175,-0.2735730503906914],[30.34973576127789,-0.276619684094486],[30.353497023876088,-0.27841292504076],[30.354047345304647,-0.279635649272353],[30.35644522195882,-0.280972647037317],[30.355301604055455,-0.288860525223397],[30.353720837954732,-0.29005694908851],[30.35372081449801,-0.29005719074139574],[30.353720689904797,-0.290057285025181],[30.353697477564758,-0.2902976095688112],[30.3534437181218,-0.29291185828171],[30.355081938198612,-0.2958534275705],[30.355082491612247,-0.2958535617012303],[30.35508262480445,-0.295853800797423],[30.355891622257655,-0.2960496705027193],[30.358146931241492,-0.296596289203071],[30.362113636113463,-0.29960483573154606],[30.359211981415932,-0.301772699265846],[30.3579341965835,-0.30412664491433394],[30.357142204386644,-0.301744414865177],[30.357141861340793,-0.30174455197829325],[30.357141190729703,-0.30174253508909],[30.356218074976148,-0.30211367127969],[30.353486088829445,-0.307157922149732],[30.351696847565197,-0.30695833834562],[30.35169669557597,-0.30695846659471937],[30.351696426577803,-0.306958436576587],[30.35146898958355,-0.3071506057967194],[30.3507153298087,-0.30778654684587137],[30.34870874875868,-0.3080623221453113],[30.345543120887672,-0.301759426000444],[30.34554162208807,-0.3017588561153109],[30.345541589339796,-0.301758790929187],[30.345429779105366,-0.3017163303147012],[30.340456192810787,-0.299825235013352],[30.340452866293212,-0.2998263174967769],[30.340451794926103,-0.299825910638621],[30.33736200568506,-0.3008321156931315],[30.33547206301193,-0.301447122700186],[30.334995371518634,-0.3033075468633767],[30.334984312693194,-0.3033504836126948],[30.33270032897952,-0.305325290133973],[30.32894699452938,-0.306495692632337],[30.32782136397636,-0.30485368903403],[30.327244440671425,-0.301123913052341],[30.32709423713668,-0.3009417260409103],[30.32518581837953,-0.2986264949131009],[30.32534547173742,-0.297504891782798],[30.32410751001107,-0.297060904987778],[30.324093100453943,-0.29704135461844183],[30.322156274412123,-0.294283034766843],[30.32704178782923,-0.291995563674602],[30.32703902916225,-0.29199375030815095]]]}}]}
