{"type":"FeatureCollection","name":"Buikwe sub-counties","metadata":{"source":"Uganda Bureau of Statistics NPHC 2024 Map Explorer","retrieved":"2026-07-26","display_only":true,"clipped_to_dashboard_district":true,"positive_area_overlaps_removed":true,"source_gap_ratio":0.00361997},"features":[{"type":"Feature","properties":{"n":"Buikwe","c":"117101","d":"Buikwe","od":"Buikwe","dc":"117","k":"BUIKWE","a":["BUIKWE"],"lat":0.293684,"lon":33.001123},"geometry":{"type":"Polygon","coordinates":[[[32.950476785815454,0.278064111811234],[32.95629519950669,0.285257801685579],[32.95671918222478,0.292028017575738],[32.95153092379848,0.295930336191177],[32.95154381781943,0.299800293456169],[32.950730319225585,0.301568280150184],[32.951515048726584,0.302836572032175],[32.94959136666998,0.3048051451561],[32.94965561138378,0.305850911109233],[32.95405890470865,0.309038178441999],[32.95727244552009,0.309459818196635],[32.96016685444357,0.311728987504467],[32.960894349155105,0.310398950925426],[32.963350468750285,0.309120414998017],[32.964066971722545,0.310392634973772],[32.97234165101099,0.312024237173033],[32.97498219910211,0.31330809536139],[32.978085526991165,0.319339139371126],[32.97797144052315,0.321812286223054],[32.97615722479032,0.323832288483534],[32.98384037033687,0.329995299972516],[32.989562632700135,0.33786091843536],[32.99437376782898,0.334116476272374],[33.00666156189212,0.334125640219831],[33.01468691170477,0.328170580006156],[33.017338250530294,0.329240086857348],[33.01751604951312,0.328593611367498],[33.018627919413646,0.328678536677162],[33.021177886268475,0.325889586268365],[33.022489410751405,0.317144756056447],[33.0290644092477,0.31474361733231],[33.03348978279815,0.315800681077942],[33.03658795044748,0.31260387816267],[33.042937229411805,0.312413135080355],[33.05157614252191,0.303108321874104],[33.04891260145114,0.299167582806738],[33.0488636325575,0.295340889946818],[33.04453864902407,0.289028134756953],[33.035229534707774,0.287406819931731],[33.032182344497734,0.284555860222826],[33.02597554627821,0.28286961773395],[33.02074561602228,0.280056089991378],[33.00973174596688,0.268875428526734],[33.00519190276781,0.265406311346574],[33.0001011871809,0.265753273722513],[32.995411449846735,0.264385784980774],[32.993501855286176,0.262919491950596],[32.990428989308526,0.258458216122918],[32.98562501171092,0.256357591166743],[32.97273352574243,0.2525959965174],[32.96631215650862,0.25287277701791],[32.93984965029849,0.268635486311126],[32.94471829796266,0.27601209421324],[32.950476785815454,0.278064111811234]]]}},{"type":"Feature","properties":{"n":"Buikwe Town Council","c":"117102","d":"Buikwe","od":"Buikwe","dc":"117","k":"BUIKWETOWNCOUNCIL","a":["BUIKWE","BUIKWETOWNCOUNCIL","TOWNCOUNCIL"],"lat":0.335781,"lon":33.03946},"geometry":{"type":"Polygon","coordinates":[[[33.009127314388124,0.344013700994567],[33.01022281581809,0.355814642920534],[33.01568954640805,0.352096763723625],[33.023038324275404,0.344050573560471],[33.02596435167119,0.344074121196465],[33.0242996290917,0.354663627129031],[33.02237489891621,0.360932591246643],[33.02328071918203,0.365329226728757],[33.02654809694178,0.364971053874282],[33.028908677695924,0.365719579876759],[33.03151390183902,0.369383882790853],[33.04167188830252,0.362935432086747],[33.04134725000705,0.360162427905384],[33.04655309146499,0.350647201399836],[33.050850226505176,0.350493494542378],[33.06619077272814,0.342886053365291],[33.072155868675175,0.340850255301552],[33.07566034438724,0.338366733405879],[33.06930142455801,0.32874612945645],[33.06591088427136,0.321605264686703],[33.063987105731556,0.319910448691019],[33.05742372623003,0.309551522415863],[33.05157615070274,0.303108329997072],[33.051354908643276,0.3033466087846616],[33.042937229411805,0.312413135080355],[33.042936614004184,0.31241315356824106],[33.04293619101115,0.312413609133823],[33.039204673810794,0.3125252673656508],[33.03658795044748,0.31260387816267],[33.03348978279815,0.315800681077942],[33.03168592855021,0.3153698046996744],[33.02906375162403,0.3147438574914023],[33.02256488241923,0.3171171943856271],[33.02248940997121,0.3171447612585596],[33.02129878670927,0.32508346038883756],[33.0211781470303,0.325888735713755],[33.02117798769127,0.32588891001330317],[33.021177886268475,0.325889586268365],[33.018627919413646,0.328678536677162],[33.01751604951312,0.328593611367498],[33.017338250530294,0.329240086857348],[33.01733409841703,0.3292384119625592],[33.0173340826726,0.329238468350991],[33.017311480319705,0.3292292881908933],[33.014687846892066,0.3281709572454624],[33.00937650414154,0.3321110682760046],[33.00666156189212,0.334125640219831],[33.006609929189175,0.33412560171337696],[33.00420037329112,0.3341702003027],[33.00399633726951,0.334826863553025],[33.005940866212036,0.336734795093615],[33.009127314388124,0.344013700994567]]]}},{"type":"Feature","properties":{"n":"Kiyindi Town Council","c":"117103","d":"Buikwe","od":"Buikwe","dc":"117","k":"KIYINDITOWNCOUNCIL","a":["KIYINDI","KIYINDITOWNCOUNCIL"],"lat":0.275107,"lon":33.145135},"geometry":{"type":"Polygon","coordinates":[[[33.120978121848,0.282397186574949],[33.11944912171733,0.287750396317655],[33.11366713082042,0.290367888438526],[33.1129997055126,0.29137716359452],[33.113971671522854,0.297356093509712],[33.11694189916061,0.298137531889622],[33.1237471767351,0.298249926116625],[33.12357663502898,0.299649285950463],[33.125956174459965,0.301601481761296],[33.1263234428026,0.305434447303116],[33.130694917734886,0.305018016435464],[33.13246333171931,0.303306970956075],[33.13211170500424,0.307431736286605],[33.13324868520967,0.309071335723333],[33.13670280984178,0.311372967732677],[33.13904430526086,0.319657182020477],[33.1456001399009,0.31995733724313],[33.15038288485239,0.32207023346098],[33.154788726237236,0.326907060725209],[33.16051693910459,0.322432145089019],[33.161523155008325,0.320953196898895],[33.16134681124507,0.318334202798538],[33.162820196783755,0.316793998027578],[33.16526263821217,0.317263942057352],[33.16994943134062,0.315748793345834],[33.17534191994039,0.316345485872584],[33.17889869593196,0.315060066933509],[33.18168323761399,0.315105869760758],[33.18277206502037,0.315245508424909],[33.18172725164363,0.316758603769723],[33.18273065111066,0.317952370353263],[33.18752020488056,0.317631146079294],[33.19025473300598,0.318869954318254],[33.19043849491669,0.319880652786817],[33.20533967617776,0.3072787541623096],[33.182486110749174,0.2925201881511944],[33.18225301458292,0.292379215105268],[33.178448056804456,0.28917889506656],[33.176954990769424,0.285784581028575],[33.176492572050755,0.279236572471739],[33.18065486456821,0.244697681458869],[33.16397792803869,0.227470764685685],[33.149626336317255,0.248428702172796],[33.14522933285119,0.251673409194532],[33.14063071169151,0.260420601013386],[33.13550058788565,0.264860589007274],[33.13354036189185,0.267701433383185],[33.130781743350354,0.268128859909042],[33.128160781501606,0.272004601572046],[33.12692806120874,0.271544964066859],[33.125406559481895,0.272408429932428],[33.11788455884499,0.270491491493724],[33.11602713681436,0.268463854255925],[33.114368298501226,0.268288176000625],[33.113257248820354,0.270688785746975],[33.11329338706336,0.277805612220846],[33.112278414250426,0.281043048779725],[33.11575937938639,0.282411587142153],[33.120978121848,0.282397186574949]]]}},{"type":"Feature","properties":{"n":"Najja","c":"117104","d":"Buikwe","od":"Buikwe","dc":"117","k":"NAJJA","a":["NAJJA"],"lat":0.220224,"lon":33.09925},"geometry":{"type":"Polygon","coordinates":[[[33.0019271799544,0.126211997767635],[33.00377357685644,0.127003685279816],[33.004218980902216,0.128347056339042],[33.0072291021185,0.129035784766992],[33.01215475545004,0.127417273535163],[33.01215475404371,0.123973632945158],[33.010375806525445,0.119668194623368],[33.00924736441709,0.113437931636717],[33.01177903523219,0.11126665262459],[33.026153325905874,0.11618344182864],[33.03069407737856,0.119531066923187],[33.03366977090153,0.123318481762755],[33.03517538999093,0.128037106057228],[33.038457877963026,0.130519706215195],[33.03763247746841,0.131778892759295],[33.033670076889095,0.133684589798659],[33.02156141491376,0.13340921433088],[33.02101416050749,0.134029178895126],[33.024546267449324,0.142047920835028],[33.02652810674264,0.140585939405334],[33.02841154094204,0.14252607180565],[33.03062540092715,0.140606850401118],[33.03394398725639,0.140606399404859],[33.042974361187895,0.137128307746299],[33.04341903323749,0.135131001942087],[33.041537746544655,0.132961229540657],[33.04184637536557,0.131377474703525],[33.04595005804722,0.131859503993639],[33.050602644580124,0.133891651995158],[33.051867325687894,0.135439828615383],[33.05166269009573,0.136611744325544],[33.05569861616593,0.140573181523706],[33.05487821214675,0.141811376145518],[33.04913146161888,0.144359951140818],[33.047530353737876,0.147124190100492],[33.04636592833946,0.147150745840357],[33.04632656141863,0.15042063589973],[33.047250147655205,0.151935956269133],[33.05037437350361,0.152228177335449],[33.0509786063474,0.153451150948643],[33.05535716792126,0.15544865412369],[33.06613144644505,0.163540726575184],[33.069313616470296,0.166227707106999],[33.07659898412889,0.175765854046149],[33.08265344969826,0.179243927398882],[33.086484639221666,0.18279089956004],[33.09294883887925,0.18706041888909],[33.11176238232744,0.210235746286871],[33.11330231601084,0.213026099220742],[33.11361003220213,0.215057532484357],[33.112685564884856,0.216296467818885],[33.10030394971822,0.208755799007722],[33.09879885572988,0.210270924156766],[33.09503656252284,0.210787534386241],[33.09291552715487,0.21071847835698],[33.090589422276224,0.20937571214971],[33.08730457776286,0.209892157337017],[33.079335734278175,0.208687047527022],[33.07622213129635,0.20982295385061],[33.07174298037158,0.209203599136475],[33.07020258021714,0.207550688218387],[33.062506206509376,0.205794464063777],[33.05966695404037,0.207412353534682],[33.05638415048938,0.207439952991888],[33.055425564368484,0.209754670225797],[33.05805902925696,0.210099093507107],[33.060351322443395,0.214197148406975],[33.0608628356622,0.215367876686027],[33.05932548804609,0.216778814172835],[33.0531694912438,0.217089240335743],[33.051594488370355,0.215195643313445],[33.04858435116437,0.214541363225271],[33.04618965600398,0.217124096725444],[33.04225610185938,0.218260624846652],[33.03941709540041,0.222186391842108],[33.03890405779831,0.228763622676575],[33.040101269331984,0.229280161702857],[33.04215484015008,0.228660844357366],[33.045574184696925,0.230692069281031],[33.04567547886785,0.231519553371123],[33.04352190796252,0.233309217798346],[33.044579550773534,0.233793043724765],[33.043658735025794,0.235788633120917],[33.04820815203977,0.235960801665162],[33.04981583473895,0.235203196948948],[33.05032252514683,0.232403719299391],[33.05409114063249,0.232586428742567],[33.05778579693293,0.237751514240206],[33.05851126844255,0.241093809704726],[33.061767086130544,0.242312253713994],[33.06336325490521,0.238747575233245],[33.065556393900984,0.236790706176815],[33.07069298563486,0.236689529092488],[33.07248599567956,0.237941484511733],[33.070593522195026,0.239249864598909],[33.07044384720081,0.242412826776935],[33.06929713123496,0.244470749962609],[33.06829854737189,0.24517341654531],[33.0655569866921,0.244470956863636],[33.0637897780342,0.246752114514212],[33.06213015799004,0.2520082423942],[33.063053723870524,0.254487526339221],[33.06495074758027,0.255770735346465],[33.06065009940244,0.263421689287692],[33.05955604703779,0.269586508982484],[33.05795357780353,0.272562358341827],[33.0580315660449,0.274724225645201],[33.057522335223005,0.274638756428458],[33.056039423385954,0.279616062648253],[33.05721480149203,0.280372322134076],[33.06133228933324,0.279736738637931],[33.06875645467762,0.281661334804835],[33.069146448750395,0.279951115764559],[33.07156075529192,0.280316056567057],[33.07865343926862,0.282294894939133],[33.07974285247213,0.283614286018664],[33.07929193995312,0.284829949872353],[33.07775039802479,0.286318872710836],[33.07327819958242,0.2873032512715],[33.06862773300644,0.289850234064694],[33.05797054107093,0.280995338774854],[33.05800714395533,0.283796430797777],[33.05684283670169,0.286044932655341],[33.05389711299774,0.283972083414393],[33.051406716394546,0.287806280548354],[33.0494079680845,0.292113104220651],[33.04886562808573,0.2954968312610387],[33.04891260145114,0.299167582806738],[33.05157614252191,0.303108321874104],[33.05157600994374,0.30310846467159386],[33.051576017711085,0.30310847322974427],[33.05157615070274,0.303108329997072],[33.05742372623003,0.309551522415863],[33.060507976637155,0.31441936870970216],[33.063987154929286,0.3199104920333811],[33.06591088427136,0.321605264686703],[33.06930142455801,0.32874612945645],[33.07446872901591,0.33656390213021276],[33.075660354664016,0.338366728962702],[33.07823325074349,0.338052101382022],[33.10667308436418,0.342167870811658],[33.110225113055286,0.339826050404167],[33.1199048834168,0.341134959487203],[33.126768697794766,0.343098683666558],[33.13139240086116,0.337473997439799],[33.131778975667714,0.335969439954183],[33.1351495341842,0.333352576214782],[33.14102522489039,0.333643297128159],[33.1419148669239,0.331680626506276],[33.14470976429922,0.331437033899416],[33.14663566296668,0.329352459714495],[33.154788719223696,0.326907069442093],[33.15446365797559,0.3265501938084692],[33.15038288485239,0.32207023346098],[33.1456001408439,0.3199573376597238],[33.1455986661156,0.3199572697666945],[33.13904430526086,0.319657182020477],[33.13904382998578,0.31965550049653446],[33.139043718469225,0.319655495362574],[33.13805125161083,0.3161437567243815],[33.13670290927298,0.3113733195204036],[33.13410994256682,0.30964522859421667],[33.13324868520967,0.309071335723333],[33.133248562932046,0.3090711593910378],[33.13324827542476,0.309070967780893],[33.132812001583595,0.3084416095206059],[33.13211170500424,0.307431736286605],[33.132111732176654,0.30743141754001485],[33.13211144250883,0.307430999672108],[33.13215751886719,0.30689431570554243],[33.132463245252765,0.3033079852538782],[33.13150740310654,0.30423188862009787],[33.130694917734886,0.305018016435464],[33.1263234428026,0.305434447303116],[33.125956174459965,0.301601481761296],[33.12357663502898,0.299649285950463],[33.1237471767351,0.298249926116625],[33.11694189916061,0.298137531889622],[33.116941602649725,0.2981374538804546],[33.11694146069302,0.298137451551939],[33.11694123073907,0.2981373560343331],[33.113971671522854,0.297356093509712],[33.113892831847785,0.2968711209007906],[33.11336308130955,0.296651074651121],[33.11300105387211,0.2913854578629824],[33.1129997055126,0.29137716359452],[33.11366713082042,0.290367888438526],[33.11944912171733,0.287750396317655],[33.119915588185854,0.2861172422100461],[33.120977872228295,0.28239718726374813],[33.11575937938639,0.282411587142153],[33.112278414250426,0.281043048779725],[33.11329338706336,0.277805612220846],[33.113257248820354,0.270688785746975],[33.113258740898345,0.2706855618614681],[33.11396496877675,0.268819155847392],[33.11413620781773,0.2687896469667139],[33.114368298501226,0.268288176000625],[33.11602713681436,0.268463854255925],[33.11788455884499,0.270491491493724],[33.125406559481895,0.272408429932428],[33.12692806120874,0.271544964066859],[33.128160781501606,0.272004601572046],[33.13059619703139,0.26840323612675426],[33.130780684752175,0.268130206533524],[33.13078085005687,0.26813018086484486],[33.130781743350354,0.268128859909042],[33.133540274408595,0.26770144693803655],[33.1339076812616,0.2671690982498877],[33.13550058788565,0.264860589007274],[33.14063071169151,0.260420601013386],[33.14522933285119,0.251673409194532],[33.14931091825165,0.24866146050927232],[33.14962638472749,0.2484286314782938],[33.157136731457115,0.23746111091882094],[33.1639779198813,0.22747075626343],[33.150276412939675,0.211747710521618],[33.14734112926585,0.20601342030779288],[33.1439,0.1994],[33.13187250152516,0.18844093413079097],[33.126969809256074,0.184913031385408],[33.10501053737579,0.16396518507083108],[33.1045,0.1635],[33.091715789194076,0.14482235868070656],[33.08876466481382,0.14171597484896964],[33.05992145681387,0.12083274308276745],[33.059608321810174,0.120643847624613],[33.057538328185956,0.1197793345206229],[33.04632454351992,0.11531559499336615],[33.039038992255655,0.113634730245007],[33.0351788167873,0.111842501300495],[33.028715610370334,0.10830621383673596],[33.0287,0.1083],[33.02869408507747,0.10829443645900579],[33.028692681806035,0.108293668671183],[33.01717977013206,0.099228257015344],[33.01258256728273,0.107300151880638],[33.003188021986496,0.117325835905271],[32.99884488356528,0.120476091881977],[32.99946435045214,0.123422650058246],[33.0019271799544,0.126211997767635]]]}},{"type":"Feature","properties":{"n":"Ngogwe","c":"117105","d":"Buikwe","od":"Buikwe","dc":"117","k":"NGOGWE","a":["NGOGWE"],"lat":0.225583,"lon":32.988633},"geometry":{"type":"Polygon","coordinates":[[[32.8923662634,0.1886576058],[32.8913242452,0.1898902971],[32.892673729,0.1922813685],[32.89484035443552,0.20157203315257347],[32.8949,0.2017],[32.89501871933147,0.2177864694139707],[32.895126951,0.2287848436],[32.89515951235096,0.22888681159451776],[32.896817672220664,0.2313055952576706],[32.9012851414,0.2356344631],[32.90155211356541,0.23821179868716102],[32.90454935561952,0.2425839224174734],[32.9046717586,0.2413802672],[32.9076316169,0.2378071637],[32.9107506138,0.2278232074],[32.9157587193,0.2281602326],[32.919447685,0.221585043],[32.9251146943,0.2236092743],[32.9303119026,0.2217719778],[32.9312169266,0.2182365565],[32.9333851893,0.2154538112],[32.9375776433,0.2128290207],[32.9383080672,0.2142578861],[32.9405661441,0.2210811393],[32.9372463361,0.2275564807],[32.9371297485,0.2327778622],[32.9357385371,0.2327642542],[32.9353053969,0.2340568993],[32.9366545952,0.2369429094],[32.9365132885,0.2407635673],[32.9373076728,0.2408769177],[32.9349006412,0.2468683833],[32.9305834575,0.2503490717],[32.9287334988,0.2546118917],[32.9260623147,0.2570869196],[32.9262922206,0.2590366923],[32.9242063368,0.2605038275],[32.9247509046,0.2644001877],[32.9236682599,0.2671250522],[32.9239975041,0.2689869023],[32.9287469291,0.2669396114],[32.9398496417,0.2686354777],[32.9635625464,0.2540451227],[32.96533753918373,0.25345331951991107],[32.96631215650862,0.25287277701791],[32.96719257760161,0.25283482819704267],[32.968592501,0.2523680775],[32.97273263027878,0.2525960351146008],[32.97273352574243,0.2525959965174],[32.97273389706173,0.25259610486431167],[32.9727339976,0.2525961104],[32.972734600211396,0.2525963100356966],[32.98562501171092,0.256357591166743],[32.990428989308526,0.258458216122918],[32.99330986188479,0.2626407503696347],[32.99350196418959,0.26291957557270285],[32.99350346956556,0.262920731484193],[32.996379798134114,0.2646681473577509],[32.99829576714297,0.2652268281243771],[33.005188215155364,0.2654065626791727],[33.00519190276781,0.265406311346574],[33.00672357061911,0.2665767339854729],[33.0097316701,0.2688753584],[33.00973171851526,0.26887540754960093],[33.00973174596688,0.268875428526734],[33.02074561602228,0.280056089991378],[33.02597554627821,0.28286961773395],[33.027870426284196,0.28338441249034474],[33.0321817128,0.2845555423],[33.03218193315376,0.2845557484702496],[33.032182344497734,0.284555860222826],[33.03522936391874,0.28740666014103156],[33.04248417063392,0.28867031808837723],[33.04453864902407,0.289028134756953],[33.04877170301077,0.29520670938434207],[33.0488636359,0.2953408785],[33.04940652585238,0.2921221024871039],[33.0494079680845,0.292113104220651],[33.051406716394546,0.287806280548354],[33.05389711299774,0.283972083414393],[33.05684283670169,0.286044932655341],[33.057944053746624,0.2839182701585039],[33.05800714079081,0.28379618862791345],[33.05800203476839,0.2834054424095159],[33.0579689221,0.2809982084],[33.0579705967448,0.2809995993034827],[33.05797054107093,0.280995338774854],[33.06862773300644,0.289850234064694],[33.07327819958242,0.2873032512715],[33.07327944515666,0.2873029771073299],[33.07818201225521,0.28590199122790105],[33.07918050318695,0.28493758284888976],[33.07973774212056,0.2836280635684683],[33.07974285247213,0.283614286018664],[33.07865343926862,0.282294894939133],[33.07156075529192,0.280316056567057],[33.069146448750395,0.279951115764559],[33.06875645467762,0.281661334804835],[33.068423066124645,0.2815749091527411],[33.06133222792205,0.2797367481174823],[33.05721480149203,0.280372322134076],[33.05721466421366,0.28037223380669457],[33.0572142613,0.280372296],[33.057092144679686,0.2802934025273908],[33.056039423385954,0.279616062648253],[33.057522335223005,0.274638756428458],[33.0580315660449,0.274724225645201],[33.05801332853816,0.2742186741822004],[33.0579531497,0.2725636427],[33.05795359434418,0.27256281685555295],[33.05795357780353,0.272562358341827],[33.05955604703779,0.269586508982484],[33.06065009940244,0.263421689287692],[33.06065019923658,0.26342151168040245],[33.0606502017,0.2634214978],[33.06071268759206,0.26331034343091625],[33.06495074758027,0.255770735346465],[33.063053723870524,0.254487526339221],[33.063053647932385,0.2544873224856511],[33.0630535921,0.2544872849],[33.0621302924,0.2520091443],[33.06213038485857,0.2520088514157305],[33.06213015799004,0.2520082423942],[33.0637897780342,0.246752114514212],[33.06378989460761,0.24675196403830005],[33.0637900154,0.2467515814],[33.0655556221,0.244471733],[33.06555625915755,0.2444718959836428],[33.0655569866921,0.244470956863636],[33.06829854737189,0.24517341654531],[33.06929707979024,0.24447078616235765],[33.07044385043739,0.2424127583809394],[33.070593522195026,0.239249864598909],[33.072484997400814,0.2379421746815259],[33.07088497562143,0.23682358461819356],[33.07069300530704,0.23668954282844057],[33.07059483837226,0.23669146233039728],[33.065556393900984,0.236790706176815],[33.06336325490521,0.238747575233245],[33.061767086130544,0.242312253713994],[33.0617644746017,0.242311276386031],[33.0617642575,0.2423117604],[33.0585119528,0.241094289],[33.05851190003484,0.2410940460692633],[33.05851126844255,0.241093809704726],[33.05778579693293,0.237751514240206],[33.05409114063249,0.232586428742567],[33.05032252514683,0.232403719299391],[33.04981583473895,0.235203196948948],[33.04820815203977,0.235960801665162],[33.043658735025794,0.235788633120917],[33.044579550773534,0.233793043724765],[33.04352190796252,0.233309217798346],[33.04567547886785,0.231519553371123],[33.04567435280405,0.23151035442244766],[33.045387135941965,0.23058095497599193],[33.04215484015008,0.228660844357366],[33.040101269331984,0.229280161702857],[33.03890405779831,0.228763622676575],[33.03890426022236,0.2287610275653055],[33.0389037,0.2287607848],[33.0390751412,0.2234946484],[33.039364314161354,0.22286305645999474],[33.03941709540041,0.222186391842108],[33.04011765474475,0.22121766112870414],[33.0408883587,0.2195343419],[33.04201400112818,0.21859540078811326],[33.04225610185938,0.218260624846652],[33.042499735332186,0.21819023143577362],[33.0432818242,0.2175378614],[33.04618943016983,0.2171241619760669],[33.04618965600398,0.217124096725444],[33.04858435116437,0.214541363225271],[33.051594488370355,0.215195643313445],[33.0531694912438,0.217089240335743],[33.05932548804609,0.216778814172835],[33.0608628356622,0.215367876686027],[33.060351322443395,0.214197148406975],[33.05805902925696,0.210099093507107],[33.055425564368484,0.209754670225797],[33.05542655014984,0.20975228983968391],[33.0554264481,0.2097522764],[33.05552725271128,0.20950912133413083],[33.05638415048938,0.207439952991888],[33.05966695404037,0.207412353534682],[33.062506206509376,0.205794464063777],[33.06250663383094,0.20579456157365422],[33.0625068631,0.2057944309],[33.06715910373205,0.20685620181218378],[33.07020258021714,0.207550688218387],[33.07174298037158,0.209203599136475],[33.07622213129635,0.20982295385061],[33.079335734278175,0.208687047527022],[33.07933666887858,0.20868718886448512],[33.0793368132,0.2086871362],[33.08730471783521,0.20989213531475967],[33.089990075273306,0.20946994183818468],[33.0905888877,0.2093757417],[33.090588961899726,0.20937578453037367],[33.090589422276224,0.20937571214971],[33.09291552715487,0.21071847835698],[33.09503652964788,0.2107875333159078],[33.09529574076013,0.21075194595087174],[33.09879885572988,0.210270924156766],[33.10030394971822,0.208755799007722],[33.112685564884856,0.216296467818885],[33.11361003220213,0.215057532484357],[33.11360996372203,0.21505708040294577],[33.111763432761286,0.21023764966829456],[33.11176238232744,0.210235746286871],[33.0929489387261,0.187060541884709],[33.0864848908,0.1827910802],[33.08648483624038,0.18279102968832311],[33.086484639221666,0.18279089956004],[33.08265344969826,0.179243927398882],[33.07659898412889,0.175765854046149],[33.070948656375386,0.1683683335787037],[33.06931354611512,0.1662276477000566],[33.06930991799987,0.16622458416951902],[33.05535906104997,0.15545007596689173],[33.05535716792126,0.15544865412369],[33.0509786063474,0.153451150948643],[33.05066297744921,0.15281231474829418],[33.0496946189,0.1544369264],[33.0488387207,0.1610030063],[33.0470477943,0.162433056],[33.0428332919,0.1636884288],[33.0410401262,0.1669456633],[33.0372803218,0.1691543616],[33.0356518997,0.1719136993],[33.0270706759,0.1776281127],[33.0232691727,0.1826998089],[33.0227951692,0.1888192429],[33.0204976177,0.1943677591],[33.0180666605,0.1972718474],[33.0150983406,0.1971926303],[33.0128109285,0.1961248738],[33.0098189063,0.1963449869],[33.0029064685,0.2072370978],[32.9996287988,0.2107305446],[32.9985227547,0.209417601],[32.9923516176,0.206938746],[32.9845321457,0.2048539383],[32.9808748204,0.1993052054],[32.9796591942,0.1986828686],[32.9742897594,0.1983472695],[32.9659876398,0.1936070072],[32.960211723,0.1927038549],[32.9598163048,0.1914773334],[32.9549796961,0.1912701188],[32.9526125978,0.1923060687],[32.9483936662,0.1924097446],[32.9438519918,0.1916227828],[32.9431693133,0.1934844354],[32.9433836434,0.2020280174],[32.9410971941,0.2006429789],[32.9374604528,0.2003214395],[32.9319686309,0.2018245798],[32.9264276718,0.198589469],[32.9276959858,0.192713453],[32.9250196296,0.1868852925],[32.9258556581,0.185260971],[32.9147342098,0.1876537936],[32.910787718,0.1836746016],[32.9084283566,0.1776277967],[32.9047711097,0.1744230103],[32.8944997763,0.1709069464],[32.88333061430512,0.17058560020250443],[32.88695426017303,0.182117005279672],[32.8904251473,0.184205567],[32.8923662634,0.1886576058]]]}},{"type":"Feature","properties":{"n":"Nkokonjeru Town Council","c":"117106","d":"Buikwe","od":"Buikwe","dc":"117","k":"NKOKONJERUTOWNCOUNCIL","a":["NKOKONJERU","NKOKONJERUTOWNCOUNCIL"],"lat":0.241166,"lon":32.921053},"geometry":{"type":"Polygon","coordinates":[[[32.90824706763526,0.265457662420374],[32.908004553717376,0.267928944321613],[32.923997492132344,0.268986901969718],[32.923668258585906,0.267125339194454],[32.92366829461549,0.26712524851337016],[32.9236682599,0.2671250522],[32.9247508774181,0.26440025611303297],[32.92470715393347,0.2640871534813118],[32.9242063368,0.2605038275],[32.926011603113615,0.25923406848749975],[32.92629219272949,0.25903645593743496],[32.9260623147,0.2570869196],[32.92606285216918,0.257086421599423],[32.926062817947304,0.257086131060697],[32.92800467610461,0.25528719390221294],[32.928733403460086,0.254611980038706],[32.92920010196858,0.2535367080653132],[32.9305834575,0.2503490717],[32.930583717449856,0.2503488621178945],[32.930583770114715,0.250348740778214],[32.932976016750594,0.24842009350297276],[32.93490059858506,0.2468684176578956],[32.935052147141384,0.2464912621039247],[32.9373076728,0.2408769177],[32.9365132885,0.2407635673],[32.93665459383813,0.23694294622227452],[32.93605315582671,0.23565639717579215],[32.9353053969,0.2340568993],[32.935319185148344,0.2340157502409698],[32.9357369410853,0.232766719750263],[32.93573770811607,0.2327667281842129],[32.9357385371,0.2327642542],[32.93712870439078,0.23277785198714648],[32.93722283209729,0.22860910863753103],[32.9372463361,0.2275564807],[32.9405661441,0.2210811393],[32.94055614085663,0.22105091240100563],[32.9375915306859,0.21285618739758752],[32.93757783518489,0.21282939606788082],[32.933384985420254,0.21545407285897597],[32.9312169266,0.2182365565],[32.9303119026,0.2217719778],[32.9251146943,0.2236092743],[32.919447685,0.221585043],[32.9157587193,0.2281602326],[32.9107506138,0.2278232074],[32.9076316169,0.2378071637],[32.90756176531632,0.23789148764824689],[32.90745487747718,0.238229058861331],[32.90466410807626,0.24145549896955595],[32.90454935561952,0.24258392241747068],[32.906,0.2447],[32.905212639970976,0.2467914250770941],[32.90528050533397,0.246923032569561],[32.90307971839154,0.25245699802246985],[32.902804899460385,0.25318698580835775],[32.90619613209639,0.258122235889028],[32.90824706763526,0.265457662420374]]]}},{"type":"Feature","properties":{"n":"Ssi","c":"117107","d":"Buikwe","od":"Buikwe","dc":"117","k":"SSI","a":["SSI"],"lat":0.129778,"lon":32.953992},"geometry":{"type":"Polygon","coordinates":[[[32.89890438529405,0.17241472402482022],[32.9047711097,0.1744230103],[32.90533906508896,0.17492070043580743],[32.90842794514676,0.177627294823604],[32.908428028947306,0.1776275095832394],[32.9084283566,0.1776277967],[32.910787718,0.1836746016],[32.91183923974499,0.18473483613931557],[32.91473443262694,0.1876537456579227],[32.9258556581,0.185260971],[32.92501972011279,0.18688511664250707],[32.92607319028465,0.189179576335099],[32.9276959858,0.192713453],[32.92769590144713,0.19271384380133022],[32.92769593880464,0.192713925166039],[32.92763576393669,0.19299245696300035],[32.9264276718,0.198589469],[32.9319686309,0.2018245798],[32.93715628135749,0.20040469281040854],[32.93745979058466,0.200321567705636],[32.93745994505963,0.20032157847118887],[32.9374604528,0.2003214395],[32.937469765255834,0.20032226285289012],[32.939541427862686,0.200466639599535],[32.93966273991918,0.20051615284926308],[32.9410971941,0.2006429789],[32.9433836434,0.2020280174],[32.943177188529525,0.19379835616624158],[32.94316928923338,0.193485123982564],[32.94316932793112,0.19348501862300632],[32.9431693133,0.1934844354],[32.9438519918,0.1916227828],[32.9483936662,0.1924097446],[32.9526125978,0.1923060687],[32.9549796961,0.1912701188],[32.954980322539356,0.19127014563851225],[32.95498048469909,0.191270074684074],[32.959813178595034,0.191477007830577],[32.959813241435036,0.19147720215639824],[32.9598163048,0.1914773334],[32.960211715092356,0.19270383037179822],[32.96308500758323,0.193153136575924],[32.9659876398,0.1936070072],[32.97428972296265,0.19834724869536088],[32.974620259821734,0.19836792635648748],[32.9796591942,0.1986828686],[32.97965982270168,0.1986831903598639],[32.97965982278853,0.198683190365297],[32.97965991234438,0.19868323625222248],[32.9808748204,0.1993052054],[32.98087534735243,0.19930600486903263],[32.98087544999873,0.199306057463281],[32.98244182981981,0.20168260309069097],[32.9845321457,0.2048539383],[32.9923516176,0.206938746],[32.9985227547,0.209417601],[32.9996287988,0.2107305446],[33.002889439794856,0.2072552475469056],[33.002906493869546,0.2072370578245375],[33.0098189063,0.1963449869],[33.0128109285,0.1961248738],[33.01281102651936,0.19612491955511527],[33.01281106924301,0.196124916397687],[33.01633634244024,0.1972256695002489],[33.01787720635898,0.19726679133861177],[33.0204914217539,0.19437516094754434],[33.0204976177,0.1943677591],[33.0227951692,0.1888192429],[33.0232691727,0.1826998089],[33.0270706759,0.1776281127],[33.03400386528619,0.17301115930773642],[33.0356519248111,0.17191365674960143],[33.03690563298226,0.16978926638331854],[33.037279834723684,0.169154996823846],[33.03728000648349,0.16915489589925303],[33.0372803218,0.1691543616],[33.03975375916309,0.16770134002818143],[33.0410402739091,0.16694539499062813],[33.0428332919,0.1636884288],[33.04704727931935,0.16243320939715902],[33.048838752134415,0.16100276514877512],[33.04963604434681,0.15488628497596088],[33.04969447880591,0.154437593863861],[33.04969454676018,0.15443747982539466],[33.0496946189,0.1544369264],[33.05061765787833,0.15288834722920325],[33.05066297171521,0.15281230314263156],[33.05066268387043,0.1528117205417713],[33.047256069752464,0.15193651018605805],[33.047250147655205,0.151935956269133],[33.04632656141863,0.15042063589973],[33.04632656943196,0.1504199702975588],[33.04632643262542,0.150419745745057],[33.04636559050227,0.147154002522559],[33.046365889219,0.14715399525942657],[33.04636592833946,0.147150745840357],[33.047530353737876,0.147124190100492],[33.04913146161888,0.144359951140818],[33.04913193944394,0.14435973923445647],[33.04913195599621,0.144359710657409],[33.049720595411195,0.14409868146420582],[33.05487821214675,0.141811376145518],[33.05489802652017,0.14178147130591054],[33.055698340110446,0.14057291056322715],[33.05166269009573,0.136611744325544],[33.05186727304951,0.1354401300670799],[33.05060256253441,0.13389161615938575],[33.05059936717815,0.13389022049768456],[33.04454337635587,0.13169427148671767],[33.04267939667214,0.13147532356275815],[33.041777152717685,0.13173269656225955],[33.04165413137619,0.13236399095688248],[33.04341701482611,0.13512867401763148],[33.04341903323749,0.135131001942087],[33.04341889503477,0.1351316226986751],[33.04341901316692,0.135131807962176],[33.04334379124539,0.13546896172092987],[33.042974361187895,0.137128307746299],[33.04297350304466,0.13712863826426788],[33.042973494016564,0.137128678729255],[33.040316957336735,0.13815181953421113],[33.03394398725639,0.140606399404859],[33.030625504743924,0.1406068503870093],[33.030554528232834,0.14066829077803672],[33.02841154094204,0.14252607180565],[33.02652810674264,0.140585939405334],[33.024546267449324,0.142047920835028],[33.0245453069811,0.1420457403385287],[33.024544369083955,0.142046431720734],[33.02101517503949,0.134031878211243],[33.02101529119607,0.13403174583324098],[33.02101416050749,0.134029178895126],[33.02156141491376,0.13340921433088],[33.033670076889095,0.133684589798659],[33.037483504528204,0.1318505405610267],[33.03763248535061,0.1317788807346248],[33.03791518556336,0.13134760851438396],[33.038457342908046,0.1305193015442271],[33.03517538999093,0.128037106057228],[33.03517523968891,0.1280366350092931],[33.035175065443354,0.128036503425488],[33.034651730181096,0.1263959513201927],[33.03366986192391,0.12331876702774541],[33.029847929353494,0.11890725247761558],[33.026153325905874,0.11618344182864],[33.01240882285442,0.11148207424448825],[33.01141069228605,0.11158256072111367],[33.009247559587344,0.11343776424960521],[33.0103759366875,0.11966850964374708],[33.01116875311953,0.12158729713664448],[33.01215445959563,0.123972598685069],[33.01215445945576,0.1239729199785025],[33.01215475404371,0.123973632945158],[33.01215475545004,0.127417273535163],[33.0072291021185,0.129035784766992],[33.004218980902216,0.128347056339042],[33.00377359708741,0.12700374629789124],[33.00192764345607,0.126212276306242],[33.00192753005477,0.12621214788167218],[33.0019271799544,0.126211997767635],[32.99946435045214,0.123422650058246],[32.99884488356528,0.120476091881977],[33.00316900437491,0.1173396301569741],[33.003188076651114,0.11732577756820455],[33.01258256728273,0.107300151880638],[33.01662789319657,0.10019725767679866],[33.01717976171907,0.099228248685431],[33.00848507323133,0.089346904420903],[33.0075495261753,0.08863209947453649],[32.96806300542057,0.06088481461986217],[32.96776964381637,0.060707209714371],[32.96694909149062,0.06037366591217351],[32.9399,0.05],[32.9073,0.052],[32.89150806912508,0.06398247386562109],[32.89027800376828,0.065582587842786],[32.88869178020778,0.069059359927256],[32.88453202164276,0.069344400240568],[32.881160317158226,0.08839290379353872],[32.8792,0.0996],[32.8739,0.1131],[32.8691,0.1253],[32.88333061069506,0.1705855887143156],[32.88775236710998,0.17071281775479344],[32.8944997763,0.1709069464],[32.89449983170513,0.17090696536618183],[32.89449988102354,0.170906966785241],[32.89890438529405,0.17241472402482022]]]}},{"type":"Feature","properties":{"n":"Central Division","c":"117201","d":"Buikwe","od":"Buikwe","dc":"117","k":"CENTRALDIVISION","a":["CENTRAL","CENTRALDIVISION"],"lat":0.383165,"lon":32.931997},"geometry":{"type":"Polygon","coordinates":[[[32.91486721822224,0.38388784772426],[32.925022197032646,0.388464623741869],[32.926751547291744,0.387583317377776],[32.92813565458003,0.388501091977695],[32.92831668742953,0.393318637789274],[32.931357594193706,0.398105904267876],[32.932209424360586,0.3987097315220126],[32.9324,0.3987],[32.939884346734516,0.40402124074187834],[32.94735772280555,0.405630870300246],[32.949624343998856,0.4109462098951418],[32.9497,0.411],[32.96997977767402,0.4094853278085793],[32.965012141953906,0.396934996515883],[32.96370596869862,0.395702227845531],[32.95958305186237,0.39516757446486],[32.95635858561349,0.392537865251102],[32.95263320859167,0.387198973998076],[32.949771158662756,0.385296086656288],[32.949916873203804,0.382441168888105],[32.9534500216434,0.377046173040467],[32.95860375467836,0.372813717688065],[32.95770582044859,0.371334504869645],[32.94991038628743,0.366947849338276],[32.94761274168461,0.366778960321089],[32.94381523754523,0.362652354958495],[32.94271087947101,0.363104903084562],[32.941403814187275,0.357188067061877],[32.938243685890576,0.357385105713122],[32.93399290009696,0.355896119802695],[32.933636042254854,0.354614030427948],[32.93070476294951,0.356109764642322],[32.9296073470956,0.357693389087901],[32.93027423833789,0.362347297353875],[32.92585237965578,0.362978801544677],[32.92475188288911,0.366369522148395],[32.92679502580792,0.366108163716268],[32.92889104726747,0.369994782607228],[32.92812401599683,0.371365491381014],[32.92974729965571,0.373432798362007],[32.926660818573154,0.376591089639083],[32.919871023042234,0.377493777927733],[32.91438469535147,0.37467074366603],[32.91086715109834,0.374518792979165],[32.911698865014166,0.380842201003135],[32.91486721822224,0.38388784772426]]]}},{"type":"Feature","properties":{"n":"Kawolo Division","c":"117202","d":"Buikwe","od":"Buikwe","dc":"117","k":"KAWOLODIVISION","a":["KAWOLO","KAWOLODIVISION"],"lat":0.338676,"lon":32.930306},"geometry":{"type":"Polygon","coordinates":[[[32.86467202758412,0.36904336556523837],[32.864520058541466,0.37253865354635207],[32.88016928663928,0.366382094906727],[32.88019337664103,0.3664027843419874],[32.8802,0.3664],[32.88034277641622,0.3665310947094345],[32.88416849858894,0.369816774471149],[32.88604208736444,0.36994605722697],[32.886276208460124,0.368716493303049],[32.89234177439587,0.370573721713362],[32.89104874257087,0.373222465327556],[32.8914807489308,0.3766094444984507],[32.89865202629218,0.37940502719864766],[32.89958090335225,0.37959116450598],[32.908907990227505,0.383391624998326],[32.909830894018945,0.387817912917031],[32.908928133288065,0.399893430039651],[32.90910249129231,0.3998896600191164],[32.923211425598794,0.39916920379921056],[32.92331761022475,0.399050712099857],[32.932018801428505,0.398663209333555],[32.93189821838784,0.3984891304499957],[32.931357594193706,0.398105904267876],[32.92831699314049,0.3933191190667161],[32.92831683236895,0.393318886969981],[32.928316831530005,0.39331886464508287],[32.92831668742953,0.393318637789274],[32.92813565458003,0.388501091977695],[32.92675227216133,0.3875837980246901],[32.926492806878024,0.38771517590213067],[32.925022197032646,0.388464623741869],[32.91486721822224,0.38388784772426],[32.911698865014166,0.380842201003135],[32.91103016291573,0.37575814970323185],[32.91086728678423,0.374521385784813],[32.910867493280804,0.37452139454602],[32.91086715109834,0.374518792979165],[32.914226565710244,0.3746639127903197],[32.91438391768266,0.374670588897286],[32.91438417476664,0.37467072117783445],[32.91438469535147,0.37467074366603],[32.91987100318612,0.3774937677106064],[32.92080298955142,0.377369875042967],[32.926660818573154,0.376591089639083],[32.92974729965571,0.373432798362007],[32.92812401599683,0.371365491381014],[32.92889104726747,0.369994782607228],[32.92679502580792,0.366108163716268],[32.92475188288911,0.366369522148395],[32.92585237965578,0.362978801544677],[32.92670827921815,0.3628565669371512],[32.930273911804164,0.3623450186345232],[32.92965726633481,0.3580417510774882],[32.929607314144306,0.357694765158825],[32.9296075048205,0.35769448977298435],[32.9296073470956,0.357693389087901],[32.93070476294951,0.356109764642322],[32.933636042254854,0.354614030427948],[32.93399290009696,0.355896119802695],[32.93824321723736,0.35738494155099404],[32.938277390922885,0.35738300415474117],[32.941403814187275,0.357188067061877],[32.94271087947101,0.363104903084562],[32.94381523754523,0.362652354958495],[32.94761274168461,0.366778960321089],[32.94991038628743,0.366947849338276],[32.95770582044859,0.371334504869645],[32.95860375467836,0.372813717688065],[32.9534500216434,0.377046173040467],[32.951334383366785,0.3802766797436462],[32.94991687158672,0.3824412005708433],[32.949771158662756,0.385296086656288],[32.95263320859167,0.387198973998076],[32.95635858561349,0.392537865251102],[32.95958305186237,0.39516757446486],[32.96370596869862,0.395702227845531],[32.965012141953906,0.396934996515883],[32.969917495372755,0.40932797659391285],[32.96997978177369,0.4094853275023801],[32.9738,0.4092],[32.97377607558713,0.4092444478062607],[32.97380821018861,0.409239830024944],[32.97952338116971,0.395394276876806],[32.981052468653544,0.394401066102979],[32.98312104980389,0.39018958099355],[32.98245095476713,0.390042770677063],[32.98279459498449,0.388948943042661],[32.98337982074126,0.387846339715679],[32.984258361326624,0.388003931355947],[32.98570695595447,0.384895035716409],[32.9841966932965,0.383251348420433],[32.97762833419214,0.381392015236178],[32.97766538827875,0.379286636540099],[32.97879739650206,0.379254195846085],[32.98196236784856,0.368385001343412],[32.97458952305722,0.368541301627992],[32.97181991703794,0.370193381868486],[32.96899424871016,0.370737170786666],[32.967308219981696,0.363175165980954],[32.969252021795704,0.361377013883215],[32.96992082116066,0.361790147838222],[32.970423800891034,0.360325536690682],[32.968824138905376,0.352267909879114],[32.97132630265537,0.349200559678687],[32.98191916310778,0.34554427013183],[32.98956262405462,0.337860926238006],[32.98773736747578,0.335351973731876],[32.98384037033687,0.329995299972516],[32.97615722479032,0.323832288483534],[32.977971282547976,0.32181246211735387],[32.97808546036814,0.3193390098951567],[32.97498219910211,0.31330809536139],[32.97234165101099,0.312024237173033],[32.964066971722545,0.310392634973772],[32.963350957247854,0.3091212823724639],[32.96102980834901,0.3103284374836339],[32.960894349155105,0.310398950925426],[32.96016685444357,0.311728987504467],[32.95727244552009,0.309459818196635],[32.95405890470865,0.309038178441999],[32.95405842404422,0.3090378305192236],[32.95405828624676,0.3090378124404],[32.952885924869705,0.30818913204721105],[32.94965561138378,0.305850911109233],[32.94959136666998,0.3048051451561],[32.95149283076874,0.30285930846854725],[32.95151503978139,0.3028365575748146],[32.950730319225585,0.301568280150184],[32.95154381781943,0.299800293456169],[32.95153092379848,0.295930336191177],[32.95671918222478,0.292028017575738],[32.956330503288804,0.28582153746167344],[32.95629507502006,0.2852576477745136],[32.9562936920759,0.2852559379491424],[32.954956488856176,0.284397615014239],[32.95047673501913,0.27806409371013646],[32.94471829796266,0.27601209421324],[32.944718169351866,0.2760118993518601],[32.94471815822893,0.276011895388235],[32.939849638228125,0.268635489234069],[32.92874686009614,0.26693964114485785],[32.92873748706896,0.2669436814893754],[32.924316632031605,0.269014578951715],[32.922343631741064,0.2688774965431197],[32.908004553717376,0.267928944321613],[32.9080053363671,0.2679209689109094],[32.90785431460535,0.26803950063733195],[32.89590181460098,0.279484583188685],[32.89543420392055,0.280033960303068],[32.89454697491523,0.28078190609532155],[32.886916519144215,0.2880884274232264],[32.88684617852686,0.288176709404449],[32.88415292814963,0.296916154447052],[32.881417893711436,0.29946784002427],[32.87581532634902,0.3076193337758393],[32.8756,0.308],[32.8731,0.3243],[32.87322657189966,0.32452926230881357],[32.87682558954797,0.32952290047948],[32.87831350952351,0.333743338004848],[32.8784,0.3339],[32.87837514024154,0.33391815156966875],[32.878376081756954,0.333920822148095],[32.874723385667984,0.338045425642268],[32.872497334535694,0.3382098827199715],[32.871221604665806,0.3391413680217915],[32.86819276871639,0.343065813145678],[32.86579912700624,0.3431200788564715],[32.86479111395703,0.36630437898816565],[32.86551703650757,0.367982992713796],[32.86467202758412,0.36904336556523837]]]}},{"type":"Feature","properties":{"n":"Najjembe Division","c":"117203","d":"Buikwe","od":"Buikwe","dc":"117","k":"NAJJEMBEDIVISION","a":["NAJJEMBE","NAJJEMBEDIVISION"],"lat":0.42263,"lon":33.035384},"geometry":{"type":"Polygon","coordinates":[[[32.954029311905565,0.470133557271237],[32.96115178961892,0.464812778521671],[32.96844074944839,0.46334045327074],[32.976184963933065,0.470163702075633],[32.97860096360276,0.475486587461533],[32.98136210054053,0.478349649390259],[32.98579353090537,0.481031978311417],[32.98863750226451,0.483894898054285],[32.99831526663789,0.483130493946929],[33.00339556060988,0.48071246355513],[33.00582529163167,0.48126818435776],[33.0076899991051,0.478474311235808],[33.014757294790904,0.476028675290683],[33.018139735851925,0.473985612402769],[33.0210112500133,0.469093511050039],[33.02008638897961,0.463299322839424],[33.020403826505614,0.455167403001696],[33.02113545428255,0.449594894059912],[33.02291632776035,0.446189603135076],[33.023390821236255,0.442351733971002],[33.03239122671041,0.47377312993876],[33.03580470029589,0.474700352911248],[33.039762931180626,0.480708522220953],[33.04118035746944,0.481970790975859],[33.04403821730343,0.482737524799155],[33.04513706721027,0.484421739399333],[33.0456368985329,0.48751771950907],[33.04701680467304,0.488559571399726],[33.053333159412645,0.485284171193187],[33.057575133814616,0.48778878926527],[33.060555372308166,0.491866157876929],[33.061117573657775,0.500808128093755],[33.06039697920188,0.5076276103934625],[33.06720124761536,0.5105303487533419],[33.06944546626954,0.509715522560383],[33.06674052297896,0.503581722353723],[33.06640334563356,0.500410494254927],[33.07253167135733,0.494354707706619],[33.0745558938882,0.487731796091803],[33.08169650881701,0.473297882296011],[33.08450768865727,0.469618865874694],[33.08555326598642,0.469219141188401],[33.0901764684783,0.472345077819041],[33.09304832908201,0.473345879756394],[33.0969119772424,0.476485199328655],[33.09505638699578,0.482091565146532],[33.10373755913369,0.481929053046559],[33.105492697034684,0.465929573497575],[33.11012464781259,0.446505433895497],[33.105534021340034,0.443288184390076],[33.105005723478946,0.439573601780754],[33.10357163982322,0.437862789627599],[33.093374348813036,0.43883639773119],[33.08608291362966,0.438325869374737],[33.0881877010783,0.433153332994643],[33.0908110464974,0.430595631385753],[33.09503540218488,0.428955515525656],[33.10417442212034,0.420783385431576],[33.10519598700292,0.418643086697102],[33.1046443694433,0.41553109413209],[33.10520951543216,0.414849553513854],[33.11455796142887,0.413735773857591],[33.11886371278414,0.417984556272459],[33.12440625211914,0.412610516998856],[33.12656844114424,0.411912044929557],[33.12815738112868,0.409168411828084],[33.12706285833441,0.408816479678427],[33.12895709680603,0.403269473221286],[33.125749506947734,0.404530011382178],[33.12289709635571,0.401239317480602],[33.12103186358514,0.406390224528175],[33.10690222244258,0.389188044969847],[33.106323368000425,0.383950239451949],[33.10507115199484,0.382301755817977],[33.10362120671144,0.38167587135459],[33.10303131764949,0.380402630347813],[33.0996427545008,0.379290805432432],[33.09893866819107,0.373074832621378],[33.09641984209039,0.373421296791242],[33.09622575331891,0.372562327825173],[33.09707098663048,0.372271296307445],[33.09550033516623,0.370469049822306],[33.09854105763854,0.368607605253786],[33.09845136079362,0.367129323836154],[33.10275886293974,0.365815746353587],[33.10391478359088,0.364652096733963],[33.10719038084123,0.359366322181727],[33.11051335485474,0.356651333737788],[33.11461731622472,0.35001837605603],[33.10283522538775,0.349543475299455],[33.104853717007764,0.343342220089625],[33.10667307417884,0.342167881452012],[33.0774441702892,0.33814859438703515],[33.07636845777239,0.3382801383033915],[33.07215647838282,0.3408498232191472],[33.072155868675175,0.340850255301552],[33.07215564506999,0.3408503316146583],[33.07215564476142,0.340850331802912],[33.07214799089211,0.34085294387113174],[33.06619077272814,0.342886053365291],[33.050850226505176,0.350493494542378],[33.04655315360121,0.3506471991772475],[33.04318412473479,0.3568049919869073],[33.041347314371436,0.36016231026029577],[33.04145165423936,0.36105423080355303],[33.04167188830252,0.362935432086747],[33.03151390183902,0.369383882790853],[33.028908782984836,0.3657197279678465],[33.02745935128495,0.36526000716238216],[33.02654809694178,0.364971053874282],[33.02328071918203,0.365329226728757],[33.02237489891621,0.360932591246643],[33.024218555551954,0.35492768861570145],[33.024299634285676,0.3546635940895212],[33.02596435167119,0.344074121196465],[33.023038324275404,0.344050573560471],[33.015729547814395,0.35205296611155135],[33.01568963040637,0.352096684868358],[33.015689598796854,0.3520967063630285],[33.01568954640805,0.352096763723625],[33.01022281581809,0.355814642920534],[33.009127314388124,0.344013700994567],[33.0091266686329,0.3440122258751746],[33.005043159912795,0.3358539842581188],[33.00399633726951,0.334826863553025],[33.004200369085886,0.33417021383669354],[33.00420036177986,0.334170199240339],[32.994373561883286,0.3341166365571575],[32.989820001311635,0.3376606118851337],[32.98194236585018,0.345520946319441],[32.98191916310778,0.34554427013183],[32.981918899518696,0.34554436111367737],[32.98191888686719,0.345544373737399],[32.97132628819674,0.3492005774032169],[32.969235869793046,0.3517631775965757],[32.96882415061066,0.3522679688395695],[32.970423800891034,0.360325536690682],[32.970423613797685,0.36032608148202777],[32.970423623361,0.36032612964939],[32.970399825351244,0.36039535032476827],[32.96992082116066,0.361790147838222],[32.969252150940584,0.3613770936592089],[32.96907210894675,0.3615434458025786],[32.967308219981696,0.363175165980954],[32.96899424871016,0.370737170786666],[32.97181991703794,0.370193381868486],[32.97458952305722,0.368541301627992],[32.98196236784856,0.368385001343412],[32.97879739650206,0.379254195846085],[32.97766538827875,0.379286636540099],[32.97764101494342,0.3806715067566219],[32.97762842001207,0.3813920395295868],[32.9841966932965,0.383251348420433],[32.98570695595447,0.384895035716409],[32.984258361326624,0.388003931355947],[32.98337982074126,0.387846339715679],[32.982798081646195,0.3889423739456037],[32.98279458938237,0.38894896087453823],[32.98245095476713,0.390042770677063],[32.98312104980389,0.39018958099355],[32.981052468653544,0.394401066102979],[32.97952338116971,0.395394276876806],[32.97380821018861,0.409239830024944],[32.97377607558713,0.4092444478062607],[32.9738,0.4092],[32.97149625674743,0.4134799935917883],[32.97005346928603,0.416730889120959],[32.96822124587944,0.424475753019363],[32.96310442357091,0.4290707032677638],[32.95356258656218,0.4467979396712465],[32.953407106921226,0.447093562956125],[32.95340090781655,0.44709831341925643],[32.9534,0.4471],[32.95146243948613,0.45581902231240234],[32.951574732900184,0.455987146610006],[32.95157499344225,0.457741930169997],[32.94968090527915,0.46383592624381237],[32.9496,0.4642],[32.95165965249468,0.4669618067542392],[32.95230465851348,0.467394766131003],[32.954029311905565,0.470133557271237]]]}},{"type":"Feature","properties":{"n":"Njeru Division","c":"117301","d":"Buikwe","od":"Buikwe","dc":"117","k":"NJERUDIVISION","a":["NJERU","NJERUDIVISION"],"lat":0.420122,"lon":33.165299},"geometry":{"type":"Polygon","coordinates":[[[33.12782974821691,0.439357945447277],[33.13469061033174,0.43578825497056],[33.143364860224146,0.437991480808596],[33.14310581344027,0.444923643021622],[33.14849156203442,0.440249553148707],[33.15055657393311,0.440930924200164],[33.15334856723225,0.444103034726671],[33.153991248149346,0.452402229738168],[33.16037785049662,0.454892418228148],[33.1597386948553,0.455828978808409],[33.162384114887715,0.457192007528669],[33.163285275144254,0.460238650076517],[33.164360295986384,0.460930964293261],[33.16654980801506,0.460769439961058],[33.16804454944706,0.462690578247598],[33.16929968090757,0.4633106456013622],[33.1748,0.4557],[33.1814,0.4525],[33.18383607689223,0.447803419324896],[33.18423936052149,0.445943055990138],[33.18495078103362,0.44565435007931636],[33.1925,0.4311],[33.1958,0.4149],[33.196506361751766,0.41441707921052645],[33.196894627359576,0.413124383645242],[33.191865540329594,0.412505365460163],[33.194351268501386,0.408606556814315],[33.195005522206245,0.403843135433753],[33.19675989611369,0.401071355869181],[33.19352611747072,0.397681749745038],[33.19980504889812,0.39442523802679],[33.20349268101005,0.395020145929017],[33.20407802710487,0.391151154564316],[33.201593876989854,0.390680021414417],[33.199468774121286,0.39152022242003],[33.20009647552318,0.3888257509721],[33.18885441665087,0.390156892628916],[33.182603622262015,0.391772380161266],[33.17889426909214,0.395175451288535],[33.176746679217565,0.392269515096748],[33.168200058982265,0.385379884899343],[33.1625451291553,0.376204302820602],[33.16171195567146,0.380131887647854],[33.159372684429,0.379428051712099],[33.15961953372684,0.380630438941509],[33.15745981974195,0.381348006255971],[33.157541159425584,0.382301629977989],[33.15590113609744,0.383981957359009],[33.154879963063195,0.387703106068285],[33.15577996992759,0.388120977356014],[33.152436908813,0.399558690045198],[33.13865651979597,0.400157485709533],[33.13597776815036,0.402365997046561],[33.13326025722613,0.410608458679782],[33.13609450610726,0.413313129815688],[33.133880503606115,0.414226234756951],[33.13604309830685,0.418911215950406],[33.135682235869645,0.421332788879217],[33.13013599505262,0.432166264943412],[33.12646206110965,0.434936125197846],[33.12670207137039,0.437781132838381],[33.12782974821691,0.439357945447277]]]}},{"type":"Feature","properties":{"n":"Nyenga Division","c":"117302","d":"Buikwe","od":"Buikwe","dc":"117","k":"NYENGADIVISION","a":["NYENGA","NYENGADIVISION"],"lat":0.367868,"lon":33.194343},"geometry":{"type":"Polygon","coordinates":[[[33.10302964957567,0.380401991281794],[33.10302969979639,0.38040209951238013],[33.10303131764949,0.380402630347813],[33.10362120671144,0.38167587135459],[33.10507115199484,0.382301755817977],[33.106323368000425,0.383950239451949],[33.106902209516996,0.3891879280117771],[33.12103189623759,0.4063901343572664],[33.12287121599553,0.40131078702141754],[33.122895545648596,0.401243310694111],[33.122895619529444,0.40124339578918294],[33.12289709635571,0.401239317480602],[33.125749506947734,0.404530011382178],[33.12895709680603,0.403269473221286],[33.12706285833441,0.408816479678427],[33.12815738112868,0.409168411828084],[33.12656844114424,0.411912044929557],[33.12440625310227,0.412610516681264],[33.1172309440594,0.42005616043253],[33.125519791846074,0.42596435672274],[33.131905072380626,0.428160597856366],[33.132368862705704,0.4278048029960821],[33.135682202504874,0.4213328540506422],[33.135682239112526,0.4213327671178097],[33.13604309830685,0.418911215950406],[33.133880503606115,0.414226234756951],[33.13609450610726,0.413313129815688],[33.13326025722613,0.410608458679782],[33.13597776815036,0.402365997046561],[33.13865651979597,0.400157485709533],[33.138656984125134,0.40015746553315873],[33.13865705951679,0.400157403379232],[33.13900172185148,0.4001424857342855],[33.152436472649356,0.3995587089977035],[33.15293373793099,0.3978588740644807],[33.15577996992759,0.388120977356014],[33.154879963063195,0.387703106068285],[33.15590113609744,0.383981957359009],[33.157541159425584,0.382301629977989],[33.15748458446765,0.3816383470692829],[33.15745899251581,0.38134902238044],[33.1574598811555,0.3813487262663504],[33.15745981974195,0.381348006255971],[33.15822265867672,0.38109455219232213],[33.159619273180816,0.3806291698383897],[33.159481605960494,0.3799586015642605],[33.159370896548765,0.379431114360586],[33.15937347241681,0.37943188995058064],[33.159372684429,0.379428051712099],[33.16171061341258,0.3801314837912951],[33.16212861009207,0.37816777619647374],[33.1625451291553,0.376204302820602],[33.16810482288754,0.38522535661504015],[33.168200089301145,0.3853799093401021],[33.176746679217565,0.392269515096748],[33.17889426909214,0.395175451288535],[33.182603622262015,0.391772380161266],[33.18726404797165,0.39056791571066896],[33.18884966976454,0.390157678951805],[33.18885281350263,0.3901573069548139],[33.18885441665087,0.390156892628916],[33.20009647552318,0.3888257509721],[33.199468774121286,0.39152022242003],[33.20153429240125,0.3907035793475442],[33.20159363711767,0.390680079732386],[33.201593699494374,0.3906800915907286],[33.201593876989854,0.390680021414417],[33.20407802710487,0.391151154564316],[33.20349268101005,0.395020145929017],[33.20010730682309,0.39447399983995873],[33.19980484177565,0.3944253454490103],[33.19352611747072,0.397681749745038],[33.19675989611369,0.401071355869181],[33.195005522206245,0.403843135433753],[33.194351268501386,0.408606556814315],[33.191865540329594,0.412505365460163],[33.19683832114627,0.4131174530493378],[33.19992623029436,0.410096743045996],[33.20555401854675,0.408151596273648],[33.223699228723255,0.405319215555267],[33.24474831386022,0.4032105090178149],[33.2464,0.403],[33.281977808658496,0.3889875111149503],[33.28217760735374,0.388869491239057],[33.282346577234726,0.38869153459950045],[33.29113205855955,0.37619662782642294],[33.291160648785656,0.376125290909809],[33.28909014263007,0.35850041973833],[33.25165836092463,0.334513803450545],[33.22856323588103,0.322319555621047],[33.22759234987812,0.321649271303583],[33.20533967617776,0.3072787541623109],[33.19043849491669,0.319880652786817],[33.19025473300598,0.318869954318254],[33.19012979703091,0.31881335526051674],[33.18752010031851,0.31763115309202894],[33.18273065111066,0.317952370353263],[33.18172725164363,0.316758603769723],[33.18277206502037,0.315245508424909],[33.18168324010643,0.3151058700804059],[33.18168323755884,0.31510586975985094],[33.17889877388814,0.3150600682158075],[33.17754626176354,0.31554883667837286],[33.17534191994039,0.316345485872584],[33.175341818236795,0.3163454746188239],[33.17534177042859,0.31634549189567],[33.173622224210234,0.31615519718277363],[33.16994943134062,0.315748793345834],[33.16532578737429,0.3172435271661881],[33.16526292048057,0.317263854747099],[33.16526291283914,0.3172638532758153],[33.16526263821217,0.317263942057352],[33.162820196783755,0.316793998027578],[33.16281036450352,0.3168042762097151],[33.16136263938848,0.3185692766874141],[33.161523155008325,0.320953196898895],[33.16141123573541,0.321117697187061],[33.161427691358746,0.321272343535996],[33.161050293901745,0.32164821381838826],[33.16051693910459,0.322432145089019],[33.15934004466628,0.32335154236808344],[33.157915649747174,0.324770173338024],[33.1547958332091,0.3269015087144434],[33.154788726237236,0.326907060725209],[33.154788334987664,0.326906631203028],[33.154788325781155,0.32690663749255205],[33.154788719223696,0.326907069442093],[33.154786890705715,0.3269076178793842],[33.15478675389871,0.326907711340521],[33.15330785756097,0.32735123229227425],[33.14663601064112,0.32935235543462016],[33.146036212563835,0.33000129906208236],[33.14470976429922,0.331437033899416],[33.14191577892728,0.3316805470195361],[33.141598652778754,0.3323782376684334],[33.14102522489039,0.333643297128159],[33.1351495341842,0.333352576214782],[33.13349050977533,0.3346406241145944],[33.13177884581445,0.3359699453458699],[33.13139240086116,0.337473997439799],[33.126768697794766,0.343098683666558],[33.11990492303291,0.3411349708212961],[33.1096615100703,0.3401976287574772],[33.10667308436418,0.342167870811658],[33.106435473919404,0.34213348418978695],[33.106433560258296,0.34213494572488484],[33.10667307417884,0.342167881452012],[33.104853717007764,0.343342220089625],[33.10283522538775,0.349543475299455],[33.11461731622472,0.35001837605603],[33.11051335485474,0.356651333737788],[33.10966020750373,0.3573483855924046],[33.10719027192526,0.3593664979375389],[33.10391478359088,0.364652096733963],[33.1039146547076,0.3646522264790114],[33.10391465469559,0.364652226498386],[33.10391463652725,0.3646522447809201],[33.10275886293974,0.365815746353587],[33.10275820188367,0.36581594794335764],[33.10275806832095,0.365816082345551],[33.10219183104562,0.3659886633488063],[33.09845136079362,0.367129323836154],[33.09854105763854,0.368607605253786],[33.09550033516623,0.370469049822306],[33.09707098663048,0.372271296307445],[33.09622575331891,0.372562327825173],[33.09641984209039,0.373421296791242],[33.09893866819107,0.373074832621378],[33.09964273890738,0.37929066776709774],[33.10302964957567,0.380401991281794]]]}},{"type":"Feature","properties":{"n":"Wakisi Division","c":"117303","d":"Buikwe","od":"Buikwe","dc":"117","k":"WAKISIDIVISION","a":["WAKISI","WAKISIDIVISION"],"lat":0.497626,"lon":33.009655},"geometry":{"type":"MultiPolygon","coordinates":[[[[33.06674091056128,0.503582601245535],[33.06916464667022,0.5090787286866015],[33.075085104269995,0.513880943469029],[33.07508764629424,0.5138947298411233],[33.0751,0.5139],[33.076292107512145,0.5179109450669034],[33.07782918679117,0.519203694815311],[33.077929531964664,0.522441114972696],[33.077725302670494,0.522733049610114],[33.08355208217823,0.5423377348288322],[33.08403161082664,0.542913274347687],[33.08438245337099,0.5451315879044831],[33.0847,0.5462],[33.106951595287214,0.5280095323697694],[33.10769547533122,0.526441388850373],[33.109995405863344,0.5255212461573407],[33.1373,0.5032],[33.138351392957404,0.5021000812137939],[33.13798886865603,0.50121171850376],[33.13919909919756,0.49688904872979],[33.14143646847892,0.496174146183477],[33.14367367476234,0.493080746827183],[33.14988738211448,0.4900316617879333],[33.1503,0.4896],[33.169299680907564,0.4633106456013603],[33.16804454944706,0.462690578247598],[33.16654980801506,0.460769439961058],[33.164360295986384,0.460930964293261],[33.163285275144254,0.460238650076517],[33.16328483391038,0.46023715835306306],[33.16328445542861,0.460236914616812],[33.16315112776454,0.4597851246222452],[33.16238436491523,0.4571928528216795],[33.1615124668035,0.456742898745117],[33.1597386948553,0.455828978808409],[33.16037785049662,0.454892418228148],[33.153991248149346,0.452402229738168],[33.15334856723225,0.444103034726671],[33.1505568185799,0.44093120215450665],[33.14990865251574,0.4407171361354578],[33.148491638388954,0.44024957834263834],[33.148426634159485,0.4403059016242091],[33.14310581344027,0.444923643021622],[33.14334602266534,0.4384955789927381],[33.14286846175056,0.43786539752110387],[33.13469061033174,0.43578825497056],[33.12782974821691,0.439357945447277],[33.12774677302676,0.43924192255786015],[33.12765739537163,0.439286381862452],[33.12670424916903,0.43778417801960445],[33.12670207137039,0.437781132838381],[33.12646206110965,0.434936125197846],[33.129282572052624,0.4328096794643588],[33.13013642355302,0.4321654279532752],[33.13014010892903,0.4321582293057447],[33.131905065433855,0.428160609612643],[33.13127211747152,0.42794289064685764],[33.125519791846074,0.42596435672274],[33.1172309440594,0.42005616043253],[33.11726374550025,0.4200221231748106],[33.118863705399214,0.41798456531191],[33.118780210870916,0.41790215916420786],[33.11455796142887,0.413735773857591],[33.10520951543216,0.414849553513854],[33.1046443694433,0.41553109413209],[33.10519598700292,0.418643086697102],[33.10485916866801,0.41934876077444555],[33.10489154003827,0.419922608028611],[33.10434712727713,0.4204215477893308],[33.10417442212034,0.420783385431576],[33.09503540218488,0.428955515525656],[33.095034333011945,0.4289559306345187],[33.090033988374294,0.4313532452314927],[33.08954545834268,0.431829550806334],[33.087692531382515,0.4343702175154124],[33.08608291362966,0.438325869374737],[33.0933743012128,0.4388363943983383],[33.093600322594206,0.4388148224025731],[33.10357163982322,0.437862789627599],[33.105005723478946,0.439573601780754],[33.10500575266744,0.43957380701167187],[33.10500577879832,0.43957383817264],[33.10501584978748,0.43964480216285595],[33.105534021340034,0.443288184390076],[33.11012464781259,0.446505433895497],[33.105492697034684,0.465929573497575],[33.10373755913369,0.481929053046559],[33.09505638699578,0.482091565146532],[33.096911949288334,0.4764852837873429],[33.093048192946235,0.4733458323150426],[33.0901764684783,0.472345077819041],[33.08904983195456,0.47158331270381076],[33.08555318783471,0.469219171065835],[33.08450768865727,0.469618865874694],[33.08169650881701,0.473297882296011],[33.0745558938882,0.487731796091803],[33.07253167135733,0.494354707706619],[33.07029391557973,0.49656597583223827],[33.0664033984988,0.500410991464269],[33.06674051203265,0.5035816194012631],[33.06674091056128,0.503582601245535]]],[[[32.96140797625771,0.507674876669579],[32.96221228688692,0.5089248770517006],[32.974,0.5267],[32.97439934974235,0.5278651131658325],[32.97663726697002,0.531343119408914],[32.97920211318208,0.537956719715144],[32.97980523757736,0.5436369302514809],[32.98369052060517,0.5549723436212713],[32.99516867346901,0.55008894779152],[33.0069583533481,0.538934093897301],[33.01277340910914,0.5368302829175888],[33.02445528109133,0.5280092775432816],[33.02458031229068,0.527895762346502],[33.02496835010776,0.5272694345612863],[33.0364,0.5077],[33.03824225654356,0.5073620712849093],[33.038664282500804,0.506162488074831],[33.04129721544528,0.504408476382144],[33.04666020065401,0.503712124967589],[33.05329102578643,0.504598664584718],[33.053295414335054,0.504600841157475],[33.0533,0.5046],[33.0603970257691,0.5076276302592945],[33.0603970257691,0.5076276302592931],[33.06039697920188,0.5076276103934625],[33.06087653917436,0.5030892036416538],[33.061117564532445,0.5008079829527896],[33.060833593328645,0.49629134127524516],[33.06055534072621,0.4918661146685491],[33.057575133814616,0.48778878926527],[33.053333159412645,0.485284171193187],[33.04701680467304,0.488559571399726],[33.0456368985329,0.48751771950907],[33.045636799277354,0.48751710471526427],[33.04563660028389,0.487516954397521],[33.04547223968279,0.4864978143895939],[33.04513706721027,0.484421739399333],[33.04403821730343,0.482737524799155],[33.04118035746944,0.481970790975859],[33.039762931180626,0.480708522220953],[33.039762913410776,0.48070849524822723],[33.03976286073975,0.480708448353834],[33.039637042170746,0.48051743622632653],[33.03580473430808,0.47470040453809903],[33.03571485629899,0.47467594802989005],[33.03239122671041,0.47377312993876],[33.023390821236255,0.442351733971002],[33.022916983872534,0.44618429627028827],[33.02291639493333,0.446189144149242],[33.0229163812788,0.44618917025917054],[33.02291632776035,0.446189603135076],[33.02113545428255,0.449594894059912],[33.020403826505614,0.455167403001696],[33.020086404899104,0.46329891502347675],[33.02035532520995,0.4649841890825613],[33.0210112500133,0.469093511050039],[33.018139735851925,0.473985612402769],[33.01813918357825,0.4739859459872511],[33.018139139595476,0.473986020910415],[33.015964684477304,0.4752993874730895],[33.014757294790904,0.476028675290683],[33.014757190698056,0.47602871131198676],[33.01475717710819,0.476028719520242],[33.00768995609373,0.47847437567932544],[33.00582529163167,0.48126818435776],[33.00339556060988,0.48071246355513],[32.99907701043405,0.48276793231958165],[32.99831540636213,0.483130462688785],[32.998315317577394,0.48313046970162526],[32.99831526663789,0.483130493946929],[32.98863750226451,0.483894898054285],[32.98579353090537,0.481031978311417],[32.982274614119916,0.47890199059014854],[32.98136216329147,0.478349710854828],[32.98136210889497,0.47834965444717403],[32.98136210054053,0.478349649390259],[32.97860096360276,0.475486587461533],[32.976184963933065,0.470163702075633],[32.96844074944839,0.46334045327074],[32.96115178961892,0.464812778521671],[32.954186950937135,0.4700157945427241],[32.95402931344672,0.470133568602173],[32.95402003989064,0.47031853023608755],[32.9561,0.493],[32.95614388372379,0.4931217152339079],[32.9590584395991,0.498959913187124],[32.96140797625771,0.507674876669579]]]]}}]}
