{"type":"FeatureCollection","name":"Bukedea sub-counties","metadata":{"source":"Uganda Bureau of Statistics NPHC 2024 Map Explorer","retrieved":"2026-07-26","display_only":true,"clipped_to_dashboard_district":true,"positive_area_overlaps_removed":true,"source_gap_ratio":0.00417586},"features":[{"type":"Feature","properties":{"n":"Aminit","c":"219101","d":"Bukedea","od":"Bukedea","dc":"219","k":"AMINIT","a":["AMINIT"],"lat":1.277168,"lon":34.206079},"geometry":{"type":"MultiPolygon","coordinates":[[[[34.17468248634893,1.282434313550199],[34.17577950146011,1.293109037866654],[34.17775811363249,1.297880967895258],[34.18203064618584,1.304097148911441],[34.175992431282225,1.308598835446544],[34.17937218419369,1.3094130252708],[34.18598974424431,1.317016515450418],[34.18941885981741,1.315945688593261],[34.19501041584214,1.316580888556789],[34.197755608417125,1.314006826881166],[34.199691648174735,1.309042980574949],[34.20582546271987,1.308737824270146],[34.217490771068135,1.309032315937324],[34.218065416719796,1.31641273591073],[34.24174275882849,1.315019851439199],[34.2411,1.3108],[34.241630254438135,1.3077120476838213],[34.241265252899886,1.306371560353202],[34.24185537229768,1.3064010672076662],[34.24258653731207,1.3021431062415016],[34.24133842793771,1.301073209935078],[34.24166818695629,1.298840065370893],[34.24331433803625,1.2979047373183177],[34.24343012316741,1.2972304592015966],[34.24267068940506,1.295800220224739],[34.24354841760408,1.295070992425189],[34.242977364777374,1.294865128069796],[34.24296165647372,1.292446044134197],[34.24407358671168,1.291018426148745],[34.24447683662307,1.291134892606815],[34.2445,1.291],[34.2253,1.2546],[34.20813417905696,1.2371444605600335],[34.20255366159339,1.240187138779671],[34.19282213778699,1.239918292489885],[34.19283171392289,1.241632771057441],[34.183629548724774,1.24761521012921],[34.17930406305732,1.252355822462113],[34.177355476244024,1.25508502110612],[34.176802513936174,1.258680476356341],[34.173148065975894,1.266284550840642],[34.17522368627003,1.271902240941804],[34.17468248634893,1.282434313550199]]],[[[34.200606545915996,1.239716201765557],[34.200606546055326,1.239716207736819],[34.200606545916,1.239716201765557],[34.200606545915996,1.239716201765557]]]]}},{"type":"Feature","properties":{"n":"Bukedea","c":"219102","d":"Bukedea","od":"Bukedea","dc":"219","k":"BUKEDEA","a":["BUKEDEA"],"lat":1.351446,"lon":34.091657},"geometry":{"type":"Polygon","coordinates":[[[34.0436011986398,1.396549268117641],[34.04273856191803,1.402507428227494],[34.04599148535096,1.403166424557431],[34.0514602378166,1.40898795290291],[34.054279893341935,1.409844558281276],[34.05878262474461,1.409313781516377],[34.061488327375436,1.412217744605491],[34.064308072905334,1.412871798456435],[34.07212345430995,1.40249794946347],[34.07404584162154,1.397575892529209],[34.075195397272985,1.388927361090689],[34.083250076817826,1.377119643945035],[34.084594201012514,1.373445934075513],[34.08992027242585,1.364316715220608],[34.09242351010363,1.361556769590814],[34.09506229205503,1.356094602398465],[34.09745141532338,1.35628990043967],[34.104406208405216,1.354830534439693],[34.11417068129013,1.358190758932027],[34.117451942538544,1.360586364327485],[34.12000163648448,1.358025179865999],[34.12549224607546,1.349221385410972],[34.12599027528952,1.343830128483352],[34.124626081335315,1.339722475994669],[34.1280889553788,1.335498077653748],[34.13043075923276,1.321251216950041],[34.135139053291674,1.310888236702306],[34.13010175373566,1.307107548983187],[34.12743439215802,1.302732874136367],[34.1251501152156,1.301722313516078],[34.12406252723999,1.294044145842485],[34.12087886575028,1.29874046756652],[34.113796505039595,1.303582693622683],[34.10906334185888,1.308183972841054],[34.10873532977271,1.304733805972323],[34.09965323448287,1.293250109600809],[34.09886730504148,1.289900340114555],[34.096803359860445,1.290768897579646],[34.09330750812223,1.290746446571389],[34.08900205156626,1.288720716264837],[34.087488563420294,1.291103958062688],[34.08500470154751,1.292294313616229],[34.08337918548523,1.29150632522661],[34.07650236214249,1.290883126243972],[34.06462703917861,1.310274879405424],[34.057298027300256,1.329152288626273],[34.058468347430555,1.330097184748723],[34.05956850820548,1.332954312547982],[34.060579714361346,1.341745162432258],[34.06209209040995,1.344395566915185],[34.06193248162663,1.345971059871823],[34.06326063245815,1.347674425352571],[34.062093892448736,1.349727499701212],[34.0563257413176,1.353163637676086],[34.05770668670819,1.369470104558405],[34.05761732679799,1.375162540535161],[34.0572271232743,1.375952559625419],[34.05505225611209,1.376157718946742],[34.056057111915,1.381404494949666],[34.052104360054386,1.381393261203254],[34.05031773987134,1.380338341685999],[34.04969505595988,1.378902674617019],[34.04872616368707,1.382413042938995],[34.04698430433761,1.382296870827132],[34.046643849757494,1.384032953398687],[34.0412176919247,1.384196518952167],[34.041752231706134,1.391674938892288],[34.0436011986398,1.396549268117641]]]}},{"type":"Feature","properties":{"n":"Bukedea Town Council","c":"219103","d":"Bukedea","od":"Bukedea","dc":"219","k":"BUKEDEATOWNCOUNCIL","a":["BUKEDEA","BUKEDEATOWNCOUNCIL","TOWNCOUNCIL"],"lat":1.368875,"lon":34.040352},"geometry":{"type":"Polygon","coordinates":[[[34.01080675257211,1.344210927826611],[34.0182299533365,1.352353735190956],[34.02045633727753,1.359354245680864],[34.02343120917848,1.3646413461514404],[34.0239,1.3654],[34.02385142301819,1.3655356987426444],[34.02306136983189,1.372215147270831],[34.02104915202135,1.374370134423482],[34.01967553039261,1.3772009640119418],[34.014713500632645,1.3910622862761932],[34.01515950205163,1.3922575917070066],[34.021636257284506,1.4085740327744354],[34.02961057197611,1.408970362718456],[34.02846558414433,1.407556330603916],[34.0318596929979,1.406386181757267],[34.0350823056817,1.406812589695735],[34.03766294751969,1.408563054962647],[34.03814188289913,1.406566809761752],[34.04247578553328,1.407464899342231],[34.0423788655768,1.403340100171745],[34.0436008610002,1.3965516001662737],[34.0436011986398,1.396549268117641],[34.041752231706134,1.391674938892288],[34.0412176919247,1.384196518952167],[34.046643849757494,1.384032953398687],[34.04698430433761,1.382296870827132],[34.04872616368707,1.382413042938995],[34.04969505595988,1.378902674617019],[34.05031773987134,1.380338341685999],[34.052104360054386,1.381393261203254],[34.056057111915,1.381404494949666],[34.05505225611209,1.376157718946742],[34.0572271232743,1.375952559625419],[34.05761732679799,1.375162540535161],[34.057617391985445,1.3751583879410132],[34.05632702876298,1.3531788400770042],[34.0563257413176,1.353163637676086],[34.062093892448736,1.349727499701212],[34.06326043576831,1.3476747714612685],[34.06222251884193,1.346343035229548],[34.06193248162663,1.345971059871823],[34.06200609750777,1.3452443999736536],[34.062091996764465,1.3443954028036136],[34.060579714361346,1.341745162432258],[34.06057967791022,1.3417448455469447],[34.058881313457505,1.3311696613745363],[34.05872019154846,1.3307512262731493],[34.057311740643534,1.329168853382383],[34.05616612059096,1.329653882915061],[34.04445577349664,1.327740232329362],[34.04433384886403,1.324640070413653],[34.04028611907727,1.326267464877418],[34.039096137658845,1.32956411199172],[34.03543517985287,1.332559781036839],[34.033191057890065,1.33327605692959],[34.02103204362642,1.332659163540303],[34.01917684237796,1.333397437458357],[34.012903724067286,1.333400003591094],[34.009775266114666,1.3345044409310418],[34.010799592680904,1.34419614613467],[34.01080145281347,1.344202351117975],[34.01080675257211,1.344210927826611]]]}},{"type":"Feature","properties":{"n":"Kabarwa","c":"219104","d":"Bukedea","od":"Bukedea","dc":"219","k":"KABARWA","a":["KABARWA"],"lat":1.409066,"lon":34.135445},"geometry":{"type":"Polygon","coordinates":[[[34.09117721992744,1.419289376967544],[34.09745346418804,1.422275265328628],[34.101316864354715,1.425465004450721],[34.10994651323462,1.42851054695575],[34.11720029022166,1.429525672979397],[34.119587997094165,1.430981777250978],[34.12110724141241,1.439118567099271],[34.11912881692345,1.450062150371021],[34.12158022402311,1.462194602899122],[34.13098008725384,1.456180458634801],[34.136495673181855,1.455223495269086],[34.142862631601325,1.450641604631773],[34.147344141961646,1.444667981277703],[34.14730829428082,1.443183985906832],[34.151439411690056,1.439467302576654],[34.15808296847352,1.437275694269276],[34.15860102165094,1.439522341185243],[34.165736785571646,1.436378728383596],[34.17253692930223,1.436093613337858],[34.2022677660638,1.444205252629801],[34.201649059740035,1.442387035820401],[34.20268264016794,1.440532648836708],[34.20102073021346,1.440169736122753],[34.202126090715026,1.43648065214724],[34.200655410569844,1.435967300440233],[34.20063987284372,1.434536696186797],[34.199342844002764,1.432890304895351],[34.19904929585941,1.428504314740191],[34.19730084053349,1.426751365941318],[34.196661479664684,1.424308543745452],[34.195977820674614,1.423359092452208],[34.19499994542081,1.423799831588618],[34.19362524535922,1.422979986353667],[34.19128738833332,1.420611597618255],[34.19117411619416,1.417671363739829],[34.19209180346944,1.4154644534427],[34.19124430094765,1.414135311713016],[34.19108416608842,1.411240939629959],[34.188020009800596,1.406891707969115],[34.18578078838631,1.405680879680252],[34.18562969011787,1.403175290746447],[34.18443188194533,1.400932823995757],[34.185246065057214,1.399892017686511],[34.18460628174131,1.397685278599136],[34.18287821121977,1.396121311488499],[34.17869623803218,1.395571595912441],[34.177135739198,1.394279585095508],[34.17736810449981,1.391230545398936],[34.17425173844215,1.389585267138226],[34.17440385673375,1.388255682234031],[34.17533138155458,1.387975224244963],[34.174037759292865,1.385732618310903],[34.16924417406624,1.382569115894367],[34.16599653144534,1.382444102794305],[34.1609212321759,1.380293699650415],[34.15959957098929,1.378620849858522],[34.159583425200765,1.377363716498373],[34.15785237002333,1.376541431572857],[34.150691550218006,1.378842192767489],[34.14844635931126,1.376564107721684],[34.147491785161044,1.37681665322309],[34.143568463076164,1.375074030563802],[34.13705212924792,1.37132321410282],[34.131649039604284,1.370131797931363],[34.128245306815835,1.370422485385784],[34.12519078507869,1.368452574022446],[34.117451865547345,1.360586316943009],[34.117213273679184,1.3604121153531055],[34.11417068129013,1.358190758932027],[34.10440710942456,1.3548308445053057],[34.104406107163925,1.3548305556837608],[34.09745141532338,1.35628990043967],[34.09506229205503,1.356094602398465],[34.09242351010363,1.361556769590814],[34.08992027242585,1.364316715220608],[34.084594201012514,1.373445934075513],[34.083250076817826,1.377119643945035],[34.083249832312084,1.3771200023770045],[34.083249827099046,1.377120016625835],[34.075195383750156,1.3889274628279151],[34.07407736683137,1.39733871674052],[34.07404586904914,1.397575716534627],[34.07404586277128,1.3975757334119276],[34.07404584162154,1.397575892529209],[34.074045042708256,1.3975779380569981],[34.07271000360186,1.401167037076302],[34.07491973292935,1.402397158341182],[34.09117721992744,1.419289376967544]]]}},{"type":"Feature","properties":{"n":"Kamutur","c":"219105","d":"Bukedea","od":"Bukedea","dc":"219","k":"KAMUTUR","a":["KAMUTUR"],"lat":1.402054,"lon":34.229999},"geometry":{"type":"Polygon","coordinates":[[[34.12824549027684,1.370422469717747],[34.131649039604284,1.370131797931363],[34.13164948586303,1.3701318963342997],[34.131649687865185,1.370131879067891],[34.13450366722921,1.3707612617641232],[34.13705212924792,1.37132321410282],[34.1370522846874,1.3713233035741357],[34.137052317853666,1.37132331088823],[34.138032638707976,1.3718875975613527],[34.143568463076164,1.375074030563802],[34.147491785161044,1.37681665322309],[34.14844635931126,1.376564107721684],[34.150691550218006,1.378842192767489],[34.15160191114025,1.3785496951010288],[34.15785135148603,1.3765411582848],[34.157852104853966,1.3765415167713952],[34.15785237002333,1.376541431572857],[34.159583425200765,1.377363716498373],[34.15959957098929,1.378620849858522],[34.1609212321759,1.380293699650415],[34.16092267244045,1.3802943098901754],[34.163056020539074,1.380852982717342],[34.1634065338064,1.3813467213849013],[34.164805557434555,1.3819394873773372],[34.1692336177998,1.3825687095468258],[34.16924417406624,1.382569115894367],[34.174037759292865,1.385732618310903],[34.174570407935555,1.3866560107433148],[34.17498131418372,1.386971162912139],[34.175329187990904,1.3879714215128482],[34.17533138155458,1.387975224244963],[34.17533059340212,1.3879754625605834],[34.17533092859155,1.387976426347167],[34.17440975634816,1.3882538983529338],[34.17440385673375,1.388255682234031],[34.17425173844215,1.389585267138226],[34.17736810449981,1.391230545398936],[34.177135739198,1.394279585095508],[34.17869623803218,1.395571595912441],[34.18287821121977,1.396121311488499],[34.184263407909384,1.3973749652238705],[34.18460572752064,1.397684712840336],[34.184605752703725,1.3976847998007467],[34.18460628174131,1.397685278599136],[34.185246065057214,1.399892017686511],[34.18443188194533,1.400932823995757],[34.18562969011787,1.403175290746447],[34.18578078838631,1.405680879680252],[34.188020009800596,1.406891707969115],[34.19108416608842,1.411240939629959],[34.19124430094765,1.414135311713016],[34.19147799067874,1.414501808290196],[34.19209172747092,1.415463208027127],[34.192091444149106,1.4154638899191334],[34.19209180346944,1.4154644534427],[34.19134579166861,1.417258508094422],[34.19117412778253,1.4176716645420313],[34.19128738833332,1.420611597618255],[34.193483011049494,1.4228358945066382],[34.19362547454896,1.4229801230381114],[34.19499994542081,1.423799831588618],[34.19562056354751,1.4235201121702812],[34.19597565454508,1.423358267475401],[34.19597663508351,1.423359626811162],[34.195977820674614,1.423359092452208],[34.196661479664684,1.424308543745452],[34.19666168251324,1.4243093187740345],[34.196661715483486,1.424309364481207],[34.19671005340768,1.4244941306703331],[34.19730071926677,1.426750902614516],[34.1978201573211,1.4272720173560691],[34.19904929585941,1.428504314740191],[34.199342844002764,1.432890304895351],[34.200555326856026,1.4344293772332926],[34.2006396047872,1.434536273501594],[34.2006396056709,1.4345363570493812],[34.20063987284372,1.434536696186797],[34.20065539859612,1.4359661979840763],[34.20111900768776,1.4361291224194195],[34.202126090715026,1.43648065214724],[34.20212544397292,1.436482810615848],[34.20212628602864,1.436483106536387],[34.2010208961542,1.4401697723593754],[34.20268264016794,1.440532648836708],[34.20268200828452,1.4405337825234252],[34.20268234721041,1.440533856371969],[34.20220638220875,1.4413871218284224],[34.201649059740035,1.442387035820401],[34.20165096914063,1.4423926470516395],[34.20257601093625,1.444227049157951],[34.20219888646262,1.445643497677084],[34.20385967330394,1.448093030864668],[34.20453014835044,1.451123695540741],[34.20709409347206,1.453690606386014],[34.20862125988055,1.456793957727123],[34.208755048864674,1.461912441203393],[34.21024459183734,1.463350592742001],[34.21246341535002,1.467844117490881],[34.2136752384986,1.468089150927961],[34.216089716927534,1.471713416538406],[34.21798606926103,1.472671320811831],[34.21814916137025,1.474905340733687],[34.21986331823181,1.476704442662217],[34.220047444116666,1.477610003031488],[34.217495656438864,1.480694665479959],[34.21753770842958,1.481581069910181],[34.22446032304327,1.492585173826366],[34.23009983917099,1.4961210364349038],[34.2301,1.4961],[34.226941852130786,1.4761641915755714],[34.22687319026599,1.475905082237176],[34.228903379441014,1.468883495365661],[34.23065220939401,1.466830084117977],[34.23028290796325,1.465227404930046],[34.23323869875696,1.4642645803639385],[34.23964018214882,1.4525139122199804],[34.23968582155736,1.452370874571502],[34.23907746811126,1.450851955407594],[34.239721589130944,1.450327457005771],[34.24054623717467,1.450850742720478],[34.2415,1.4491],[34.24267158006135,1.4482972506987066],[34.242609990719295,1.447239165244691],[34.243466502747395,1.447752581450858],[34.249170356344756,1.4438443854674816],[34.249132312494226,1.442334927379571],[34.24984042970797,1.4433852611260187],[34.25064876566253,1.4428314013053032],[34.25172669938218,1.441500899295652],[34.252581649178936,1.4415070181551766],[34.25486119156547,1.4399451094829232],[34.25461066371255,1.438938424318496],[34.255864761921686,1.438830883844036],[34.2560077742977,1.4391594879812089],[34.26197621754527,1.4350699990893532],[34.262124644570854,1.43443000208083],[34.2631,1.4337980350596866],[34.2631,1.4320786345647807],[34.26290190910419,1.431764441500448],[34.2631,1.431580027480284],[34.2631,1.4279771768779965],[34.262911590302046,1.42738416265492],[34.2631,1.4271270827131612],[34.2631,1.4232620905995697],[34.263005682999214,1.423228425177448],[34.262791386093525,1.419758409493822],[34.2631,1.4199205442115672],[34.2631,1.4193],[34.275868606310276,1.4007456189553795],[34.27509185847046,1.399337082959153],[34.27515880302779,1.399047170388184],[34.2745912550774,1.397781568808947],[34.274315037435535,1.397754676590287],[34.27385172059383,1.396787635984497],[34.274024267089196,1.3965172159154748],[34.271705606089824,1.3913467258794563],[34.27014604269569,1.389986234015478],[34.2691629848817,1.387049223169358],[34.26947359334207,1.3863694568109353],[34.26845702669073,1.3841025675402971],[34.266175484109525,1.384436014354171],[34.266202406254514,1.383414426036353],[34.265035769931,1.382384609524663],[34.26642019916949,1.381046041393326],[34.2671467187634,1.3811806509322886],[34.26519970215842,1.3768389080217271],[34.26516898721508,1.376839249181247],[34.26407629343423,1.374759418505588],[34.26269249471789,1.374009855182768],[34.26349083535711,1.37338487131008],[34.26241414353088,1.372707388911142],[34.26254510791823,1.371759962207194],[34.26286164902069,1.3716251745541708],[34.26249780093909,1.370813812789312],[34.26142351641479,1.371338531033016],[34.260369631193,1.369426473402973],[34.26075865187056,1.368214985954457],[34.26128766990831,1.368727809172996],[34.26150079573696,1.368590544504345],[34.2609570012324,1.3673779118391005],[34.26006554599334,1.36768435531107],[34.26041548280405,1.3661703547020883],[34.26029915782165,1.36591095621191],[34.25975739762403,1.365649129826788],[34.26003610205612,1.3653243559219415],[34.2592228531569,1.3635108543659173],[34.2567974643042,1.363447232300489],[34.25819247425204,1.362886308285998],[34.257888273169584,1.361176946987992],[34.25693906117763,1.361067915026292],[34.25649746254418,1.359795422877962],[34.25729697223598,1.359332050099133],[34.25581598865213,1.357559988954901],[34.253510220575485,1.357505573803885],[34.25298040386346,1.356802068679703],[34.251086476945574,1.350047404260283],[34.25131007198524,1.3497809822377647],[34.25028174035395,1.3481714196844454],[34.24822434432282,1.347912604359184],[34.24729801350463,1.345769556107065],[34.24441766158732,1.345532011584677],[34.244252566243,1.344051284571568],[34.24639907358423,1.344223287549704],[34.24604582456266,1.343039840250333],[34.24655718700999,1.342341684015644],[34.2457,1.341],[34.244856456586355,1.3354619541104176],[34.24465549437781,1.335413000210459],[34.24476978923647,1.334892964117702],[34.24442088832336,1.3326023537751297],[34.24375181631493,1.33243383189731],[34.24420489859319,1.331712292196467],[34.24360151082748,1.330641867946074],[34.24417012384321,1.3309560304489],[34.24174282819521,1.3150203068467976],[34.22090345892764,1.3162457803080825],[34.218065416719796,1.31641273591073],[34.217490771068135,1.309032315937324],[34.21743877297307,1.309031003241144],[34.19975362654393,1.3090398971608708],[34.199691648174735,1.309042980574949],[34.197755608417125,1.314006826881166],[34.19633967944807,1.3153344891107137],[34.19501152119346,1.316580104789522],[34.19501128080327,1.316580077515948],[34.19501041584214,1.316580888556789],[34.18941885981741,1.315945688593261],[34.18633353017428,1.3169091597200324],[34.18598975187835,1.317016524856602],[34.18723359808499,1.319308456259886],[34.18794012242288,1.324662330534345],[34.185802191655746,1.329209815303663],[34.1866222735426,1.331494433333567],[34.17974838808383,1.337274563343934],[34.1736978852486,1.337413063154786],[34.17201592298577,1.336737109936613],[34.163381996424505,1.328734557185454],[34.16289676695209,1.332965129452364],[34.15946598424067,1.333696590613067],[34.15842349669139,1.337364239343479],[34.15182553347059,1.335314624210795],[34.15122374736072,1.33679945251263],[34.14882275219264,1.336108121533284],[34.14899193277453,1.336811223427008],[34.144529347188914,1.336851720266288],[34.14430159570612,1.341628770280941],[34.143150123154356,1.34009024922937],[34.13934059004525,1.339119089588182],[34.13858868250983,1.337877971686236],[34.13558217170713,1.337307427152268],[34.13577039357652,1.336399033358651],[34.12716731308068,1.336901804265646],[34.12462632817004,1.3397232192256996],[34.12599027528952,1.343830128483352],[34.12599025397415,1.3438303592260994],[34.125990299845114,1.343830497263622],[34.12586175681561,1.345221364365146],[34.12549224607546,1.349221385410972],[34.12549204815214,1.3492217027666706],[34.12549202797504,1.349221921087797],[34.12122390708227,1.35655002457852],[34.1203151565204,1.3575224732160343],[34.12000163648448,1.358025179865999],[34.11745220706573,1.3605860986081701],[34.11745195172222,1.360586371849768],[34.12180737702674,1.3650134947771493],[34.125190731456456,1.3684525195178991],[34.12824549027684,1.370422469717747]]]}},{"type":"Feature","properties":{"n":"Kangole","c":"219106","d":"Bukedea","od":"Bukedea","dc":"219","k":"KANGOLE","a":["KANGOLE"],"lat":1.510184,"lon":34.152367},"geometry":{"type":"Polygon","coordinates":[[[34.06001652410351,1.480410207448721],[34.06158758927299,1.483509113490689],[34.06249367961653,1.488653985672583],[34.06407643897873,1.491501207174263],[34.065102041819706,1.497532163722441],[34.06456741991194,1.500451634778948],[34.06312957786787,1.500381221543964],[34.059485496196096,1.502558636286955],[34.06415128930252,1.504365507901313],[34.08533322491612,1.5160030595363232],[34.0863,1.5165],[34.09741053303826,1.530243360772441],[34.10549175431776,1.537298149183862],[34.10735466828086,1.541105135763707],[34.107269368687575,1.5424384134002727],[34.1074,1.5426],[34.1089,1.5639],[34.119590861691584,1.5745908616915898],[34.121662474693295,1.575445129709476],[34.2295,1.5793],[34.2296,1.5615],[34.23009983905243,1.4961210519421637],[34.22981664761599,1.495943481054675],[34.22446032304327,1.492585173826366],[34.22446001686523,1.4925846871294899],[34.22445979361486,1.492584547143737],[34.22015076798088,1.4857347575623705],[34.21753770842958,1.481581069910181],[34.217495656438864,1.480694665479959],[34.21953250241723,1.4782324769689625],[34.220047390967835,1.477609741637099],[34.21986331823181,1.476704442662217],[34.21917064854895,1.4759774477236556],[34.21814958056083,1.474905988846675],[34.21814956407337,1.474905763392767],[34.21814916137025,1.474905340733687],[34.21798606926103,1.472671320811831],[34.216089716927534,1.471713416538406],[34.21608907331328,1.4717124504378207],[34.21608864712789,1.471712235038054],[34.21503912128759,1.4701364143988473],[34.2136752384986,1.468089150927961],[34.21246341535002,1.467844117490881],[34.21024459183734,1.463350592742001],[34.208755048864674,1.461912441203393],[34.20862481365867,1.4569299177594246],[34.207101617059784,1.4537058950513002],[34.20709409747537,1.4536906145211357],[34.20706945505593,1.4536659394705487],[34.20453014835044,1.451123695540741],[34.20453002748999,1.45112314923032],[34.2045297895912,1.451122911016506],[34.204199829921656,1.4496305983714912],[34.20385974673917,1.4480933628047914],[34.202199346979,1.445644697748169],[34.202199446451004,1.4456443236169956],[34.20219888646262,1.445643497677084],[34.20257601093625,1.444227049157951],[34.202573554703186,1.4442221783303602],[34.202243094246036,1.4441327485805504],[34.2022677660638,1.444205252629801],[34.17253885441248,1.4360941385770252],[34.17253691566381,1.4360936139096867],[34.165736785571646,1.436378728383596],[34.16571799032957,1.4363870085010797],[34.15914047673509,1.439472672774699],[34.158610659269705,1.439518095397116],[34.15860102165094,1.439522341185243],[34.15860024842906,1.4395189879454264],[34.1586002320322,1.439518989351172],[34.15859845750673,1.4395112212328398],[34.15808296847352,1.437275694269276],[34.151439531812954,1.4394672629499368],[34.15141140900689,1.4394924960280622],[34.14730829428082,1.443183985906832],[34.14734389234462,1.4446576478196016],[34.14734422396271,1.444667711851477],[34.147344138214336,1.444667826149438],[34.147344141961646,1.444667981277703],[34.142862631601325,1.450641604631773],[34.136495673181855,1.455223495269086],[34.13098008725384,1.456180458634801],[34.12186478726591,1.4620125359527705],[34.12158022314576,1.462194616966104],[34.120394472141605,1.46988876264878],[34.12221240222437,1.490948966924275],[34.121776314631546,1.493220082310554],[34.119542790718924,1.495470015479774],[34.116539225124946,1.49340214407114],[34.11381402293876,1.489466223840258],[34.110766564155135,1.482789990660078],[34.10934928857512,1.478040004477942],[34.10918104555718,1.474342845732162],[34.10690831178257,1.470993346464955],[34.103566514902056,1.469271921438735],[34.10219803900848,1.467621117695289],[34.0969050039026,1.465122303304829],[34.08804468167206,1.457743328634075],[34.07278612483802,1.458587347252454],[34.06961925076332,1.461136195893592],[34.0601584963499,1.465286611556736],[34.05849660588438,1.467176706255645],[34.06042930812258,1.473397166024337],[34.06001652410351,1.480410207448721]]]}},{"type":"Feature","properties":{"n":"Kidongole","c":"219107","d":"Bukedea","od":"Bukedea","dc":"219","k":"KIDONGOLE","a":["KIDONGOLE"],"lat":1.269572,"lon":33.975284},"geometry":{"type":"Polygon","coordinates":[[[33.931647720009394,1.2714280633615542],[33.932640859679275,1.271987018736047],[33.93482593941183,1.2748811557933915],[33.936257118461924,1.2764361124910604],[33.95564446244769,1.27945015505902],[33.957218316765825,1.2804126999769376],[33.9767,1.2914],[33.99129339631252,1.304464564317873],[33.99271830078102,1.304728286062323],[33.99655852687419,1.3091781097730844],[33.997671666598265,1.3101746348593961],[34.002393142031785,1.307076378603077],[34.00558584007328,1.302507017626779],[34.01023810361934,1.298353049822467],[34.015728706044946,1.291668263109268],[34.02546254791663,1.289803878102281],[34.02850550431063,1.280662263250911],[34.01931032428133,1.267715186812582],[34.01989313290658,1.265766198369862],[34.01703149972964,1.260573895153441],[34.00755341917712,1.262839424644624],[33.99912264546012,1.266242095666147],[33.995485849025194,1.256865838744074],[33.99550351216441,1.25103575364084],[33.99254663689735,1.250603224495283],[33.99297180325226,1.249156342511514],[33.99188933934004,1.249762159856394],[33.988764338375994,1.247876594959588],[33.98543287251714,1.247913034549652],[33.982081637976265,1.251647954598411],[33.9765379969583,1.252631363635217],[33.965883754297366,1.251873786092453],[33.96573092771195,1.247717036445019],[33.964138303824384,1.2453478544696],[33.96463340057016,1.242056001341403],[33.962583488946294,1.240231243156097],[33.959675365390844,1.233371787018826],[33.9565551605594,1.229472070590857],[33.952407088396335,1.231145233105107],[33.94929002405897,1.231282181233411],[33.94762096632467,1.2310602365085148],[33.93232528720103,1.2338845424047882],[33.92828646181664,1.239631092185692],[33.92633327112729,1.2428531439797952],[33.925525695920314,1.247266688346604],[33.92126595231482,1.2512123706339497],[33.91802119246495,1.2565650401673145],[33.918149533528954,1.256762466158486],[33.931647720009394,1.2714280633615542]]]}},{"type":"Feature","properties":{"n":"Kocheka","c":"219108","d":"Bukedea","od":"Bukedea","dc":"219","k":"KOCHEKA","a":["KOCHEKA"],"lat":1.295051,"lon":34.04345},"geometry":{"type":"Polygon","coordinates":[[[34.008166896688685,1.319557266950889],[34.008168341727526,1.31957165830845],[34.0082,1.3196],[34.009775265201625,1.334504432292244],[34.01006710285762,1.3344014140082028],[34.012903724067286,1.333400003591094],[34.01705419667702,1.3333983057650511],[34.0191769486975,1.3333973951486917],[34.020653284985926,1.3328098898433107],[34.02103175702908,1.332659219922776],[34.021031885553604,1.332659226445089],[34.02103204362642,1.332659163540303],[34.033191057890065,1.33327605692959],[34.03543517985287,1.332559781036839],[34.038662689100235,1.329918791968515],[34.03909617687298,1.3295640033554306],[34.04028611907727,1.326267464877418],[34.04028716130478,1.3262670458486374],[34.040287175573276,1.326267006336406],[34.04432866767473,1.324640599975308],[34.0443287288719,1.3246421289124366],[34.04433384886403,1.324640070413653],[34.04445577349664,1.327740232329362],[34.04451645385076,1.3277501484312741],[34.05631967977226,1.3295888694424223],[34.057311740643534,1.329168853382383],[34.05732964089513,1.329188964039249],[34.05733292133849,1.3291804614659708],[34.057298027300256,1.329152288626273],[34.06462552806519,1.3102787715953677],[34.064626993344866,1.310274973740503],[34.064627018502506,1.3102749326610683],[34.06462703917861,1.310274879405424],[34.07650236214249,1.290883126243972],[34.08337918548523,1.29150632522661],[34.08337936993386,1.291506414640293],[34.0833797849149,1.291506452029479],[34.083409432542766,1.2915209878501988],[34.08500339522,1.292293680358313],[34.08726423686451,1.2912114633810814],[34.08748850592872,1.2911039856147104],[34.08749900055636,1.2910875230354368],[34.08900205156626,1.288720716264837],[34.09330750812223,1.290746446571389],[34.09680327890778,1.290768897059753],[34.09886730606618,1.289900328489216],[34.09946521574554,1.283580157799856],[34.09776586100432,1.270723805375731],[34.09879038340043,1.267767754936937],[34.08800362953812,1.262865473839556],[34.07134197040018,1.252339227723881],[34.063956970515214,1.256032890296723],[34.059620524986904,1.257174352678442],[34.05517351773371,1.255512274773551],[34.050504139540344,1.252239187472856],[34.047735428289926,1.252113619281527],[34.04631332976668,1.25115538182765],[34.04226958041917,1.251220325404351],[34.037986990881556,1.25337468718898],[34.03451164425516,1.253846713512516],[34.027132878052896,1.256572446029154],[34.02210285986416,1.259347140589638],[34.01703151286662,1.260573893724875],[34.01711281615425,1.2607214401065991],[34.01989313290658,1.265766198369862],[34.01989296543193,1.2657667584270562],[34.01989298293113,1.265766790184004],[34.01988706550347,1.265786488561254],[34.01931032428133,1.267715186812582],[34.02850550431063,1.280662263250911],[34.02546254791663,1.289803878102281],[34.01572892596002,1.2916682209875279],[34.01068604854656,1.297807678647216],[34.01023810361934,1.298353049822467],[34.00558584007328,1.302507017626779],[34.00447998941487,1.3040897012312112],[34.00239338763997,1.307076102092679],[34.002393290858265,1.3070761656039427],[34.002393142031785,1.307076378603077],[33.99812762441028,1.3098754330180256],[33.99767167454463,1.3101746419732834],[33.99851905854722,1.310933252413699],[34.004234315629546,1.314629532605524],[34.008166896688685,1.319557266950889]]]}},{"type":"Feature","properties":{"n":"Koena","c":"219109","d":"Bukedea","od":"Bukedea","dc":"219","k":"KOENA","a":["KOENA"],"lat":1.236064,"lon":34.00578},"geometry":{"type":"Polygon","coordinates":[[[33.96021251727647,1.2346387791972027],[33.962583488946294,1.240231243156097],[33.96463340057016,1.242056001341403],[33.964138303824384,1.2453478544696],[33.96573092771195,1.247717036445019],[33.965883754297366,1.251873786092453],[33.97591381013041,1.2525869803844927],[33.97653864965854,1.252631247850065],[33.98208149141487,1.2516479805975333],[33.98225250534074,1.2514575244934842],[33.98543287251714,1.247913034549652],[33.988764338375994,1.247876594959588],[33.9887672353362,1.2478783429291174],[33.98876734053889,1.247878341825871],[33.988950426927715,1.2479888771780137],[33.99188933934004,1.249762159856394],[33.99297180325226,1.249156342511514],[33.99254663689735,1.250603224495283],[33.99550351216441,1.25103575364084],[33.995485849025194,1.256865838744074],[33.99912264546012,1.266242095666147],[34.00754043556805,1.2628446648457972],[34.00755326890661,1.262839479159348],[34.00755330640733,1.2628394701586563],[34.00755341917712,1.262839424644624],[34.00757213711429,1.2628349505279044],[34.021978184205764,1.2593772994911883],[34.02210285986416,1.259347140589638],[34.027132878052896,1.256572446029154],[34.03451164425516,1.253846713512516],[34.037986990881556,1.25337468718898],[34.04226958041917,1.251220325404351],[34.04631332976668,1.25115538182765],[34.046313602556964,1.2511555656390092],[34.04631408160205,1.25115555796014],[34.046728877781476,1.251435386106642],[34.047735428289926,1.252113619281527],[34.050504139540344,1.252239187472856],[34.050872105006434,1.2524971196951513],[34.051054167179444,1.252519369276827],[34.05274938010822,1.24963308411494],[34.053316770805544,1.24423304436974],[34.05486616072595,1.24159646795763],[34.05143300816573,1.237488668970534],[34.04859283651684,1.231622192232797],[34.04830956780274,1.229828824446397],[34.05023469020155,1.226682383012766],[34.04990231512918,1.221302924258855],[34.04714088391674,1.22159104052571],[34.046359273742624,1.219088104370815],[34.04035815693539,1.215282083794272],[34.03642178287021,1.211149642849838],[34.033121785159025,1.2130816467495849],[34.0331,1.2131],[34.033083798120785,1.213095252472602],[34.0250683346049,1.212791286024668],[34.014522903128366,1.2076564785911028],[34.0116,1.2068],[33.9999,1.2095],[33.99981189585776,1.2095687212309418],[33.99349234387031,1.215562279118937],[33.991288474625726,1.219217211112176],[33.981430258425775,1.224558234491625],[33.980251278122516,1.2248260030644398],[33.9799,1.2251],[33.95731219618467,1.2292707770530393],[33.956555170618515,1.229472064748447],[33.95676063229696,1.2297288747283281],[33.959675365390844,1.233371787018826],[33.95967560099017,1.23337234273223],[33.95967565870272,1.233372414868112],[33.96021251727647,1.2346387791972027]]]}},{"type":"Feature","properties":{"n":"Kolir","c":"219110","d":"Bukedea","od":"Bukedea","dc":"219","k":"KOLIR","a":["KOLIR"],"lat":1.294588,"lon":34.150213},"geometry":{"type":"Polygon","coordinates":[[[34.12893099809641,1.332193697522229],[34.12839841530037,1.333615412549895],[34.1280889553788,1.335498077653748],[34.127360065578756,1.3363872583814753],[34.127167318209466,1.336901792146931],[34.1357656937697,1.336399248628418],[34.13576568138326,1.3363993087429953],[34.13577039357652,1.336399033358651],[34.13558217170713,1.337307427152268],[34.13753732921879,1.3376784567292526],[34.13858739575355,1.337877659077418],[34.13858744263342,1.337877736395312],[34.13858868250983,1.337877971686236],[34.13934059004525,1.339119089588182],[34.143150123154356,1.34009024922937],[34.14430159570612,1.341628770280941],[34.144529347188914,1.336851720266288],[34.14899193277453,1.336811223427008],[34.14882275219264,1.336108121533284],[34.15122374736072,1.33679945251263],[34.15182553347059,1.335314624210795],[34.15842349669139,1.337364239343479],[34.15903980228647,1.335195971305256],[34.159464836678914,1.333698946402402],[34.15946534540895,1.3336988381318444],[34.15946598424067,1.333696590613067],[34.16289676695209,1.332965129452364],[34.163381996424505,1.328734557185454],[34.16338511555955,1.3287374482272718],[34.16338535430217,1.328735378123253],[34.16345793753146,1.3288049449412556],[34.17120412492163,1.3359846762917928],[34.17369565241726,1.337412165816263],[34.173697770413774,1.3374130170045413],[34.17489027423955,1.337385768621719],[34.17974838808383,1.337274563343934],[34.1866222735426,1.331494433333567],[34.18583003511001,1.3292873827498344],[34.18580217729505,1.329209895024743],[34.18580220200123,1.329209844124523],[34.185802191655746,1.329209815303663],[34.18792508118677,1.3246943239895002],[34.1871764001188,1.3192030623500899],[34.1870157315651,1.3189070118401576],[34.18265101997731,1.3131803648174905],[34.179915115263306,1.3100368459878695],[34.1790278452602,1.3093300732730986],[34.175992431282225,1.308598835446544],[34.17600397550369,1.3085902288521851],[34.1760025344634,1.308590133251527],[34.17735537821744,1.3075827139662262],[34.18203064618584,1.304097148911441],[34.17775811363249,1.297880967895258],[34.17693293525424,1.2958908388860944],[34.17635011976199,1.294954517344814],[34.17620877917508,1.2941443510256636],[34.17577950146011,1.293109037866654],[34.17542305600501,1.2896405742800325],[34.175136160792476,1.287996086710053],[34.17486584290804,1.284218501115301],[34.17468248634893,1.282434313550199],[34.17470575966205,1.2819814010237567],[34.17467021189569,1.281484635038802],[34.175223417979964,1.2719074620261495],[34.175223681611044,1.2719023316084184],[34.17314810716451,1.26628507132562],[34.17314819259818,1.2662848935453042],[34.173148065975894,1.266284550840642],[34.176802513936174,1.258680476356341],[34.17733276319878,1.2552327052007324],[34.17735546487362,1.25508502567936],[34.16309359151807,1.247948765767443],[34.16175849494411,1.249961892464188],[34.15836217278898,1.252374340481608],[34.154762940200044,1.253660377661966],[34.14737620257127,1.25969647463142],[34.1445569095525,1.259761500253585],[34.141206249950066,1.263028106142926],[34.13185657855553,1.265456745298763],[34.12975532830554,1.266723977297627],[34.128555602622434,1.268361808044199],[34.12881325510084,1.274512408630044],[34.127553525436205,1.27995864740613],[34.12765021192612,1.288967495972253],[34.124062534545224,1.29404413452809],[34.124087686472414,1.2942217653173285],[34.1251501152156,1.301722313516078],[34.12743439215802,1.302732874136367],[34.13010175373566,1.307107548983187],[34.135139053291674,1.310888236702306],[34.13043082453929,1.3212510732100258],[34.12893099809641,1.332193697522229]]]}},{"type":"Feature","properties":{"n":"Malera","c":"219111","d":"Bukedea","od":"Bukedea","dc":"219","k":"MALERA","a":["MALERA"],"lat":1.453836,"lon":34.070852},"geometry":{"type":"Polygon","coordinates":[[[34.031836658551526,1.4631225112756194],[34.03948177032488,1.4726298938655655],[34.040303780389124,1.473358664623578],[34.04184323722854,1.47556658988678],[34.0438,1.478],[34.04434763134657,1.479158450925441],[34.04462914367613,1.479562202539926],[34.04485211269993,1.4802256230190896],[34.0542,1.5],[34.054346729307426,1.500075421606619],[34.059485486392845,1.502558627659335],[34.06001547090551,1.5022419653531944],[34.06312957786787,1.500381221543964],[34.06312970952726,1.5003812279915179],[34.06312979730339,1.500381175545852],[34.063249563847386,1.5003870974334648],[34.06456741991194,1.500451634778948],[34.065102041819706,1.497532163722441],[34.06407644539001,1.4915012448751535],[34.06385354313043,1.4911002404404166],[34.06249367961653,1.488653985672583],[34.06249363846212,1.488653751993731],[34.06249356211298,1.488653614640492],[34.06178967811839,1.4846565942980574],[34.06158758927299,1.483509113490689],[34.06001652410351,1.480410207448721],[34.0604293041588,1.4733972333674363],[34.06038387979856,1.47325095360922],[34.05849660588438,1.467176706255645],[34.0601584963499,1.465286611556736],[34.060159598520414,1.4652861280365477],[34.06015978297552,1.465285917988764],[34.06961927587407,1.4611361756832808],[34.07278612483802,1.458587347252454],[34.08317643304797,1.4580126131098168],[34.08536230146388,1.457609687450469],[34.08669997882518,1.4578177101271153],[34.08804468167206,1.457743328634075],[34.08846325009617,1.458091917062253],[34.08882248882241,1.458147782402842],[34.096905179690964,1.465122386293605],[34.10219803900848,1.467621117695289],[34.103566514902056,1.469271921438735],[34.10690831178257,1.470993346464955],[34.10918104555718,1.474342845732162],[34.10918106191664,1.4743432052330891],[34.109181131592756,1.474343307919574],[34.10934932783631,1.478040136061486],[34.110766564155135,1.482789990660078],[34.11381402293876,1.489466223840258],[34.116539128121694,1.4934020039725209],[34.11678997832833,1.493574780680423],[34.11954276568203,1.4954699982425663],[34.12183810752572,1.4928982689982147],[34.12203123193429,1.4918924898314145],[34.120394482728464,1.469889170206583],[34.12039449831106,1.4698890658144752],[34.120394472141605,1.46988876264878],[34.12039674587488,1.4698740087628563],[34.12155884423121,1.4620887904821143],[34.11912881692345,1.450062150371021],[34.12110724141241,1.439118567099271],[34.11964066522371,1.4312638579516694],[34.11720204515819,1.4295267431989447],[34.11720041056351,1.4295257463679218],[34.11519278769435,1.4292447340889882],[34.10994651323462,1.42851054695575],[34.101316864354715,1.425465004450721],[34.097453515305595,1.4222753075328147],[34.09584208126234,1.4215086588481727],[34.09117721992744,1.419289376967544],[34.09117712801111,1.419289281462581],[34.09117695374669,1.419289198555316],[34.074919712371575,1.4023971468969916],[34.072909452758935,1.4012780672582894],[34.072709999063925,1.401167047716882],[34.07245809277499,1.4016411452350126],[34.07212345430995,1.40249794946347],[34.07171420375389,1.403041173555685],[34.07092119107485,1.404533654527749],[34.064357280958035,1.4128064815024022],[34.064308072905334,1.412871798456435],[34.061488327375436,1.412217744605491],[34.05878398368858,1.4093152400370137],[34.05607323773687,1.4096331609201702],[34.054279893341935,1.409844558281276],[34.0514602378166,1.40898795290291],[34.04599148535096,1.403166424557431],[34.04273893146097,1.402507503091672],[34.0423790043277,1.4033393293746843],[34.0423788655768,1.403340100171745],[34.04247578553328,1.407464899342231],[34.03814188289913,1.406566809761752],[34.03766294751969,1.408563054962647],[34.037659425950885,1.408560666260815],[34.03765936223205,1.408560931081769],[34.035769794218204,1.4072789174080242],[34.0350823056817,1.406812589695735],[34.031859766432845,1.4063861914739926],[34.03179301724291,1.4064091688095874],[34.02846558414433,1.407556330603916],[34.02961057197611,1.408970362718456],[34.02960040793699,1.4089698575574219],[34.02960122445606,1.408970870152246],[34.02163628059707,1.4085740915041611],[34.0238150281849,1.4140628594658033],[34.025116219827,1.416069751575513],[34.024979402789334,1.4169961877961956],[34.0251,1.4173],[34.023647460367904,1.4260152377925766],[34.023611975516665,1.426255518184808],[34.02360629176785,1.426262249392905],[34.0236,1.4263],[34.0125285439238,1.441718027720935],[34.01227964533079,1.443546655171166],[34.011065822255716,1.445820364665866],[34.0282,1.4586],[34.02981992446805,1.4606145214538557],[34.03118497803392,1.461672612051623],[34.031836658551526,1.4631225112756194]]]}},{"type":"Feature","properties":{"n":"Aligoi","c":"219201","d":"Bukedea","od":"Bukedea","dc":"219","k":"ALIGOI","a":["ALIGOI"],"lat":1.233606,"lon":34.171319},"geometry":{"type":"Polygon","coordinates":[[[34.12955884102605,1.2669922160393545],[34.12975532830554,1.266723977297627],[34.13185657855553,1.265456745298763],[34.141206249950066,1.263028106142926],[34.1445569095525,1.259761500253585],[34.14737600344473,1.2596964792241772],[34.15476264509755,1.253660591448388],[34.15476270954324,1.2536605661439297],[34.154762940200044,1.253660377661966],[34.15476571093328,1.253659387654827],[34.15876226692271,1.2520901488603216],[34.15928565789419,1.251718378028867],[34.1630891747994,1.2479554255210792],[34.16309359151807,1.247948765767443],[34.17720960835396,1.2550120429786868],[34.177355467696195,1.255085013710941],[34.17735555991857,1.2550849039112106],[34.17930406305732,1.252355822462113],[34.183628473303465,1.2476163887611436],[34.183629207006504,1.247615515216117],[34.18362936270192,1.2476154140051003],[34.183629548724774,1.24761521012921],[34.19283171392289,1.241632771057441],[34.19282213778699,1.239918292489885],[34.20255366159339,1.240187138779671],[34.20813417905696,1.2371444605600344],[34.203884813320315,1.2328233755704447],[34.198956381029625,1.230164830326809],[34.198121977469995,1.2253684913491778],[34.1894,1.2125],[34.18920600554825,1.2117342324273173],[34.18910202396524,1.211542560100405],[34.18915039512081,1.2115147175821646],[34.18906436835068,1.2111751382263731],[34.18727516407413,1.210842508002377],[34.18327959650132,1.206668619860097],[34.18738327186013,1.2045392310268153],[34.18680935003861,1.202273750152411],[34.18561296242315,1.201130745597684],[34.18221960333242,1.206726551877864],[34.17861967077194,1.207362841197938],[34.17425476340413,1.206443394172232],[34.1710812371213,1.208072144830224],[34.169811145234746,1.211195047625817],[34.16780162266056,1.212094263926565],[34.1660312646634,1.214332511882072],[34.1634035288856,1.21399882773841],[34.16040893530641,1.21744634444741],[34.14619230176371,1.223579355235702],[34.14329163570747,1.224035335096991],[34.14086726434327,1.226118389973082],[34.1389887761198,1.226526238268128],[34.13812141768087,1.227818984957439],[34.138526998692754,1.230965779729543],[34.13743384972607,1.232534072007437],[34.13838567159311,1.234387980447907],[34.138362571413495,1.237548728370631],[34.13655763295495,1.240994728883915],[34.12992575351461,1.246322711971555],[34.127358811574986,1.262825642829106],[34.128727688760996,1.267547624340582],[34.12955884102605,1.2669922160393545]],[[34.200606545915996,1.239716201765557],[34.200606545916,1.239716201765557],[34.200606546055326,1.239716207736819],[34.200606545915996,1.239716201765557]]]}},{"type":"Feature","properties":{"n":"Kachumbala","c":"219202","d":"Bukedea","od":"Bukedea","dc":"219","k":"KACHUMBALA","a":["KACHUMBALA"],"lat":1.259561,"lon":34.105312},"geometry":{"type":"MultiPolygon","coordinates":[[[[34.08813666923175,1.2629259366983177],[34.09879038340043,1.267767754936937],[34.09776586100432,1.270723805375731],[34.09946521574554,1.283580157799856],[34.09946518505293,1.2835804822343524],[34.09903289373758,1.2906061082563731],[34.099538826936566,1.2927624845197025],[34.108734985388736,1.304733367092017],[34.10873498575253,1.3047333709820212],[34.10873532977271,1.304733805972323],[34.10906334185888,1.308183972841054],[34.113796505039595,1.303582693622683],[34.11379667044832,1.3035825805323626],[34.11379675348376,1.30358249981037],[34.12087895393181,1.2987403374871034],[34.12406252723999,1.294044145842485],[34.12407447806124,1.2941285164050547],[34.12407448194402,1.2941285108011922],[34.124062534545224,1.29404413452809],[34.12765017412574,1.2889675494605735],[34.12758569975501,1.2829565178026512],[34.127553525436205,1.27995864740613],[34.12881325510084,1.274512408630044],[34.128555602622434,1.268361808044199],[34.1287346828325,1.2681173329293611],[34.12872768082795,1.267547636050304],[34.12845075599532,1.266592336742244],[34.127358811574986,1.262825642829106],[34.12736795595082,1.2627668534191123],[34.13011521067503,1.244551584266068],[34.12808963050421,1.23414159479488],[34.12047801957268,1.227993983173603],[34.11619509612155,1.221366369144751],[34.11254211305437,1.218701475836969],[34.10432781368114,1.21658469181762],[34.098193183760294,1.217353063349921],[34.09989518753932,1.223873798718255],[34.102608297857735,1.223591653589363],[34.10087680668271,1.229608149490356],[34.10239011295741,1.237937433835564],[34.10071163643527,1.240216637045053],[34.09625656691431,1.244728773321208],[34.09315025439462,1.241910708763902],[34.08706400744775,1.244115058712016],[34.078693943834786,1.2448605130557],[34.074652444925285,1.247111918248442],[34.071341979209045,1.252339219205515],[34.0776974278939,1.2563543806689021],[34.08800355735883,1.2628654282392369],[34.08813666923175,1.2629259366983177]]],[[[34.11508988461915,1.220547481282692],[34.115089880493656,1.220547485677969],[34.115089884619195,1.22054748128273],[34.11508988461915,1.220547481282692]]]]}},{"type":"Feature","properties":{"n":"Komuge","c":"219203","d":"Bukedea","od":"Bukedea","dc":"219","k":"KOMUGE","a":["KOMUGE"],"lat":1.22474,"lon":34.076196},"geometry":{"type":"Polygon","coordinates":[[[34.04049223720214,1.2153671200084533],[34.046359273742624,1.219088104370815],[34.04635932580759,1.219088271097529],[34.04635957123894,1.219088426760273],[34.04641929297174,1.219280302865061],[34.04714088391674,1.22159104052571],[34.04990231512918,1.221302924258855],[34.05016813580621,1.225605206490276],[34.05023476062308,1.226681515948862],[34.050234647974705,1.2266816995753504],[34.05023469020155,1.226682383012766],[34.04830956780274,1.229828824446397],[34.04859246509815,1.2316198407895487],[34.04859283921609,1.2316221978082036],[34.05143291725479,1.2374884811907145],[34.051573050441114,1.2376562308562615],[34.05486616072595,1.24159646795763],[34.053316770805544,1.24423304436974],[34.05301790535228,1.2470774430067337],[34.05274941496564,1.249632805735828],[34.052749408136066,1.2496328173649005],[34.05274938010822,1.24963308411494],[34.051217551535835,1.2522411895652772],[34.051054177421726,1.252519375197957],[34.05675797615237,1.2561044692942567],[34.05865186908692,1.2568123155876212],[34.063956757270994,1.2560329464280073],[34.063956970515214,1.256032890296723],[34.0689876810675,1.253516743029123],[34.07134196726376,1.252339216131846],[34.071785144803876,1.2516394506120407],[34.074652444925285,1.247111918248442],[34.078693943834786,1.2448605130557],[34.08706395034573,1.2441150637976344],[34.09314843517138,1.241910930605231],[34.09314877946644,1.2419112429613959],[34.09315025439462,1.241910708763902],[34.09625656691431,1.244728773321208],[34.09626934014704,1.2447158364710704],[34.102382819739866,1.2379473372954075],[34.102389862162376,1.2379377743901314],[34.101039149554474,1.2305016896566316],[34.10087680668271,1.229608149490356],[34.100876829716036,1.229608069455352],[34.100876816357044,1.229607995910017],[34.10096473165492,1.2293026323485494],[34.102608297857735,1.223591653589363],[34.09989518753932,1.223873798718255],[34.099894471202106,1.2238710542793336],[34.099894268303395,1.223871075548819],[34.09819317128086,1.217353058860535],[34.09520611391913,1.210270030689738],[34.09339785386195,1.208307501819068],[34.09313593956906,1.206656943202573],[34.09030582854259,1.20469566330878],[34.08937714253427,1.202135059118772],[34.08243560248011,1.1918359735535204],[34.0477,1.2008],[34.04767014682682,1.2008251502760392],[34.039030136828735,1.209475274023503],[34.03642179300861,1.211149636950211],[34.039487833712535,1.2143684106368249],[34.0403581495826,1.21528207607525],[34.04049223720214,1.2153671200084533]]]}},{"type":"Feature","properties":{"n":"Kongunga Town Council","c":"219204","d":"Bukedea","od":"Bukedea","dc":"219","k":"KONGUNGATOWNCOUNCIL","a":["KONGUNGA","KONGUNGATOWNCOUNCIL"],"lat":1.213047,"lon":34.131713},"geometry":{"type":"Polygon","coordinates":[[[34.09327801541771,1.206871249182662],[34.093398082333685,1.2083077497825014],[34.09520611391913,1.210270030689738],[34.09520649373887,1.2102709313332807],[34.09520649400459,1.210270931621692],[34.09819318116756,1.217353051952001],[34.10349632211826,1.216465475266209],[34.10407449970741,1.2166164197700249],[34.10432781368114,1.21658469181762],[34.11254211305437,1.218701475836969],[34.1128101911664,1.2188970419136742],[34.11319823986193,1.21899834957226],[34.11619363255115,1.2213653014532524],[34.11619509612155,1.221366369144751],[34.12047801957268,1.227993983173603],[34.1276445901296,1.233782152437207],[34.12794715417588,1.233950592967771],[34.12798532738196,1.2340573530893735],[34.12808963050421,1.23414159479488],[34.128178195236565,1.234596752257713],[34.12925584464865,1.237610645878361],[34.12957679232251,1.2417845106831047],[34.13011521067503,1.244551584266068],[34.12989952842975,1.2459816337313268],[34.12992575439458,1.246322697526068],[34.13214722236812,1.2445380069587952],[34.13655763295495,1.240994728883915],[34.138362571413495,1.237548728370631],[34.138385669982426,1.2343882008346572],[34.13743392285049,1.23253503679006],[34.13743416591919,1.2325346878717187],[34.13743384972607,1.232534072007437],[34.13852695585826,1.2309658411822868],[34.13843979436945,1.2302891846704647],[34.13812141768087,1.227818984957439],[34.1389887761198,1.226526238268128],[34.13898908805502,1.2265261705422585],[34.138989231391086,1.226525956973396],[34.14008942131948,1.2262872714955226],[34.14086726434327,1.226118389973082],[34.14329163570747,1.224035335096991],[34.14329167818813,1.2240353284191028],[34.14329170109114,1.224035308740717],[34.144412765023226,1.2238590954403146],[34.14619230176371,1.223579355235702],[34.16040893530641,1.21744634444741],[34.1634035288856,1.21399882773841],[34.1660312646634,1.214332511882072],[34.16780162266056,1.212094263926565],[34.16981078770665,1.2111952076116237],[34.17049797051288,1.2095062811642094],[34.1710812371213,1.208072144830224],[34.171081551008506,1.2080719837337206],[34.17108160235175,1.208071857544641],[34.17425422745715,1.206443663728722],[34.17425423506639,1.206443665331301],[34.17425476340413,1.206443394172232],[34.17861918345696,1.2073627385473502],[34.17942279773064,1.2072208882313478],[34.18221960333242,1.206726551877864],[34.18557885995155,1.2011869821525765],[34.18561295575745,1.2011307360797],[34.18441599355651,1.198493426120302],[34.18371513375436,1.191936353144769],[34.18037412912356,1.198279656128868],[34.180220743556895,1.201019717722744],[34.177417278528544,1.203253237814696],[34.175030366586995,1.200752437241344],[34.17125703883966,1.1987458941797],[34.170545004113215,1.197818350733432],[34.171394809737414,1.197068242287374],[34.16918529411784,1.194933926461082],[34.167758532807234,1.194695211018645],[34.14456397979233,1.196775291006009],[34.131488241971724,1.202524147256274],[34.12944254734198,1.201112465731102],[34.12775280196908,1.196255496907409],[34.128344837550316,1.190176512070857],[34.126321655963814,1.185294907643747],[34.12246841669445,1.182137421863585],[34.1148669928424,1.179024456629154],[34.11292263582486,1.179522751722057],[34.11195661877195,1.180707743995349],[34.11059554754104,1.1807445276875819],[34.10859844173334,1.1820090268422074],[34.10707967340435,1.183458218701001],[34.10661468427415,1.1832650742786817],[34.105364996402834,1.184056333935894],[34.10478318107991,1.185161848673972],[34.10347258506447,1.1852545441300335],[34.10239773893019,1.1859350999738494],[34.10198236458027,1.186718262614452],[34.10105337307774,1.1867863064934927],[34.1004,1.1872],[34.08243560759894,1.1918359722325313],[34.08298050326259,1.1926444367676727],[34.08937714253427,1.202135059118772],[34.09030582854259,1.20469566330878],[34.09313593956906,1.206656943202573],[34.09315574474179,1.2067817534912373],[34.09327801541771,1.206871249182662]]]}},{"type":"Feature","properties":{"n":"Kwarikwar","c":"219205","d":"Bukedea","od":"Bukedea","dc":"219","k":"KWARIKWAR","a":["KWARIKWAR"],"lat":1.180579,"lon":34.152241},"geometry":{"type":"Polygon","coordinates":[[[34.12632083329055,1.185293805721487],[34.12632110183962,1.185294453574032],[34.126321655963814,1.185294907643747],[34.128344837550316,1.190176512070857],[34.12820825536316,1.1915789295453325],[34.12775283983396,1.1962556057454283],[34.12781158730463,1.1964244682486729],[34.12944281083467,1.201112647560664],[34.131488241971724,1.202524147256274],[34.144058606592594,1.1969974825119796],[34.144563824839565,1.196775332919508],[34.14456389973724,1.1967753262028893],[34.14456397979233,1.196775291006009],[34.167758532807234,1.194695211018645],[34.16918529411784,1.194933926461082],[34.171394809737414,1.197068242287374],[34.170545004113215,1.197818350733432],[34.17125703883966,1.1987458941797],[34.175030366586995,1.200752437241344],[34.17606507016927,1.2018365104602868],[34.17741751348321,1.2032530506263515],[34.180220743556895,1.201019717722744],[34.18037412912356,1.198279656128868],[34.18037488458948,1.1982782217850672],[34.18037488732748,1.198278173084325],[34.18371513307051,1.191936337291313],[34.183759882156096,1.1902363769319486],[34.1837,1.19],[34.18377486947651,1.1896670278544774],[34.18390025339521,1.184903853620047],[34.185504731432026,1.181973694420746],[34.1875,1.1731],[34.181919991793144,1.1614417685678176],[34.17719468194457,1.162590065444099],[34.17550977291721,1.16129743251014],[34.17004955361821,1.1603045805865573],[34.17,1.1603],[34.1623,1.1653],[34.15959356385971,1.164272239440394],[34.15882776378592,1.164394521932114],[34.15791082056311,1.16363322299865],[34.15781863970682,1.1635982176101842],[34.157286777306645,1.16485852656358],[34.149384956173535,1.163747328468382],[34.14453038796665,1.160727987013561],[34.142619955990575,1.161565827226879],[34.13643422084425,1.1651781076749215],[34.134046938716374,1.169130706355941],[34.127911954787635,1.1701548508301243],[34.125298038612044,1.1716812980624327],[34.12031246210038,1.174635144466062],[34.1197467747301,1.175909618517674],[34.11486700139408,1.179024448253583],[34.11525873723271,1.1791848853450815],[34.12246841669445,1.182137421863585],[34.123921884190075,1.1833284465128586],[34.12632083329055,1.185293805721487]]]}}]}
