{"type":"FeatureCollection","name":"Bukomansimbi sub-counties","metadata":{"source":"Uganda Bureau of Statistics NPHC 2024 Map Explorer","retrieved":"2026-07-26","display_only":true,"clipped_to_dashboard_district":true,"positive_area_overlaps_removed":true,"source_gap_ratio":0.00695757},"features":[{"type":"Feature","properties":{"n":"Bigasa","c":"118101","d":"Bukomansimbi","od":"Bukomansimbi","dc":"118","k":"BIGASA","a":["BIGASA"],"lat":-0.087748,"lon":31.661628},"geometry":{"type":"Polygon","coordinates":[[[31.616196313286437,-0.060670462967616],[31.61564914444394,-0.060324455586627],[31.61839834268553,-0.059050321095012],[31.618435488303078,-0.058080628431768],[31.621084307583722,-0.057415663430047],[31.618015280183073,-0.046445507028922],[31.619979690483742,-0.045012726591929],[31.62319306626254,-0.038198898128064],[31.62661603116803,-0.042133596892871],[31.63109861724484,-0.045054074542008],[31.62911261861809,-0.046979718377883],[31.629894204520205,-0.047941241842191],[31.62919914504731,-0.054011473870768],[31.630511766428977,-0.057592040398109],[31.63159055372022,-0.058001373050431],[31.63568206341653,-0.055267474560548],[31.638358536588203,-0.05775892112156],[31.63988162972206,-0.057273013441063],[31.640302580286956,-0.057936637191969],[31.642767919665925,-0.05813675664152],[31.643986200377235,-0.059764303391217],[31.643778693032377,-0.061369856619564],[31.646509048448046,-0.062317443272242],[31.651561516876452,-0.052815265238822],[31.656224782305223,-0.045971786585779],[31.65933109067498,-0.04878040976177],[31.661529398488476,-0.054721245552019],[31.665339817415504,-0.057978637277662],[31.674494445555656,-0.051286183778652],[31.67413550822741,-0.045084187468531],[31.676684490273978,-0.04390203105297],[31.679265928803712,-0.04650208749265],[31.68166628899526,-0.044636501368216],[31.684876006853543,-0.043920228630386],[31.687530326066288,-0.042296121442624],[31.69457214265718,-0.036333257063582],[31.699929693992775,-0.03341913772234475],[31.700718080184526,-0.03545532939744159],[31.704948277217703,-0.06939358003358465],[31.70431509275196,-0.0768787249679399],[31.703464922884475,-0.082354664389185],[31.702334407147724,-0.10029325836082753],[31.7023,-0.1007],[31.70227665998879,-0.10079476044551182],[31.695315218422174,-0.126238074090079],[31.68990848414528,-0.128473531396616],[31.681360936788998,-0.12753438228389],[31.6808905954663,-0.117607635012436],[31.679937316566303,-0.117765790250854],[31.678628617953798,-0.116647444750665],[31.677759940114,-0.113137352510576],[31.676542531917907,-0.111675920658946],[31.672347125140565,-0.113796954799649],[31.67204231661532,-0.123124339422642],[31.670129126218846,-0.125395969499815],[31.66827827891993,-0.125919545484766],[31.66392741456482,-0.123793428248494],[31.659796084120966,-0.123840261363761],[31.657611741079634,-0.122298372940003],[31.65713390327119,-0.119952791305899],[31.6568803742204,-0.113795451505232],[31.657986217985812,-0.111314427120801],[31.65425491077497,-0.113900718314308],[31.651463969473824,-0.114388175543372],[31.647308188603812,-0.116805565179908],[31.64446165434203,-0.120473083525955],[31.642132120969695,-0.119177260393901],[31.636584844259527,-0.126079887733875],[31.634699363709792,-0.126623606876589],[31.632120104870175,-0.131665499639616],[31.62832977370316,-0.13600796743653],[31.62661567580353,-0.137012315327625],[31.620802682325472,-0.133895437628022],[31.620598999143784,-0.131731321388738],[31.62261418904026,-0.121758928094738],[31.621302370499915,-0.121517182337097],[31.622464149157235,-0.119818299596179],[31.617905262310934,-0.107614085339705],[31.61865358814327,-0.098253612583859],[31.620024010501055,-0.097994915369546],[31.62030969433816,-0.094227560982337],[31.62244765974214,-0.091229856039632],[31.617813663703565,-0.084267137880447],[31.61724224088856,-0.081671032395422],[31.61932334833664,-0.074442767725352],[31.620405287294613,-0.073545957275063],[31.619837066168493,-0.07172227657296],[31.606655314762392,-0.071819448565224],[31.61126976640855,-0.069540063305876],[31.616196313286437,-0.060670462967616]]]}},{"type":"Feature","properties":{"n":"Bukango","c":"118102","d":"Bukomansimbi","od":"Bukomansimbi","dc":"118","k":"BUKANGO","a":["BUKANGO"],"lat":-0.004471,"lon":31.6117},"geometry":{"type":"Polygon","coordinates":[[[31.589429929644595,0.037577857047234174],[31.589856275335087,0.037773789509466],[31.58986504585986,0.037783481587781984],[31.5899,0.0378],[31.59540376781128,0.043904178845239936],[31.60091442680671,0.04999386446151349],[31.611757913486173,0.04538226667829472],[31.614034696324648,0.043576630670998],[31.616141128315576,0.04351814083130745],[31.6183,0.0426],[31.63134116929911,0.04111488463497684],[31.641183552704625,0.037767374374732],[31.640518478601003,0.031621633134787],[31.64145529309034,0.018282650650596],[31.63984649132069,0.014849727135468],[31.639781676506214,0.012618188217913],[31.64300948562104,0.006681409727268],[31.643761294400004,0.003765586084221],[31.643103764823188,-0.001693261538496],[31.641417027806003,-0.007248640412084],[31.638637897240677,-0.012137985188618],[31.636160525639706,-0.013998953489293],[31.63486773145548,-0.017944688942873],[31.628464946149478,-0.024117577939071],[31.623751399090224,-0.037108571074894],[31.62321764837716,-0.0382271552731705],[31.62319306626254,-0.038198898128064],[31.619979690483742,-0.045012726591929],[31.619977256482763,-0.04501450187735986],[31.618091584141776,-0.046187311618507],[31.618140629163612,-0.04635408133895618],[31.618015280183073,-0.046445507028922],[31.621084307583722,-0.057415663430047],[31.618435488303078,-0.058080628431768],[31.61839834268553,-0.059050321095012],[31.618385551860037,-0.05905624908946959],[31.61544593472382,-0.060295206629583],[31.612470350296682,-0.058118752292216],[31.609543565049233,-0.054817194555199],[31.610909256153583,-0.054056868562083],[31.605579767380217,-0.043850323186902],[31.6035266138082,-0.041687064023384],[31.595907118170135,-0.037749547396332],[31.589538798948897,-0.029918900195906],[31.582447664849568,-0.012874301922775],[31.57891454697186,0.009827318797918],[31.577474649628364,0.012501539427778],[31.576720770537882,0.018213063554227],[31.575679498489716,0.019337318807869],[31.575794217755227,0.021972003678543],[31.5731226094189,0.025483490784099],[31.573226366135255,0.029920476823411667],[31.589429929644595,0.037577857047234174]]]}},{"type":"Feature","properties":{"n":"Bukomansimbi Town Council","c":"118103","d":"Bukomansimbi","od":"Bukomansimbi","dc":"118","k":"BUKOMANSIMBITOWNCOUNCIL","a":["BUKOMANSIMBI","BUKOMANSIMBITOWNCOUNCIL","TOWNCOUNCIL"],"lat":-0.164069,"lon":31.620584},"geometry":{"type":"Polygon","coordinates":[[[31.601871926349737,-0.145556686790718],[31.60504859749829,-0.140559143077131],[31.604036347168485,-0.139712191646281],[31.605249203537404,-0.13430585031648],[31.60621277053872,-0.133830008959634],[31.610165972746557,-0.134326799294236],[31.617167235690246,-0.139970063476089],[31.620325065225508,-0.138437262766708],[31.620802681970144,-0.133895449392644],[31.626615667215606,-0.137012324012165],[31.625303261245012,-0.138457257331981],[31.62475144752277,-0.141312607343164],[31.62733928901249,-0.145183622808459],[31.629431461045627,-0.146758021205606],[31.64503639104463,-0.146802397226286],[31.655171987748503,-0.150358262960924],[31.657096416621787,-0.152444598908703],[31.656431329935568,-0.153406966225588],[31.64348165087979,-0.159981889855717],[31.645027842208105,-0.163270988746839],[31.644970734162484,-0.165821768701488],[31.64203657437335,-0.168357694284701],[31.645319739643273,-0.172225672415662],[31.64379688818573,-0.17474789497805],[31.641135295315607,-0.175534405649543],[31.639408282516793,-0.177089971307697],[31.64158767135749,-0.182512301411071],[31.648048552604624,-0.186363547619565],[31.649788810131522,-0.186333302949096],[31.6488497164524,-0.188096761060275],[31.64180697514932,-0.194540346806441],[31.633663973681657,-0.190322051502094],[31.6309592617084,-0.191570507165227],[31.628227746833065,-0.191756076112225],[31.626191653443424,-0.190439169169241],[31.626115657508088,-0.188831553017545],[31.625195152738826,-0.188055984995718],[31.619266419467987,-0.184929905580447],[31.618982686874894,-0.179411882722109],[31.609676887385998,-0.17663252081388],[31.60358387415684,-0.172140312506535],[31.60234941773906,-0.172138240988732],[31.60123367624104,-0.173940178717113],[31.60069116749393,-0.173718892371984],[31.600238561797003,-0.16936771092574],[31.595823447812403,-0.164866222879217],[31.59779676019779,-0.160155714336945],[31.592478871569455,-0.147773684310724],[31.594444791924037,-0.144479677004781],[31.601871926349737,-0.145556686790718]]]}},{"type":"Feature","properties":{"n":"Kagologolo Town Council","c":"118104","d":"Bukomansimbi","od":"Bukomansimbi","dc":"118","k":"KAGOLOGOLOTOWNCOUNCIL","a":["KAGOLOGOLO","KAGOLOGOLOTOWNCOUNCIL"],"lat":-0.144132,"lon":31.571648},"geometry":{"type":"Polygon","coordinates":[[[31.5501017862147,-0.152977330417258],[31.549319365096945,-0.151450640058695],[31.55082327133314,-0.148732205235886],[31.550172631210437,-0.145812684765863],[31.551115081534288,-0.142998710744998],[31.550593404413956,-0.14234156035040718],[31.55278135907999,-0.12748464237619048],[31.553114605754445,-0.126615900180098],[31.56214768455082,-0.120464562784339],[31.56241608342411,-0.117398799655392],[31.565100114109892,-0.113172880183752],[31.567173817856663,-0.111776904718057],[31.572031767988438,-0.114501325305692],[31.57747930960392,-0.116365200588321],[31.58613851580117,-0.124024866608566],[31.584408552031707,-0.126574815817789],[31.586813137973692,-0.13411523596086],[31.590746699717982,-0.142259268780518],[31.59365944523804,-0.145264924729324],[31.59249451916705,-0.14774746590330948],[31.592478871569455,-0.147773684310724],[31.597796740772495,-0.160155669107604],[31.59779673283811,-0.16015577964744399],[31.59616110932654,-0.16406018858960256],[31.594836148300885,-0.166166403016794],[31.58883990993387,-0.167122945350009],[31.58494569653152,-0.165650966632131],[31.581755616690586,-0.169891925483109],[31.58024663052339,-0.170092086770709],[31.574735487766873,-0.174148403225496],[31.567874768327833,-0.17578023705806],[31.568192789970663,-0.170376548330219],[31.566965014685778,-0.168863204698616],[31.56692932267304,-0.167935224076112],[31.567684810145504,-0.167910551720041],[31.565926992126336,-0.161163572031609],[31.561870059674042,-0.159900884311182],[31.553444144079954,-0.159136570196028],[31.54855597045611,-0.157843125355974],[31.54839003833432,-0.15730312679440359],[31.548497925547423,-0.15657053781508376],[31.549707340808464,-0.155842558763415],[31.5501017862147,-0.152977330417258]]]}},{"type":"Feature","properties":{"n":"Kigangazzi Town Council","c":"118105","d":"Bukomansimbi","od":"Bukomansimbi","dc":"118","k":"KIGANGAZZITOWNCOUNCIL","a":["KIGANGAZZI","KIGANGAZZITOWNCOUNCIL"],"lat":-0.010819,"lon":31.66476},"geometry":{"type":"Polygon","coordinates":[[[31.634867827180152,-0.017944413284977],[31.636160558763784,-0.013998928606931152],[31.638637897240677,-0.012137985188618],[31.641417027806003,-0.007248640412084],[31.643103764823188,-0.001693261538496],[31.643103772449532,-0.0016931982241527482],[31.64310379394204,-0.001693127437012],[31.643148031082315,-0.001325760559197611],[31.643761294400004,0.003765586084221],[31.64300948562104,0.006681409727268],[31.639781676506214,0.012618188217913],[31.63984649132069,0.014849727135468],[31.64145529309034,0.018282650650596],[31.640518478601003,0.031621633134787],[31.641005544359512,0.03612245507678236],[31.64118356434657,0.037767374356093],[31.646343464970833,0.03940643815278768],[31.6464,0.0394],[31.64898376577812,0.03820150623545108],[31.650418061421785,0.037506373950801],[31.650489433710508,0.03750309400175237],[31.65950532136993,0.03332102562961057],[31.65984125517277,0.033036018083611],[31.662277220103764,0.032035265373555895],[31.663,0.0317],[31.66300737160136,0.03168388887125769],[31.663638965378947,0.028841380184298],[31.665694447567663,0.025665251512312],[31.6666173935941,0.020786710239078],[31.668903534147862,0.018797430522200224],[31.6727,0.0105],[31.672887884245423,0.010354582741556461],[31.682831340168914,0.001300756420445],[31.6864053395023,-0.00010755728602615792],[31.68712222679651,-0.0006624084109989124],[31.68888110568689,-0.009500899868335],[31.691900264475745,-0.012681258610020464],[31.699929735156726,-0.03341924403786969],[31.699929735156726,-0.033419244037870006],[31.699929693992775,-0.03341913772234475],[31.69570276457217,-0.03571828074628328],[31.69457237332032,-0.036333097180628],[31.694572259668572,-0.03633319341787045],[31.69457214265718,-0.036333257063582],[31.688827803436233,-0.04119744449016476],[31.68753029199201,-0.042296142291764566],[31.684876006853543,-0.043920228630386],[31.68166628899526,-0.044636501368216],[31.679265928803712,-0.04650208749265],[31.676684490273978,-0.04390203105297],[31.674285607626725,-0.04501457498612347],[31.674138032236865,-0.045082905105555],[31.674138038507234,-0.04508301398575398],[31.67413550822741,-0.045084187468531],[31.674494445555656,-0.051286183778652],[31.665340247047688,-0.057978323196809387],[31.66152937058421,-0.05472117014188936],[31.659701600806287,-0.0497816980414269],[31.659331287339757,-0.048780821168496],[31.659331220624228,-0.04878076094423618],[31.65933109067498,-0.04878040976177],[31.656224782305223,-0.045971786585779],[31.651561516876452,-0.052815265238822],[31.646509048448046,-0.062317443272242],[31.643778693032377,-0.061369856619564],[31.643986200377235,-0.059764303391217],[31.643986071623505,-0.05976413138429531],[31.643986078179864,-0.059764080991648],[31.64276865775389,-0.058137525238779],[31.64276848443299,-0.05813751113495976],[31.642767919665925,-0.05813675664152],[31.640302657551317,-0.057936643463763086],[31.64029712730656,-0.057928040630746164],[31.63988162972206,-0.057273013441063],[31.639876999285175,-0.057274490674986446],[31.63987670750345,-0.057274036780166],[31.639543651847628,-0.057380837474520587],[31.638358536588203,-0.05775892112156],[31.63568206341653,-0.055267474560548],[31.631590676039345,-0.05800129131823595],[31.630511139846234,-0.057590331206692644],[31.62919914504731,-0.054011473870768],[31.629894204520205,-0.047941241842191],[31.62911261861809,-0.046979718377883],[31.63109861724484,-0.045054074542008],[31.62661603116803,-0.042133596892871],[31.623515426639397,-0.03856945143832555],[31.62321765309765,-0.03822714538041598],[31.623751399090224,-0.037108571074894],[31.628464946149478,-0.024117577939071],[31.63486773145548,-0.017944688942873],[31.634867819276295,-0.017944420905072977],[31.634867827180152,-0.017944413284977]]]}},{"type":"Feature","properties":{"n":"Kitanda","c":"118106","d":"Bukomansimbi","od":"Bukomansimbi","dc":"118","k":"KITANDA","a":["KITANDA"],"lat":-0.057925,"lon":31.577126},"geometry":{"type":"MultiPolygon","coordinates":[[[[31.53528513174741,-0.030930513408217238],[31.53560345462336,-0.025665942767541132],[31.537760605323765,-0.019174145894114],[31.536233965199965,-0.015791297211324],[31.536261893738885,-0.015640844671438628],[31.537618525509547,-0.012152362975453555],[31.538458799533693,-0.010952397175911],[31.538906316524887,-0.00884090036458025],[31.542335492114326,-2.3020277445818933e-05],[31.55004197702992,0.008579602767052],[31.55761764063935,0.013627517979242],[31.56617916017289,0.026576961878892545],[31.5662,0.0266],[31.573226347881626,0.029920468197225103],[31.573122465056407,0.025484486425534],[31.57312262770121,0.0254842725971994],[31.5731226094189,0.025483490784099],[31.57561604882092,0.022206183931285393],[31.57579421538375,0.02197194921431769],[31.575679498489716,0.019337318807869],[31.575679711136363,0.019337089214544054],[31.57567969790741,0.019336785101405],[31.575987302962165,0.01900498414484159],[31.576720659319218,0.018213183636358644],[31.576906664242383,0.01680469927988788],[31.577474649628364,0.012501539427778],[31.57747993406543,0.012491725012407954],[31.578979554602984,0.009409620142848392],[31.582447664849568,-0.012874301922775],[31.582447759331686,-0.012874529024634778],[31.582447782669707,-0.012874680531271],[31.584961181448204,-0.01891591389576354],[31.589538798948897,-0.029918900195906],[31.594375361021882,-0.03586605986877382],[31.59590673077921,-0.03774918133133],[31.59590688548578,-0.03774926128173357],[31.595907118170135,-0.037749547396332],[31.6035266138082,-0.041687064023384],[31.605579751929827,-0.04385030690794541],[31.60568232725501,-0.04404673640030117],[31.610909256153583,-0.054056868562083],[31.609543565049233,-0.054817194555199],[31.60954706589461,-0.054821143681002396],[31.609546981260326,-0.054821190880939],[31.60955151464066,-0.05482616208539368],[31.612470350296682,-0.058118752292216],[31.6127219239915,-0.058302762752233256],[31.61305200608969,-0.058664723469502],[31.61431921876584,-0.05947108421135759],[31.61544593472382,-0.060295206629583],[31.615547243012184,-0.06025250832503229],[31.615655604537626,-0.06032146161258044],[31.61564914444394,-0.060324455586627],[31.616196313286437,-0.060670462967616],[31.61126976640855,-0.069540063305876],[31.606655314762392,-0.071819448565224],[31.61855324405866,-0.07173174053175285],[31.619837165908464,-0.07172259668401282],[31.620405287294613,-0.073545957275063],[31.61932334833664,-0.074442767725352],[31.619322787887967,-0.0744447143193886],[31.619322516333515,-0.074444939670502],[31.617724636483654,-0.07999553839811072],[31.61724224088856,-0.081671032395422],[31.61724226792024,-0.08167115520657055],[31.61724225156253,-0.081671212028798],[31.617813565813428,-0.084266878231432],[31.617813626648122,-0.08426696952903252],[31.617813663703565,-0.084267137880447],[31.62244765974214,-0.091229856039632],[31.62030969433816,-0.094227560982337],[31.620024010501055,-0.097994915369546],[31.61865358814327,-0.098253612583859],[31.617905262310934,-0.107614085339705],[31.617905299320633,-0.10761418441527225],[31.617905287281918,-0.107614335004517],[31.618387998124753,-0.10890637696696975],[31.622464149157235,-0.119818299596179],[31.621674285481404,-0.12097332663863104],[31.621303310726137,-0.121512670431633],[31.62130521548854,-0.12151302207641383],[31.621302370499915,-0.121517182337097],[31.622613866163167,-0.12175886859400292],[31.62067740807783,-0.13134330598162866],[31.620598999143784,-0.131731321388738],[31.620599008417276,-0.13173141991877466],[31.620325610090173,-0.13843208147091549],[31.620325065225508,-0.138437262766708],[31.617167235690246,-0.139970063476089],[31.610242607310788,-0.13438856944840533],[31.61016619935624,-0.134326975689866],[31.610166190154796,-0.13432697453292447],[31.610165972746557,-0.134326799294236],[31.60795789673971,-0.134049315178677],[31.60621312726383,-0.133829936919124],[31.606212939066403,-0.13383003013814182],[31.60621277053872,-0.133830008959634],[31.605249203537404,-0.13430585031648],[31.604036347168485,-0.139712191646281],[31.60504859749829,-0.140559143077131],[31.601871926349737,-0.145556686790718],[31.601759173273212,-0.1455403364515627],[31.595053674535603,-0.144361075711221],[31.594792865522418,-0.14453015120521912],[31.594444791924037,-0.144479677004781],[31.594176003906938,-0.14493004605966675],[31.59365945117605,-0.145264913352346],[31.5933512012904,-0.14494684845093633],[31.590746699717982,-0.142259268780518],[31.58925665384431,-0.13917428288558523],[31.586813066346558,-0.13411501134893447],[31.584408552031707,-0.126574815817789],[31.58613851580117,-0.124024866608566],[31.586136217230194,-0.12402283336376374],[31.586136354514668,-0.124022630745568],[31.579700863837342,-0.11833031876269592],[31.57747930960392,-0.116365200588321],[31.5724217031593,-0.11463474154701703],[31.572031703065033,-0.11450128889554868],[31.567173817856663,-0.111776904718057],[31.565100114109892,-0.113172880183752],[31.565099392614158,-0.11317401615544229],[31.565099344996135,-0.11317404817932],[31.564571234005243,-0.1140055847963502],[31.56241608342411,-0.117398799655392],[31.56214768455082,-0.120464562784339],[31.553583146303982,-0.12629683388290763],[31.553114603421943,-0.126615887416649],[31.55297966370696,-0.12613808998983655],[31.553,-0.126],[31.54992681742346,-0.11346857590148406],[31.549989283094526,-0.112286424925009],[31.549132579951923,-0.11022993766803986],[31.548016491494053,-0.10567889735439344],[31.547904873559787,-0.102844078847535],[31.544401625865596,-0.09093866857816407],[31.542988209546774,-0.08517522339461475],[31.542803408438495,-0.08266258419545942],[31.54376294377394,-0.0702525938570283],[31.543838129305495,-0.070140954738659],[31.543774673350033,-0.0701008913395558],[31.54408110539056,-0.06613770361543894],[31.544248101183033,-0.065364650842306],[31.544193746123327,-0.06468088347163124],[31.5442,-0.0646],[31.54418345579103,-0.06455143474140203],[31.543988861823994,-0.06210351166105],[31.54185990003445,-0.057730674294674635],[31.541631579675407,-0.05706044356328811],[31.54209842728228,-0.056355375699701],[31.541629016444794,-0.054565406661133],[31.540349576277194,-0.05329714326531594],[31.539825474139644,-0.05175864989379463],[31.539866337033292,-0.051551397066881],[31.539645148610994,-0.05122930721291954],[31.538680261141128,-0.048396895607825195],[31.538719741414027,-0.047844645406689],[31.53814965949753,-0.04683932304113924],[31.53760723484758,-0.04524704422999628],[31.538163032919794,-0.040528295136992],[31.534902046175596,-0.0372661594036442],[31.534908717919585,-0.03715581902225466],[31.535398733126986,-0.03202567975372],[31.53528513174741,-0.030930513408217238]]],[[[31.548555971279765,-0.157843137890661],[31.54855613875512,-0.15784316988906644],[31.553444144079954,-0.159136570196028],[31.557026298638945,-0.1594615071434169],[31.565914773359594,-0.16115976903836096],[31.565926992126336,-0.161163572031609],[31.567684810145504,-0.167910551720041],[31.56692932267304,-0.167935224076112],[31.566965014685778,-0.168863204698616],[31.568192789970663,-0.170376548330219],[31.56800536458132,-0.17356120096795558],[31.56787475721925,-0.175780240035626],[31.559725784427243,-0.17922887447191],[31.551962638552872,-0.179935005645713],[31.551544935098327,-0.17966577930217512],[31.5468,-0.1681],[31.54721129686635,-0.16530716160107],[31.548251798356585,-0.162301490450832],[31.548555971279765,-0.157843137890661]]]]}},{"type":"Feature","properties":{"n":"Butenga","c":"118201","d":"Bukomansimbi","od":"Bukomansimbi","dc":"118","k":"BUTENGA","a":["BUTENGA"],"lat":-0.216972,"lon":31.687687},"geometry":{"type":"Polygon","coordinates":[[[31.57473497797008,-0.174148565208155],[31.57473505972852,-0.1741485050351483],[31.574735487766873,-0.174148403225496],[31.58024663052339,-0.170092086770709],[31.581755616690586,-0.169891925483109],[31.583647595653996,-0.16737668908438927],[31.58494583933045,-0.16565102060888173],[31.58883990993387,-0.167122945350009],[31.58985171595182,-0.16696153827611854],[31.5948352027489,-0.166166631851197],[31.594835270199397,-0.16616654309482187],[31.594836148300885,-0.166166403016794],[31.594839857251788,-0.16616050711061253],[31.595823441789562,-0.16486623352615],[31.5960994755717,-0.16514765064378362],[31.600238561797003,-0.16936771092574],[31.60069116749393,-0.173718892371984],[31.60123367624104,-0.173940178717113],[31.60234941773906,-0.172138240988732],[31.60358387415684,-0.172140312506535],[31.6092068344203,-0.1762859639038609],[31.609676415373723,-0.176632284341169],[31.60967666964565,-0.17663236028001028],[31.609676887385998,-0.17663252081388],[31.618982577394,-0.17941185002346455],[31.619036779612482,-0.18046387664083],[31.619266419467987,-0.184929905580447],[31.625195152738826,-0.188055984995718],[31.626115657508088,-0.188831553017545],[31.626191653443424,-0.190439169169241],[31.628227746833065,-0.191756076112225],[31.630040320570924,-0.1916329366034757],[31.63095894400117,-0.191570576906357],[31.630959066210266,-0.19157052044664216],[31.6309592617084,-0.191570507165227],[31.633663973681657,-0.190322051502094],[31.64180697514932,-0.194540346806441],[31.641807882236982,-0.19453951688852997],[31.641808297161475,-0.194539731790004],[31.64480154156594,-0.192302224964729],[31.64658117587433,-0.19017230737162882],[31.6488497164524,-0.188096761060275],[31.64978878756938,-0.1863333453169539],[31.64978882265956,-0.18633330332002],[31.659197309987498,-0.186011887062097],[31.658738299909036,-0.188905118346554],[31.660731446363524,-0.195143903210652],[31.66032230580753,-0.199210380754832],[31.662983606619143,-0.200864921859901],[31.664712147608977,-0.211412527148337],[31.66265787193868,-0.213469267227734],[31.661415742193384,-0.218373407603022],[31.670482345489457,-0.215337452392109],[31.683926380846255,-0.215569940079929],[31.683151784827032,-0.210088053687545],[31.68458315120615,-0.202906605541901],[31.684493286825127,-0.196449585192425],[31.683974557424346,-0.191381695479221],[31.68166302252757,-0.184674212614023],[31.682865219615714,-0.181602363187763],[31.68156441630261,-0.174310908572725],[31.68061460434251,-0.173113847671578],[31.68052024453439,-0.170022713352981],[31.67568640315961,-0.16993751305279],[31.67601914999427,-0.166280771384931],[31.677155278374897,-0.161075182326195],[31.67990508721127,-0.156471901807646],[31.692788551445048,-0.147474170929787],[31.696576903429996,-0.158328019299083],[31.69774808662626,-0.164963352577788],[31.704290597944823,-0.18062691763094502],[31.704677921540224,-0.18672726425850214],[31.704732934300424,-0.197076125217115],[31.70619540939451,-0.210704546734597],[31.711724226733487,-0.220391021072956],[31.71905688226488,-0.23003439546703486],[31.7193,-0.2304],[31.720946229611624,-0.2540282367785988],[31.716325876624314,-0.260849699675766],[31.712641484249254,-0.267952530007063],[31.708611558589137,-0.279539816933862],[31.708504431859442,-0.2807673525421007],[31.7082,-0.2814],[31.708367311509512,-0.2823385767606677],[31.708149562962788,-0.284833697217585],[31.699927509746583,-0.284524030116349],[31.689828701218275,-0.282708109596033],[31.686906595472834,-0.278475868174842],[31.686586389027415,-0.275020432139092],[31.6909487617272,-0.264174660105834],[31.69236370570471,-0.256797518087138],[31.69037779944181,-0.24621446798482],[31.678844135346548,-0.251228379135284],[31.673239619140904,-0.252700457583734],[31.66889148181001,-0.249938389339243],[31.663939693842448,-0.245003292427079],[31.66239096954755,-0.242261907422831],[31.654874836219555,-0.242104263192733],[31.648262442618467,-0.239323587384877],[31.64213077357698,-0.238090678567367],[31.635680959649928,-0.234569868304642],[31.634695760744638,-0.230020278380562],[31.639677041871227,-0.22812171642187],[31.64011222058086,-0.221599898234541],[31.638559166779064,-0.213855908584007],[31.623618728788745,-0.219887396027653],[31.618122179314508,-0.214200486942209],[31.616688273722776,-0.210288815661105],[31.61215496186781,-0.210638940086293],[31.604237796915555,-0.214451643415982],[31.593771068445033,-0.214950038873399],[31.588925711540504,-0.207722418994922],[31.577723869663924,-0.207969419938497],[31.572419858176445,-0.204825616854248],[31.56909816369885,-0.200639579685245],[31.566957222867153,-0.199568925445415],[31.559969677085686,-0.20023773531984],[31.55677493367873,-0.199078574919456],[31.553403584656284,-0.195513574693659],[31.553157288618884,-0.190791449278574],[31.552595574890812,-0.18925796146270255],[31.551600618305205,-0.17980587389943786],[31.551746244336012,-0.17979553104205698],[31.551962638552872,-0.179935005645713],[31.559725784427243,-0.17922887447191],[31.56786869737607,-0.17578280455319187],[31.57473497797008,-0.174148565208155]]]}},{"type":"Feature","properties":{"n":"Butenga Town Council","c":"118202","d":"Bukomansimbi","od":"Bukomansimbi","dc":"118","k":"BUTENGATOWNCOUNCIL","a":["BUTENGA","BUTENGATOWNCOUNCIL"],"lat":-0.164546,"lon":31.660698},"geometry":{"type":"Polygon","coordinates":[[[31.626949572293814,-0.13681667408920306],[31.62832977370316,-0.13600796743653],[31.632119730224233,-0.13166592886014425],[31.632119789838452,-0.131665869469761],[31.63211980085232,-0.1316658479436805],[31.632120104870175,-0.131665499639616],[31.63286298667026,-0.13021332651371648],[31.634699728528457,-0.1266235016732276],[31.636584844259527,-0.126079887733875],[31.642132120969695,-0.119177260393901],[31.644278126451105,-0.12037099454570553],[31.644461184126783,-0.12047322303586],[31.64446140155516,-0.12047294291106686],[31.64446165434203,-0.120473083525955],[31.647308188603812,-0.116805565179908],[31.651463883219545,-0.11438822571690158],[31.65165878646525,-0.11435414940646363],[31.65425491077497,-0.113900718314308],[31.657986217985812,-0.111314427120801],[31.65688689637798,-0.11378081866784576],[31.656880429586856,-0.11379523089459],[31.656880433220135,-0.11379531913591884],[31.6568803742204,-0.113795451505232],[31.65713390327119,-0.119952791305899],[31.657611741079634,-0.122298372940003],[31.657612684942745,-0.12229903919597737],[31.657612722420104,-0.122299222862322],[31.65887682469969,-0.12319137268955602],[31.659796084120966,-0.123840261363761],[31.6597962435491,-0.12384025955647004],[31.65979631618912,-0.123840310822718],[31.66306314290094,-0.12380322570599751],[31.66392741456482,-0.123793428248494],[31.66827827891993,-0.125919545484766],[31.668278469373142,-0.12591949160850752],[31.668278539902566,-0.125919526071671],[31.669786669666703,-0.12549284514520043],[31.670129126218846,-0.125395969499815],[31.67204231661532,-0.123124339422642],[31.672347125140565,-0.113796954799649],[31.676542531917907,-0.111675920658946],[31.67766768753694,-0.11302660834527067],[31.67775998941785,-0.11313755173410286],[31.678628617953798,-0.116647444750665],[31.67926160046718,-0.1171883585552428],[31.679936471863503,-0.117765350197563],[31.67993674689253,-0.11776530343739362],[31.679937316566303,-0.117765790250854],[31.6808905954663,-0.117607635012436],[31.681360936788998,-0.12753438228389],[31.689733465144798,-0.12845430144302067],[31.689908191709677,-0.128473517223443],[31.689908226025764,-0.12847350303611615],[31.68990848414528,-0.128473531396616],[31.694878967848155,-0.12641844536102134],[31.695315216172396,-0.126238086875505],[31.69225349956474,-0.141295483591999],[31.692788547633544,-0.14747415991097],[31.691514384601223,-0.148364041087859],[31.67990508721127,-0.156471901807646],[31.677155278374897,-0.161075182326195],[31.67601914999427,-0.166280771384931],[31.67568640315961,-0.16993751305279],[31.675689309942154,-0.16993756428714507],[31.67568919846555,-0.169938800140666],[31.67666915702025,-0.16995483487149454],[31.68052024453439,-0.170022713352981],[31.680607679919603,-0.1728870104014628],[31.680614364121148,-0.173112553089734],[31.680614572856896,-0.17311281623397679],[31.68061460434251,-0.173113847671578],[31.68156436395868,-0.17431084260295968],[31.68184046315687,-0.17585824712051318],[31.682865219615714,-0.181602363187763],[31.681928590556375,-0.18399563419708878],[31.681663056396275,-0.184673926353774],[31.68166309299439,-0.1846740325574671],[31.68166302252757,-0.184674212614023],[31.683974557424346,-0.191381695479221],[31.684205763521987,-0.1936405360270978],[31.68449328993779,-0.19644980884644833],[31.68458315120615,-0.202906605541901],[31.683151784827032,-0.210088053687545],[31.683151808297474,-0.2100882197899945],[31.683151784827032,-0.210088337549017],[31.683158157587183,-0.21013315429004437],[31.683926380846255,-0.215569940079929],[31.670482345489457,-0.215337452392109],[31.661415742193384,-0.218373407603022],[31.66265787193868,-0.213469267227734],[31.664712147608977,-0.211412527148337],[31.662983606619143,-0.200864921859901],[31.66032230580753,-0.199210380754832],[31.660731446363524,-0.195143903210652],[31.66073138724511,-0.1951437181630073],[31.660731393320333,-0.195143657774433],[31.660668388667947,-0.19494652514250246],[31.658738299909036,-0.188905118346554],[31.659197309987498,-0.186011887062097],[31.658152541149285,-0.18604757884534215],[31.64809076717605,-0.186362813954701],[31.648048552604624,-0.186363547619565],[31.64158786874905,-0.18251241907357865],[31.641088108239195,-0.18126938592747813],[31.63940835293933,-0.17709014651931768],[31.641135344302782,-0.1755343911736494],[31.64379688818573,-0.17474789497805],[31.645319739643273,-0.172225672415662],[31.64203657437335,-0.168357694284701],[31.64485207442737,-0.1659243235313556],[31.644970642117414,-0.165821999587603],[31.644970645573366,-0.16582184526698718],[31.644970734162484,-0.165821768701488],[31.645027842208105,-0.163270988746839],[31.64348165087979,-0.159981889855717],[31.643494483219346,-0.15997537450871732],[31.6537717511788,-0.155158020006238],[31.655066761190355,-0.1540997969319857],[31.656431329935568,-0.153406966225588],[31.657096416621787,-0.152444598908703],[31.657094657940743,-0.1524426922653681],[31.657094832471525,-0.152442549646778],[31.657093488466522,-0.1524414244003193],[31.655171987748503,-0.150358262960924],[31.654196634642176,-0.15001608037500525],[31.653501306284515,-0.149433927950291],[31.646582803137527,-0.147073245880052],[31.64576566805099,-0.1470582490713961],[31.64503639104463,-0.146802397226286],[31.629431493519636,-0.14675802129795293],[31.629016936765197,-0.14644608396891928],[31.62733936738339,-0.14518368178402044],[31.624751472402153,-0.14131247860523832],[31.62506529133977,-0.1396886282533751],[31.625303498025463,-0.13845699664133124],[31.62530759308883,-0.1384524880566118],[31.626949572293814,-0.13681667408920306]]]}},{"type":"Feature","properties":{"n":"Kibinge","c":"118203","d":"Bukomansimbi","od":"Bukomansimbi","dc":"118","k":"KIBINGE","a":["KIBINGE"],"lat":-0.251964,"lon":31.62801},"geometry":{"type":"Polygon","coordinates":[[[31.577723746831605,-0.207969361375168],[31.5777237699986,-0.20796936086468845],[31.577723869663924,-0.207969419938497],[31.581741321904445,-0.20788083499817114],[31.588925783925475,-0.20772252696861054],[31.593771068445033,-0.214950038873399],[31.604237796915555,-0.214451643415982],[31.60423794727326,-0.21445157100757367],[31.60423800222419,-0.214451568393392],[31.605095320829577,-0.21403868192004294],[31.61215496186781,-0.210638940086293],[31.616688273722776,-0.210288815661105],[31.61809857910466,-0.2141361059511491],[31.61812194662237,-0.214199985900252],[31.618122025593408,-0.21420006759352866],[31.618122179314508,-0.214200486942209],[31.623618728788745,-0.219887396027653],[31.638559166779064,-0.213855908584007],[31.64011222058086,-0.221599898234541],[31.639677041871227,-0.22812171642187],[31.634695760744638,-0.230020278380562],[31.635680959649928,-0.234569868304642],[31.635681936184284,-0.23457040137307225],[31.63568195075053,-0.234570468628999],[31.640149715373617,-0.23700926286571322],[31.64213077357698,-0.238090678567367],[31.644825984487262,-0.23863261083309348],[31.64826257934641,-0.23932364488237512],[31.654874836219555,-0.242104263192733],[31.66239096954755,-0.242261907422831],[31.663879197404803,-0.24489620814648108],[31.663939422547617,-0.245002964409295],[31.66393961932644,-0.24500316052686777],[31.663939693842448,-0.245003292427079],[31.66889148181001,-0.249938389339243],[31.668891499686158,-0.24993840069471068],[31.66889157119811,-0.249938471966357],[31.669338693496528,-0.25022247171840756],[31.673239619140904,-0.252700457583734],[31.678844135346548,-0.251228379135284],[31.69037779944181,-0.24621446798482],[31.69236370570471,-0.256797518087138],[31.691906762734234,-0.25917989734824265],[31.69094870591794,-0.2641747988593392],[31.686586389027415,-0.275020432139092],[31.686871965169455,-0.2781021630232513],[31.686906558785026,-0.278475648336148],[31.68690657762989,-0.2784756756267137],[31.686906595472834,-0.278475868174842],[31.689828701218275,-0.282708109596033],[31.68982925507059,-0.28270820918716555],[31.689829258295486,-0.282708213857367],[31.699927160118737,-0.284523972817643],[31.699927199302095,-0.28452397429367293],[31.699927509746583,-0.284524030116349],[31.706391138511872,-0.2847674696965341],[31.708149563471185,-0.284833709241798],[31.708778491740308,-0.289293397546326],[31.710046783880593,-0.29176000713502764],[31.712266662142145,-0.3042129827486335],[31.712281832260324,-0.304366679505845],[31.71203607592279,-0.30442690488165725],[31.692126458484566,-0.30645652607681634],[31.689171651225216,-0.301655655994151],[31.6733521781763,-0.3022658872714546],[31.672243675883625,-0.30201007905006694],[31.671971078387543,-0.3017138479844271],[31.670098732853873,-0.29937341606733986],[31.67089490250052,-0.297420316834],[31.666643718430986,-0.295045985076738],[31.6666375891431,-0.295046986428876],[31.6666,-0.295],[31.653158459975153,-0.2963362934527626],[31.651327321563635,-0.296164896615772],[31.650559934320608,-0.296594626412571],[31.6495,-0.2967],[31.628386688892185,-0.3035422767479035],[31.62645578024963,-0.30332365609110873],[31.615404597295075,-0.3004438690019741],[31.610995081697403,-0.298790604926513],[31.597248638837897,-0.295704549859662],[31.596570059394924,-0.2899780395038996],[31.596,-0.2848],[31.5821347305116,-0.24705068565094102],[31.58207131749322,-0.245695626269408],[31.580516112228782,-0.242573031307548],[31.58034985963394,-0.2424521173838048],[31.571065580122156,-0.23330745109776205],[31.569512501554374,-0.231367280614509],[31.567414794681234,-0.22971156468602832],[31.5672,-0.2295],[31.567167417496307,-0.2294451786445829],[31.56510134013965,-0.222948875268015],[31.562288737808736,-0.22123660647184043],[31.560423339807496,-0.21809800031102725],[31.56060080510478,-0.217408836259641],[31.55898796096512,-0.214253690595541],[31.557285438959344,-0.21281835761413198],[31.554714695120186,-0.20849297909110637],[31.554633263151796,-0.208266353799893],[31.556074290296245,-0.203636575548516],[31.554816303701006,-0.202089012427565],[31.55442419021311,-0.197069187782284],[31.55677444416142,-0.19907805728413705],[31.55677493367873,-0.199078574919456],[31.559969677085686,-0.20023773531984],[31.566957222867153,-0.199568925445415],[31.56909816369885,-0.200639579685245],[31.572419858176445,-0.204825616854248],[31.577350115910026,-0.20774788795142965],[31.577723746831605,-0.207969361375168]]]}}]}
