{"type":"FeatureCollection","name":"Bukwo sub-counties","metadata":{"source":"Uganda Bureau of Statistics NPHC 2024 Map Explorer","retrieved":"2026-07-26","display_only":true,"clipped_to_dashboard_district":true,"positive_area_overlaps_removed":true,"source_gap_ratio":0.00751061},"features":[{"type":"Feature","properties":{"n":"Amanang","c":"220101","d":"Bukwo","od":"Bukwo","dc":"220","k":"AMANANG","a":["AMANANG"],"lat":1.267369,"lon":34.726542},"geometry":{"type":"MultiPolygon","coordinates":[[[[34.71050957817966,1.267200260846964],[34.71398518883398,1.269133834436662],[34.71417150981195,1.270174478911187],[34.71316006790105,1.271471451670795],[34.71583157210914,1.275847215849975],[34.716840237124835,1.280223665024113],[34.72177218029882,1.282224887335537],[34.72547495949123,1.281689318902576],[34.72729463295349,1.283347142358014],[34.72727800638642,1.285281139532814],[34.73068301358456,1.287144255503836],[34.73236930619851,1.285145163145211],[34.733232597569966,1.285153348903604],[34.734349605891175,1.286632208395192],[34.73557721551425,1.285735277086712],[34.7370154740803,1.282434109866635],[34.736597569222326,1.280884567976646],[34.740689538643444,1.280789878555474],[34.7461866010981,1.278117218589609],[34.746125048894946,1.275543202114955],[34.74774371590598,1.271660460569885],[34.74358971837555,1.266769632820795],[34.74243150122613,1.26753867780719],[34.74150649447117,1.266563053155108],[34.73614485276578,1.266006535734473],[34.72887818350866,1.257031033176726],[34.726665069983646,1.256336622762497],[34.72575772431528,1.254912029162214],[34.72246850374159,1.253540686673627],[34.72218073963038,1.252725886250427],[34.72025674219367,1.252513456147316],[34.72042469351487,1.251326765250033],[34.71818669320286,1.251868861760482],[34.71812613258924,1.250998401263787],[34.71535681390094,1.250697932073993],[34.71484247763514,1.249099586007024],[34.711972850135965,1.247286438758849],[34.71110044337039,1.250735108276631],[34.72160789770087,1.255632488605156],[34.71564687325439,1.25867537730141],[34.71318198023488,1.259023938534519],[34.712077912174514,1.259633079015958],[34.71226462946753,1.260405892071201],[34.708290823226996,1.262290358557722],[34.71117861029586,1.266121704246779],[34.71050957817966,1.267200260846964]]],[[[34.73121862772153,1.259874969053654],[34.73121862304106,1.259874972751845],[34.73121862772154,1.259874969053665],[34.73121862772153,1.259874969053654]]]]}},{"type":"Feature","properties":{"n":"Bukwa","c":"220102","d":"Bukwo","od":"Bukwo","dc":"220","k":"BUKWA","a":["BUKWA"],"lat":1.288167,"lon":34.778615},"geometry":{"type":"Polygon","coordinates":[[[34.74526542415309,1.279004551906587],[34.750959287982994,1.277660663400327],[34.7543148682661,1.28403994917102],[34.75619975100682,1.285064456056555],[34.75742089990834,1.288378144398472],[34.75814377948382,1.287990261982422],[34.75916769132333,1.294397117785637],[34.765276406901386,1.303152594512027],[34.766498150433044,1.303323814717906],[34.76763206467904,1.302446115213021],[34.76911708942091,1.303303908330801],[34.769164404924005,1.302443724775888],[34.77044353817113,1.301747636817988],[34.78261872724442,1.300934004195991],[34.78485976446978,1.304296428641671],[34.78779314769121,1.304095455661125],[34.788816809261455,1.305659069556118],[34.78985580660064,1.305693998421525],[34.79163326918452,1.309265149725797],[34.79518009150122,1.308593417500045],[34.79674197283301,1.309921594492377],[34.79814301673426,1.308663740440309],[34.805711470942285,1.307410229426309],[34.80578773756707,1.306623303641362],[34.81198734144625,1.304448686608053],[34.81230345961821,1.302658982319657],[34.813675472824954,1.302313369195045],[34.81275304368585,1.30093050619299],[34.813952470116284,1.299401408501731],[34.81024061552097,1.294520999832647],[34.806938159813505,1.293166220466552],[34.80237092694271,1.28929991427256],[34.79915676316724,1.28834439189662],[34.79793211923237,1.286138177448798],[34.79162121895943,1.281946616305669],[34.7900402089263,1.281776015649238],[34.787300596623886,1.279969330282722],[34.784760548614514,1.281109498620611],[34.783027037322825,1.28042447689168],[34.78173353499847,1.282287759810987],[34.77755452664863,1.282824241732275],[34.77481520771216,1.282220611054926],[34.770950744163045,1.280513985425099],[34.76877402430405,1.278624879605975],[34.76731262028354,1.275922406632406],[34.767706839235316,1.274421590523315],[34.76369122660696,1.270139327469257],[34.763342999608334,1.268539373924961],[34.75869835619576,1.269184041948419],[34.75582294676005,1.267258659767646],[34.751410315144845,1.268644366798904],[34.74612470276631,1.266589320973559],[34.74371837894883,1.2669211150249589],[34.74774371590598,1.271660460569885],[34.746125048894946,1.275543202114955],[34.7461866010981,1.278117218589609],[34.74618275773112,1.278119087226387],[34.74526542415309,1.279004551906587]]]}},{"type":"Feature","properties":{"n":"Bukwo Town Council","c":"220103","d":"Bukwo","od":"Bukwo","dc":"220","k":"BUKWOTOWNCOUNCIL","a":["BUKWO","BUKWOTOWNCOUNCIL","TOWNCOUNCIL"],"lat":1.295679,"lon":34.743809},"geometry":{"type":"Polygon","coordinates":[[[34.72916531121269,1.298349574133495],[34.73067774253796,1.300699541796281],[34.731506067965405,1.300043412790271],[34.73463655383689,1.300594363346316],[34.734306270225574,1.304023955159194],[34.73809152460284,1.302100121875365],[34.74119493814005,1.303916609430189],[34.74241341075972,1.305316408809444],[34.742836667659404,1.309683424680301],[34.747819728493496,1.312279196795839],[34.74861441270136,1.311180668326524],[34.74965540613102,1.31179333941915],[34.75388548119615,1.310803378152078],[34.75501439044147,1.312573200483008],[34.75721366235641,1.313117260802383],[34.757888137567406,1.311217431076556],[34.761228197377186,1.309316353067272],[34.76316457066636,1.305878872757597],[34.76451222719063,1.305341809269247],[34.76527639739736,1.303152601222017],[34.76470688674532,1.3023363148198588],[34.75916769132333,1.294397117785637],[34.75814377948382,1.287990261982422],[34.75742089990834,1.288378144398472],[34.75663328846587,1.2862408957373062],[34.75619962962,1.28506439007811],[34.7543148682661,1.28403994917102],[34.7511279646445,1.2779813342041295],[34.7509589825539,1.2776607354889242],[34.75091685950327,1.277670677539748],[34.747412134928,1.278870324664491],[34.7454551672915,1.2789597679724303],[34.74526542415309,1.279004551906587],[34.74530469504759,1.2789666453141901],[34.74434975118785,1.2790102910731276],[34.740689538643444,1.280789878555474],[34.736597569222326,1.280884567976646],[34.7370154740803,1.282434109866635],[34.73557721551425,1.285735277086712],[34.7343848210356,1.2866064790713312],[34.73434961602764,1.286632215646917],[34.73414516900789,1.288036563042669],[34.73004759280262,1.290027224239889],[34.726990657247775,1.296960737554916],[34.727803354618025,1.29826297626412],[34.72916531121269,1.298349574133495]]]}},{"type":"Feature","properties":{"n":"Chepkwasta","c":"220104","d":"Bukwo","od":"Bukwo","dc":"220","k":"CHEPKWASTA","a":["CHEPKWASTA"],"lat":1.248198,"lon":34.697977},"geometry":{"type":"Polygon","coordinates":[[[34.68109650728735,1.242526270740594],[34.68730703688088,1.253198396958655],[34.69295535569819,1.267377437048336],[34.69459698153709,1.2679225934134],[34.6978820994292,1.27859823236909],[34.69635608460645,1.281097000220845],[34.6968670692291,1.28182079280047],[34.70066550790736,1.284261023973059],[34.70613681041964,1.282543469516561],[34.71029933282631,1.279573738220284],[34.71218189266065,1.279281336660162],[34.713789160205216,1.28040195603243],[34.71434554382149,1.279488956213217],[34.716094856847455,1.280787425295554],[34.71684022467668,1.280223666413667],[34.71681507035739,1.2801144701210794],[34.71583157210914,1.275847215849975],[34.71316006790105,1.271471451670795],[34.71417150981195,1.270174478911187],[34.71407655757421,1.2696441493550323],[34.71398466179623,1.269133541231705],[34.71050957817966,1.267200260846964],[34.710509671403194,1.2672001105599202],[34.71050932054811,1.267199915620262],[34.710580012831876,1.2670867120991722],[34.71117846477576,1.2661219388418834],[34.71052607471137,1.2652559584909513],[34.708290823226996,1.262290358557722],[34.71187804549435,1.2605892187100938],[34.71226459592291,1.260405753231763],[34.71209471266171,1.2597026153488298],[34.71207783387944,1.259634397331372],[34.712078183935304,1.2596342038195865],[34.712077912174514,1.259633079015958],[34.71318198023488,1.259023938534519],[34.71318218404275,1.259023909713989],[34.71318225776094,1.259023868962383],[34.713351923528684,1.2589999068043067],[34.71564685463368,1.25867537993457],[34.71564827404111,1.2586746622501483],[34.72160789770087,1.255632488605156],[34.71110044337039,1.250735108276631],[34.71110464154261,1.250718512682541],[34.712007173399634,1.245677539438145],[34.70870287385797,1.232963924522864],[34.67757157122976,1.221952217833209],[34.66936074216658,1.220291363546631],[34.663747017322635,1.220156053455102],[34.659304174380786,1.216485935734021],[34.651635800637166,1.216165687318517],[34.66492807878287,1.225501227299365],[34.68109650728735,1.242526270740594]]]}},{"type":"Feature","properties":{"n":"Kapkoros","c":"220105","d":"Bukwo","od":"Bukwo","dc":"220","k":"KAPKOROS","a":["KAPKOROS"],"lat":1.250848,"lon":34.737679},"geometry":{"type":"Polygon","coordinates":[[[34.711947869841794,1.2473851871666342],[34.711972850135965,1.247286438758849],[34.71484247763514,1.249099586007024],[34.71535681390094,1.250697932073993],[34.71812613258924,1.250998401263787],[34.71818666414223,1.2518684440610848],[34.718802872428306,1.2517196086052729],[34.72042469351487,1.251326765250033],[34.72025693095258,1.2525121224365834],[34.721328270134066,1.2526317644082945],[34.72218073963038,1.252725886250427],[34.72218113591622,1.2527270083287498],[34.72218251577048,1.252727162424191],[34.72230068732733,1.2530655166297306],[34.72246846126551,1.2535405664031367],[34.72252302253013,1.2535634166576723],[34.72575772431528,1.254912029162214],[34.72666495744102,1.2563364460630155],[34.72887658327281,1.257030126889116],[34.72887697337775,1.2570306534729752],[34.72887818350866,1.257031033176726],[34.73587882598225,1.2656779499695814],[34.73630771573098,1.2660234402727262],[34.74150649447117,1.266563053155108],[34.74243150122613,1.26753867780719],[34.74358971837555,1.266769632820795],[34.74371837894883,1.2669211150249584],[34.74612470276631,1.266589320973559],[34.751410315144845,1.268644366798904],[34.752585684469004,1.268275263352517],[34.75147688643733,1.266551488176151],[34.75243542988116,1.264698428569346],[34.7520586802174,1.259211854713415],[34.75320212672175,1.254980890916876],[34.753914445269714,1.255472761708495],[34.75608638435401,1.254164288398457],[34.75640463431787,1.253385019630484],[34.75556297026161,1.252103168633917],[34.760480812869424,1.250082252877843],[34.75687430185411,1.245599937401451],[34.74865139711909,1.243455752813533],[34.74007370062614,1.243234039623083],[34.73593366092105,1.242369270231349],[34.736053737642756,1.241028813642154],[34.708702887321834,1.232963928597238],[34.70957082944017,1.2363034683191974],[34.712007173399634,1.245677539438145],[34.71172506363998,1.2472532264782552],[34.711947869841794,1.2473851871666342]],[[34.73121862304106,1.259874972751845],[34.73121862772153,1.259874969053654],[34.73121862772154,1.259874969053665],[34.73121862304106,1.259874972751845]]]}},{"type":"Feature","properties":{"n":"Kapnandi Town Council","c":"220106","d":"Bukwo","od":"Bukwo","dc":"220","k":"KAPNANDITOWNCOUNCIL","a":["KAPNANDI","KAPNANDITOWNCOUNCIL"],"lat":1.225973,"lon":34.791509},"geometry":{"type":"Polygon","coordinates":[[[34.783581052679125,1.230359679060718],[34.78573256952028,1.230645004741659],[34.78662730033457,1.229649631312831],[34.787313898872696,1.23330846131439],[34.78926167476515,1.23514428641882],[34.79762981960201,1.236502500534925],[34.80648754247152,1.235827313930216],[34.809005783635804,1.234634338559208],[34.806017992670675,1.228214150403343],[34.7951,1.2191],[34.784501768636154,1.2214551625252996],[34.78436238943953,1.22158202886273],[34.78331194278749,1.222132825703517],[34.78228014665543,1.221427082921565],[34.780183916253655,1.22373231334345],[34.778023667489144,1.233411111394876],[34.781883743851445,1.233745296924802],[34.783581052679125,1.230359679060718]]]}},{"type":"Feature","properties":{"n":"Kapsarur","c":"220107","d":"Bukwo","od":"Bukwo","dc":"220","k":"KAPSARUR","a":["KAPSARUR"],"lat":1.213387,"lon":34.593515},"geometry":{"type":"Polygon","coordinates":[[[34.55813915431731,1.2416924536536411],[34.56719818625517,1.2532160751628176],[34.56746764686336,1.253452938508818],[34.57234916821494,1.25502299795655],[34.57740532764108,1.258592013261824],[34.58500803593788,1.259584658350578],[34.57829757761108,1.254215529404292],[34.57604724448764,1.24717775980094],[34.580696121560244,1.247167017761979],[34.58709243323742,1.250142109062053],[34.596189412476754,1.250938093079475],[34.60308238526188,1.254928701916587],[34.60843834889365,1.255802213549103],[34.61193332294285,1.25279280088081],[34.621169928368204,1.253184132351091],[34.62404889075147,1.255823416135917],[34.626023551802014,1.261830577508605],[34.62960755804489,1.265198969215762],[34.63879071982488,1.271274920633751],[34.6475841439439,1.275617524294756],[34.650431950749194,1.278038805874414],[34.65352449379805,1.278728568838998],[34.65678228650521,1.278489604674536],[34.658315407353726,1.277492713072335],[34.66931243446476,1.277531391171735],[34.67141239783379,1.279378947301206],[34.675959251118535,1.279801534366485],[34.677986709704925,1.281327921396521],[34.68474474558549,1.283991312317286],[34.68836802568195,1.283844208360473],[34.69318464979475,1.281565270663496],[34.69639662009397,1.281030625522803],[34.697846305598105,1.278656842857728],[34.694621665568434,1.2680028090450135],[34.69459698153709,1.2679225934134],[34.69295535569819,1.267377437048336],[34.68876418603213,1.2568562953352402],[34.68730702015915,1.253198368224172],[34.681096513693795,1.2425262817493825],[34.67923848314974,1.240569807151756],[34.66492807878287,1.225501227299365],[34.66481921982624,1.2254247725990692],[34.65163578635215,1.216165691625163],[34.641192017929605,1.217697002259708],[34.63689569971095,1.215439224903112],[34.63368545725485,1.21472027701313],[34.60119867202467,1.183813359659386],[34.59945866693938,1.177218571245262],[34.59611440722692,1.172956030326193],[34.581305112315256,1.160597282403481],[34.5765005688773,1.158001328492211],[34.57658662738381,1.157015680777571],[34.57002402638585,1.148359460336869],[34.563863406769876,1.144867572799108],[34.557257201705596,1.142733702208655],[34.55506893518486,1.158155077010105],[34.557920470195306,1.1694333112458575],[34.5584,1.1712],[34.55876690288928,1.201194311199215],[34.55894974879576,1.20292929989995],[34.55879504951539,1.2034952978829452],[34.5588,1.2039],[34.558541288392135,1.2044237332549488],[34.55776051404278,1.207280350983434],[34.55520471102571,1.2111782679235592],[34.554772062091885,1.2120541182042248],[34.554536818758066,1.223624210036954],[34.554306562419285,1.224052307119074],[34.5539,1.2363],[34.55507171012924,1.2377904842085221],[34.55768382098436,1.240563229248906],[34.55813915431731,1.2416924536536411]]]}},{"type":"Feature","properties":{"n":"Kaptererwo","c":"220108","d":"Bukwo","od":"Bukwo","dc":"220","k":"KAPTERERWO","a":["KAPTERERWO"],"lat":1.270345,"lon":34.808026},"geometry":{"type":"Polygon","coordinates":[[[34.76863059171573,1.258332102050707],[34.769397539301636,1.259590265819234],[34.77295793146015,1.261004268409004],[34.777775901057645,1.264621376463669],[34.78264349418462,1.265986939931455],[34.78596790682942,1.268016774204777],[34.78990688709697,1.273800260105111],[34.79360103507977,1.283261566623635],[34.79793211923237,1.286138177448798],[34.79802386178741,1.2863034530400366],[34.79853237817084,1.28665286254793],[34.79915370407774,1.288338880900924],[34.79915653192676,1.2883439753134223],[34.80214935822757,1.2892340452379016],[34.80237092694271,1.28929991427256],[34.806938159813505,1.293166220466552],[34.81024061552097,1.294520999832647],[34.813952470116284,1.299401408501731],[34.81275304368585,1.30093050619299],[34.812776898905994,1.3009662688331116],[34.81367520454677,1.302311536622935],[34.81367438802801,1.3023117429177598],[34.813675472824954,1.302313369195045],[34.812303527447895,1.302658965233211],[34.812303407004826,1.3026592801905348],[34.81208391548198,1.3039019323205046],[34.813186438358,1.30616674966958],[34.812722557526705,1.307007255400977],[34.81396823336837,1.308055303755361],[34.82268769853554,1.307379807757381],[34.827700766600806,1.304473395564018],[34.82731135935221,1.3026012656815],[34.82982213101768,1.30325985801161],[34.82985846397283,1.2971195885907276],[34.82896728240904,1.293883492901571],[34.82972321193531,1.2726736295350976],[34.823672983092514,1.2611678524622576],[34.82059720556114,1.260159980831368],[34.818512694568085,1.252910159901918],[34.81866742304816,1.251648731865095],[34.815536753685,1.2456951085035217],[34.81405100443995,1.245694349231072],[34.81142683858818,1.240092669005326],[34.81189702367704,1.2387733997277],[34.810651217526875,1.2364042384592175],[34.80900578812227,1.234634349161232],[34.80887526909915,1.2346961676762906],[34.80648754247152,1.235827313930216],[34.806486956587264,1.2358273585896853],[34.80648688310238,1.235827393394777],[34.806484385648524,1.2358275545614295],[34.79762981960201,1.236502500534925],[34.79717337591172,1.2364284162216819],[34.796857621883184,1.236448792582053],[34.78934339689287,1.2351575505472052],[34.78926167476515,1.23514428641882],[34.787313898872696,1.23330846131439],[34.787313813616784,1.2333080069923035],[34.787313764091635,1.233307960361053],[34.78730875078072,1.233281027534186],[34.78662730033457,1.229649631312831],[34.78573256952028,1.230645004741659],[34.78358230498922,1.2303598451371454],[34.78306626419225,1.23138652642577],[34.781883743851445,1.233745296924802],[34.78188080337544,1.2337450423535343],[34.78188071976582,1.233745208697797],[34.778023664653404,1.233411123445588],[34.77640303534398,1.240895262032883],[34.77238979809602,1.244542024305671],[34.77137008212452,1.246962970040167],[34.77060746623865,1.250724889319474],[34.77214241216807,1.253533886596851],[34.76972312238285,1.252315793559239],[34.768376754206244,1.255428592314341],[34.769410513177625,1.256941323901124],[34.76863059171573,1.258332102050707]]]}},{"type":"Feature","properties":{"n":"Senendet","c":"220109","d":"Bukwo","od":"Bukwo","dc":"220","k":"SENENDET","a":["SENENDET"],"lat":1.266906,"lon":34.767976},"geometry":{"type":"Polygon","coordinates":[[[34.75414285045781,1.2677862635792085],[34.75582294676005,1.267258659767646],[34.75650798580943,1.2677173638264254],[34.75707026141465,1.267700983939258],[34.758698662736144,1.2691839994011729],[34.763342999608334,1.268539373924961],[34.763343720917945,1.2685426880329143],[34.763345332411596,1.268542465390921],[34.7634995521888,1.2692586658149436],[34.76369122660696,1.270139327469257],[34.76697477019023,1.2736409095874475],[34.76770622248695,1.274420679067836],[34.76770617051599,1.2744208773987364],[34.767706839235316,1.274421590523315],[34.76734900932006,1.2757838713033727],[34.76731267889144,1.2759225150119247],[34.76877402430405,1.278624879605975],[34.7687774347976,1.2786278394646737],[34.772916081905315,1.2813819185080735],[34.773840849301386,1.2817903145816036],[34.779063685882214,1.282630502792942],[34.78173353499847,1.282287759810987],[34.783027037322825,1.28042447689168],[34.7830276576865,1.2804247220372404],[34.78302768180561,1.280424687249657],[34.783144460617315,1.2804708783824537],[34.784760548614514,1.281109498620611],[34.787300596623886,1.279969330282722],[34.787310470037276,1.279975841478295],[34.790939155405006,1.2818730174747486],[34.79162121895943,1.281946616305669],[34.79360101769818,1.2832615550791648],[34.79221215382966,1.2797044185921298],[34.78990688709697,1.273800260105111],[34.78928099288609,1.2728812785165147],[34.78596769099533,1.268016642419863],[34.78264360262333,1.265987006142434],[34.78251391292159,1.2659505869672105],[34.777775901057645,1.264621376463669],[34.77344099066872,1.2613669268523235],[34.772957645306334,1.2610041547635922],[34.769397539301636,1.259590265819234],[34.76939704080567,1.2595894480455418],[34.76048081906656,1.250082262603585],[34.75996288604695,1.2502950873582244],[34.75556297026161,1.252103168633917],[34.75640463431787,1.253385019630484],[34.75608638435401,1.254164288398457],[34.753914445269714,1.255472761708495],[34.75320212672175,1.254980890916876],[34.75210129997027,1.259054153735954],[34.75205868249492,1.2592118878806675],[34.75243542988116,1.264698428569346],[34.75243539464843,1.2646984966813886],[34.7524354012692,1.264698593090254],[34.75241558161183,1.2647367993144651],[34.75147688643733,1.266551488176151],[34.751478195416745,1.266553523160116],[34.752655365900544,1.267829596117532],[34.75414285045781,1.2677862635792085]]]}},{"type":"Feature","properties":{"n":"Suam","c":"220110","d":"Bukwo","od":"Bukwo","dc":"220","k":"SUAM","a":["SUAM"],"lat":1.211825,"lon":34.654779},"geometry":{"type":"Polygon","coordinates":[[[34.63368550110253,1.214720286833012],[34.63689569971095,1.215439224903112],[34.641192017929605,1.217697002259708],[34.641686305870934,1.2176245276173705],[34.651648440963626,1.216163049506059],[34.65911459026351,1.2164780182778312],[34.659304174380786,1.216485935734021],[34.663747017322635,1.220156053455102],[34.66936074216658,1.220291363546631],[34.67757157122976,1.221952217833209],[34.67757171569654,1.2219522689337277],[34.67757172650441,1.221952271119912],[34.67757522088107,1.221953508781106],[34.70870287385797,1.232963924522864],[34.708707047463584,1.2329799828777088],[34.7087070610605,1.2329799876935545],[34.708702887321834,1.232963928597238],[34.736053737642756,1.241028813642154],[34.73593366092105,1.242369270231349],[34.73597419321212,1.24237773659573],[34.74417649095026,1.243340087060557],[34.74865139711909,1.243455752813533],[34.75150546874943,1.2441999735724723],[34.75452577637716,1.244554337013335],[34.756872339876836,1.2455994258010412],[34.75687430185411,1.245599937401451],[34.760480812869424,1.250082252877843],[34.760355046565536,1.2501339347077394],[34.760355051988434,1.250133941771604],[34.76048081906656,1.250082262603585],[34.76587778898469,1.2558369415850692],[34.768630587384756,1.258332088013273],[34.768636381979164,1.2583217766881352],[34.769410513177625,1.256941323901124],[34.768376754206244,1.255428592314341],[34.76846044057544,1.255235109706554],[34.76840530063219,1.255136184382558],[34.76949498054377,1.252600964192227],[34.769585841861804,1.2526331856681951],[34.76972312238285,1.252315793559239],[34.77214237693924,1.2535338688594164],[34.772142379340075,1.253533826520625],[34.77060746623865,1.250724889319474],[34.77137008212452,1.246962970040167],[34.77238979809602,1.244542024305671],[34.77640303534398,1.240895262032883],[34.778023664653404,1.233411123445588],[34.77805129910719,1.233413517049826],[34.77805130201485,1.2334135038497787],[34.778023667489144,1.233411111394876],[34.780178178370676,1.223758021406119],[34.780183591731316,1.223733446113581],[34.78018368675839,1.2237333415761011],[34.780183916253655,1.22373231334345],[34.78223511146362,1.2214766082476598],[34.782280136779285,1.221427076753657],[34.781593379767436,1.220956851251854],[34.778761117877295,1.2197918073537817],[34.775936782876,1.220989276318859],[34.77011712055619,1.216698625040017],[34.76198261163017,1.218864003939005],[34.75709986036645,1.219059365048802],[34.74818788044785,1.23134114292312],[34.74585368399374,1.229300340935939],[34.74492615306306,1.2299834923111],[34.74272368656141,1.229839220460441],[34.742151231527096,1.231457169215895],[34.73981814707606,1.232801625017805],[34.67050947593798,1.208929152405617],[34.64457290665018,1.196942433426684],[34.631961951929036,1.190250267737498],[34.60638273036668,1.168389000296902],[34.59754325342912,1.174777194624203],[34.59764475418808,1.1749065865338992],[34.59945866693938,1.177218571245262],[34.60119867202467,1.183813359659386],[34.62138869634279,1.2030215210255841],[34.63368550110253,1.214720286833012]]]}},{"type":"Feature","properties":{"n":"Suam Town Council","c":"220111","d":"Bukwo","od":"Bukwo","dc":"220","k":"SUAMTOWNCOUNCIL","a":["SUAM","SUAMTOWNCOUNCIL"],"lat":1.165632,"lon":34.605632},"geometry":{"type":"Polygon","coordinates":[[[34.59754324588434,1.17477718588804],[34.59758341782391,1.174748168250721],[34.60638273036668,1.168389000296902],[34.631961951929036,1.190250267737498],[34.64457287800603,1.1969424182262958],[34.644572906650964,1.1969424334270462],[34.67050947593798,1.208929152405617],[34.6705094964292,1.2089291594635505],[34.73996329676813,1.2327179815193614],[34.74120410986144,1.2320029545250966],[34.74271996236671,1.229849746276147],[34.74272368656141,1.229839220460441],[34.74272721002618,1.229839451263853],[34.742727809061336,1.229838600358225],[34.74424024341193,1.229938562022862],[34.744925604239995,1.2299834563606238],[34.7451838324859,1.2297937045140146],[34.74585368399374,1.229300340935939],[34.7481878535003,1.2313411193627146],[34.748192349266695,1.2313349843544399],[34.756759248019755,1.2195287697401898],[34.75481278972811,1.2184269301317237],[34.74673185243952,1.2175865126537095],[34.74341179426748,1.218117854218862],[34.7416085767499,1.2170536919819894],[34.739089137101935,1.2167916702586012],[34.73819609084194,1.216990833343888],[34.73450987972887,1.216529015581949],[34.73422328192901,1.2162856213206168],[34.72731806444184,1.2155674787019513],[34.72686126114015,1.215560055455591],[34.726685653894656,1.2155017080050443],[34.72141956624351,1.2149540348893255],[34.721177858209934,1.215011993938534],[34.720315479011674,1.2147865007789653],[34.70889741505997,1.2125694009825192],[34.70146212686484,1.213134951661713],[34.69627842180401,1.210587979556301],[34.670309816086984,1.205340828627567],[34.669765194035314,1.2049709114631677],[34.6694,1.2049],[34.6693211089216,1.204669280808453],[34.669139320664975,1.204545806931097],[34.668209667388034,1.20218636053319],[34.66413006514698,1.189554852928436],[34.657672438866115,1.185145120717017],[34.65718053594436,1.1840835005904577],[34.644526189059015,1.1743606626360783],[34.64122971955921,1.173046237035625],[34.63702708006135,1.169175722134609],[34.62705021931282,1.1664174135747205],[34.62660839454367,1.16645259154394],[34.62135763104568,1.164845952753766],[34.62135451760359,1.1648427195727575],[34.6212,1.1648],[34.61418931802115,1.157789318021144],[34.61170399084052,1.1563655302740425],[34.60768554696434,1.1551984971722795],[34.60677317335475,1.155096339346522],[34.602754456145185,1.1537664139104284],[34.58668873781906,1.149100621462422],[34.58378444415877,1.148751648178621],[34.580115176807205,1.147314866246454],[34.58010210371876,1.147187736708741],[34.5798,1.1471],[34.57538157032958,1.101282805374158],[34.57519114239204,1.099430984684335],[34.56122599286748,1.12995258626528],[34.5572572042911,1.142733690867479],[34.55973034865509,1.1435325535143654],[34.563863406769876,1.144867572799108],[34.57002402638585,1.148359460336869],[34.57658662738381,1.157015680777571],[34.5765005688773,1.158001328492211],[34.581305112315256,1.160597282403481],[34.59611440722692,1.172956030326193],[34.597543196659764,1.1747771429029272],[34.59754324588434,1.17477718588804]]]}},{"type":"Feature","properties":{"n":"Brim","c":"220201","d":"Bukwo","od":"Bukwo","dc":"220","k":"BRIM","a":["BRIM"],"lat":1.343012,"lon":34.74974},"geometry":{"type":"Polygon","coordinates":[[[34.731476966419706,1.320442088666338],[34.73449003439857,1.327609012551171],[34.73777052029954,1.33071750235184],[34.7342359791035,1.344085927938505],[34.73484695157028,1.349465173353496],[34.73397755733331,1.351142245158389],[34.73560278582365,1.355949284755967],[34.73494635015073,1.358447449708429],[34.73630272392825,1.360090095132307],[34.73868686356427,1.366185452245141],[34.74047057265304,1.366143240270933],[34.74125667826064,1.367470362375492],[34.74224529771577,1.367655443176034],[34.74278917019743,1.369716949420247],[34.744749458322055,1.371054298448985],[34.745483530778614,1.373603393060897],[34.746663292881344,1.373567515645594],[34.748466296508816,1.376259011924902],[34.75078371185761,1.37400780704018],[34.750569586605124,1.371437995923538],[34.751810474671785,1.36844192933222],[34.753069046472184,1.368426088256812],[34.7555980438738,1.370216456359947],[34.7561321951244,1.369797691136125],[34.75939948346086,1.365454777592556],[34.75969291869199,1.363166952443668],[34.76260098018882,1.358014278096913],[34.76440820273095,1.359197982371434],[34.767775857689266,1.357810666856538],[34.766461985850405,1.355856095785911],[34.75886880660961,1.351791752670666],[34.759375260406095,1.349971610185256],[34.7627006990641,1.348298527988375],[34.763338966769176,1.345326986830501],[34.7657120783026,1.34193795282473],[34.7693248221576,1.341648943362723],[34.76711890060149,1.339105556704047],[34.76924941583336,1.338570184685729],[34.77004558759161,1.337231909545912],[34.76366687361697,1.33299499662597],[34.76809852512238,1.329445506209075],[34.76768462104226,1.327344191415905],[34.766792322182894,1.325529855465909],[34.76337175032153,1.32297187841529],[34.760100101880255,1.321514520147344],[34.76025817201246,1.322490930075671],[34.75800220136483,1.321887214750301],[34.75776563494008,1.317525666519283],[34.75483811792224,1.318725253109264],[34.74858471624999,1.319055304340371],[34.74786901444695,1.319494459794105],[34.74787873658721,1.322719862702931],[34.734377104588084,1.311360537281982],[34.730941123838164,1.311618469126355],[34.72810628540268,1.311325622707973],[34.72554426371044,1.309948125011045],[34.724809653116274,1.31039868463571],[34.72750412923899,1.315416830889196],[34.731476966419706,1.320442088666338]]]}},{"type":"Feature","properties":{"n":"Chesower","c":"220202","d":"Bukwo","od":"Bukwo","dc":"220","k":"CHESOWER","a":["CHESOWER"],"lat":1.301748,"lon":34.620667},"geometry":{"type":"Polygon","coordinates":[[[34.564863162063595,1.269648862602191],[34.56675868335055,1.272726570862911],[34.565876778350926,1.2774762328210407],[34.56700812706837,1.2862127590279564],[34.567505028182175,1.286571722124174],[34.56840513350815,1.29092172302012],[34.568100964274244,1.293327909204864],[34.569423014215694,1.294827217239025],[34.57164358286692,1.294817799434448],[34.57201056142764,1.297222520941191],[34.57447508233896,1.299319269005885],[34.57464054902788,1.3007443097914013],[34.5858,1.3134],[34.58583960523069,1.313502855375215],[34.58852201043449,1.318183465201573],[34.58832131842445,1.319595789404781],[34.589923894237415,1.321494651593618],[34.58976499123429,1.3236971414144258],[34.59016867458309,1.3247455130963908],[34.59216815467706,1.325742866341301],[34.59245434714759,1.330681438860888],[34.592490526713334,1.3307753977331398],[34.595621374987026,1.332948944549118],[34.5972585984916,1.3352786809332733],[34.59987406466014,1.3377402961507192],[34.60183412133909,1.3390014615098644],[34.6246,1.3445],[34.63186458742551,1.3473942579384512],[34.63359767281525,1.347668730847717],[34.63829223947705,1.349633159029658],[34.6388920576624,1.3501940468774514],[34.64242278731671,1.3516007120783702],[34.64381646263876,1.351664184157899],[34.649716976807554,1.3544969494798933],[34.649752769627895,1.3544905179574882],[34.65831544924817,1.351871171110963],[34.66246059253007,1.352166424843164],[34.662486000038484,1.3522025156180855],[34.6625,1.3522],[34.663904303761285,1.3541126100307006],[34.66653672487166,1.351160212278142],[34.66764189547405,1.346221323327023],[34.672158057211256,1.342628287889034],[34.673010703537166,1.340159927088048],[34.67231710863574,1.33499795415622],[34.67435376836361,1.331407258034994],[34.67780847030902,1.327995319955869],[34.68119199464187,1.319472210600179],[34.67888751953211,1.317015167205569],[34.67809274811111,1.31192337233827],[34.67417497045836,1.308705001816226],[34.665960656597264,1.308816847304091],[34.66622973501553,1.302750956966324],[34.6560667690838,1.27854209928081],[34.6560667058427,1.2785420936296337],[34.65352449379805,1.278728568838998],[34.650431950749194,1.278038805874414],[34.6475841439439,1.275617524294756],[34.63879071982488,1.271274920633751],[34.6387905883732,1.2712748336599988],[34.63879058837274,1.271274833659773],[34.638790544938715,1.271274804921987],[34.62960755804489,1.265198969215762],[34.626023551802014,1.261830577508605],[34.62404889075147,1.255823416135917],[34.621169928368204,1.253184132351091],[34.61193332294285,1.25279280088081],[34.60843834889365,1.255802213549103],[34.60308238526188,1.254928701916587],[34.596189412476754,1.250938093079475],[34.58709243323742,1.250142109062053],[34.580696121560244,1.247167017761979],[34.57604724448764,1.24717775980094],[34.57829757761108,1.254215529404292],[34.58500803593788,1.259584658350578],[34.57740532764108,1.258592013261824],[34.57234916821494,1.25502299795655],[34.56798886345359,1.2536205790808572],[34.56746764739853,1.253452950690635],[34.567453352336756,1.2535406614283655],[34.5675,1.2536],[34.56736063392296,1.2541095572191898],[34.566331035599006,1.260426901625494],[34.56432081805107,1.265329512521377],[34.56434423514955,1.2656415936548162],[34.564863162063595,1.269648862602191]]]}},{"type":"Feature","properties":{"n":"Kabei","c":"220203","d":"Bukwo","od":"Bukwo","dc":"220","k":"KABEI","a":["KABEI"],"lat":1.307373,"lon":34.724041},"geometry":{"type":"Polygon","coordinates":[[[34.70740753058836,1.308913895137662],[34.71002019363071,1.309307082053138],[34.712077457518305,1.313557210622616],[34.71792381964345,1.31649601128144],[34.7209936463785,1.315305628969073],[34.72375329629793,1.316153527883884],[34.724372831099664,1.317093528233622],[34.72849743500065,1.316688872481665],[34.72846225035463,1.3166287621536383],[34.72750412923899,1.315416830889196],[34.724809653116274,1.31039868463571],[34.72554426371044,1.309948125011045],[34.72793725350195,1.311234740942735],[34.72810664240565,1.3113256595873375],[34.72810817155109,1.311325817552166],[34.73504532234395,1.311304421638221],[34.74265296429291,1.307797957293518],[34.74241329106517,1.3053162713025774],[34.74119493814005,1.303916609430189],[34.73809152460284,1.302100121875365],[34.734306270225574,1.304023955159194],[34.73463652376245,1.3005946756327014],[34.733475718617996,1.3003900618942144],[34.731506067965405,1.300043412790271],[34.73067774253796,1.300699541796281],[34.72935394614635,1.2986426690904422],[34.72916502221861,1.2983495557582607],[34.729156993174975,1.298349045244141],[34.72804910942628,1.29839531314854],[34.72794309248471,1.2982718612767359],[34.727803354618025,1.29826297626412],[34.727452066308814,1.2977000837889001],[34.727157523952606,1.297357102708131],[34.722683172154746,1.298283591528433],[34.71605929656448,1.29740462966623],[34.71114737949862,1.298555623369538],[34.70710292842164,1.29729833568715],[34.7064717341598,1.298804144055468],[34.705407939373295,1.298322276171025],[34.70471265400706,1.299389676733456],[34.703335015247255,1.299281923148486],[34.6995835790785,1.30157485349084],[34.69582584836612,1.306456844424781],[34.70493458597738,1.306948251741387],[34.70740753058836,1.308913895137662]]]}},{"type":"Feature","properties":{"n":"Kamet","c":"220204","d":"Bukwo","od":"Bukwo","dc":"220","k":"KAMET","a":["KAMET"],"lat":1.342638,"lon":34.700889},"geometry":{"type":"Polygon","coordinates":[[[34.68851609912499,1.327110856409229],[34.689656369329896,1.332769890495282],[34.689343695374895,1.334993287071528],[34.68717018960051,1.337315654082794],[34.68891678719957,1.338587204017495],[34.68962398480448,1.344032110654554],[34.68796548845639,1.348160885710765],[34.68788476046835,1.350720315214452],[34.689878412044585,1.354052815346374],[34.698224817416715,1.363518142703303],[34.69879614624492,1.366465743156803],[34.70141135989826,1.362135845609504],[34.70416847503977,1.364164459695352],[34.70745676869819,1.363727993784501],[34.70860592225481,1.362551645344531],[34.70874732504604,1.359169607342336],[34.70525986735304,1.35385097164923],[34.71185211842002,1.3535244687257],[34.71607201321581,1.349235125892667],[34.713590196314954,1.346650070800244],[34.711900196460036,1.341243430968406],[34.70964437759474,1.339114633863399],[34.711918665008895,1.339285261744584],[34.712937066860974,1.338514320871403],[34.71176637291942,1.33319385129429],[34.70698997092979,1.331529150161522],[34.707169253378645,1.330129104106704],[34.706399386270526,1.329275133989643],[34.70124875680793,1.32893167474805],[34.70105901889713,1.325566178997573],[34.702675907799154,1.322307450203855],[34.69060039418029,1.320471564399585],[34.68548930646408,1.318915420002513],[34.68162040758478,1.319900548405489],[34.68528988141278,1.320158958312299],[34.68851609912499,1.327110856409229]]]}},{"type":"Feature","properties":{"n":"Kortek","c":"220205","d":"Bukwo","od":"Bukwo","dc":"220","k":"KORTEK","a":["KORTEK"],"lat":1.294007,"lon":34.695426},"geometry":{"type":"Polygon","coordinates":[[[34.68725141070745,1.309148932918804],[34.68942833223839,1.307461690282234],[34.69582583041891,1.306456845627305],[34.69598686519832,1.3062476536191665],[34.6995835790785,1.30157485349084],[34.703335015247255,1.299281923148486],[34.70471265400706,1.299389676733456],[34.705407939373295,1.298322276171025],[34.7064717341598,1.298804144055468],[34.70710292842164,1.29729833568715],[34.71114737949862,1.298555623369538],[34.71605929656448,1.29740462966623],[34.722683172154746,1.298283591528433],[34.726861989286625,1.2974182980670148],[34.72715751666362,1.297357092368422],[34.72718831306607,1.2972774545360533],[34.726990657247775,1.296960737554916],[34.72959541124328,1.2910528287402874],[34.72993001852578,1.29018755239145],[34.729990515918026,1.2901566817741403],[34.73004759280262,1.290027224239889],[34.73414516900789,1.288036563042669],[34.73434961602764,1.286632215646917],[34.73437054116909,1.286616918349292],[34.73437053768477,1.286616914949571],[34.734349605891175,1.286632208395192],[34.73424703842542,1.2864964145363826],[34.73286699552477,1.2851498822524723],[34.73268173104594,1.28514812556833],[34.73086182023574,1.287174364596923],[34.73071117145561,1.287110874473532],[34.73068301358456,1.287144255503836],[34.730323116324065,1.2869473307119235],[34.7295195635214,1.28660867767704],[34.727287670508446,1.2852864274453044],[34.72727800638642,1.285281139532814],[34.72727801012809,1.2852807043035153],[34.727277550429264,1.285280431962113],[34.72728492583791,1.2844762710609796],[34.727294632844774,1.28334715500319],[34.72547451930165,1.281689382571413],[34.72177218029882,1.282224887335537],[34.717149514408796,1.2803491596981673],[34.71635809551334,1.280588324757362],[34.716094856847455,1.280787425295554],[34.715980396677224,1.2807024645195246],[34.715910452965616,1.28072360135619],[34.7143671900647,1.2795050236506307],[34.71434554382149,1.279488956213217],[34.71428687829294,1.2795852236362595],[34.713789395232446,1.280401819299768],[34.71378928878286,1.2804017450424465],[34.713789160205216,1.28040195603243],[34.71218198684573,1.279281402327897],[34.7102992467237,1.2795737996497716],[34.70613681041964,1.282543469516561],[34.70066550790736,1.284261023973059],[34.70066527263695,1.2842608728282732],[34.70066483667088,1.284261009677473],[34.700660299365296,1.2842576778490917],[34.6968670692291,1.28182079280047],[34.696356102490924,1.2810970255535994],[34.69635607335223,1.281097004156511],[34.693196800797395,1.2815632480811203],[34.69318464979475,1.281565270663496],[34.68933507761868,1.283386657374154],[34.68836854200268,1.283844005152117],[34.68836845277392,1.2838440062861636],[34.68836802568195,1.283844208360473],[34.68474474558549,1.283991312317286],[34.684495860070406,1.2838932247319432],[34.68384546920108,1.283901490829152],[34.681742925316605,1.2828082731930186],[34.677986709704925,1.281327921396521],[34.675959251118535,1.279801534366485],[34.67141239783379,1.279378947301206],[34.66931243446476,1.277531391171735],[34.658315407353726,1.277492713072335],[34.65678228650521,1.278489604674536],[34.656066807970326,1.278542086138413],[34.65606678116332,1.278542098654889],[34.66025599156611,1.2885211045798954],[34.66622973501553,1.302750956966324],[34.665960656597264,1.308816847304091],[34.67417497045836,1.308705001816226],[34.67809274811111,1.31192337233827],[34.678283903107776,1.3131480288937876],[34.68725141070745,1.309148932918804]]]}},{"type":"Feature","properties":{"n":"Lwongon","c":"220206","d":"Bukwo","od":"Bukwo","dc":"220","k":"LWONGON","a":["LWONGON"],"lat":1.384384,"lon":34.722732},"geometry":{"type":"Polygon","coordinates":[[[34.6788,1.3744],[34.68036365291793,1.3754370059282117],[34.681453273044035,1.375034229531487],[34.68186477391696,1.376136336575307],[34.686819993963624,1.379417258028849],[34.68924675356769,1.379880967475448],[34.69262121690867,1.381972750428948],[34.69466268765686,1.381991470147],[34.696898746501354,1.385573895780301],[34.69693505016353,1.3864270645181773],[34.70331906901628,1.3906609103545464],[34.70332305610118,1.390652943598152],[34.70332855660011,1.3906672024674382],[34.7076,1.3935],[34.707635460976476,1.3935549245199554],[34.7078555668512,1.393631618016961],[34.70887700788769,1.395009013329548],[34.70869693266816,1.3951990084935437],[34.7209,1.4141],[34.72090112878635,1.4141115332518375],[34.722610253612686,1.414436049293838],[34.723461968881075,1.417481547399337],[34.72210785742907,1.418099695996405],[34.72181632829504,1.419277038502968],[34.722402324580536,1.420881776403188],[34.724181785297226,1.42168549014539],[34.72288249546112,1.423155424016945],[34.72318055078679,1.427063555878497],[34.72234178258841,1.4288312568815458],[34.72235680379806,1.4289847344584086],[34.72254902491553,1.428711089215528],[34.72316946680581,1.429089118479718],[34.722577538206735,1.429924397990764],[34.72343143759567,1.430172959387072],[34.723449243708565,1.433087214715284],[34.722842745232406,1.433949788244152],[34.7232,1.4376],[34.73391913165755,1.4335072406398441],[34.73376097710065,1.432987803732408],[34.7348328069339,1.4324658564309052],[34.735613614150374,1.4313132362542074],[34.737460219760194,1.427733277199453],[34.73827478054319,1.4273848477695747],[34.73896106627851,1.4263717593031469],[34.73885957320087,1.424476823707743],[34.740187370545506,1.4245615006233086],[34.74242732795181,1.4212548968330434],[34.74235360129409,1.421226469390281],[34.74245638068995,1.4212120094576957],[34.7426,1.421],[34.74369511247995,1.4200813223084887],[34.74375643398701,1.419619578038303],[34.744309881922874,1.4195655990535918],[34.7460292930407,1.4181232041714165],[34.746322456771786,1.416646519384813],[34.74684452007282,1.4174393192722494],[34.75029169731534,1.4145475205854674],[34.75036167861152,1.413878578430908],[34.75171328117841,1.413354969678111],[34.753571283629455,1.4117963120664017],[34.75486302688782,1.409424994215863],[34.754020582307305,1.407779272201598],[34.75392602261538,1.400771516543275],[34.75068459505413,1.399874207936539],[34.749890973602554,1.39453456263796],[34.75067569415788,1.387987080493763],[34.74841691890814,1.38504019640142],[34.74950980126013,1.384850001239011],[34.7491049758021,1.383918621876634],[34.74981644531926,1.382589008380676],[34.74909938901156,1.377317433282573],[34.74666302428061,1.3735675238139358],[34.745483530778614,1.373603393060897],[34.744749458322055,1.371054298448985],[34.743593768996334,1.3702658633317906],[34.74278975326206,1.369717663505479],[34.742789651493794,1.3697172777705615],[34.74278917019743,1.369716949420247],[34.74224529771577,1.367655443176034],[34.74127548806098,1.367473883783944],[34.74125696313175,1.367470417394152],[34.741256962009054,1.3674704154964206],[34.74125667826064,1.367470362375492],[34.74047057265304,1.366143240270933],[34.73868686356427,1.366185452245141],[34.73868046159534,1.366169084794893],[34.7378154453933,1.364742381087435],[34.736303738103615,1.3600926880009998],[34.73630272392825,1.360090095132307],[34.73494635015073,1.358447449708429],[34.73560278582365,1.355949284755967],[34.73410509556534,1.3515194729360271],[34.72994237991677,1.348953653272359],[34.72862213232803,1.346703296686324],[34.72606603248278,1.346425095751371],[34.72414535625018,1.34439015190783],[34.72405688829429,1.343197799852022],[34.716870922821634,1.335778335774908],[34.71486005529031,1.331167782353875],[34.71266074394471,1.330596483887706],[34.714030569351124,1.33317237140077],[34.71340685762713,1.334192766653018],[34.71187458265553,1.333556515407371],[34.71299409046757,1.337648210477197],[34.712850304640526,1.338120011361506],[34.712937066860974,1.338514320871403],[34.71266807755643,1.3387179485935028],[34.7125478795842,1.339112351232187],[34.71214649731435,1.3391127903020492],[34.711918665008895,1.339285261744584],[34.70965611576345,1.3391155145167604],[34.70964532330546,1.339115526322571],[34.711802903275306,1.3411516162162673],[34.71189961210155,1.341242664832011],[34.71189970731206,1.341242969363614],[34.711900196460036,1.341243430968406],[34.713505108703686,1.3463778589021498],[34.713590223425264,1.3466500990382815],[34.71607201321581,1.349235125892667],[34.71607039660823,1.3492367691052236],[34.71607065623577,1.349237039845172],[34.71478719059117,1.3505410932173105],[34.71185211842002,1.3535244687257],[34.71171051380852,1.3535314821599835],[34.70526215950796,1.3538544673581467],[34.70874732504604,1.359169607342336],[34.70874731310799,1.3591698928736404],[34.708747381241665,1.359169996642328],[34.70874728212566,1.35917063390178],[34.70860592225481,1.362551645344531],[34.70814860529203,1.3630197847786678],[34.708103227654426,1.363311537129487],[34.7077992183116,1.3633774400519871],[34.70745676869819,1.363727993784501],[34.704169072590744,1.3641643803804684],[34.70416873916964,1.364164452659251],[34.70416870695922,1.3641644289119295],[34.70416847503977,1.364164459695352],[34.70141135989826,1.362135845609504],[34.69879614624492,1.366465743156803],[34.698224817416715,1.363518142703303],[34.69439258927736,1.3591721647369677],[34.693464122106505,1.360496761790805],[34.69398714923418,1.362592455249588],[34.69193189483339,1.362944682464901],[34.69078517390372,1.365240903688026],[34.68602644109138,1.361408919686457],[34.68569445016757,1.363034574608559],[34.68225549275596,1.36491488543126],[34.679632582349115,1.364671991454651],[34.677626724379465,1.365709760388475],[34.67581649428355,1.369428567727418],[34.67841941200812,1.3738816531644276],[34.6788,1.3744]]]}},{"type":"Feature","properties":{"n":"Mutushet","c":"220207","d":"Bukwo","od":"Bukwo","dc":"220","k":"MUTUSHET","a":["MUTUSHET"],"lat":1.32827,"lon":34.7182},"geometry":{"type":"Polygon","coordinates":[[[34.68162030427786,1.319900538692775],[34.68199959978931,1.3198039956077752],[34.68548930646408,1.318915420002513],[34.69060039418029,1.320471564399585],[34.702675907799154,1.322307450203855],[34.70105901889713,1.325566178997573],[34.701098063954454,1.3262587447264957],[34.70124901386562,1.328931691889419],[34.706399386270526,1.329275133989643],[34.70639972688142,1.329275511810083],[34.706400291445306,1.329275549365062],[34.706953038543034,1.329889269196848],[34.707169253378645,1.330129104106704],[34.706990005803505,1.3315288778269816],[34.70699428360166,1.331530653240569],[34.71176637291942,1.33319385129429],[34.71184322166463,1.3335431068908246],[34.71340720100895,1.334192204878781],[34.714030569351124,1.33317237140077],[34.71266074394471,1.330596483887706],[34.71486005529031,1.331167782353875],[34.716870922821634,1.335778335774908],[34.72405688829429,1.343197799852022],[34.72412147704338,1.3440683131015034],[34.72414584830969,1.3443906732416409],[34.72606573995217,1.3464247858171177],[34.72784835187734,1.3466190799272533],[34.72862213232803,1.346703296686324],[34.729621422807455,1.34840658319933],[34.72994273052974,1.3489538693836027],[34.7299447639088,1.3489551227202243],[34.733977549199636,1.351142236159263],[34.7339953217046,1.351107977475272],[34.73484695157028,1.349465173353496],[34.7342359791035,1.344085927938505],[34.73777052029954,1.33071750235184],[34.73449003439857,1.327609012551171],[34.731476966419706,1.320442088666338],[34.731446106987136,1.3204030544455885],[34.72849744460276,1.316688886487365],[34.72827448387725,1.3167107457225031],[34.724372831099664,1.317093528233622],[34.72375329629793,1.316153527883884],[34.7209936463785,1.315305628969073],[34.71792381964345,1.31649601128144],[34.71772687561443,1.316397013095928],[34.71767528867598,1.31641432833025],[34.71218826996773,1.3136129129024967],[34.712077457518305,1.313557210622616],[34.71002019363071,1.309307082053138],[34.70743480080855,1.3089179991088158],[34.70740766933625,1.308913928193028],[34.707407650449184,1.3089139131758498],[34.70740753058836,1.308913895137662],[34.70493465988839,1.306948310490253],[34.70493427870801,1.3069482351645108],[34.695825895968575,1.306456846992886],[34.69513306124522,1.3065656577569278],[34.68942833223839,1.307461690282234],[34.68725141070745,1.309148932918804],[34.67871824626552,1.3129543318208177],[34.678283904957496,1.3131480407442526],[34.67888751953211,1.317015167205569],[34.67902083670526,1.3171573106716883],[34.68162030427786,1.319900538692775]]]}},{"type":"Feature","properties":{"n":"Riwo","c":"220208","d":"Bukwo","od":"Bukwo","dc":"220","k":"RIWO","a":["RIWO"],"lat":1.370762,"lon":34.766632},"geometry":{"type":"MultiPolygon","coordinates":[[[[34.7504636217952,1.3897565511651773],[34.749890973602554,1.39453456263796],[34.75068459505413,1.399874207936539],[34.75392602261538,1.400771516543275],[34.754020582307305,1.407779272201598],[34.75482966363783,1.4093598188485437],[34.75486303095096,1.409424978997345],[34.756370276669195,1.408601350529233],[34.756713761340535,1.409160122430997],[34.76370013807237,1.403299328617063],[34.76491707338871,1.401279842704807],[34.7668890183155,1.4006242124131045],[34.76712572697031,1.4004256401526822],[34.7676319964391,1.39948575523329],[34.768058903719464,1.3996428085464467],[34.77064242660355,1.3974755199048003],[34.77053547088477,1.396617326026276],[34.77224766199844,1.3961289057679749],[34.77855160364795,1.3908405991619988],[34.77858422477596,1.3907548254948137],[34.77642245632459,1.3845643067476894],[34.776357552359585,1.384460131582307],[34.77685288277015,1.382098528051003],[34.77769824524071,1.380054873386986],[34.78041002793688,1.3769495870377693],[34.78159499488494,1.3747184330544828],[34.78279827992369,1.368909902474249],[34.78719207515034,1.3641797864286456],[34.7875,1.3636],[34.80159858168162,1.344735231130507],[34.80476947256433,1.340067338690937],[34.79903686937704,1.337248412177575],[34.79418150838141,1.331953392104287],[34.79091161569433,1.332570680531295],[34.78484114316696,1.335612860981949],[34.78280986694493,1.335723432807972],[34.78137368650026,1.337694383726608],[34.77787115285903,1.339579195835407],[34.777135024693344,1.340718808228879],[34.773757978541305,1.342077852377563],[34.76571507255979,1.3419377132924808],[34.7657120783026,1.34193795282473],[34.763338966769176,1.345326986830501],[34.7627006990641,1.348298527988375],[34.75956204114511,1.3498776377619763],[34.759375220133535,1.349971754920654],[34.75886880660961,1.351791752670666],[34.766461985850405,1.355856095785911],[34.766561578514754,1.356004254026938],[34.76777443398665,1.357808278126037],[34.7677742914289,1.3578083368216642],[34.767775857689266,1.357810666856538],[34.76440820273095,1.359197982371434],[34.76260098018882,1.358014278096913],[34.75969317517362,1.3631664979944416],[34.75959962428239,1.3638943405480761],[34.75939948346086,1.365454777592556],[34.7561321951244,1.369797691136125],[34.7555980438738,1.370216456359947],[34.753205039876235,1.3685223628724759],[34.7530687428625,1.36842609207821],[34.75181080161391,1.3684419252171471],[34.75062351676145,1.3713077840664236],[34.750569586605124,1.371437995923538],[34.75078371185761,1.37400780704018],[34.74917938488415,1.3755662970714246],[34.748466302406506,1.376259021843265],[34.74849296547954,1.376384061806688],[34.74909938901156,1.377317433282573],[34.74981644531926,1.382589008380676],[34.7491049758021,1.383918621876634],[34.74950980126013,1.384850001239011],[34.74950707557387,1.384850475592303],[34.74950741323796,1.384851257565405],[34.74841723234621,1.3850406053246491],[34.75067569415788,1.387987080493763],[34.75067543321585,1.3879892577188615],[34.75067560360405,1.387989480129802],[34.7504636217952,1.3897565511651773]]],[[[34.74765093045834,1.320633807469937],[34.747871325226406,1.3202610805785355],[34.74786901444695,1.319494459794105],[34.74858471624999,1.319055304340371],[34.74860361514387,1.3190543068667526],[34.75521374755083,1.3185713341866705],[34.75683684185368,1.3179062510639734],[34.758603573445946,1.316552731840577],[34.76697630577436,1.314677094835285],[34.76576951515256,1.313129413926155],[34.75698850196307,1.313404463705202],[34.75501668879173,1.3125737690535286],[34.75501439044147,1.312573200483008],[34.75388550766595,1.3108034196495106],[34.74965936526852,1.311792480786804],[34.749659282455966,1.311792432245755],[34.74965540613102,1.31179333941915],[34.74861441270136,1.311180668326524],[34.747819728493496,1.312279196795839],[34.742836667659404,1.309683424680301],[34.742833024456985,1.3096458353987135],[34.74260044608756,1.307826431344585],[34.74246343088481,1.3078853157867398],[34.73504532234395,1.311304421638221],[34.73450380173476,1.311306091823676],[34.7343771189345,1.311360535753066],[34.747878734939626,1.3227193161020427],[34.747878585812984,1.322669842068658],[34.74765093045834,1.320633807469937]]]]}},{"type":"Feature","properties":{"n":"Riwo Town Council","c":"220209","d":"Bukwo","od":"Bukwo","dc":"220","k":"RIWOTOWNCOUNCIL","a":["RIWO","RIWOTOWNCOUNCIL"],"lat":1.320303,"lon":34.788469},"geometry":{"type":"Polygon","coordinates":[[[34.766868740561435,1.313858415710571],[34.76697138381784,1.314670782540505],[34.76697630577436,1.314677094835285],[34.76693455318409,1.3146864481384],[34.758137416411515,1.3169098616445514],[34.75799102400634,1.3170220150330116],[34.757850577112805,1.3190917356838732],[34.758002121859306,1.3218857489160432],[34.758002439723505,1.3218872785369402],[34.76025817201246,1.322490930075671],[34.760100101880255,1.321514520147344],[34.76011263581823,1.3215201033994761],[34.76146794895664,1.321990286464478],[34.762076388070646,1.3223948583227583],[34.76337175032153,1.32297187841529],[34.766792322182894,1.325529855465909],[34.76679289791221,1.3255310261122546],[34.766792908767655,1.325531033330408],[34.76679292414395,1.325531079449973],[34.76768462104226,1.327344191415905],[34.76809852512238,1.329445506209075],[34.76366687361697,1.33299499662597],[34.77004558759161,1.337231909545912],[34.76938472795628,1.338342740232512],[34.76925014338552,1.338569545971256],[34.76924973503159,1.3385696481494072],[34.76924941583336,1.338570184685729],[34.76711937524234,1.3391054374326956],[34.76932483700391,1.341648940315671],[34.77375667890685,1.3420778297328144],[34.773757978541305,1.342077852377563],[34.777135024693344,1.340718808228879],[34.77787115285903,1.339579195835407],[34.78137368650026,1.337694383726608],[34.78244722437033,1.336221107538331],[34.78280922948241,1.335723809574844],[34.78280960737023,1.3357237890368785],[34.78280986694493,1.335723432807972],[34.78484114316696,1.335612860981949],[34.79091161569433,1.332570680531295],[34.79418150838141,1.331953392104287],[34.79903686937704,1.337248412177575],[34.804491846660895,1.3399308200807296],[34.80476947755101,1.340067328163043],[34.82132446523156,1.317110386720819],[34.82815938912662,1.3091952381899157],[34.829435699940724,1.3074874558712704],[34.82981030505279,1.3052584460785484],[34.829822130191054,1.3032599977113475],[34.82731161503371,1.302602494906119],[34.827700766600806,1.304473395564018],[34.827696626778774,1.3044757956968445],[34.826885286239985,1.305277662318396],[34.82410121188096,1.3065602991512506],[34.82268769853554,1.307379807757381],[34.82224855287333,1.3074138283230539],[34.82188932108532,1.307579328185275],[34.81398819756902,1.3080537571309545],[34.81396823336837,1.308055303755361],[34.812722557526705,1.307007255400977],[34.813044291117194,1.3064243062714878],[34.81318617966914,1.3061662182674345],[34.81318539874584,1.3061646140842644],[34.8119873451149,1.304448698006515],[34.81188873564225,1.3044832742793209],[34.80578773756707,1.306623303641362],[34.805711470942285,1.307410229426309],[34.798143143326854,1.3086637194736477],[34.79814251704178,1.3086641890630868],[34.79674197283301,1.309921594492377],[34.796612439589474,1.3098114433110373],[34.796465266073156,1.309921794222703],[34.795182961489935,1.3085958580522792],[34.79518020039,1.3085935100957908],[34.791634572062655,1.309265254686065],[34.791634412090396,1.3092649332709991],[34.79163326918452,1.309265149725797],[34.789856035207556,1.3056944577222598],[34.78962281800649,1.3056861658439625],[34.788816809261455,1.305659069556118],[34.7877931571719,1.3040954701426057],[34.787581019185424,1.3041099890837462],[34.78485976446978,1.304296428641671],[34.78485964074873,1.304296243012143],[34.78485956131339,1.304296248448779],[34.78449295551142,1.3037460730319894],[34.78261883172369,1.3009341609553928],[34.77279903128672,1.3015902260354366],[34.77044399442208,1.3017476063280586],[34.76916438242728,1.3024441337605797],[34.76911708942091,1.303303908330801],[34.769113761145775,1.3033019858230968],[34.769113601053725,1.30330476047006],[34.76763169447909,1.3024464017640671],[34.766498150433044,1.303323814717906],[34.76546186790995,1.3031785857869922],[34.76524131850056,1.3032530958533095],[34.76451222719063,1.305341809269247],[34.764511386502285,1.3053421442975033],[34.764511258174096,1.305342697370516],[34.76441342485461,1.3053811836397073],[34.76316457066636,1.305878872757597],[34.761228197377186,1.309316353067272],[34.757888137567406,1.311217431076556],[34.75721366235641,1.313117260802383],[34.757108744463714,1.3130913060026053],[34.7569800907937,1.313400920208527],[34.75698850196307,1.313404463705202],[34.76576951515256,1.313129413926155],[34.76577093337075,1.3131312327579998],[34.766868740561435,1.313858415710571]]]}},{"type":"Feature","properties":{"n":"Tulel","c":"220210","d":"Bukwo","od":"Bukwo","dc":"220","k":"TULEL","a":["TULEL"],"lat":1.345127,"lon":34.679101},"geometry":{"type":"Polygon","coordinates":[[[34.674163473530676,1.364475296276367],[34.67581648726899,1.36942855707678],[34.67583869505236,1.369382960054577],[34.677626724379465,1.365709760388475],[34.679632582349115,1.364671991454651],[34.68225549275596,1.36491488543126],[34.68569445016757,1.363034574608559],[34.68602644109138,1.361408919686457],[34.6860317187699,1.3614131695530587],[34.68603244481702,1.361409670596667],[34.68607805030509,1.3614504781620198],[34.690665110977484,1.3651442226532502],[34.69088939974061,1.3650321993969654],[34.69131589157464,1.3641781820197316],[34.691383432804315,1.363660795161636],[34.691568999982906,1.3636713517319237],[34.69193189483339,1.362944682464901],[34.69193584502082,1.3629440054861686],[34.69193561936342,1.362943000751046],[34.692928606531936,1.3627738671215963],[34.693986270960735,1.3625926057671154],[34.693581721032345,1.3609679635442198],[34.693464122106505,1.360496761790805],[34.69424448190401,1.359383462019802],[34.6943925859373,1.3591721609491352],[34.689878412044585,1.354052815346374],[34.68788476046835,1.350720315214452],[34.68796548845639,1.348160885710765],[34.68962397167596,1.3440321433375952],[34.689568929007415,1.3436082211040954],[34.68891678719957,1.338587204017495],[34.68717018960051,1.337315654082794],[34.689343695374895,1.334993287071528],[34.689656369329896,1.332769890495282],[34.68852009163007,1.32713067076747],[34.688516082961236,1.327110821579356],[34.68528988141278,1.320158958312299],[34.68162040758478,1.319900548405489],[34.68199959978931,1.3198039956077752],[34.68162030427786,1.319900538692775],[34.68121865601486,1.3194766777524523],[34.68119200439311,1.31947222037059],[34.67780878786331,1.327994725100856],[34.67780865394746,1.3279948573700113],[34.67780847030902,1.327995319955869],[34.67437587077366,1.331385429218591],[34.67435376602825,1.3314072621523159],[34.6723171311811,1.3349979144080195],[34.67301044219645,1.340157796681154],[34.67301042426059,1.3401578486152697],[34.673010703537166,1.340159927088048],[34.672158057211256,1.342628287889034],[34.66764189547405,1.346221323327023],[34.66653672487166,1.351160212278142],[34.663988655134524,1.354018005560388],[34.66390430837891,1.3541126163197374],[34.666899675695284,1.358192196345725],[34.668950489152785,1.360916324262767],[34.674163473530676,1.364475296276367]]]}}]}
