{"type":"FeatureCollection","name":"Buliisa sub-counties","metadata":{"source":"Uganda Bureau of Statistics NPHC 2024 Map Explorer","retrieved":"2026-07-26","display_only":true,"clipped_to_dashboard_district":true,"positive_area_overlaps_removed":true,"source_gap_ratio":0.03080574},"features":[{"type":"Feature","properties":{"n":"Biiso","c":"416101","d":"Buliisa","od":"Buliisa","dc":"416","k":"BIISO","a":["BIISO"],"lat":1.799712,"lon":31.492898},"geometry":{"type":"MultiPolygon","coordinates":[[[[31.428275611989083,1.823414661990138],[31.432627747557135,1.828688125340092],[31.435564031116147,1.831013980517018],[31.443312832252083,1.83377853444972],[31.460737420117802,1.843245266705807],[31.475605131424555,1.848834166096583],[31.490737337855105,1.858266693914221],[31.51118475787864,1.874896241973188],[31.514679237182285,1.879031049381332],[31.520598752144675,1.884073503656796],[31.527636254758608,1.888900765675435],[31.539223838659836,1.90394522334645],[31.53967788140027,1.902790379408052],[31.538822760647747,1.901652258198383],[31.540465514221,1.898278093835507],[31.545576738000367,1.897820776947006],[31.54822213292001,1.8992802671685576],[31.55287974020723,1.8936246011769324],[31.552526713291588,1.891197130958084],[31.552639501214433,1.8910322262565329],[31.552429249736086,1.8889597473985626],[31.551552814212766,1.887877339228514],[31.550529755384975,1.88790216038077],[31.550103100375594,1.885723043400381],[31.551851607014978,1.8832658405761888],[31.551741227377466,1.8821778127207442],[31.55096134854497,1.881347890823084],[31.551318207715276,1.879964049572788],[31.55151496093772,1.8799474721003633],[31.5515,1.8798],[31.557996139631186,1.8727231998431233],[31.5577429191155,1.87164855267361],[31.559336524781166,1.870907564080798],[31.560004004512773,1.868293773692942],[31.563738896661373,1.86382967248833],[31.565689755930904,1.863179722013887],[31.566546573649976,1.861154630038553],[31.568949504600713,1.86019802115528],[31.569192015072584,1.860526575758917],[31.5694,1.8603],[31.583536781649304,1.8603],[31.582862209477046,1.859015413584166],[31.582839729695657,1.855026541715412],[31.581390134039275,1.854120293169461],[31.582508794099976,1.850485939546805],[31.58041738176593,1.846711706424339],[31.58113266323351,1.842380974761723],[31.57987345436106,1.839468677814024],[31.57999286610394,1.837676933364063],[31.577116424475555,1.836888094297845],[31.576450461669644,1.835448443918915],[31.580441690139157,1.826190253502915],[31.5796,1.8171],[31.579972029600423,1.8168538039408952],[31.579905985207958,1.816404967234489],[31.58252359475349,1.815131027898172],[31.582563146950832,1.815139093929596],[31.58613101076209,1.812778007583911],[31.584571271256006,1.806459239140716],[31.585726888406437,1.8054481893184007],[31.58504183194217,1.7981694643855621],[31.582957919316055,1.796273376948188],[31.584687055790276,1.794399967771677],[31.58438912080206,1.7912344085218954],[31.58426840794395,1.790729502082868],[31.584337391421524,1.7906847838536757],[31.5832,1.7786],[31.5846,1.7646],[31.556182293896658,1.7566231000411672],[31.556135504427232,1.756619747631694],[31.556135573281058,1.7566099854824022],[31.5561,1.7566],[31.556140284542675,1.7559420191363455],[31.55620672289498,1.7465223377301948],[31.537370546869454,1.7359195845585926],[31.53652579621359,1.735838890653651],[31.529815774775102,1.7316670556124012],[31.52523932793593,1.7290910053475852],[31.523861565390668,1.729389391126665],[31.52274305522914,1.731215918942935],[31.519585984867078,1.733491910116955],[31.51169824564616,1.733367585923765],[31.5121149795091,1.730700383066746],[31.51488658256088,1.727284066312563],[31.516020366793814,1.724137567923292],[31.515248601964252,1.720280837048289],[31.50796005165538,1.7137718108366253],[31.507751864356642,1.71367612732365],[31.50617554515474,1.712237684700757],[31.506163861533324,1.7120868999839194],[31.50449187018844,1.7068541863304798],[31.503692902207188,1.70615676846596],[31.503453490604258,1.703604442817026],[31.50088208597617,1.6955568987031944],[31.500769152089717,1.695337939969663],[31.50072588130789,1.6953152472738062],[31.49045058744333,1.6974290220116575],[31.489869533083912,1.698473871877015],[31.483537140191782,1.705569653014346],[31.47966188157986,1.711708097261893],[31.47187353895149,1.715117570185937],[31.470532627882623,1.716374964543476],[31.469697344449184,1.718471496884698],[31.470007082023105,1.723237185100568],[31.471002980886226,1.72653332623123],[31.475235458284253,1.731316233839358],[31.475587960335,1.733928398818575],[31.474624007745042,1.737345020204311],[31.47221802730804,1.737921617212053],[31.4701087208211,1.737250384527447],[31.467133008741214,1.733128743081542],[31.46693136495737,1.731413926879111],[31.464164788421478,1.730388742418383],[31.460154301287034,1.727297533035938],[31.456427035842484,1.729654368380804],[31.44595477899932,1.733516701090807],[31.441663851371334,1.737231308279784],[31.43376801985836,1.738952544308502],[31.43310878612895,1.738265760527308],[31.42935713378102,1.740500119690503],[31.430031248625763,1.751313331539374],[31.432214954077836,1.752050747723767],[31.435556523395825,1.755321264393294],[31.438897870719714,1.753955055922611],[31.440125054796848,1.75618989170659],[31.442061379182622,1.764021006752278],[31.445498978955744,1.768061656393207],[31.44782493301276,1.77389550229224],[31.456540807318582,1.783548094899245],[31.455433725361196,1.787105655898208],[31.4414681975861,1.766275142983004],[31.4392189120305,1.764578963757785],[31.436152236011306,1.765291013452581],[31.435706146474722,1.766594830289054],[31.431173052952417,1.765503346206571],[31.429920159602545,1.764439835517013],[31.43014351257415,1.766594044200201],[31.427453428085816,1.767670349429884],[31.431160621174172,1.773677976253331],[31.42741513509017,1.773748894382478],[31.426121612083108,1.774991708405527],[31.42268912972572,1.775699809617156],[31.421716914365565,1.772006391356948],[31.417867690695118,1.773165527145325],[31.415607665825494,1.771876654412081],[31.413931610257475,1.771897178710379],[31.411288763664857,1.782513267814829],[31.399651506869553,1.801255349252843],[31.410469798704224,1.8106063154057],[31.428275611989083,1.823414661990138]],[[31.46027537735017,1.738656158437211],[31.460167740343003,1.738343988427544],[31.460278679754346,1.738649634798562],[31.46027537735017,1.738656158437211]],[[31.454101368882757,1.736966895291391],[31.453679296903974,1.73561692088948],[31.453972304123152,1.73634080088946],[31.454101368882757,1.736966895291391]],[[31.452179752067856,1.733116411950038],[31.45194139326548,1.732551429767292],[31.45241010049957,1.733596163043951],[31.452179752067856,1.733116411950038]]],[[[31.384380013621552,1.789258176466647],[31.384910447750173,1.791385455200843],[31.38701321533922,1.789912572738733],[31.389846097394987,1.793186983597588],[31.390663786697953,1.79067577182772],[31.396229729308203,1.788718668179644],[31.39875450987152,1.783959181222211],[31.401644562261097,1.773456792620725],[31.40532955331309,1.769650417952217],[31.405704647197258,1.766861358728063],[31.407447994133303,1.765707184205951],[31.40815964374373,1.762542888398696],[31.403968947723325,1.760403944960667],[31.40265627839882,1.757269375865952],[31.40004063225844,1.755913731101485],[31.3990909202306,1.751146369834503],[31.399845149086335,1.749047508699681],[31.398301470968253,1.747157184020335],[31.39418266911765,1.745807811406267],[31.392002973267264,1.746615742161567],[31.39062268841721,1.748803920917668],[31.38732975756684,1.750551266047116],[31.385165851128303,1.750742436921316],[31.383193667666685,1.748978559948885],[31.38147079823275,1.748824454653552],[31.379855820473903,1.750329373955981],[31.38021307768165,1.751737320852633],[31.37790860980107,1.75360128483013],[31.3701321894597,1.754018155070938],[31.368541436275947,1.754474042508855],[31.368276303181066,1.756774765505281],[31.367904788930716,1.7563543808731499],[31.368043719162255,1.7666352180068732],[31.36839106640587,1.766685574110074],[31.368668574473794,1.768315362166236],[31.36809303391765,1.7702845099062805],[31.3681,1.7708],[31.367923344399653,1.770865083642232],[31.367757912937787,1.771431088914652],[31.364675751418705,1.773066004208246],[31.37798137283192,1.782038998711601],[31.384380013621552,1.789258176466647]]]]}},{"type":"Feature","properties":{"n":"Biiso Town Council","c":"416102","d":"Buliisa","od":"Buliisa","dc":"416","k":"BIISOTOWNCOUNCIL","a":["BIISO","BIISOTOWNCOUNCIL"],"lat":1.771186,"lon":31.416823},"geometry":{"type":"MultiPolygon","coordinates":[[[[31.399651497653938,1.801255342312106],[31.401300610920345,1.798599427589913],[31.411288760908004,1.7825132722548036],[31.411295524615944,1.782486109651588],[31.413931610257475,1.771897178710379],[31.415607665825494,1.771876654412081],[31.417867690695118,1.773165527145325],[31.421716914365565,1.772006391356948],[31.42268912972572,1.775699809617156],[31.42537896973232,1.7751449112172668],[31.42612170240554,1.7749916216239379],[31.42741513509017,1.773748894382478],[31.42741587618643,1.7737488803503445],[31.427416037802843,1.773748725102877],[31.431160590699992,1.7736779268689322],[31.427453428085816,1.767670349429884],[31.43014351257415,1.766594044200201],[31.429920159602545,1.764439835517013],[31.431173025939255,1.7655033232766166],[31.4312514926971,1.7655222330290765],[31.435706146474722,1.766594830289054],[31.436152236011306,1.765291013452581],[31.4392189120305,1.764578963757785],[31.4414681975861,1.766275142983004],[31.442349907071574,1.7675902712846614],[31.443228988648485,1.768435701268974],[31.45513994894755,1.7866674688509876],[31.455433725361196,1.787105655898208],[31.456540807318582,1.783548094899245],[31.44782493301276,1.77389550229224],[31.447824851783004,1.77389529855568],[31.447824843821998,1.773895289739241],[31.447516135558185,1.77312099139484],[31.445498978955744,1.768061656393207],[31.444078944500863,1.7663925087061825],[31.442061463487587,1.764021164824889],[31.442061442928978,1.7640210816815023],[31.442061379182622,1.764021006752278],[31.440358345071004,1.757133392180671],[31.440125043528326,1.7561898711853865],[31.438897870719714,1.753955055922611],[31.435556523395825,1.755321264393294],[31.4322151194564,1.7520509095858476],[31.43003251056922,1.751315330236747],[31.43003241025125,1.751313723809052],[31.430031248625763,1.751313331539374],[31.42936298182606,1.7405939258874885],[31.429357124386254,1.74050012859907],[31.42625352406496,1.742403429350959],[31.425687308734027,1.742522298315514],[31.425686843342348,1.742522136708876],[31.424796166297142,1.742162762284327],[31.424795654994128,1.742162521541973],[31.424319305076388,1.74180253554444],[31.421490000819,1.742878681955927],[31.413353975252573,1.749481571019338],[31.41062326884259,1.749498547957499],[31.408883526787204,1.748427751263793],[31.406986501653464,1.749532708930327],[31.404288348344952,1.748697341359219],[31.40132184741343,1.748867211048581],[31.39866850448228,1.74747663038076],[31.399845118806375,1.749047361208439],[31.399845091251063,1.749047437876988],[31.399845149086335,1.749047508699681],[31.399090955544068,1.7511462715645005],[31.39916362362561,1.7515113260940882],[31.40004063225844,1.755913731101485],[31.40245633782223,1.757165750076639],[31.402655991044476,1.757269072091772],[31.402656073792926,1.7572692698222083],[31.40265627839882,1.757269375865952],[31.403968947723325,1.760403944960667],[31.40815964374373,1.762542888398696],[31.408157578129995,1.7625520729928894],[31.40803437030764,1.764481548794216],[31.407631041200215,1.764893279360259],[31.407447994133303,1.765707184205951],[31.405704647197258,1.766861358728063],[31.40532955331309,1.769650417952217],[31.404833693371085,1.77016261152223],[31.404745800137498,1.770495865547599],[31.40165156447499,1.7734495597538869],[31.401644562261097,1.773456792620725],[31.39875450987152,1.783959181222211],[31.396229729308203,1.788718668179644],[31.39086071955961,1.7906065260505069],[31.390663778097757,1.7906757982398454],[31.389892291702,1.7930451159137992],[31.389846104880156,1.793186992624492],[31.39478962147352,1.796137170178572],[31.399651497653938,1.801255342312106]]],[[[31.424851103554094,1.742184921999236],[31.42485110129735,1.742184927592405],[31.424851103554104,1.74218492199924],[31.424851103554094,1.742184921999236]]]]}},{"type":"Feature","properties":{"n":"Buliisa","c":"416103","d":"Buliisa","od":"Buliisa","dc":"416","k":"BULIISA","a":["BULIISA"],"lat":2.030078,"lon":31.392203},"geometry":{"type":"Polygon","coordinates":[[[31.260322098204863,2.050297234851387],[31.280754747913885,2.049556955381786],[31.326016342606287,2.05573108199866],[31.394455959602062,2.071743803491143],[31.40862893495938,2.07976073807042],[31.41310135852556,2.079067188258045],[31.41419442202868,2.081306094941011],[31.421479489107927,2.084656883646117],[31.422633716919613,2.081677766752613],[31.426727694986393,2.08167776833118],[31.43755098280729,2.083633596125466],[31.43896021266344,2.082165704862408],[31.44496710191722,2.08160560640171],[31.447006160136514,2.08052879980634],[31.45069481612068,2.075946661132676],[31.454640600925877,2.072554478433994],[31.461249015426876,2.080434685401265],[31.46414027776529,2.08545190316864],[31.458946712718998,2.087871519522024],[31.449590176457274,2.094076792849227],[31.439943714503567,2.097518441915679],[31.437478949884675,2.099914741322846],[31.43894696854738,2.10403042150633],[31.438386383482758,2.112305480192568],[31.439143485005413,2.118938938184953],[31.442174635287525,2.119314478259011],[31.44660661730483,2.121882862367635],[31.450667796254052,2.120880543855037],[31.451536358755575,2.118786635863281],[31.45389782863564,2.116723797513443],[31.45790464188826,2.116860661628618],[31.461197473124237,2.120784175830385],[31.4606327283655,2.124901234430903],[31.467199639646175,2.132281880945636],[31.47054201462134,2.132704843121382],[31.47081763170641,2.133657373790663],[31.472956371579382,2.133250330801717],[31.47410376889885,2.13479531020176],[31.479576046557426,2.13689416618648],[31.480691310896713,2.136512287410161],[31.48301199084476,2.137651101821287],[31.48554272772178,2.1372195903485],[31.490548418939614,2.139878130605718],[31.491576935734848,2.141994799135857],[31.497108725553186,2.143712733161273],[31.501211320990024,2.143152858939522],[31.50229300353771,2.141573696313833],[31.506756438216403,2.142228781209884],[31.507833717040036,2.143283897106564],[31.50792368602913,2.145576455246056],[31.509737756640614,2.1488938508654],[31.513890917541023,2.152213372021901],[31.516378454126663,2.155442115873958],[31.52283570629398,2.160320947338837],[31.531578033984413,2.160720444049592],[31.537964850281558,2.1619087801173418],[31.5391,2.0106],[31.539189205601563,2.0104906966937386],[31.551609826615646,1.994510321374227],[31.560400672050914,1.9845003623091562],[31.5644,1.9796],[31.564801695668677,1.9794890051441811],[31.56529242789708,1.978930218215847],[31.57066988518268,1.976655055151752],[31.574001216212416,1.9769470323623588],[31.577399314480807,1.9760080841566185],[31.577901384917418,1.9748890511447],[31.581465393674478,1.9748845622741575],[31.58657421533942,1.973472914182528],[31.58722366479995,1.973259776640725],[31.58917484734153,1.97086496174718],[31.593243232212522,1.968218172920481],[31.59593085186947,1.967731952100895],[31.598001123516386,1.965752902631927],[31.599511730656086,1.9665416457249563],[31.604386711800082,1.9638655922459134],[31.604401072135104,1.963813401478711],[31.604599041405052,1.9637490368457382],[31.606478913548585,1.9627171070307763],[31.606543952450718,1.962358969977166],[31.60687971546177,1.9624970923635399],[31.6107,1.9604],[31.588492115362065,1.9414399087676117],[31.586467011298684,1.939857994796041],[31.58622818110865,1.939507063713313],[31.5854,1.9388],[31.58402170889594,1.936264928862175],[31.581570604206277,1.932663337193643],[31.580641463688114,1.932803934996258],[31.57945094833313,1.9281895277278909],[31.5608,1.9116],[31.555336979969788,1.9097172642833733],[31.550687783465378,1.908524884457383],[31.54305455529793,1.905515441008498],[31.5396778925585,1.902790388658433],[31.53967715543594,1.902792225876309],[31.539223838659836,1.90394522334645],[31.539217733691302,1.9039372971090665],[31.539213679226577,1.903947402531751],[31.535694001727947,1.902660360572316],[31.534860216944796,1.906078384141721],[31.535429634122124,1.909018264986841],[31.539114503702525,1.910380852147346],[31.538115982405742,1.912031646819711],[31.535356194949465,1.913802638664946],[31.535711990294633,1.915159716272843],[31.532784062630284,1.920375921764179],[31.53038260653551,1.920328319998602],[31.52833694774485,1.922758877008389],[31.526861914862813,1.922477800756314],[31.526977858355707,1.923646139310804],[31.523959173048894,1.925296865876827],[31.520748815714555,1.924579783341918],[31.518131922975115,1.925155823591799],[31.518347433609822,1.923555680632538],[31.51623264384793,1.919538202395965],[31.509193226210538,1.919324016552749],[31.50505349534752,1.921932855093751],[31.50033846196144,1.9206276175535],[31.495348801348914,1.922974666730545],[31.495492573151193,1.925172236114777],[31.494779725227236,1.925506519992205],[31.494234221877193,1.928319473870892],[31.487927364844342,1.93332347719842],[31.484457769389493,1.932922434770307],[31.481937261382594,1.930867268998727],[31.478502514806234,1.92971553705799],[31.475720876954618,1.929902612275171],[31.470634836804017,1.92790866572923],[31.46781938728678,1.929208425867917],[31.46009656054588,1.929689839338202],[31.452857024732374,1.927773832384229],[31.450741861269158,1.925837566895524],[31.446151877076073,1.924646145868274],[31.445274531658054,1.923426871876361],[31.444226956594274,1.9242659527587],[31.44036634991213,1.922391354489865],[31.43326267718985,1.926671591528515],[31.432480057176715,1.927981646816359],[31.430791697795254,1.927582732306391],[31.42961127892993,1.928768368825709],[31.42818999024018,1.928927844559762],[31.427001380686985,1.930816911113189],[31.425529166378663,1.930408553155119],[31.423843002766326,1.932748884167712],[31.409952047697004,1.932555390166694],[31.4077186871866,1.933918825458155],[31.402088213706534,1.934835919414955],[31.394588253172344,1.93301113512323],[31.387425599107594,1.932552093157064],[31.381698645751303,1.932673216783863],[31.377587566093776,1.934351374140353],[31.35850534081626,1.935146795446397],[31.32591219296651,1.93477105652473],[31.195792364498704,1.965554337957312],[31.21287265880423,1.985777230240287],[31.260322098204863,2.050297234851387]]]}},{"type":"Feature","properties":{"n":"Buliisa Town Council","c":"416104","d":"Buliisa","od":"Buliisa","dc":"416","k":"BULIISATOWNCOUNCIL","a":["BULIISA","BULIISATOWNCOUNCIL","TOWNCOUNCIL"],"lat":2.096355,"lon":31.36848},"geometry":{"type":"Polygon","coordinates":[[[31.3063,2.1136],[31.306304810971408,2.1155532543918567],[31.306421385129585,2.129659541514534],[31.378320931353567,2.135150479165302],[31.397991075717577,2.137680887930939],[31.4016213656795,2.139362227065499],[31.406960419115382,2.14023370201026],[31.406274513576133,2.143074223980071],[31.413194838075515,2.144338669388948],[31.434569550569716,2.143284823298827],[31.434513065412425,2.139329050415625],[31.438568101711482,2.121723388906448],[31.43842452958467,2.118911815972163],[31.439143531379514,2.118939211381767],[31.43914350041439,2.118938940094026],[31.439143485005413,2.118938938184953],[31.43891235383654,2.116913847951226],[31.43838641853425,2.112306090145836],[31.438386431409477,2.1123059001096642],[31.438386383482758,2.112305480192568],[31.43894696854738,2.10403042150633],[31.437478949884675,2.099914741322846],[31.439943714503567,2.097518441915679],[31.446463280624354,2.0951924016782373],[31.44959032289512,2.0940766957313586],[31.45830656169999,2.088296068942078],[31.458946587093617,2.087871597165482],[31.458946615784715,2.087871583809032],[31.458946712718998,2.087871519522024],[31.46414027776529,2.08545190316864],[31.461276332628213,2.080482089037412],[31.461248986246982,2.0804346506056874],[31.454640600925877,2.072554478433994],[31.45069481612068,2.075946661132676],[31.447006160136514,2.08052879980634],[31.44496710191722,2.08160560640171],[31.43896021266344,2.082165704862408],[31.43755098280729,2.083633596125466],[31.426727694986393,2.08167776833118],[31.422633716919613,2.081677766752613],[31.421479489107927,2.084656883646117],[31.41419442202868,2.081306094941011],[31.41310135852556,2.079067188258045],[31.40967894971898,2.0795979096779984],[31.408629673050203,2.079760999969793],[31.408629150853685,2.079760704591155],[31.40862893495938,2.07976073807042],[31.394455959602062,2.071743803491143],[31.326016342606287,2.05573108199866],[31.280754747913885,2.049556955381786],[31.26954836379292,2.0499629651852795],[31.260322105833968,2.050297245973321],[31.30616955706517,2.113453379683928],[31.3063,2.1136]]]}},{"type":"Feature","properties":{"n":"Butiaba","c":"416105","d":"Buliisa","od":"Buliisa","dc":"416","k":"BUTIABA","a":["BUTIABA"],"lat":1.876753,"lon":31.425831},"geometry":{"type":"Polygon","coordinates":[[[31.394588386195,1.933011158207551],[31.39482517561731,1.9330687797406865],[31.402088170421827,1.934835908883532],[31.403153544964322,1.9346623977987059],[31.4077186871866,1.933918825458155],[31.409952047697004,1.932555390166694],[31.409953083882687,1.9325554046002382],[31.409953290035997,1.932555278798408],[31.41314114020853,1.932599812617605],[31.423843002766326,1.932748884167712],[31.425529166378663,1.930408553155119],[31.425529417369386,1.930408622774099],[31.425529604434267,1.930408363122879],[31.427001574797117,1.93081660261242],[31.42814649079661,1.928996978569092],[31.428189390495874,1.928928725264646],[31.428189439613803,1.9289287196746128],[31.42818999024018,1.928927844559762],[31.42869670117525,1.9288709890462368],[31.4296129254537,1.9287667150240198],[31.430779719722267,1.9275947633245147],[31.430790541813064,1.9275838685843],[31.43079056181919,1.927583873303663],[31.430791697795254,1.927582732306391],[31.432479599297743,1.9279815386317112],[31.433262329261527,1.926671915755087],[31.433262570231307,1.926671770570197],[31.43326267718985,1.926671591528515],[31.44036634991213,1.922391354489865],[31.443752785406087,1.9240357090271596],[31.444227083214198,1.9242658513393731],[31.445274531658054,1.923426871876361],[31.44543825651338,1.9236544053584184],[31.446153031476324,1.9246464455156533],[31.4506411915806,1.9258114360901206],[31.450739691532846,1.925836965383694],[31.450739750003983,1.9258370188749603],[31.450741861269158,1.925837566895524],[31.452857024732374,1.927773832384229],[31.460096259343267,1.9296897596222755],[31.46675446281135,1.9292748094609342],[31.46781938728678,1.929208425867917],[31.4683887330653,1.9289455857979678],[31.470634019059542,1.927908976549902],[31.47063409719429,1.9279090071721277],[31.470634836804017,1.92790866572923],[31.47558895957427,1.9298508949868478],[31.47572091356493,1.929902609812995],[31.478502514806234,1.92971553705799],[31.481937261382594,1.930867268998727],[31.481937393563133,1.9308673767757774],[31.4819381504346,1.930867630561043],[31.483360109811276,1.9320274277368725],[31.484457769389493,1.932922434770307],[31.487927364844342,1.93332347719842],[31.491247591025527,1.930689134486629],[31.49423427756579,1.9283191867059053],[31.494652301680595,1.9261635948932598],[31.494779063961957,1.925509200271437],[31.49477921970302,1.925509126788857],[31.494779725227236,1.925506519992205],[31.495492573151193,1.925172236114777],[31.495348801348914,1.922974666730545],[31.50033846196144,1.9206276175535],[31.50505349534752,1.921932855093751],[31.509193226210538,1.919324016552749],[31.50919344028012,1.9193240230661677],[31.509193480708113,1.919323997575241],[31.509345939156134,1.9193286630949358],[31.51623264384793,1.919538202395965],[31.518347433609822,1.923555680632538],[31.51834736708662,1.9235561745600742],[31.518347407346173,1.923556251007946],[31.518132539069786,1.925155687974728],[31.520748815714555,1.924579783341918],[31.523959173048894,1.925296865876827],[31.52546206677998,1.9244750290983414],[31.526977838877162,1.923645943029528],[31.526861914862813,1.922477800756314],[31.528336885235337,1.9227588650968306],[31.529736426127588,1.9210960816249478],[31.53038260653551,1.920328319998602],[31.532616520925266,1.9203726007453255],[31.533215374286392,1.919607524970618],[31.535711990294633,1.915159716272843],[31.535356194949465,1.913802638664946],[31.53535697533742,1.913802137879748],[31.535356875109795,1.913801755017392],[31.536795645193035,1.912878924544432],[31.538115976897725,1.9120316503542767],[31.539113777192608,1.9103805834992797],[31.535429634122124,1.909018264986841],[31.535338862834344,1.9085496160228579],[31.534860232887475,1.906078941170638],[31.534860276044764,1.90607868927278],[31.534860216944796,1.906078384141721],[31.534860591129007,1.9060768502081753],[31.535408610683103,1.902878202884237],[31.53562602806378,1.9029390123190397],[31.535694001727947,1.902660360572316],[31.53915598487185,1.9039263054126587],[31.5392154686926,1.9039429424336198],[31.53921768334391,1.9039374225958396],[31.527636132066885,1.8889006815170155],[31.52108306139694,1.8844057078188392],[31.520598797136614,1.884073539506753],[31.520598767068307,1.8840735138934221],[31.520598752144675,1.884073503656796],[31.514679237182285,1.879031049381332],[31.5146791862273,1.8790309890893617],[31.514679127177153,1.879030938788192],[31.514323506002103,1.8786101340485128],[31.51118476528809,1.8748962507403402],[31.49073732629713,1.8582666867096589],[31.475605131424555,1.848834166096583],[31.468213304839956,1.8460555154863425],[31.46073791498841,1.84324547009111],[31.460737811280026,1.8432454137470202],[31.460737420117802,1.843245266705807],[31.443777905492034,1.8340312075043714],[31.44331282262595,1.8337785310153858],[31.435564031116147,1.831013980517018],[31.435563815679302,1.83101380986766],[31.435563711193833,1.831013772589175],[31.43347913267931,1.829362514735452],[31.432627747557135,1.828688125340092],[31.428275665266128,1.823414726545698],[31.410469878771327,1.810606377286123],[31.410469849656167,1.8106063520572209],[31.410469798704224,1.8106063154057],[31.399651506869553,1.801255349252843],[31.399660921255823,1.8012401871577515],[31.3996609125122,1.8012401795812178],[31.399651497653938,1.801255342312106],[31.399526247291455,1.8011234893213701],[31.398095184780065,1.799883443410556],[31.3947900013905,1.7961375701230429],[31.394789674997302,1.7961372265238824],[31.38992827810332,1.793286996288191],[31.387375657288217,1.7903315043533021],[31.38701321533922,1.789912572738733],[31.38504800940577,1.7912891002108549],[31.38491047368038,1.791385587720222],[31.394034355454917,1.827199050336719],[31.390004504339107,1.829941218095234],[31.38306089199142,1.829767517257688],[31.38170189702946,1.832087733474809],[31.373759658669655,1.833348227288021],[31.366382296861754,1.839466972375467],[31.35914476724413,1.848552932150588],[31.355474693385606,1.857402140730265],[31.352665734669998,1.860367008601245],[31.35094920957641,1.864624944167468],[31.33424035630226,1.881453238960558],[31.331574800371357,1.883317413888932],[31.329098109892513,1.886808375847666],[31.326052685622106,1.888767396995499],[31.321814597847784,1.894983523035274],[31.31986310967591,1.895748126652946],[31.315437147954487,1.900161321083655],[31.27219984950041,1.916618668132944],[31.22201990757328,1.944275600035912],[31.202563771548725,1.963731697374234],[31.325904476578177,1.934772882040153],[31.32591219296651,1.93477105652473],[31.35850534081626,1.935146795446397],[31.377587566093776,1.934351374140353],[31.381698645751303,1.932673216783863],[31.387425599107594,1.932552093157064],[31.394588253172344,1.93301113512323],[31.394588334409296,1.933011154888656],[31.394588386195,1.933011158207551]]]}},{"type":"Feature","properties":{"n":"Butiaba Town Council","c":"416106","d":"Buliisa","od":"Buliisa","dc":"416","k":"BUTIABATOWNCOUNCIL","a":["BUTIABA","BUTIABATOWNCOUNCIL"],"lat":1.873039,"lon":31.230218},"geometry":{"type":"MultiPolygon","coordinates":[[[[31.20256375204762,1.963731701967443],[31.205680394452045,1.9606150806679492],[31.22201990757328,1.944275600035912],[31.272199634390923,1.9166187866916393],[31.272199695897037,1.916618752792199],[31.272199695897218,1.9166187527921301],[31.27219984950041,1.916618668132944],[31.315437147954487,1.900161321083655],[31.31986310967591,1.895748126652946],[31.321814341971944,1.8949836232888115],[31.32605253306536,1.888767613250531],[31.32605254217853,1.888767607388344],[31.326052685622106,1.888767396995499],[31.329098109892513,1.886808375847666],[31.331105658706516,1.8839786817054798],[31.33157450834611,1.883317741655882],[31.331574626420743,1.8833176590770093],[31.331574800371357,1.883317413888932],[31.334240342800353,1.8814532484032105],[31.350949237474783,1.8646248749640078],[31.352665734669998,1.860367008601245],[31.355474693385606,1.857402140730265],[31.356762256496534,1.8542975943458258],[31.35914454417373,1.848553322298955],[31.359144671975894,1.8485531618594437],[31.35914476724413,1.848552932150588],[31.366382296861754,1.839466972375467],[31.373759658669655,1.833348227288021],[31.377776080883372,1.832710790444365],[31.38170203770477,1.832087493299425],[31.38306089199142,1.829767517257688],[31.38306271183017,1.829767562782625],[31.383062840831556,1.829767342646635],[31.388213616771743,1.8298964173985899],[31.390004504339107,1.829941218095234],[31.394034355454917,1.827199050336719],[31.384925923310234,1.7914462312878274],[31.38492057103836,1.791427964551423],[31.38454393956543,1.7899155930158068],[31.384380039145796,1.7892582788303144],[31.379871062433534,1.784171014804461],[31.37798137283192,1.782038998711601],[31.377980122264876,1.7820381553589413],[31.363438908389035,1.772517244277723],[31.35966254424278,1.7739085363316063],[31.358019121139506,1.775679539572147],[31.357038612332072,1.775235613356715],[31.35526522595061,1.776707227526705],[31.3542937710132,1.7758865054161894],[31.352862995548325,1.7764136332190386],[31.35207434851882,1.777397990535349],[31.352755314986673,1.778399067182766],[31.35110459797046,1.782546790372275],[31.351690729958854,1.783526252555959],[31.350401230025543,1.784011017463458],[31.34950096744503,1.785564314472765],[31.346338300420495,1.786264416855343],[31.346136350302743,1.787258059598707],[31.34325056035734,1.7869351548262],[31.3424154948075,1.783507001573609],[31.34083799814004,1.784228456232821],[31.33997892804438,1.782421969161326],[31.33749274522516,1.782955024537171],[31.336838144165583,1.783873984913681],[31.33501072280363,1.783289966235117],[31.33264829308929,1.784361701785501],[31.332271386585624,1.785298252927033],[31.333071793724216,1.786597294765443],[31.332101204858752,1.787738913201623],[31.329090512043926,1.789029217247118],[31.325487064470458,1.788762755481915],[31.32416814214736,1.789895259484087],[31.323434287155436,1.7896295909789082],[31.322235220122252,1.790343321355803],[31.321840453159854,1.791295894857612],[31.30868270287747,1.798425994079789],[31.252219275911497,1.8100399683263466],[31.219324166145483,1.819002803042215],[31.100024461290523,1.851894355459473],[31.19579235626614,1.965554328523874],[31.20256375204762,1.963731701967443]]],[[[31.384911359863157,1.791389285985049],[31.384911353975838,1.791389287385755],[31.38491135986317,1.791389285985103],[31.384911359863157,1.791389285985049]]]]}},{"type":"Feature","properties":{"n":"Kigwera","c":"416107","d":"Buliisa","od":"Buliisa","dc":"416","k":"KIGWERA","a":["KIGWERA"],"lat":2.179094,"lon":31.425855},"geometry":{"type":"Polygon","coordinates":[[[31.308118880586235,2.1595222481939245],[31.310285507057664,2.1662308723513015],[31.316765778788934,2.165346788362367],[31.35310982947182,2.164166668566741],[31.381939259046035,2.162235881456361],[31.38536309796274,2.16269432620329],[31.389736119741258,2.166288016398459],[31.400104025316374,2.171462914837788],[31.40346765347108,2.176194426620811],[31.405532735149787,2.176680880952265],[31.40685375472597,2.177942216217808],[31.40765529637464,2.179946158654546],[31.406509704684265,2.180302550808526],[31.406002357571698,2.182659126190217],[31.40366262541882,2.185237571569757],[31.39800001644348,2.20125590382733],[31.39766916588094,2.22140300611787],[31.398329807587906,2.235317123455271],[31.40192200154939,2.237194719419021],[31.40303590729056,2.239487813358064],[31.403090304557832,2.239498156500433],[31.407503376170997,2.237046693734255],[31.413320080735115,2.235913514050987],[31.41721596783757,2.2363152999390845],[31.425963100955492,2.2343418613697974],[31.43602951102755,2.213661220920284],[31.439640263558722,2.191393590885441],[31.44338303202526,2.185729436988914],[31.444876919340828,2.181776101396737],[31.4442438324602,2.178241032034205],[31.440107451198664,2.174453367326877],[31.43885209093379,2.169309795422019],[31.44728347982677,2.169297266264182],[31.45541105251115,2.171535811366657],[31.456732021739672,2.157545530949579],[31.453171696774124,2.154817413625456],[31.448574617617716,2.1299013139033],[31.446057269182976,2.121888345623197],[31.441647854035832,2.1192492134414134],[31.439223445425014,2.118948844767967],[31.4387355498579,2.118923666468005],[31.438424532859894,2.1189118160969556],[31.438429873308934,2.1190164621235295],[31.438568101711482,2.121723388906448],[31.436159321098675,2.1321815384743914],[31.434513066253242,2.1393291092996938],[31.434569550569716,2.143284823298827],[31.434569089279762,2.143284846041992],[31.434569089574968,2.143284866857174],[31.41994127065733,2.144006047296345],[31.413194838075515,2.144338669388948],[31.413194796669917,2.144338661823534],[31.4131947832076,2.144338662487253],[31.40627840795743,2.143075613917465],[31.40627856452004,2.1430749641473024],[31.406274513576133,2.143074223980071],[31.406960419115382,2.14023370201026],[31.4016213656795,2.139362227065499],[31.397991075717577,2.137680887930939],[31.378320941007406,2.135150480407192],[31.306421385077883,2.129659553044497],[31.30640681646305,2.154186758927755],[31.308118880586235,2.1595222481939245]]]}},{"type":"Feature","properties":{"n":"Kihungya","c":"416108","d":"Buliisa","od":"Buliisa","dc":"416","k":"KIHUNGYA","a":["KIHUNGYA"],"lat":1.714419,"lon":31.424487},"geometry":{"type":"MultiPolygon","coordinates":[[[[31.368468611200047,1.752006888194039],[31.370160418616887,1.7540166417916863],[31.377685344858918,1.7536132533845692],[31.380209377180257,1.7517403139953667],[31.380212995952995,1.7517373869586832],[31.38016577266995,1.751550892299274],[31.379855820473903,1.750329373955981],[31.379856342482153,1.7503288875218574],[31.37985631922778,1.750328795685459],[31.381470148383183,1.748824688678069],[31.38147051212818,1.7488247212605026],[31.38147079823275,1.748824454653552],[31.383193667666685,1.748978559948885],[31.385165851128303,1.750742436921316],[31.38520362304621,1.7507390999514556],[31.387548746047628,1.7504350630435603],[31.390622495267053,1.748804023409946],[31.390622693899115,1.7488039122271501],[31.392002973267264,1.746615742161567],[31.392003471604532,1.7466155574468019],[31.392003490238952,1.746615527911943],[31.392003867894243,1.7466154105572056],[31.39418266911765,1.745807811406267],[31.394387171986864,1.7458748091840728],[31.3949818184783,1.745690025375137],[31.397168466267175,1.7467859970658026],[31.398301470968253,1.747157184020335],[31.39857338346239,1.7474901568676335],[31.398741910638655,1.7475746245241228],[31.39866850448228,1.74747663038076],[31.401321469723566,1.7488670131064994],[31.404125187819943,1.7487066843624204],[31.404288348344952,1.748697341359219],[31.406986501653464,1.749532708930327],[31.408883526787204,1.748427751263793],[31.409964558388456,1.749093117178716],[31.410623619099415,1.7494985457799348],[31.413187648252638,1.7494826050826053],[31.41335400281207,1.7494815486530968],[31.421490000819,1.742878681955927],[31.424319305076388,1.74180253554444],[31.424323227084997,1.7418054994752166],[31.426253791869694,1.7424032651181647],[31.429357124386254,1.74050012859907],[31.429358956650947,1.740529469311995],[31.429358963240652,1.7405294653349954],[31.42935713378102,1.740500119690503],[31.43310878612895,1.738265760527308],[31.43376800503526,1.7389525288659313],[31.433772114324036,1.7389516517436303],[31.441536237653263,1.7372591271775075],[31.44595428744632,1.733516980129839],[31.4459545841432,1.7335168697755277],[31.44595477899932,1.733516701090807],[31.44598554391349,1.7335053545075345],[31.45640340345291,1.729630505198205],[31.460130508664594,1.727273763547393],[31.4641411154195,1.730365023601148],[31.466907987513732,1.731390572611138],[31.466909789250625,1.7314059317707162],[31.46693136495737,1.731413926879111],[31.467133008741214,1.733128743081542],[31.470091908842896,1.7372270983544933],[31.47381163571966,1.7375397064419063],[31.474355013743406,1.737409485041206],[31.47469780754497,1.7370834451254893],[31.475222080830953,1.7352252175118936],[31.47539911753453,1.732529006818091],[31.47530782643123,1.7318525074262474],[31.472448677405723,1.7281670343959472],[31.471002980886226,1.72653332623123],[31.470889253315484,1.7261569204158436],[31.470558220152522,1.725730215202739],[31.470365109078553,1.7244221525174983],[31.470007082023105,1.723237185100568],[31.469863086348994,1.7210216370204523],[31.469637007491013,1.719490262811957],[31.46974022239117,1.7191312260233318],[31.469697344449184,1.718471496884698],[31.470532627882623,1.716374964543476],[31.47187353895149,1.715117570185937],[31.47187377177564,1.7151174682633998],[31.47187379714086,1.715117444473501],[31.47222668843858,1.71496297328749],[31.47966188157986,1.711708097261893],[31.483537140191782,1.705569653014346],[31.489869533083912,1.698473871877015],[31.49045058744333,1.6974290220116584],[31.4833,1.6989],[31.48328970998282,1.6988978317463803],[31.483273278463336,1.698914899518819],[31.4787935621388,1.698766423328335],[31.474120857399985,1.697170994116905],[31.471619157811556,1.697892328686519],[31.469404523215545,1.695972024534704],[31.46553936102555,1.695157579644669],[31.462852600844183,1.695099824052936],[31.45818879630997,1.693608710651029],[31.4553,1.693],[31.454764318491016,1.6925138352691576],[31.45355203386157,1.69212624315533],[31.44699044156883,1.687444835027512],[31.442720947287373,1.6820641894574746],[31.440990125441484,1.6817180250882968],[31.428641692444792,1.680330752758889],[31.424819875907215,1.6784839751814429],[31.41755141470517,1.6770302829410337],[31.41527660549706,1.677262760058982],[31.412583295278107,1.6760366590556217],[31.4095928970314,1.6754385794062796],[31.405398062916703,1.6749448008269057],[31.405363814366293,1.6810410428000175],[31.409808744089343,1.683580410129708],[31.41095309664639,1.685525340099998],[31.41068302953078,1.687922346963559],[31.406912866565648,1.693488737917844],[31.40533554036536,1.692385150737927],[31.40530006294288,1.6923887961672754],[31.4053,1.6924],[31.3897,1.6963],[31.38969386186545,1.6963061787844498],[31.39040259139916,1.699246546744597],[31.390400734570758,1.701443546751632],[31.390246584381607,1.70209456203492],[31.39024642824514,1.702094971742843],[31.389973671265185,1.702726051173535],[31.38997225591622,1.702727930615856],[31.379529339789187,1.708587399366127],[31.377992108544298,1.7080854271607093],[31.375958228142363,1.7101327769692796],[31.37591824963738,1.71061051260611],[31.374625968599037,1.711584239601754],[31.37547863504071,1.7143502063515723],[31.37553151127122,1.714488606219378],[31.37552329381655,1.7144950750634356],[31.3787,1.7248],[31.378642071513962,1.725697891533551],[31.378667254364693,1.725743371308634],[31.378636931039647,1.7257775688854184],[31.377896727284412,1.7372507270916389],[31.37865555658654,1.738854423473088],[31.37747046318965,1.743784644783976],[31.376583414087158,1.7438913656439983],[31.37405141648573,1.7452487251829079],[31.3740115076966,1.745653385569875],[31.373163345196563,1.7457248046368943],[31.37015455128556,1.747337766321143],[31.369544245526978,1.748671859353714],[31.36780534351706,1.7489954202624858],[31.367811376970394,1.7494418958091276],[31.369797095178868,1.750447801527651],[31.368468611200047,1.752006888194039]]],[[[31.390160268661255,1.702294304296066],[31.39016027407746,1.702294306636986],[31.390160268661255,1.702294304296059],[31.390160268661255,1.702294304296066]]]]}},{"type":"Feature","properties":{"n":"Ngwedo","c":"416109","d":"Buliisa","od":"Buliisa","dc":"416","k":"NGWEDO","a":["NGWEDO"],"lat":2.195404,"lon":31.488352},"geometry":{"type":"Polygon","coordinates":[[[31.45125220870974,2.228636391937437],[31.4523,2.2284],[31.452653982306366,2.22839413288995],[31.45332406826078,2.228278326467685],[31.453580453693423,2.2283787770106063],[31.457183653802527,2.228319055461837],[31.46341598752524,2.227049899564626],[31.46686687365897,2.227198267775077],[31.47042332450915,2.228097310632041],[31.474043954735755,2.230832095089428],[31.477577634065696,2.234815707120873],[31.49059421777468,2.2469945898980934],[31.490603210788066,2.247000889846978],[31.492785193872333,2.2476056108731894],[31.498066141887616,2.249053898050804],[31.501776660610076,2.248967524212297],[31.51223347326724,2.250759838464434],[31.525593359454973,2.256670213163716],[31.529373404870878,2.260328265131246],[31.532769308917786,2.2666772882439172],[31.536984891575322,2.27254397410899],[31.537597568527538,2.272959903484065],[31.537503577802998,2.2559475823421287],[31.537474112021016,2.255960830679492],[31.537489603074327,2.2534181564529816],[31.5374,2.2372],[31.537964850197604,2.1619087913078516],[31.536099367113447,2.161561686850633],[31.531578033984413,2.160720444049592],[31.52283570629398,2.160320947338837],[31.522834890314204,2.1603203308184202],[31.522834782512312,2.160320325885405],[31.518200926333,2.1568191001567083],[31.516378454126663,2.155442115873958],[31.513890917541023,2.152213372021901],[31.509737756640614,2.1488938508654],[31.50792368602913,2.145576455246056],[31.507869853629533,2.1442047169714678],[31.507833564865017,2.143283748062251],[31.506756438216403,2.142228781209884],[31.505587962033886,2.1420572874716166],[31.502292873003395,2.1415738868825986],[31.501211320990024,2.143152858939522],[31.497108725553186,2.143712733161273],[31.497108628519772,2.1437127030269023],[31.497108622981333,2.143712703784239],[31.497023656914187,2.1436863145310947],[31.491576935734848,2.141994799135857],[31.491576844851725,2.1419946121000732],[31.491576565008916,2.141994525184873],[31.490799588366468,2.140395032637866],[31.490548418939614,2.139878130605718],[31.487947205900667,2.1384966171881503],[31.48554261551116,2.137219609481334],[31.48301199084476,2.137651101821287],[31.483011006471436,2.1376506187652216],[31.48300961860866,2.137650855227017],[31.480691037488032,2.1365123810283007],[31.479576046557426,2.13689416618648],[31.47410376889885,2.13479531020176],[31.474103526348337,2.1347949836056124],[31.474102981325107,2.134794774563122],[31.47295624177963,2.1332503555050857],[31.47081763170641,2.133657373790663],[31.47054218836336,2.1327054435725517],[31.467200409061963,2.132282059500156],[31.4672003276484,2.132281968009152],[31.467199639646175,2.132281880945636],[31.462064817158847,2.1265107797269547],[31.460633243512948,2.124902004695316],[31.460633266210795,2.1249018389230034],[31.4606327283655,2.124901234430903],[31.460973128695567,2.1224196742484702],[31.461197121473127,2.1207837568267918],[31.457904714008503,2.1168607475622068],[31.457291986159383,2.116839734627794],[31.453897987259435,2.1167238029316904],[31.453393141896598,2.1171646615569535],[31.4515370440935,2.118786037193206],[31.450668094452972,2.120880126671405],[31.450667956820013,2.120880156766772],[31.450667796254052,2.120880543855037],[31.44660661730483,2.121882862367635],[31.44646299344229,2.121799630701817],[31.446057281127686,2.121888345362301],[31.447153168242707,2.1253767003867408],[31.448574617617716,2.1299013139033],[31.44967521790119,2.135866550847078],[31.453171752747526,2.154817456515363],[31.456732021739672,2.157545530949579],[31.45541105251115,2.171535811366657],[31.44730717376651,2.1693037921920113],[31.447283420266178,2.16929726635269],[31.43885209093379,2.169309795422019],[31.43952187221158,2.1720540818704817],[31.440107509616826,2.1744534208201114],[31.4442438324602,2.178241032034205],[31.444876919340828,2.181776101396737],[31.44338303202526,2.185729436988914],[31.43964033260513,2.1913934863934106],[31.438339548911763,2.1994151410441143],[31.43602951102755,2.213661220920284],[31.4289021241601,2.2283038714873857],[31.425963110723625,2.2343418591660114],[31.446612522856938,2.2296831503310566],[31.447747002507132,2.229242173012165],[31.45125220870974,2.228636391937437]]]}},{"type":"Feature","properties":{"n":"Wanseko Town Council","c":"416110","d":"Buliisa","od":"Buliisa","dc":"416","k":"WANSEKOTOWNCOUNCIL","a":["WANSEKO","WANSEKOTOWNCOUNCIL"],"lat":2.211329,"lon":31.361343},"geometry":{"type":"Polygon","coordinates":[[[31.33664468340309,2.247395439778126],[31.34540079851885,2.2451078146731],[31.34749700571605,2.246186060387486],[31.350345887752475,2.245710163489509],[31.353203861457082,2.246490983290652],[31.356951330554885,2.244768060938595],[31.36030733418636,2.246336263529897],[31.370968212717926,2.246313609341269],[31.3714,2.2463],[31.37203588069487,2.245954807622786],[31.381116386384544,2.24058965367724],[31.382785711150156,2.2401191853756295],[31.3889,2.2368],[31.388914903122476,2.236802833692302],[31.388925479973167,2.236791372565434],[31.398329795830055,2.23531712008435],[31.397669170968243,2.221403159363446],[31.397669171530755,2.2214031251115],[31.39766916588094,2.22140300611787],[31.39800001644348,2.20125590382733],[31.39800004577016,2.2012558208683015],[31.398000046484036,2.201255777399679],[31.40366244985757,2.185237990523444],[31.4036624948163,2.1852379410168834],[31.40366262541882,2.185237571569757],[31.406002357571698,2.182659126190217],[31.406509704684265,2.180302550808526],[31.407646569408286,2.1799488736029544],[31.407651291390007,2.179936145751692],[31.407185914523264,2.1787726523089126],[31.405533823994507,2.176681920602446],[31.405532735149787,2.176680880952265],[31.40346765347108,2.176194426620811],[31.403464771603325,2.1761903727864937],[31.403464434579508,2.176190292882819],[31.402103981799,2.174276191819622],[31.400104025316374,2.171462914837788],[31.389736119741258,2.166288016398459],[31.389735533491816,2.166287534626591],[31.38973530822204,2.166287422190067],[31.389174873217282,2.1658267915904337],[31.38536309796274,2.16269432620329],[31.38221238858719,2.162272452920855],[31.381939160022483,2.162235888088244],[31.353198045616097,2.1641607604861157],[31.35310986406579,2.164166666477892],[31.35310985745736,2.1641666666924713],[31.35310982947182,2.164166668566741],[31.316765817119258,2.1653467871177514],[31.310285510651358,2.1662308834786272],[31.3359893845585,2.245818958167842],[31.336536937606407,2.247398835777448],[31.33664468340309,2.247395439778126]]]}}]}
