{"type":"FeatureCollection","name":"Bunyangabu sub-counties","metadata":{"source":"Uganda Bureau of Statistics NPHC 2024 Map Explorer","retrieved":"2026-07-26","display_only":true,"clipped_to_dashboard_district":true,"positive_area_overlaps_removed":true,"source_gap_ratio":0.01772736},"features":[{"type":"Feature","properties":{"n":"Buheesi","c":"431101","d":"Bunyangabu","od":"Bunyangabu","dc":"431","k":"BUHEESI","a":["BUHEESI"],"lat":0.567236,"lon":30.261951},"geometry":{"type":"Polygon","coordinates":[[[30.226386473295392,0.589998160208802],[30.227638290188754,0.5905802442587498],[30.2296,0.5903],[30.242071120886497,0.5972913859515204],[30.242913483054245,0.5976830770884016],[30.243170527751843,0.597644745861567],[30.245260107877943,0.594999403732854],[30.24788989806385,0.596593409558406],[30.24956134394138,0.5966917294122505],[30.253121332557193,0.5961608539169098],[30.256037088511977,0.594777936772467],[30.25665802605127,0.5943648783224172],[30.25779149995629,0.592369476131452],[30.2594259680919,0.5925235951388663],[30.26459600209952,0.5890843986033643],[30.265222488534093,0.587871790752018],[30.267369144437243,0.5872396560917473],[30.271430921508557,0.5845376913443082],[30.273363826142607,0.582169108567447],[30.27513962932872,0.5820705944030693],[30.2772,0.5807],[30.277478854835326,0.5807741259688841],[30.278017081284954,0.580270317767614],[30.278529273375845,0.5810533511505409],[30.279819769130295,0.5813963943257748],[30.281757276773853,0.580753253101965],[30.28284616731402,0.581913195616582],[30.28527759127566,0.5821057795587895],[30.28944424568002,0.5658179487053783],[30.28581963752271,0.56625949906041],[30.285902573724158,0.565094066805515],[30.281743291200694,0.563707659744861],[30.27707933670487,0.563797339970086],[30.276516290168594,0.561206716307955],[30.274683904366494,0.560357928173303],[30.274741115694095,0.55966948986384],[30.273478216917308,0.559974853098036],[30.2728807653029,0.5572459461950408],[30.271547890358672,0.5565759448861762],[30.270053631528082,0.556207048162173],[30.269613495817566,0.554172938298126],[30.26989560207212,0.5532690807892712],[30.268330924107545,0.5481983651633394],[30.266344455868385,0.54415673973993],[30.266592446252083,0.543285259322677],[30.265426815641728,0.542077818128318],[30.26598244730347,0.5405875607056978],[30.265795831339005,0.5399827867467739],[30.26076316369045,0.537557522544399],[30.25736298671099,0.538672627970401],[30.25731888596587,0.536768724201091],[30.256629921458963,0.5363761415415],[30.256070068480906,0.541611750493621],[30.253077819800453,0.544239696020247],[30.250858774311826,0.548274853626781],[30.246745493206056,0.54992050120193],[30.242030701233052,0.550521862804829],[30.240940330900973,0.552715173960566],[30.239685901860298,0.552770463344421],[30.238367385206587,0.558956948475428],[30.241559044392236,0.558206224669698],[30.242426732796527,0.559811116174934],[30.236216739395683,0.564487860946371],[30.234325133463702,0.568211548604633],[30.23498315476045,0.571867078335947],[30.237162249640036,0.572549503657249],[30.232425907001016,0.575332502276634],[30.230393149736475,0.578894748155645],[30.227578272452426,0.57984184900244],[30.22617143803183,0.584999316379123],[30.222421713315132,0.585649251104623],[30.22057183032495,0.584592800964365],[30.22016494607109,0.585570754022693],[30.220979558660023,0.586641409830946],[30.218251859700313,0.587476704793985],[30.22140211635641,0.590047075567819],[30.226386473295392,0.589998160208802]]]}},{"type":"Feature","properties":{"n":"Buheesi Town Council","c":"431102","d":"Bunyangabu","od":"Bunyangabu","dc":"431","k":"BUHEESITOWNCOUNCIL","a":["BUHEESI","BUHEESITOWNCOUNCIL"],"lat":0.567378,"lon":30.214634},"geometry":{"type":"Polygon","coordinates":[[[30.148961628561953,0.588121800654173],[30.15009586038609,0.590174839913782],[30.154369398691106,0.589345446685642],[30.15479075811747,0.590663384194931],[30.161068936007794,0.593108468092882],[30.162489079390273,0.596139549830424],[30.160820379616375,0.596742333226127],[30.160607271349708,0.598942048698459],[30.159673291645362,0.59977507323117],[30.160291925945046,0.602065298280936],[30.159768276099555,0.603492813794723],[30.15898543047287,0.603654463020067],[30.158706749147303,0.60649452763484],[30.159389613453943,0.6066745674113824],[30.1598,0.6065],[30.168683170969206,0.6043221903430336],[30.16931508857084,0.603729708283196],[30.170014609907135,0.6039957730550247],[30.174793405250778,0.6028241974223902],[30.175187121189943,0.600061232015084],[30.17718515207111,0.595137715685987],[30.185451520020678,0.589972746161927],[30.186530234247208,0.58826080440209],[30.189260839165264,0.587278269930278],[30.190185116757416,0.585888376685018],[30.19356091355809,0.586754881821773],[30.19690920152909,0.586088247624148],[30.199820317907832,0.5891666598719233],[30.2114,0.5929],[30.214015590516375,0.5925263442119468],[30.217486214518857,0.590286071181118],[30.22140210164106,0.590047078805918],[30.221384080740037,0.5900323598712035],[30.218251859700313,0.587476704793985],[30.220979558660023,0.586641409830946],[30.22016494607109,0.585570754022693],[30.22057183032495,0.584592800964365],[30.220572977095376,0.5845934558737758],[30.220573402830418,0.584592432995149],[30.221816897609404,0.5853038467517337],[30.222421495887314,0.585649126933716],[30.222919553067687,0.585562961212067],[30.22617143803183,0.584999316379123],[30.227578272452426,0.57984184900244],[30.230393149736475,0.578894748155645],[30.232425907001016,0.575332502276634],[30.232444689532493,0.5753214659637762],[30.23715582919147,0.5725474929707396],[30.23498315476045,0.571867078335947],[30.234325133463702,0.568211548604633],[30.23432520747896,0.5682114029031987],[30.234325204056365,0.568211383888515],[30.23621624362128,0.564488469923139],[30.23621652532081,0.5644882823597069],[30.236216739395683,0.564487860946371],[30.24121224160594,0.560725749244394],[30.242193244334903,0.5593792518711372],[30.241559809737435,0.5582076402654372],[30.241558778696835,0.5582062871650498],[30.238367385206587,0.558956948475428],[30.23836744782482,0.558956654670435],[30.238366582245444,0.558956858256481],[30.234302189102447,0.558227715455589],[30.232359981947937,0.55480524201821],[30.22679437396214,0.552998000086927],[30.2240249617129,0.548530425236634],[30.226321504661527,0.545795882540537],[30.225667125688695,0.544777967462101],[30.222395659859306,0.546323015106721],[30.221347438232904,0.54874080700598],[30.219562374705053,0.548564723071616],[30.217563427320965,0.54706094573941],[30.215966909622175,0.543047325858257],[30.21162790569452,0.536482737227727],[30.21106370653806,0.533879653345138],[30.207792693016994,0.531245280726242],[30.206285052845484,0.528940865792272],[30.20713054798073,0.527638656759708],[30.205518306995028,0.527380591120815],[30.201777705139026,0.528872670416947],[30.20242568100188,0.531765742823669],[30.201444581087916,0.531971918917838],[30.20165873056161,0.533304413029196],[30.20335978997736,0.534380126437831],[30.20163394320197,0.53618208006815],[30.201577247593757,0.537664423653629],[30.19999068677941,0.538367855749366],[30.196193330552255,0.542507012353065],[30.196780598660602,0.544475117204594],[30.199024307702466,0.545223504273994],[30.200043254731852,0.547095148735395],[30.19900250494548,0.548760091447862],[30.198731794325173,0.553282517741481],[30.196369295528932,0.554163566952531],[30.196144957785837,0.555285887951429],[30.194895489895256,0.555960657378574],[30.195431660100706,0.557407476116645],[30.193878241472603,0.558391387482491],[30.19474631904702,0.560028740200575],[30.19374788118441,0.561643915371367],[30.193846035787303,0.563437429539765],[30.19493182493235,0.564254600503104],[30.194273145575533,0.56469755314549],[30.194787195077016,0.566544835452791],[30.193974449966824,0.569079568775279],[30.19139630030304,0.572520099813327],[30.189749400520512,0.573263302718223],[30.189565114224134,0.574476643118482],[30.18759003505196,0.573804632542776],[30.186089689659084,0.576238532963444],[30.18448847222956,0.576430302013095],[30.183395064013137,0.574788471066516],[30.1769347690811,0.572781873522425],[30.174835422063364,0.569858950343521],[30.1732979905177,0.570179817424475],[30.172559742952753,0.571304530845712],[30.167759784105016,0.57151669708595],[30.165505067653875,0.571156327647623],[30.163495320659052,0.569437138838948],[30.161744256595227,0.570162993115976],[30.16101335967611,0.57137203292581],[30.158875441217937,0.571263479926122],[30.157967557914333,0.572919320626088],[30.154057749973436,0.574644074345141],[30.15294611109923,0.577595077689004],[30.150944767657936,0.57941280709587],[30.14969619839735,0.579593350228119],[30.150392759123537,0.581879117191464],[30.147612892026757,0.583664447126127],[30.147272644626373,0.584755397437666],[30.149014884378396,0.585945861885861],[30.148961628561953,0.588121800654173]]]}},{"type":"Feature","properties":{"n":"Bukara","c":"431103","d":"Bunyangabu","od":"Bunyangabu","dc":"431","k":"BUKARA","a":["BUKARA"],"lat":0.47919,"lon":30.060425},"geometry":{"type":"Polygon","coordinates":[[[29.99606322971281,0.463330946352668],[29.999251335942514,0.472402771440941],[29.999364233721842,0.4725133100740569],[30.000205109743963,0.47296806955540943],[30.000736819614055,0.472325570333613],[30.00695861401539,0.4766204749266901],[30.01719958898927,0.48215896139215647],[30.03255484861224,0.489719674591516],[30.037796266531803,0.493279648761859],[30.037800917573794,0.4933018149069868],[30.046952357710357,0.5114028251771024],[30.04844809302364,0.512975173967325],[30.05125491213591,0.5199130247394105],[30.0514,0.5202],[30.05143896318606,0.5202211292899525],[30.063283197614524,0.522352677031338],[30.064734762915116,0.52506122283005],[30.067461986640424,0.52684586030279],[30.070645302420935,0.530636507282994],[30.0715,0.5311],[30.07158088102077,0.5314307135071452],[30.077885682338213,0.528586254010327],[30.094066257157788,0.523160999856819],[30.116343787030313,0.517664250579602],[30.119677674495616,0.516215257919798],[30.12007010055379,0.515085764742253],[30.12215028371502,0.513962520409897],[30.123473884281978,0.510492630541629],[30.128222947751567,0.508560827275568],[30.130488425007087,0.509640746919347],[30.13399998217379,0.509843342858794],[30.136911039137697,0.506298225919499],[30.137425004144813,0.505077463742393],[30.13668974916853,0.500944444677351],[30.13109832448678,0.497764758313396],[30.13236357162479,0.494669345836254],[30.129373060448824,0.494710703168919],[30.128653387111736,0.495710101764661],[30.1286940623943,0.498417193590719],[30.12720194007305,0.498232188648383],[30.126390015334916,0.499669034276608],[30.121263828780997,0.497967353709737],[30.12185772972264,0.496776407805113],[30.120729954827716,0.486282998513446],[30.12526026169988,0.4815433971415554],[30.1115,0.4803],[30.111238256935195,0.48014441845798395],[30.111023925264472,0.480340925218472],[30.10757748688602,0.478234912034127],[30.107310161707154,0.4778095366790768],[30.105163005967754,0.4765332552955178],[30.10390638466958,0.476321849282862],[30.103458600472603,0.47552014713406365],[30.10057746413306,0.4738075835755951],[30.098074796907504,0.473711500015261],[30.097190447783955,0.472301941334218],[30.095623318137868,0.47321196919322],[30.093883156476252,0.4719601234804568],[30.093560575756822,0.4719756963427742],[30.092989518959197,0.472266246158269],[30.092739647342686,0.474325638995785],[30.089742238251095,0.475674638325754],[30.08874574554072,0.47474683687145],[30.087834932868404,0.475927833881205],[30.08363148584903,0.474129596920379],[30.082995105326617,0.4724857535359564],[30.074128082600932,0.472913816702024],[30.07352414355792,0.473283096287457],[30.072922004056316,0.4729720411834883],[30.07057833573691,0.4730851837920112],[30.070161341688603,0.473522201201422],[30.068322624798117,0.473754476999138],[30.06792932644543,0.47303105016691893],[30.05466243074718,0.46475007932258483],[30.054547575499253,0.464714869112372],[30.054490262454575,0.46464261480007785],[30.047964596891646,0.46056940524935913],[30.047842943264527,0.460592040066738],[30.047738939594943,0.46042855379945646],[30.046712253851684,0.4597877140054624],[30.045950193100335,0.460345919849776],[30.042982209490464,0.45745948370156414],[30.040472144091925,0.45589274353450104],[30.03811112602582,0.455145007671674],[30.037952809004697,0.4543202173852837],[30.0376,0.4541],[30.02981407450234,0.43961455721365483],[30.028884513726936,0.438892316885612],[30.02296717477976,0.437107869336197],[30.020835666787633,0.4347055102056111],[30.01532628588582,0.4324148715510936],[30.008119139806162,0.431468381611737],[30.004158545817948,0.429540365809872],[30.003078844672974,0.427532717786106],[30.001341254824627,0.427128951242801],[30.000539485006424,0.428777345170852],[29.994111744196783,0.430713847481004],[29.990077500552175,0.426856705164599],[29.986607773894296,0.425883472764723],[29.98236452214964,0.425885982946763],[29.99020209623035,0.441455117371134],[29.99606322971281,0.463330946352668]]]}},{"type":"Feature","properties":{"n":"Kabonero","c":"431104","d":"Bunyangabu","od":"Bunyangabu","dc":"431","k":"KABONERO","a":["KABONERO"],"lat":0.468669,"lon":30.160074},"geometry":{"type":"MultiPolygon","coordinates":[[[[30.12658801490041,0.4993186387328996],[30.12720194007305,0.498232188648383],[30.12731817101578,0.49824659986558095],[30.12869405150279,0.4984164687202371],[30.128653387111736,0.495710101764661],[30.128854073872382,0.4954314113416083],[30.128868097780288,0.495168168047136],[30.12909735972605,0.49509356425461887],[30.129373060448824,0.494710703168919],[30.13031389956243,0.4946976918160378],[30.13140763107451,0.494341782253613],[30.132355249558053,0.4946694609264383],[30.13236357162479,0.494669345836254],[30.132344961202747,0.49471487601835173],[30.131434309060317,0.4979558233152139],[30.13668777694123,0.5009433231270124],[30.136689307854272,0.500944099295579],[30.136689324630385,0.5009442032544176],[30.13668974916853,0.500944444677351],[30.137425004144813,0.505077463742393],[30.137375351235786,0.5051953986066064],[30.13739652098343,0.505326584091376],[30.137238570307723,0.5055202786688944],[30.136911039137697,0.506298225919499],[30.134010414322077,0.5098306384747646],[30.134401594152262,0.510410834019484],[30.136689443532482,0.510849844569469],[30.140792816843675,0.509981066003856],[30.14635719043736,0.510570871747123],[30.150512041633167,0.508790171505486],[30.152855652896605,0.504099429018036],[30.151940004582748,0.501011665987714],[30.15195806179896,0.496867804026017],[30.152834608367478,0.495369833794959],[30.157847293301867,0.492910453261523],[30.160359326595483,0.48907108795494],[30.16078413042431,0.486523092462955],[30.162848322723487,0.485522029201857],[30.162384315008936,0.48451194202275],[30.165691457379822,0.483742681668996],[30.169386136644317,0.485415271828665],[30.171178919565705,0.485316632599341],[30.17618107217329,0.477441114413958],[30.176152508246574,0.474538394358958],[30.177228318456503,0.472596188066897],[30.178514297550063,0.471291733388593],[30.18142033538789,0.471254699181487],[30.183486245210702,0.466389207124335],[30.183562251764375,0.463851416824489],[30.182030098311504,0.460519417062498],[30.182875470907433,0.459426063097633],[30.181800896355096,0.459193471424453],[30.173261134996235,0.4489003718303],[30.173170258392837,0.446751332601569],[30.17440587476339,0.44617687340244],[30.173466982906096,0.444809475003206],[30.17358095611825,0.443367267186396],[30.170552441362407,0.442040973572644],[30.170849665433767,0.439684791882498],[30.169751241187512,0.436999201482402],[30.17088506041681,0.436371982237592],[30.171288829319924,0.43414559206704],[30.173769001417426,0.432626735834562],[30.174287687689436,0.431094341440697],[30.17368163796222,0.43002233270078],[30.17473978352534,0.428536534797501],[30.173978406164313,0.427502428076215],[30.175558324385,0.425872318252823],[30.17517626836096,0.4257210188563514],[30.17243030967825,0.42757454096717906],[30.170968192856545,0.428874123619181],[30.170601814207792,0.42880877540973944],[30.169153158561315,0.4297866179711112],[30.169058829769675,0.4313577745707],[30.16672815457358,0.431611578845673],[30.16355158207865,0.43384380280330676],[30.16264237566733,0.43546811538084007],[30.162067711950144,0.437251723954072],[30.160632263592174,0.4390592144813963],[30.159273017477435,0.44148753057401796],[30.159871524848693,0.442551016432324],[30.15663143685196,0.44620675888245653],[30.156224339698323,0.44693404480861426],[30.155402011017195,0.449733925472972],[30.155164084074986,0.45020361901184],[30.154760552662644,0.450601215711552],[30.152913326989882,0.45035868759091857],[30.15173267488131,0.4509878508856186],[30.151398971446195,0.451523803841892],[30.150369643915585,0.4517142029134057],[30.146340686811186,0.453861212949302],[30.143296926774088,0.456663523731965],[30.139635954183074,0.457681026960119],[30.138353703742172,0.46122641255555],[30.139305350907634,0.46250141065072],[30.13916282094838,0.46401476674699],[30.137335340423153,0.464785967840353],[30.137915877216017,0.467099560149906],[30.137345060753926,0.470238718072125],[30.134641797653902,0.473589972952081],[30.134004026976225,0.477121201488613],[30.129541915150533,0.481644127038543],[30.127857760860746,0.482226558263304],[30.125583763256788,0.4815726292099508],[30.12526026169988,0.4815433971415555],[30.120729954827716,0.486282998513446],[30.12185772972264,0.496776407805113],[30.121263828780997,0.497967353709737],[30.12638970178329,0.4996689301905182],[30.12658801490041,0.4993186387328996]]],[[[30.154927886749295,0.450435395383824],[30.154927890110116,0.450435398774687],[30.154927886766522,0.450435395366806],[30.154927886749295,0.450435395383824]]]]}},{"type":"Feature","properties":{"n":"Kakinga Town Council","c":"431105","d":"Bunyangabu","od":"Bunyangabu","dc":"431","k":"KAKINGATOWNCOUNCIL","a":["KAKINGA","KAKINGATOWNCOUNCIL"],"lat":0.380819,"lon":30.260793},"geometry":{"type":"Polygon","coordinates":[[[30.237473794361353,0.383183415517201],[30.23553316164878,0.384839377292325],[30.23748926166533,0.388123566787483],[30.237489348328367,0.390694977628114],[30.23863148673216,0.391741937745215],[30.239729547362607,0.391568833868599],[30.240085864801955,0.394674808952592],[30.24500868630658,0.393970532308494],[30.244141110387663,0.396369900698187],[30.2447809343132,0.400595365597542],[30.250741562704526,0.404042514823733],[30.252131218775478,0.403772373558061],[30.25213399890326,0.405473116151372],[30.253921724108853,0.405159891195081],[30.254970313527412,0.407233918189763],[30.257805545261267,0.407663553949062],[30.25808714405832,0.408850165806112],[30.257118841485283,0.40916624165715],[30.257022996395648,0.41042207611134146],[30.2665,0.4075],[30.266970533234705,0.4075644182404657],[30.267217195944518,0.40717451491593],[30.271141363664345,0.407730982109523],[30.275044409730448,0.406442224580925],[30.275283466950288,0.407941122379241],[30.27784547035153,0.408769196674917],[30.277969202630924,0.4090701884554241],[30.280166200698726,0.4093709679528018],[30.280576460915213,0.409273787256776],[30.283422340692965,0.40973633290468126],[30.283457818946015,0.4097178697321765],[30.28714324427207,0.40534021788499],[30.28973200260884,0.404955411091089],[30.29107617733966,0.40575321383344026],[30.2931,0.4047],[30.293350332770927,0.40256382702139604],[30.293346174440778,0.402530297767288],[30.293355475701777,0.4025199406781664],[30.29429273809629,0.39452196824499547],[30.294200189168993,0.394254251775834],[30.294366563489564,0.39389199155569726],[30.2946,0.3919],[30.29279031193145,0.3882683962408169],[30.292247179696414,0.388371355928318],[30.292571157605487,0.3878286068164192],[30.289807788741047,0.3822831976762893],[30.287110123222092,0.383793037710707],[30.284916682885736,0.383378329519947],[30.28362162979038,0.379354516872957],[30.285474046995688,0.377475910449987],[30.285063517899967,0.375099703325374],[30.28565809457332,0.37395577086673043],[30.284363021967042,0.37135687516359034],[30.27998099308826,0.365262679709584],[30.280687505762447,0.3639810081854467],[30.2798,0.3622],[30.27984382151511,0.3618791134216224],[30.2798129524899,0.36184487595183],[30.27821584977699,0.363118335850885],[30.27707059488788,0.362992676646244],[30.27576208837972,0.358663917546633],[30.272944886697243,0.357390207705271],[30.2742507796214,0.354200122038876],[30.25377702646023,0.353901970238572],[30.25281572410009,0.356547792143709],[30.253885017406322,0.359981958917319],[30.252749406545284,0.363491696900421],[30.247987560962553,0.364257264786254],[30.243743197307843,0.367410049786994],[30.243867510240353,0.36885014330451],[30.242072074303334,0.370268653834754],[30.235278158530946,0.372423260628732],[30.23753113433153,0.376058898837033],[30.237473794361353,0.383183415517201]]]}},{"type":"Feature","properties":{"n":"Kateebwa","c":"431106","d":"Bunyangabu","od":"Bunyangabu","dc":"431","k":"KATEEBWA","a":["KATEEBWA"],"lat":0.530001,"lon":30.112342},"geometry":{"type":"Polygon","coordinates":[[[30.075964211639945,0.549353665372219],[30.076,0.5495],[30.075620221263584,0.5517786724185024],[30.123940470700745,0.549988987950008],[30.127459494119435,0.551216780091911],[30.130371950086197,0.550231707760383],[30.131265190567998,0.55058658040694],[30.131591496150165,0.552148966183924],[30.132842585553767,0.551310876548679],[30.134695296140382,0.552060516744016],[30.13826832572592,0.549443591877001],[30.140868205784393,0.549029086175722],[30.143733474049757,0.549355534922946],[30.14502901947741,0.550524805064592],[30.150376332817235,0.550895133934224],[30.152256701630485,0.549276918543985],[30.15711022264046,0.547183240293202],[30.161350926878523,0.542786719150964],[30.157249901414318,0.541940704130952],[30.153596764819525,0.542939972143945],[30.15110161131201,0.540075905637413],[30.148941576310786,0.532232429188078],[30.151059318897687,0.531655533597239],[30.148459881338418,0.527834714020181],[30.149025580437236,0.526205054142936],[30.147690565669116,0.518732329059928],[30.143873859297347,0.519222250468969],[30.14266326554804,0.515322903036021],[30.13781120003482,0.512317705264263],[30.13768354462629,0.510781188225513],[30.137300488466973,0.5107204722941598],[30.136689443532482,0.510849844569469],[30.134401594152262,0.510410834019484],[30.134288474809296,0.5102430560980599],[30.130488562831488,0.5096407548709944],[30.130488425007087,0.509640746919347],[30.130488381339934,0.5096407261038577],[30.13048828086774,0.509640710178614],[30.13008541523354,0.5094486380954667],[30.128223002797846,0.5085608535153188],[30.127594503480292,0.5088164630874616],[30.123473884281978,0.510492630541629],[30.12215028371502,0.513962520409897],[30.12007010055379,0.515085764742253],[30.119677674495616,0.516215257919798],[30.116343787030313,0.517664250579602],[30.115386050006027,0.5179005622499776],[30.113916486077827,0.518477817811727],[30.1129761874704,0.5184951708186423],[30.094066291436697,0.5231609913988544],[30.09406624462376,0.5231610040594065],[30.077885682338213,0.528586254010327],[30.071614413789494,0.5314155849412082],[30.07215037703652,0.532610007160761],[30.07194457213995,0.5329178060833536],[30.075104371192694,0.5458378733212365],[30.076376119220054,0.547997048145879],[30.075964211639945,0.549353665372219]]]}},{"type":"Feature","properties":{"n":"Kibiito","c":"431107","d":"Bunyangabu","od":"Bunyangabu","dc":"431","k":"KIBIITO","a":["KIBIITO"],"lat":0.445023,"lon":30.191399},"geometry":{"type":"Polygon","coordinates":[[[30.170625431158733,0.4420729383832987],[30.17358095611825,0.443367267186396],[30.173466982906096,0.444809475003206],[30.173468444914857,0.44481160426700395],[30.17439160524327,0.445871700696444],[30.17435385049199,0.44610110545868564],[30.17440587476339,0.44617687340244],[30.17433603723427,0.44620934206504864],[30.174271659805736,0.44660051107519],[30.173177232797592,0.446748090081427],[30.1731704324349,0.4467512516864345],[30.173170338271856,0.44675322157120295],[30.173258168460173,0.44883021953442537],[30.1818009167022,0.45919347582858455],[30.182844101604353,0.4594192732116506],[30.182875475549075,0.459426052220486],[30.183534029552387,0.45853596994268],[30.18675977847103,0.457498843964014],[30.191395037525336,0.457503594590372],[30.194345948160677,0.454933698688486],[30.198020352993648,0.454722893572282],[30.201285675240417,0.452106182500111],[30.205690591171095,0.451559364232791],[30.205381650144343,0.449447179650703],[30.21098553697072,0.442861042328044],[30.210901208822868,0.440091570067746],[30.214210372322903,0.441099362496164],[30.217303505463672,0.443145607958775],[30.21901045801221,0.442066985565765],[30.222924171555373,0.444215601271294],[30.224180314136138,0.445233856699286],[30.224908490018453,0.448336766112017],[30.226021757856035,0.449415488932954],[30.225543110342432,0.451263247327151],[30.227095403267832,0.455894326356801],[30.226821648690336,0.456605095059391],[30.225596443924086,0.455565728274887],[30.223426505388517,0.456722059615906],[30.218149265176123,0.462198201449614],[30.217655719338076,0.46535861906096],[30.21852801382222,0.46874580593786],[30.219993955808945,0.470259346731517],[30.22608943855093,0.472805082899175],[30.23179680634722,0.472391465130767],[30.234066075697374,0.474004480047296],[30.23619966133952,0.474423120012417],[30.238161656563644,0.47659391399871],[30.240220649362705,0.475646310123723],[30.24091220113629,0.47937038596911],[30.240360279851057,0.482680572669327],[30.243377430821994,0.483551457384314],[30.244254040384504,0.481382098315824],[30.248238665302594,0.481331421916845],[30.251752556288807,0.475608542206085],[30.254384821022136,0.477348202400089],[30.257403041527464,0.477743532825762],[30.260861919965926,0.4724489497567854],[30.25988312788044,0.4715742844889027],[30.259764236466854,0.471526195744687],[30.259015671519094,0.466592625707619],[30.25746035576287,0.465291469333513],[30.25690107760466,0.462876117258276],[30.25718663555493,0.460197712380259],[30.258495578175168,0.458561906688068],[30.257268365275362,0.457783079395387],[30.256315330273264,0.455190968032597],[30.257346686892664,0.447192932349804],[30.255993782711116,0.446813255251574],[30.25679346395173,0.445333380009268],[30.256008235445062,0.443393983085078],[30.256507060665122,0.442863766186528],[30.253106802563572,0.442424783307555],[30.250964988566395,0.440925638308076],[30.246465781720598,0.445350382806769],[30.23750549426255,0.443640577659764],[30.230392003604596,0.440663628703558],[30.227288740124095,0.441777266142555],[30.221623862039998,0.440220032332922],[30.222245990699705,0.437703130584874],[30.226526538878293,0.434775472565388],[30.21677433719776,0.431236628521332],[30.214224508223058,0.431136592082761],[30.215882722982375,0.425027524594581],[30.21494047666101,0.42040185233164],[30.215785498044454,0.415849270680642],[30.215156204720138,0.415500003105211],[30.215590170955274,0.411471124883109],[30.208289087820607,0.409390114699651],[30.206973163321067,0.407308123267946],[30.204933068345387,0.406742584148761],[30.20381687530841,0.408523361359527],[30.201953148835056,0.408863794833231],[30.202076660755168,0.411185818592485],[30.20083052802363,0.412394535195921],[30.19314070515231,0.415546444848215],[30.188540732446405,0.413397121006374],[30.186751771654674,0.410389819509486],[30.18272858485296,0.408648191440551],[30.18269556237325,0.410424654360575],[30.179695945826527,0.413412370426744],[30.17862941546667,0.4166666553709212],[30.179285381561836,0.417981123832748],[30.17800862001092,0.41856087740257286],[30.17635443097029,0.42360827473167867],[30.17654697979443,0.424130545400808],[30.175908791460913,0.42496804656797643],[30.1758,0.4253],[30.17550315049121,0.4255003734184326],[30.17529821558523,0.4257693116204291],[30.175558324385,0.425872318252823],[30.173978833003957,0.4275019876765225],[30.17438559032828,0.4280554677413208],[30.17473978352534,0.428536534797501],[30.174739462241675,0.4285369859288098],[30.174739717037397,0.428537332632713],[30.173681723828743,0.4300224845854524],[30.1741578009254,0.4308645917353631],[30.174287461744644,0.431093265451083],[30.17428731867956,0.43109368871898934],[30.174287687689436,0.431094341440697],[30.173871609942697,0.4323235916463059],[30.173769929845513,0.4326244192164],[30.17376974775927,0.43262453085995634],[30.173769001417426,0.432626735834562],[30.1713950643269,0.43408053379845607],[30.171288813364523,0.4341456800454601],[30.170900018046666,0.4362895055539667],[30.170885331294805,0.436370564356057],[30.170885316020385,0.4363705728341382],[30.17088506041681,0.436371982237592],[30.17020337538354,0.43674908465455387],[30.16975152142153,0.4369998866400658],[30.170849665433767,0.439684791882498],[30.17084928666701,0.4396877944767715],[30.170625431158733,0.4420729383832987]]]}},{"type":"Feature","properties":{"n":"Kibiito Town Council","c":"431108","d":"Bunyangabu","od":"Bunyangabu","dc":"431","k":"KIBIITOTOWNCOUNCIL","a":["KIBIITO","KIBIITOTOWNCOUNCIL"],"lat":0.46675,"lon":30.200586},"geometry":{"type":"Polygon","coordinates":[[[30.17638630949181,0.486739271992129],[30.1750276592978,0.490649671851294],[30.176006224578263,0.491641657811475],[30.17977361304131,0.491235028915829],[30.180448442681723,0.491445673069022],[30.180539790398175,0.492777552548947],[30.182883792588136,0.492975285742376],[30.184990840222625,0.488778425147886],[30.188055013789054,0.487051114395764],[30.18692353879824,0.488649876404474],[30.187770625213997,0.489262677942152],[30.18973640597838,0.487415454819744],[30.19400183278801,0.488670127098999],[30.19538667128628,0.488213275307597],[30.195719560555922,0.48661896694316],[30.19809158901561,0.485996700871049],[30.200348632012126,0.488121239688795],[30.202128214444823,0.487281879776694],[30.20282287806661,0.488549948150574],[30.20467842162432,0.487940068289923],[30.20524270064377,0.489399331065488],[30.206578563137253,0.489816103190289],[30.2142950562955,0.49083182724123],[30.215691964941445,0.488607300151514],[30.217686053504544,0.488245970076746],[30.217924509160547,0.487459811231336],[30.21901476183801,0.487767582073212],[30.221373073212796,0.485286458136396],[30.226429122579788,0.485231376944885],[30.22946368429875,0.480000252905804],[30.23077019813718,0.475702794838607],[30.232476085635174,0.475652974785746],[30.23262160735063,0.473987361706064],[30.234066064746216,0.474004483683537],[30.23406603081085,0.47400444814159376],[30.232108793570585,0.47261322815991974],[30.22640862853034,0.472886126192951],[30.22618359959817,0.4727982589684909],[30.22608943855093,0.472805082899175],[30.2244851913315,0.47213508015431693],[30.22102153507105,0.470782623565055],[30.22059998074967,0.47051244885244986],[30.219993955808945,0.470259346731517],[30.219648422243377,0.4699025937687122],[30.218928047216583,0.46944090447753],[30.218662245218486,0.4688843957974039],[30.21852801382222,0.46874580593786],[30.21844840532216,0.46843667998143734],[30.217814935253973,0.467110385995424],[30.21787602972391,0.466214101310721],[30.217655719338076,0.46535861906096],[30.218149265176123,0.462198201449614],[30.223426505388517,0.456722059615906],[30.22342660998164,0.456722003879623],[30.22342663398727,0.456721978969127],[30.223533341243552,0.45666512821186045],[30.225596443924086,0.455565728274887],[30.226821648690336,0.456605095059391],[30.227095403267832,0.455894326356801],[30.225543110342432,0.451263247327151],[30.226021757856035,0.449415488932954],[30.224908490018453,0.448336766112017],[30.224908471420537,0.4483366868624202],[30.224908448293277,0.448336664473728],[30.224847001788092,0.44807475192919366],[30.224180314136138,0.445233856699286],[30.224180292797623,0.44523383940184014],[30.219023693855387,0.44207425199960304],[30.21901045801221,0.442066985565765],[30.217303505463672,0.443145607958775],[30.217302851948155,0.4431451756291262],[30.21730283598244,0.44314518572896],[30.214210336758246,0.44109935166509123],[30.210901208822868,0.440091570067746],[30.21098275838007,0.44276978893361346],[30.210985685376738,0.442860714702496],[30.210985532466985,0.4428608944181244],[30.21098553697072,0.442861042328044],[30.205381650144343,0.449447179650703],[30.205690591171095,0.451559364232791],[30.201285675240417,0.452106182500111],[30.198020352993648,0.454722893572282],[30.19479685384699,0.45490782967570126],[30.194345912234084,0.4549337299763208],[30.191395037525336,0.457503594590372],[30.19116337577111,0.4575033571627713],[30.1910100315472,0.457627177354993],[30.187567844542627,0.4574996721421015],[30.186826749768656,0.4574989126021652],[30.18353391124763,0.45853612983991965],[30.182875475549075,0.459426052220486],[30.182860727031564,0.45942286548922234],[30.18286072292847,0.4594228708974308],[30.182875470907433,0.459426063097633],[30.182030098311504,0.460519417062498],[30.183562251764375,0.463851416824489],[30.183531420805576,0.4648808347416782],[30.183616234646298,0.465126761960017],[30.18351282602865,0.4655016975782568],[30.183486245210702,0.466389207124335],[30.182863616520283,0.467855580396942],[30.182156004305266,0.470421217858741],[30.181422005164293,0.471251682712818],[30.18142161390743,0.47125168809814155],[30.18142033538789,0.471254699181487],[30.178514297550063,0.471291733388593],[30.177350264222994,0.47247249031287014],[30.17615475210708,0.4745343434213929],[30.176152531410374,0.47453835254035703],[30.176154144892788,0.4747047134312924],[30.17618107217329,0.477441114413958],[30.171378200770658,0.4850028791262392],[30.171178932970708,0.485316633062269],[30.173611679556455,0.486627923855259],[30.17638630949181,0.486739271992129]]]}},{"type":"Feature","properties":{"n":"Kisomoro","c":"431109","d":"Bunyangabu","od":"Bunyangabu","dc":"431","k":"KISOMORO","a":["KISOMORO"],"lat":0.500764,"lon":30.215704},"geometry":{"type":"Polygon","coordinates":[[[30.197139018457428,0.525456612122575],[30.199487084191784,0.524813826624739],[30.201529484264515,0.525970195156272],[30.206719578385886,0.526708582593736],[30.208993382559203,0.524138333493482],[30.211971500603628,0.523448411263399],[30.212371079122146,0.522164033923461],[30.21496941397954,0.520123185649725],[30.215449844951344,0.517873422391495],[30.21802587542047,0.514601167192962],[30.217704725808055,0.512650101032071],[30.219308949949088,0.511508340547721],[30.220774156874345,0.511924269279378],[30.22223852522544,0.510079766311691],[30.2280307881672,0.507798880899995],[30.230703448834948,0.508684238557098],[30.232532241846393,0.507444537746847],[30.23380284949328,0.504102101211528],[30.23638458789247,0.502532737604168],[30.236880056192682,0.498561286574577],[30.237706874025836,0.497647294227029],[30.23957428022406,0.49763684428451],[30.241053519627336,0.498995897829339],[30.24169986270027,0.494243396087161],[30.239860544761903,0.494108391061246],[30.2393365018434,0.490672628395175],[30.24108946048052,0.48758555629245],[30.239995961928013,0.484190181335782],[30.240903182714092,0.4794244745900961],[30.24091220113629,0.47937038596911],[30.240220876704257,0.4756475343808347],[30.23816312009782,0.476594147385848],[30.23816251735702,0.47659351783844217],[30.238161656563644,0.47659391399871],[30.23814074781395,0.4765707801054491],[30.23605790680653,0.4743953057491528],[30.235048635590424,0.4741972723267479],[30.232678915986977,0.4739880410180212],[30.232624166723976,0.4739873920437762],[30.23247721908292,0.4756400015646163],[30.232476085635174,0.475652974785746],[30.23077019813718,0.475702794838607],[30.22946368429875,0.480000252905804],[30.226429122579788,0.485231376944885],[30.221373073212796,0.485286458136396],[30.21901476183801,0.487767582073212],[30.218300786570392,0.4875660317594769],[30.217924334974892,0.48746038549992926],[30.217686053504544,0.488245970076746],[30.217683880143756,0.488246363891058],[30.21768370010802,0.488246957076987],[30.216683449208865,0.48842764259211163],[30.21569232367648,0.48860723514850524],[30.215654090019125,0.48866761461156344],[30.2142950562955,0.49083182724123],[30.206578563137253,0.489816103190289],[30.20524270064377,0.489399331065488],[30.205242423363917,0.48939861400149115],[30.20524189205779,0.489398448001808],[30.204469089720284,0.488008871478041],[30.204147179078607,0.48811467703376266],[30.201394824103662,0.489379519884557],[30.198344762615974,0.493592629989899],[30.194677122955582,0.495228644297997],[30.194848924649772,0.502785099510607],[30.192859013205243,0.506222333455545],[30.194465210825246,0.507564080547917],[30.19595948281996,0.515335377274326],[30.196922149992314,0.515995500220397],[30.192782789057397,0.525347568870086],[30.195461738288547,0.526891035995404],[30.197139018457428,0.525456612122575]]]}},{"type":"Feature","properties":{"n":"Kiyombya","c":"431110","d":"Bunyangabu","od":"Bunyangabu","dc":"431","k":"KIYOMBYA","a":["KIYOMBYA"],"lat":0.515821,"lon":30.238051},"geometry":{"type":"Polygon","coordinates":[[[30.20828651897253,0.5316429928015316],[30.21106370653806,0.533879653345138],[30.211417830811197,0.5355135005022665],[30.21162824741138,0.5364832542197931],[30.215966909622175,0.543047325858257],[30.21596720929372,0.5430480792277133],[30.21596721821149,0.543048092719526],[30.21598419914971,0.5430907914530911],[30.217563427320965,0.54706094573941],[30.2195621271305,0.5485645368250929],[30.22134760082893,0.5487404319675838],[30.222395659859306,0.546323015106721],[30.225667125688695,0.544777967462101],[30.226321504661527,0.545795882540537],[30.22402515194422,0.5485301987241452],[30.224035769229893,0.5485478597630825],[30.226675466167656,0.5528061797928256],[30.227143270015922,0.5531112922159565],[30.232359981947937,0.55480524201821],[30.234302189102447,0.558227715455589],[30.236354712803408,0.5585959334964039],[30.23836670369521,0.5589568296912472],[30.238367436702596,0.5589566572864054],[30.238420529356898,0.5587075959209767],[30.239685901860298,0.552770463344421],[30.240939863830537,0.5527151945468534],[30.24154111983774,0.550795593014007],[30.241926864590038,0.5507307331865662],[30.242030701233052,0.550521862804829],[30.246745493206056,0.54992050120193],[30.25085826117224,0.5482750589244234],[30.252948313650872,0.5444751926458202],[30.253077819800453,0.544239696020247],[30.253077867785237,0.5442396538775615],[30.253077889927997,0.544239613620422],[30.25352237873425,0.5438492616726538],[30.256070068480906,0.541611750493621],[30.256070841786787,0.5416045187250014],[30.256519389176027,0.536840114217259],[30.25239333717507,0.535852624313959],[30.25186687921848,0.53424249127894],[30.249567827367457,0.5325533918014839],[30.249431301180337,0.5325003875170725],[30.248910177708634,0.53280666197367],[30.248542154021095,0.5321551892081895],[30.2484,0.5321],[30.24846339936068,0.5320157783002734],[30.248319402736477,0.531760876558442],[30.248804793425293,0.5315622597144368],[30.24955588565112,0.5305644852379724],[30.249431734734305,0.529308160420686],[30.250666523583302,0.528322764361596],[30.250301219116324,0.526942604791433],[30.251157931006826,0.525807691929719],[30.25171741803436,0.526773971326831],[30.252842203479776,0.525994766726403],[30.25295241738026,0.5260524259311247],[30.25504533850032,0.5232721238549686],[30.25474783680421,0.522327910041848],[30.256540781719693,0.5212855301664843],[30.257385721194186,0.5201630860606627],[30.25757012957204,0.519430170063545],[30.256541536398917,0.518938981877104],[30.25820169278221,0.518211189408293],[30.258248280049678,0.517166711017447],[30.257706237819537,0.517615270696561],[30.257475477036028,0.517051376163403],[30.259562929485575,0.515405900981667],[30.259394667039945,0.513388335457814],[30.26198344069168,0.51325215544172],[30.26198788702205,0.512354294549361],[30.2628537809819,0.512899143891691],[30.266734061777917,0.5077444571479629],[30.265907738296054,0.506975135651954],[30.267655866711557,0.504832897881586],[30.26885804566678,0.5047621265812426],[30.268984096155595,0.5042455667349154],[30.27039287376381,0.497259562337605],[30.270695738980823,0.4972311873138805],[30.2717844946295,0.49276942396929857],[30.27157362556914,0.492453409828133],[30.27220000829183,0.486974455830189],[30.270551772797766,0.486259929623785],[30.270779501070102,0.484906165554404],[30.273847976857923,0.48405351123473705],[30.260861981419445,0.4724490046726957],[30.257404889208438,0.477742428728682],[30.25740385136828,0.4777422931841998],[30.257403041527464,0.477743532825762],[30.254384821022136,0.477348202400089],[30.25407295385766,0.4771420898138475],[30.25175220969441,0.47560910668519013],[30.248238665302594,0.481331421916845],[30.248237186957546,0.4813314407184148],[30.24823667368299,0.481332276590535],[30.24597534637667,0.4813602067724499],[30.244255081971463,0.4813820850689369],[30.24360767930502,0.4829816579479234],[30.243377430821994,0.483551457384314],[30.243374916229598,0.4835507315604813],[30.240253976297964,0.48283481024836705],[30.2401427291336,0.4834192009168699],[30.241089280623378,0.4875849978258373],[30.24108946048052,0.48758555629245],[30.23933655270197,0.49067253882998335],[30.2394159487977,0.4911935034416176],[30.239860544761903,0.494108391061246],[30.24169986270027,0.494243396087161],[30.24162130178279,0.4948210473575606],[30.241057151918564,0.498988840843866],[30.241054774258387,0.4989866726414897],[30.241053519627336,0.498995897829339],[30.23957428022406,0.49763684428451],[30.237707083397694,0.4976472930553911],[30.23758944488981,0.4977771043585988],[30.2368801970625,0.49856113085232173],[30.236591971914866,0.5008704405633553],[30.23638458789247,0.502532737604168],[30.235587001036183,0.5030175674329215],[30.233802739978056,0.5041023893002105],[30.232532241846393,0.507444537746847],[30.230703448834948,0.508684238557098],[30.2280307881672,0.507798880899995],[30.222921829554416,0.5098106937762451],[30.222238478086123,0.5100798256878778],[30.221313496261338,0.51124492306218],[30.22077496679156,0.511923726533359],[30.22077465749632,0.5119236387012046],[30.220774156874345,0.511924269279378],[30.2193097333565,0.5115085629338196],[30.21793988785168,0.5124827311976674],[30.217704725808055,0.512650101032071],[30.21802587542047,0.514601167192962],[30.218025622771936,0.5146014881249121],[30.218025638296204,0.514601582512851],[30.216739108404578,0.5162357092170256],[30.215450014479934,0.5178732070443505],[30.21515995369798,0.519230925818569],[30.21496941397954,0.520123185649725],[30.212371101252362,0.5221640165414017],[30.21235567411272,0.5222135507120533],[30.211971500603628,0.523448411263399],[30.211971051302378,0.5234485153502475],[30.21197100820256,0.523448653737121],[30.210739539766465,0.5237338120284026],[30.208993382559203,0.524138333493482],[30.20695740091046,0.5264397541972614],[30.20671958264298,0.526708595066474],[30.20712694572333,0.5276380801592709],[30.20713054798073,0.527638656759708],[30.206321033939687,0.5288854486716776],[30.20778780184917,0.5312378046186194],[30.207792632976602,0.5312451889550215],[30.20828651897253,0.5316429928015316]]]}},{"type":"Feature","properties":{"n":"Kyamukube Town Council","c":"431111","d":"Bunyangabu","od":"Bunyangabu","dc":"431","k":"KYAMUKUBETOWNCOUNCIL","a":["KYAMUKUBE","KYAMUKUBETOWNCOUNCIL"],"lat":0.582624,"lon":30.121993},"geometry":{"type":"Polygon","coordinates":[[[30.084668360636574,0.570825533675282],[30.08521975484147,0.5748992190846881],[30.09006526922121,0.5791987600131858],[30.094459273983297,0.579974596277121],[30.09483545722154,0.583369404400307],[30.094804836077568,0.5835370221977575],[30.095617053035305,0.6065498360002777],[30.095724608935914,0.60888286257123],[30.108268080418462,0.61290216209388],[30.10922026038872,0.6138080397301521],[30.1103,0.6142],[30.1196,0.6236],[30.125802428492886,0.6209616535515328],[30.127461999542533,0.62008653063098],[30.129444269915524,0.618236358513136],[30.1329262886863,0.6179313548125442],[30.158894321464604,0.6068852513172952],[30.158903976341847,0.6065465273362277],[30.158706749147303,0.60649452763484],[30.15898543047287,0.603654463020067],[30.158992597987986,0.6036529830050724],[30.16029191297243,0.6020653336454268],[30.160291925945046,0.602065298280936],[30.160227354747022,0.6018262514397241],[30.159673489307615,0.599776242152187],[30.159673584441283,0.5997761571810152],[30.159673291645362,0.59977507323117],[30.160607237094705,0.5989420792507898],[30.160819897757424,0.59674406131498],[30.16082022361386,0.5967439434928364],[30.160820379616375,0.596742333226127],[30.162489079390273,0.596139549830424],[30.161068936007794,0.593108468092882],[30.15479075811747,0.590663384194931],[30.15436941880071,0.58934550958491],[30.154215501188823,0.5893753145696089],[30.15009586038609,0.590174839913782],[30.150094968056084,0.5901732247337995],[30.15009468378535,0.590173279780683],[30.149288856622555,0.5887141064253222],[30.148961628561953,0.588121800654173],[30.149014884378396,0.585945861885861],[30.147272644626373,0.584755397437666],[30.147612892026757,0.583664447126127],[30.150392759123537,0.581879117191464],[30.14969619839735,0.579593350228119],[30.149696735134896,0.5795932726158624],[30.149696588307883,0.57959279181778],[30.150945042356355,0.5794125575997633],[30.15252113724976,0.5779810621469392],[30.15294615415598,0.5775949633887418],[30.153556799901075,0.5759739174920027],[30.15405742027164,0.574644502306056],[30.1540576223418,0.5746444131614575],[30.154057749973436,0.574644074345141],[30.157967557914333,0.572919320626088],[30.157992263370897,0.5728742616407246],[30.158874435525018,0.571264328999541],[30.15887496111403,0.5712643555624384],[30.158875441217937,0.571263479926122],[30.16101335967611,0.57137203292581],[30.161744256595227,0.570162993115976],[30.163495320659052,0.569437138838948],[30.16357291236512,0.5695035127621618],[30.16376568953321,0.568591667227619],[30.159853059867228,0.568240256732501],[30.15569681551773,0.566725614735913],[30.15849580769461,0.565054958104491],[30.158066862105557,0.563585509456116],[30.159696431991364,0.561075200231072],[30.159628433013964,0.556849589459839],[30.163075601500697,0.549211942719878],[30.162832973139437,0.548069698926128],[30.164298687807808,0.544342042004546],[30.165687333791354,0.543287477389588],[30.16135094106231,0.54278671644319],[30.160415215697004,0.5437568113247243],[30.15711022264046,0.547183240293202],[30.157110152641884,0.5471832704887013],[30.15711010813554,0.547183316629779],[30.154502174324534,0.5483082820978668],[30.152256701630485,0.549276918543985],[30.150376332817235,0.550895133934224],[30.150376008752925,0.5508951114911086],[30.15037594442385,0.550895166848952],[30.149906843731273,0.5508626194074963],[30.14502901947741,0.550524805064592],[30.143733516233223,0.54935557299484],[30.14086800436609,0.5490291182883705],[30.138268635499273,0.5494435424890227],[30.135196519139214,0.5516934156892489],[30.134695296140382,0.552060516744016],[30.13423460219294,0.5518741116447811],[30.13284251289764,0.5513109252201396],[30.131591496150165,0.552148966183924],[30.131265190567998,0.55058658040694],[30.130371950086197,0.550231707760383],[30.127459494119435,0.551216780091911],[30.127459317166597,0.5512167183528208],[30.12745926451279,0.551216736159836],[30.123940386739477,0.5499889910597637],[30.106432268577077,0.5506374564032336],[30.075620219473528,0.5517786831588403],[30.075117164065425,0.5547970156074586],[30.075577170447822,0.556244778661132],[30.074685462189255,0.558117832152487],[30.07432265619281,0.564124904859164],[30.07615413473622,0.56633122565361],[30.084668360636574,0.570825533675282]]]}},{"type":"Feature","properties":{"n":"Nyakigumba Town Council","c":"431112","d":"Bunyangabu","od":"Bunyangabu","dc":"431","k":"NYAKIGUMBATOWNCOUNCIL","a":["NYAKIGUMBA","NYAKIGUMBATOWNCOUNCIL"],"lat":0.51382,"lon":30.167953},"geometry":{"type":"Polygon","coordinates":[[[30.142663584323362,0.515323371539642],[30.142911229382573,0.5161215996608812],[30.143873859297347,0.519222250468969],[30.147690565669116,0.518732329059928],[30.14769125477904,0.5187361863423603],[30.14769138023468,0.518736170259622],[30.14902554878814,0.526204752420589],[30.149025534094125,0.5262047947380786],[30.149025580437236,0.526205054142936],[30.148459923168947,0.5278345935152411],[30.151058016152863,0.531651827148852],[30.151056987733032,0.5316521071023328],[30.151059318897687,0.531655533597239],[30.148941888016257,0.5322323442761946],[30.150067313991936,0.535577291301766],[30.149995651378106,0.5360599657611674],[30.150419497197706,0.5375990263330185],[30.151081680326154,0.538159147808944],[30.151101476070178,0.5400754145499347],[30.15110161131201,0.540075905637413],[30.153596764819525,0.542939972143945],[30.157249901414318,0.541940704130952],[30.15754173215907,0.5420009069254768],[30.15773437828501,0.541954978821972],[30.158064553035114,0.5421087614896022],[30.161174265622293,0.5427502750767854],[30.16208073215025,0.542574252006825],[30.165516495860214,0.543225810045045],[30.16565637241445,0.5432839020103805],[30.165687333791354,0.543287477389588],[30.165679431406954,0.5432934786131248],[30.16666344976474,0.543702150106653],[30.166665985935992,0.544563708223901],[30.169590409679603,0.541569356991495],[30.17200201583006,0.540324285685778],[30.175162923374007,0.540846758561579],[30.175110326502192,0.542044399861094],[30.176905629606438,0.541416498177991],[30.17747546666447,0.544101072893406],[30.183626965713515,0.545137937372939],[30.18419005812543,0.546119224453481],[30.186188796279573,0.545806921497715],[30.188638786988662,0.54405872656242],[30.194185030491496,0.545407849068244],[30.196621038565706,0.5439403852952389],[30.196209598939813,0.5425615324130248],[30.1961931842128,0.542509104821471],[30.196193765788344,0.5425084709547577],[30.196193330552255,0.542507012353065],[30.19999068677941,0.538367855749366],[30.201577247593757,0.537664423653629],[30.201580188306124,0.5375875368143735],[30.201632753846603,0.536184671992941],[30.20163388944951,0.5361834854611963],[30.20163394320197,0.53618208006815],[30.20335978997736,0.534380126437831],[30.20165873056161,0.533304413029196],[30.201444581087916,0.531971918917838],[30.20242524281979,0.5317658349067189],[30.202227975696896,0.5308830312979798],[30.201777705139026,0.528872670416947],[30.201778664447463,0.52887228776081],[30.201778590608324,0.528871957318226],[30.201782572278,0.5288707289760841],[30.205518306995028,0.527380591120815],[30.20623894549524,0.5274959411439302],[30.206746769397157,0.52733927784685],[30.20663704326532,0.5266968404374764],[30.20153182242788,0.5259705278035065],[30.201530762028735,0.525970429825748],[30.201530637278818,0.5259703591940057],[30.201529484264515,0.525970195156272],[30.19948730732138,0.5248139529565226],[30.1985286112128,0.5250762096244753],[30.197139018457428,0.525456612122575],[30.195461738288547,0.526891035995404],[30.192782789057397,0.525347568870086],[30.192784658117244,0.5253433460984366],[30.192783938378984,0.525342930007432],[30.19461636640602,0.5212049629199267],[30.196922149992314,0.515995500220397],[30.195980516712332,0.5153498006964586],[30.195959518906793,0.515335486355399],[30.195959500253508,0.5153353892289109],[30.19595948281996,0.515335377274326],[30.194465210825246,0.507564080547917],[30.192859013205243,0.506222333455545],[30.194777454583452,0.502908551907784],[30.194848919644265,0.5027848793504569],[30.194677122955582,0.495228644297997],[30.198344710569934,0.49359265320593904],[30.199072509730435,0.49258737854351176],[30.201394824103662,0.489379519884557],[30.201396120534987,0.4893789241104262],[30.20292166716798,0.488560935474547],[30.202899267302396,0.48852484054462064],[30.20282287806661,0.488549948150574],[30.202130520155613,0.4872860887187492],[30.202127977512788,0.48728199152833246],[30.200858538056764,0.48788073681298444],[30.200349057860247,0.488121257232428],[30.200348903284624,0.4881211117400942],[30.200348632012126,0.488121239688795],[30.19809164189053,0.48599675064184394],[30.195719536050365,0.48661908430775785],[30.19538667128628,0.488213275307597],[30.195386008926825,0.4882134938169063],[30.19538589429483,0.488214042552288],[30.194781629146814,0.48841287590047067],[30.19400183278801,0.488670127098999],[30.190049524169396,0.48750755831417325],[30.189736321348455,0.4874155343455774],[30.187770625213997,0.489262677942152],[30.18692353879824,0.488649876404474],[30.18692481830783,0.488648068471168],[30.186924469690734,0.488647815323598],[30.18768583816894,0.4872592230437308],[30.184990840222625,0.488778425147886],[30.182883792588136,0.492975285742376],[30.180539790398175,0.492777552548947],[30.180448442681723,0.491445673069022],[30.17977361304131,0.491235028915829],[30.176006224578263,0.491641657811475],[30.1750276592978,0.490649671851294],[30.175028489417322,0.4906472826423063],[30.175028250130953,0.490647040009394],[30.17638563956319,0.48673924510735317],[30.173611679556455,0.486627923855259],[30.173610739793155,0.4866274173072408],[30.170165439919362,0.48537239442641894],[30.169386136644317,0.485415271828665],[30.165691457379822,0.483742681668996],[30.165511006961825,0.4837846554750245],[30.16238451155913,0.48451236988811386],[30.162826079885903,0.4854736093063119],[30.162848383803837,0.485521530580409],[30.162848146549035,0.48552164569194534],[30.162848322723487,0.485522029201857],[30.16078413042431,0.486523092462955],[30.160359326595483,0.48907108795494],[30.157847293301867,0.492910453261523],[30.15784715628925,0.49291052048421263],[30.157847047969423,0.492910686033292],[30.157845502992057,0.4929113316436986],[30.15325202142974,0.49516503784764376],[30.151959053798535,0.4968661087529011],[30.15195806179896,0.496867804026017],[30.151940004582748,0.501011665987714],[30.152855652896605,0.504099429018036],[30.152855424919238,0.5040998853151741],[30.15285548601484,0.504100091200293],[30.15221108471396,0.5053895334852543],[30.150512041633167,0.508790171505486],[30.14635719043736,0.510570871747123],[30.146356779381552,0.5105708281765267],[30.146356683914966,0.510570869096305],[30.142569325602906,0.5101693702310108],[30.140792816843675,0.509981066003856],[30.140792284835083,0.5099811786423186],[30.137683555914546,0.510781187069081],[30.137686530038916,0.5108171219741885],[30.13781120003482,0.512317705264263],[30.14266326554804,0.515322903036021],[30.142663369735182,0.5153232386249472],[30.142663584323362,0.515323371539642]]]}},{"type":"Feature","properties":{"n":"Rubona Town Council","c":"431113","d":"Bunyangabu","od":"Bunyangabu","dc":"431","k":"RUBONATOWNCOUNCIL","a":["RUBONA","RUBONATOWNCOUNCIL"],"lat":0.557898,"lon":30.17715},"geometry":{"type":"Polygon","coordinates":[[[30.163759752150014,0.568590650554214],[30.16375960526154,0.5685911207723949],[30.16376568953321,0.568591667227619],[30.163572920446846,0.5695034745351966],[30.16550619012138,0.5711565070506628],[30.165514110283137,0.5711577729234698],[30.172559898873544,0.5713042933018107],[30.1732979905177,0.570179817424475],[30.173298550572465,0.5701797005391812],[30.173298808665972,0.570179306773804],[30.174831299461136,0.569858282639695],[30.174832255193422,0.5698596112798191],[30.174835422063364,0.569858950343521],[30.1769347690811,0.572781873522425],[30.17703417183579,0.5728127484786822],[30.18315999123615,0.574681619559459],[30.18319359877181,0.5747258950289317],[30.183395064013137,0.574788471066516],[30.18448847222956,0.576430302013095],[30.185932756629242,0.5762573279736888],[30.1875890277991,0.573805280654735],[30.18758953026549,0.5738054514208871],[30.18759003505196,0.573804632542776],[30.189565016537372,0.5744766098810619],[30.189585885933745,0.5743398822472283],[30.189749400520512,0.573263302718223],[30.19139630030304,0.572520099813327],[30.19247136319831,0.5710854324195004],[30.193974663245356,0.5690789036169177],[30.194270736515044,0.5681555307498696],[30.19478695704189,0.5665439800525368],[30.194273145575533,0.56469755314549],[30.194273480647063,0.5646973278145786],[30.194273362077457,0.564696902491614],[30.19432243396562,0.5646644073934606],[30.19493182493235,0.564254600503104],[30.193846035787303,0.563437429539765],[30.193753534053972,0.5617472065197097],[30.193747839806896,0.561645339879252],[30.193747949428587,0.5616451623520705],[30.19374788118441,0.561643915371367],[30.19452323428751,0.5603896249166267],[30.194746207632164,0.5600285300518224],[30.193878241472603,0.558391387482491],[30.19388028334657,0.5583900941910593],[30.193879806804915,0.558389193229839],[30.195431504331548,0.557407055784197],[30.194895489895256,0.555960657378574],[30.194896682897948,0.5559600131029196],[30.194896168002284,0.555958623074576],[30.195767318285828,0.555489830438474],[30.196144676346307,0.5552860399415607],[30.196368930821848,0.554164246251102],[30.1963691782025,0.5541641539153807],[30.196369295528932,0.554163566952531],[30.198053333405873,0.5535355369001056],[30.198731807723675,0.5532822939093519],[30.19900250494548,0.548760091447862],[30.19900285356149,0.5487595337483144],[30.199002898249937,0.548758787069709],[30.199830576976503,0.5467044933515682],[30.199024307702466,0.545223504273994],[30.196780598660602,0.544475117204594],[30.196652311557067,0.5440451901112092],[30.19653976970743,0.5439893420727866],[30.194185030491496,0.545407849068244],[30.191076240598477,0.5446516366141019],[30.188638735669794,0.5440587631810822],[30.186188796279573,0.545806921497715],[30.186188602780863,0.5458069517318997],[30.186188548827634,0.545806990232722],[30.186005104964522,0.545835623276645],[30.18419005812543,0.546119224453481],[30.183626965713515,0.545137937372939],[30.17747546666447,0.544101072893406],[30.176905629606438,0.541416498177991],[30.175542119939614,0.5418933814478416],[30.175114388738713,0.542043677585019],[30.1751144186225,0.5420429686547298],[30.175110326502192,0.542044399861094],[30.175162923374007,0.540846758561579],[30.17200201583006,0.540324285685778],[30.169590409679603,0.541569356991495],[30.166665985935992,0.544563708223901],[30.16666589080175,0.5445313903433893],[30.16590610270588,0.543435677936015],[30.1647842396595,0.5439733045382729],[30.164324827813026,0.5443221907790604],[30.162836697774853,0.5480602263027844],[30.16283300029848,0.5480696298542974],[30.162840091541398,0.5481032108800411],[30.163075601500697,0.549211942719878],[30.16307466060471,0.5492140273963881],[30.163074697583653,0.549214202512493],[30.159628434155422,0.5568496603927237],[30.159666609229554,0.5592219461329877],[30.15969648641879,0.561074749259343],[30.159696426226397,0.5610748419828708],[30.159696431991364,0.561075200231072],[30.158066862105557,0.563585509456116],[30.158258602238504,0.5642423579851368],[30.158495932864906,0.56505359443913],[30.158495487501597,0.5650538612120083],[30.15849580769461,0.565054958104491],[30.157888695685294,0.5654173298584242],[30.155701644742336,0.5667273746291696],[30.159853059867228,0.568240256732501],[30.16081285835933,0.568326460460458],[30.163759752150014,0.568590650554214]]]}},{"type":"Feature","properties":{"n":"Rwimi","c":"431114","d":"Bunyangabu","od":"Bunyangabu","dc":"431","k":"RWIMI","a":["RWIMI"],"lat":0.423103,"lon":30.234828},"geometry":{"type":"Polygon","coordinates":[[[30.216774306815676,0.4312366273293637],[30.21677433719776,0.431236628521332],[30.217242871693617,0.4314066486423689],[30.22652002655753,0.434772914713885],[30.226519840867393,0.4347730420151638],[30.226526538878293,0.434775472565388],[30.222245990699705,0.437703130584874],[30.221623888720984,0.4402199243915545],[30.22162445987607,0.4402201966737135],[30.226743696894385,0.4416274377204044],[30.22754618665678,0.44168487885441765],[30.230391625555676,0.4406637643702312],[30.23039187646133,0.440663625000818],[30.230391939919837,0.44066365155747744],[30.230392003604596,0.440663628703558],[30.23750549426255,0.443640577659764],[30.246465781720598,0.445350382806769],[30.250964988566395,0.440925638308076],[30.250979260463925,0.44093562780475787],[30.25410344128653,0.44255345216822206],[30.255548206584024,0.4427399754293373],[30.257234651308643,0.4423131082851379],[30.25590665014217,0.4272039629382481],[30.255234337204186,0.427168757662273],[30.25532621534273,0.424515239653912],[30.254707318875287,0.424502905072061],[30.253622177543253,0.421703326606419],[30.254236223978115,0.421264892205943],[30.25415294275083,0.418825948481669],[30.253100152132717,0.417734435186017],[30.252094453833756,0.417790504829235],[30.251330337633465,0.415586905993837],[30.25375153409319,0.412603554812131],[30.254623074807935,0.41260026621104495],[30.254545751114815,0.41172052683457944],[30.25438479633924,0.411194017113834],[30.25454846108071,0.41118505783344844],[30.25692846100237,0.41045122452426946],[30.257027277848334,0.41036597729798524],[30.257118841485283,0.40916624165715],[30.257556292107125,0.40902344788438033],[30.257805425897104,0.40766353586125914],[30.254970313527412,0.407233918189763],[30.253921724108853,0.405159891195081],[30.25213399890326,0.405473116151372],[30.252131221000067,0.4037737344502572],[30.25153378968358,0.4038885103881787],[30.250741562704526,0.404042514823733],[30.2447809343132,0.400595365597542],[30.244685819686076,0.39996721853661965],[30.244358085105116,0.399746708220546],[30.240935981236532,0.401782283448726],[30.238918732632854,0.402057553784937],[30.23642486810995,0.405202839303579],[30.234229809856135,0.404556298962778],[30.234619672675283,0.406660894326139],[30.232816760495446,0.408931444809864],[30.230909204656314,0.409753934966361],[30.218291192866847,0.411917004024286],[30.215590182870045,0.411471126980179],[30.215585926554493,0.41151052927103715],[30.215156204720138,0.415500003105211],[30.215785498044454,0.415849270680642],[30.21494047666101,0.42040185233164],[30.215882722982375,0.425027524594581],[30.215882660290195,0.42502775556029904],[30.215882661872623,0.425027763329568],[30.21587833354709,0.4250436958150172],[30.214224508223058,0.431136592082761],[30.216746794315803,0.43123554794226326],[30.216774228100395,0.431236598767096],[30.216774306815676,0.4312366273293637]]]}},{"type":"Feature","properties":{"n":"Rwimi Town Council","c":"431115","d":"Bunyangabu","od":"Bunyangabu","dc":"431","k":"RWIMITOWNCOUNCIL","a":["RWIMI","RWIMITOWNCOUNCIL"],"lat":0.374846,"lon":30.222167},"geometry":{"type":"Polygon","coordinates":[[[30.181046467666732,0.391581035850137],[30.180486088096874,0.3927952008162635],[30.180757969509127,0.39355523294596995],[30.18127464157755,0.394046665996101],[30.18105630660992,0.3943892207504603],[30.181656958221378,0.396068315027945],[30.181899347206954,0.396224076474111],[30.181791635363968,0.39644479885836886],[30.18291452504071,0.39958378590926524],[30.18347233441287,0.400525284059991],[30.183329577621286,0.40074404653223433],[30.1836,0.4015],[30.18330670857721,0.40239491485415113],[30.18381710485087,0.403806522648082],[30.18283916187979,0.404731639799433],[30.182728587586098,0.408648180284578],[30.18318869796221,0.4088473733193569],[30.186751771654674,0.410389819509486],[30.18832487465007,0.41303425700341245],[30.189663525466656,0.41392174277310395],[30.19252657576172,0.41525949468012385],[30.193935819078835,0.4152205430294568],[30.20083033600374,0.41239461390115933],[30.201042565148676,0.4121888646544932],[30.202076660755168,0.411185818592485],[30.201953148835056,0.408863794833231],[30.20381679376501,0.4085233762544714],[30.20384060529085,0.4084855024851701],[30.204933068345387,0.406742584148761],[30.206973163321067,0.407308123267946],[30.20697355149635,0.40730873741990714],[30.206973811391624,0.407308809417715],[30.207279036453695,0.40779206078984914],[30.208289087820607,0.409390114699651],[30.208297915387345,0.40939263079978866],[30.21828592910265,0.4119161350931736],[30.218290971431767,0.411916967470249],[30.23281511203849,0.40893215558309054],[30.232816617087355,0.40893150664383027],[30.23286384025575,0.40887215352894246],[30.234619672675283,0.406660894326139],[30.234229809856135,0.404556298962778],[30.23642486810995,0.405202839303579],[30.238681537139307,0.40235670698435605],[30.238918566995608,0.40205772064609],[30.238918604371396,0.40205771554950054],[30.238918732632854,0.402057553784937],[30.240935981236532,0.401782283448726],[30.243472778409792,0.40027331654324705],[30.244358079847256,0.399746697944095],[30.244141234210108,0.396370718434724],[30.244141110387663,0.396369900698187],[30.245008269341657,0.3939716854668953],[30.241155342362458,0.39452180562583294],[30.240085864801955,0.394674808952592],[30.239729547362607,0.391568833868599],[30.23863148673216,0.391741937745215],[30.237489348328367,0.390694977628114],[30.2374892616726,0.38812378242600587],[30.235534418798213,0.384841571784504],[30.235534451866517,0.3848415435003414],[30.23553316164878,0.384839377292325],[30.237155710095966,0.3834548400795811],[30.23747379955608,0.3831827700697327],[30.23753113433153,0.376058898837033],[30.235278158530946,0.372423260628732],[30.242072074303334,0.370268653834754],[30.243867510240353,0.36885014330451],[30.243743197307843,0.367410049786994],[30.247987560962553,0.364257264786254],[30.24798787374252,0.36425721450022613],[30.24798805147625,0.364257082483185],[30.24950788857494,0.3640128398094742],[30.252749406545284,0.363491696900421],[30.253885017406322,0.359981958917319],[30.25281572410009,0.356547792143709],[30.252815895684922,0.3565473198855249],[30.252815749240582,0.356546849432147],[30.253377826492393,0.35500070052701205],[30.25377702646023,0.353901970238572],[30.253777250805676,0.3539019735056329],[30.253777281077554,0.353901890234459],[30.274250783078333,0.35420011011951],[30.275704429022003,0.352362182683107],[30.278077511039722,0.35202609025454],[30.278598623116338,0.348835379177092],[30.277760021642084,0.34702173418413],[30.2804461068321,0.346222187296191],[30.279667534528677,0.343295811281272],[30.282851260188767,0.3398569011983892],[30.2829,0.3395],[30.281213584863515,0.33891491719754585],[30.276950711356914,0.337720592772706],[30.274779286360125,0.33822609666478],[30.27424591228925,0.33649756140647397],[30.2731,0.3361],[30.263678749772403,0.337613577905417],[30.26366537818631,0.337812130820405],[30.263120417657067,0.3377032771632906],[30.2620550891147,0.33787442830616304],[30.261544731717805,0.33854496099601],[30.259891857663078,0.338519142159326],[30.2597813661456,0.33823971494710037],[30.249649079761994,0.3398675248906962],[30.249392699332358,0.340098008004994],[30.249232953742492,0.3399343779233372],[30.245829268729356,0.34048119945003785],[30.245737826713995,0.341607674972142],[30.243947973723245,0.34078344028708507],[30.2426,0.341],[30.239054478817412,0.343451395505148],[30.238767141108802,0.344391444839577],[30.237622509989837,0.3444414677023388],[30.236285701771106,0.345365745259822],[30.234972685204546,0.34710757581149],[30.233677084696648,0.34741848018983],[30.234073157221598,0.348706004541805],[30.23270983398418,0.348953233313978],[30.231018019247134,0.351915634377375],[30.229265565056064,0.352022739108848],[30.229193788686402,0.352878108037508],[30.227760541230882,0.353678323113137],[30.2265760893599,0.353378525252667],[30.22598995674152,0.354511406419546],[30.224324994589466,0.354063844003185],[30.221939816891233,0.355636487785471],[30.221460364763054,0.35561607592554284],[30.218449376173318,0.3576978922551653],[30.218233858155095,0.358400927701063],[30.216663911617875,0.3595286317007554],[30.216582574333874,0.3597291701768302],[30.216663468742237,0.360599818630655],[30.215885217480004,0.361448515523435],[30.215531345197856,0.3623209937363139],[30.216020490518193,0.363712467678047],[30.21447150871187,0.3649340388655587],[30.214353404767117,0.3652252261776254],[30.2146959311905,0.371525302559743],[30.212715387212498,0.371450516546198],[30.21113885539671,0.373498612498406],[30.209949820627088,0.3736329033075377],[30.190219945933926,0.3836211523709503],[30.18983706921172,0.38609695814176],[30.188783057322365,0.386595745515779],[30.18825035309154,0.385618509317094],[30.184522428681625,0.3865055204799287],[30.1792,0.3892],[30.179239657954938,0.3893108620103887],[30.180026295255285,0.389557968382424],[30.181046467666732,0.391581035850137]]]}}]}
