{"type":"FeatureCollection","name":"Butambala sub-counties","metadata":{"source":"Uganda Bureau of Statistics NPHC 2024 Map Explorer","retrieved":"2026-07-26","display_only":true,"clipped_to_dashboard_district":true,"positive_area_overlaps_removed":true,"source_gap_ratio":0.02444165},"features":[{"type":"Feature","properties":{"n":"Budde","c":"119101","d":"Butambala","od":"Butambala","dc":"119","k":"BUDDE","a":["BUDDE"],"lat":0.142643,"lon":32.173692},"geometry":{"type":"Polygon","coordinates":[[[32.14666669310591,0.190030715827473],[32.15165989541589,0.194902945012803],[32.15545612208698,0.197115599935821],[32.157831888175366,0.197227740837004],[32.17413984555469,0.193154968715491],[32.18084228417179,0.193382003322237],[32.18414990699763,0.194949047059745],[32.19033188507258,0.195048785717415],[32.19410502699394,0.190874079782564],[32.199064807781326,0.188135560337256],[32.200784925596324,0.185078656869439],[32.20611495496956,0.186439376898819],[32.2078739964025,0.183821275984457],[32.2081885436625,0.168441017705177],[32.20813380497863,0.1682063920051626],[32.20497242575641,0.15895995202439842],[32.203740313859726,0.156953052073886],[32.2023886967522,0.15140303035043412],[32.197917029095905,0.13832424299480106],[32.19742106961141,0.137583537377045],[32.19503976609289,0.130704208103829],[32.19501989598949,0.12985067323243266],[32.1949,0.1295],[32.19283516777311,0.10902374708335327],[32.191762335207834,0.10442138102691345],[32.1865,0.0953],[32.1711,0.0874],[32.1649150143587,0.09377240944861451],[32.15783128305239,0.134282277777922],[32.15611661901667,0.13701512430772309],[32.1561,0.1371],[32.15603989334844,0.13711630010889722],[32.15146270366017,0.139867699516631],[32.14924713025819,0.14228052698561],[32.1467334992175,0.143005524941673],[32.14680313934972,0.165333776101782],[32.146661161403436,0.166856148161863],[32.145740301641915,0.16716084615313],[32.14550566166603,0.172122085826013],[32.146693805339865,0.174849299948243],[32.14666669310591,0.190030715827473]]]}},{"type":"Feature","properties":{"n":"Bulo","c":"119102","d":"Butambala","od":"Butambala","dc":"119","k":"BULO","a":["BULO"],"lat":0.117722,"lon":32.020282},"geometry":{"type":"Polygon","coordinates":[[[31.952598395484024,0.107220935764373],[31.957720035941115,0.11219084319342709],[31.97744432058111,0.1098506738293597],[31.97749755399949,0.109596016050572],[31.978884538650433,0.10967980049910098],[31.9804,0.1095],[31.980634167101982,0.10978549139830729],[31.980726833113987,0.109791089132001],[31.994988692988322,0.127268108744444],[32.00066229992552,0.12619084787439],[32.00837492717184,0.129638345592729],[32.01182426317078,0.1331653394540321],[32.0168,0.1349],[32.016836824148506,0.13489079396287496],[32.01770797232415,0.132725963204607],[32.02129159165287,0.132020033715493],[32.02525429500923,0.13278642624769096],[32.0348,0.1304],[32.035239021593526,0.13047712541507966],[32.035853131179316,0.130018026970543],[32.042142289989826,0.13168986175496997],[32.0496,0.133],[32.062,0.1501],[32.062098733383074,0.15041138990047265],[32.06470582461624,0.156426003408717],[32.06473534410158,0.15872685447421284],[32.0659,0.1624],[32.07435499094878,0.16972406859257175],[32.087558767762566,0.160590380319293],[32.09073541739188,0.160002245446934],[32.09404001346726,0.156353947861342],[32.09730566914148,0.154378360905902],[32.09985266857974,0.146342250126572],[32.09034729275487,0.144027002778014],[32.089505329072274,0.14312391594035398],[32.086190267570764,0.14215616506724238],[32.0845362712003,0.142242334032095],[32.08405933273166,0.14153409092166644],[32.0836,0.1414],[32.08302618282088,0.1399998860829468],[32.080382716307284,0.136074396593174],[32.07856684278488,0.12920183357871623],[32.07269947007052,0.12952629658596235],[32.067500123457165,0.131208593163315],[32.061335525146866,0.131350196685067],[32.05721288264899,0.130504084931674],[32.057078112376665,0.1303901504676499],[32.0569,0.1304],[32.056869571753346,0.13021385072636066],[32.05422246533681,0.127975993329661],[32.053270996620725,0.123253656512751],[32.05350085776999,0.109639528639112],[32.052590583905506,0.10853741908958942],[32.04422275356298,0.0987602699525321],[32.04360543134481,0.09834350186570544],[32.03393130971245,0.09450644596558153],[32.029790749062215,0.095875839311767],[32.02139422156349,0.090595401867277],[32.01989872345949,0.08894068817152913],[31.99563971581506,0.07931881530796352],[31.995012253544296,0.079163381458296],[31.978715037508056,0.072629224913884],[31.962561689856347,0.06951469386262],[31.962183969896135,0.06895936970828725],[31.9601,0.0685],[31.954807974240982,0.06573894308225162],[31.953209822698117,0.066753129803276],[31.949748057887966,0.072199058964757],[31.946435592755858,0.083742831365216],[31.94534221247317,0.09419115738966],[31.946581799731447,0.103027368383555],[31.952598395484024,0.107220935764373]]]}},{"type":"Feature","properties":{"n":"Gombe Town Council","c":"119103","d":"Butambala","od":"Butambala","dc":"119","k":"GOMBETOWNCOUNCIL","a":["GOMBE","GOMBETOWNCOUNCIL"],"lat":0.173486,"lon":32.112816},"geometry":{"type":"Polygon","coordinates":[[[32.08149436607956,0.17590849545745466],[32.0816,0.176],[32.076914877241,0.19155062022137226],[32.07691556757828,0.191562505441532],[32.07937203904676,0.195995392993044],[32.08091633654221,0.20248133201917],[32.083723967668526,0.202752894438104],[32.08689600090649,0.201713004138651],[32.09039656412156,0.2043529881212802],[32.0932,0.2049],[32.09342278481403,0.20485787682087753],[32.10349444265253,0.201064847338016],[32.108931178674425,0.201310783047401],[32.11782079804815,0.199579961576869],[32.11954174469192,0.198490261759211],[32.12227200365994,0.198287693109446],[32.12476853364408,0.195882529460295],[32.125383384265376,0.201709402743935],[32.12650171746615,0.204255821872143],[32.12580176646318,0.207968293009014],[32.127991734610475,0.206377133874209],[32.138357944056985,0.213977085439378],[32.147733414632455,0.208351839934109],[32.15237162777957,0.20070242104632],[32.15352907245804,0.19629935841512],[32.15247885326815,0.1953802798193235],[32.15165989541589,0.194902945012803],[32.14928156846851,0.192582239131908],[32.14684556172227,0.190450415907541],[32.14677082493802,0.19013232479903577],[32.14666669310591,0.190030715827473],[32.1466672985472,0.18969170075103772],[32.14654011917094,0.189150406003419],[32.146693780336996,0.17486330023092284],[32.146693805339865,0.174849299948243],[32.14550566166603,0.172122085826013],[32.14573263361692,0.16732297926642442],[32.14574027540442,0.167161377037332],[32.14574027655169,0.16716137666215256],[32.145740301641915,0.16716084615313],[32.14665962574051,0.1668566562885369],[32.14680128446464,0.16535366528386444],[32.14680313934972,0.165333776101782],[32.14678716558788,0.16021221537341832],[32.14673348768861,0.143005524544699],[32.14609210660175,0.142677990902994],[32.136302146593025,0.142760675822855],[32.13251660847872,0.14349549600577147],[32.1325,0.1435],[32.13249878233077,0.14349895628351783],[32.13248515847597,0.143501600843729],[32.132404988675006,0.14341856172143472],[32.11902756237919,0.13195219632501803],[32.1183595308324,0.13156045508478864],[32.10278097766132,0.13826514885462085],[32.10277564280122,0.138295794191057],[32.10225850649894,0.13944788310275466],[32.099800344400364,0.14583910455905344],[32.09977672054596,0.1463237512805427],[32.09985266857974,0.146342250126572],[32.0997618516252,0.14662878929746995],[32.09972372453595,0.147410971937705],[32.09731206648165,0.15435817647494773],[32.09730566914148,0.154378360905902],[32.097304897617924,0.15437882764581984],[32.09730473778292,0.154379288078625],[32.09403989068835,0.15635408341013293],[32.09073541739188,0.160002245446934],[32.087558767762566,0.160590380319293],[32.07752588898815,0.1675306057185463],[32.076807909919765,0.168237499425722],[32.07801534402186,0.171611747692448],[32.08149436607956,0.17590849545745466]]]}},{"type":"Feature","properties":{"n":"Kalamba","c":"119104","d":"Butambala","od":"Butambala","dc":"119","k":"KALAMBA","a":["KALAMBA"],"lat":0.281374,"lon":32.269887},"geometry":{"type":"Polygon","coordinates":[[[32.2344,0.2895],[32.234342509910725,0.28988326726185853],[32.23515457725059,0.290274460389317],[32.23539219964744,0.293479908735585],[32.23353747460651,0.295515689624531],[32.23356735805187,0.29554282881910926],[32.254649177558186,0.30894745393873435],[32.254895261108054,0.309033273940648],[32.263977728394515,0.314225685081007],[32.266077284165526,0.314566252284057],[32.268109599931975,0.317487437803299],[32.26815624076059,0.31742640494756386],[32.270019166571046,0.313854783104394],[32.28472933204771,0.29573933120614426],[32.2856,0.2946],[32.304,0.287],[32.29945398826143,0.2788936162360894],[32.297770752612216,0.279184799618356],[32.29632090165346,0.277280371021149],[32.29338509316779,0.272438922893244],[32.29107252990794,0.264125237353662],[32.287603644514526,0.263387028763325],[32.28763694909344,0.2578216393126398],[32.284492473045475,0.2522144541474699],[32.28366074645623,0.251985233033455],[32.28008979459899,0.249289839238917],[32.27609577591619,0.251308421094598],[32.27121042586606,0.250610032654398],[32.26617024366254,0.248639118069449],[32.25861844521194,0.24842149566608],[32.24954055199669,0.250240188947849],[32.24274388344923,0.250286345518679],[32.24040108571506,0.251217177400743],[32.23779967579421,0.261403185669274],[32.2397058342356,0.271103865899724],[32.240121161614,0.278320320890638],[32.23807584377561,0.283562369520293],[32.23427270741252,0.286840346145327],[32.230808007023114,0.288180608909857],[32.2325928970219,0.28904043501850135],[32.2344,0.2895]]]}},{"type":"Feature","properties":{"n":"Kalamba Town Council","c":"119105","d":"Butambala","od":"Butambala","dc":"119","k":"KALAMBATOWNCOUNCIL","a":["KALAMBA","KALAMBATOWNCOUNCIL"],"lat":0.246144,"lon":32.202285},"geometry":{"type":"Polygon","coordinates":[[[32.18367951025817,0.247393387744746],[32.18346603522572,0.249809205561386],[32.18703484039311,0.25573588092906],[32.19080242117009,0.267189013088991],[32.19106606423807,0.269189702539329],[32.19030978919974,0.272004065842592],[32.189392798596685,0.28099057375249425],[32.19003122852475,0.285679019181697],[32.19232241353504,0.291339779681604],[32.19584079785403,0.294547326649757],[32.19725636359457,0.29971944438059434],[32.19957919067551,0.30326820797647885],[32.199620916448865,0.303256381991768],[32.201926847486256,0.298853454663229],[32.202361489240374,0.2986102294797083],[32.209200430417184,0.2869958207570204],[32.2106185017366,0.284216492992554],[32.21096948371401,0.2839914802443104],[32.2112,0.2836],[32.211472164409464,0.2836692142248204],[32.214612510649964,0.281655954332604],[32.22132932405679,0.281812294773097],[32.22237548434168,0.286407455678456],[32.22265603750727,0.28651338884883176],[32.2246371191102,0.28701719839440326],[32.225943648324375,0.286623506249871],[32.23080799298349,0.288180602647803],[32.23104358270654,0.2880894803038479],[32.23427245408742,0.2868404441400067],[32.238075889783694,0.28356225160384974],[32.240121161614,0.278320320890638],[32.239829647119095,0.27325515701967534],[32.23780026853734,0.26140620221370975],[32.23779967579421,0.261403185669274],[32.24009457256081,0.25241735177486907],[32.24040107430761,0.251217181730215],[32.233127103509204,0.254102535036223],[32.22881175064087,0.253637069200629],[32.226068100293844,0.25230238755021],[32.222089304679805,0.247836658942026],[32.21400671655127,0.223027566358219],[32.21327439096766,0.217774114662499],[32.21329280301849,0.2176762595487712],[32.2077,0.2011],[32.20784957537968,0.19131777016902132],[32.2078268728704,0.191290736457523],[32.20167467649929,0.190602186398342],[32.198647831593995,0.191875299446485],[32.19685008180985,0.189864168138035],[32.19570030344046,0.1899932554565063],[32.19499305333531,0.19038376024868853],[32.19033190327386,0.195048788489686],[32.19386363114653,0.196514618523716],[32.197331636077415,0.200120912606427],[32.19486217114264,0.207956019554481],[32.19639440227237,0.20998303805204],[32.19657023351214,0.211638711635919],[32.19358954922749,0.210553925424568],[32.19181691115694,0.21861640218177],[32.18237670048537,0.240531904505686],[32.18238480407205,0.244894552135047],[32.18367951025817,0.247393387744746]]]}},{"type":"Feature","properties":{"n":"Kibibi Town Council","c":"119106","d":"Butambala","od":"Butambala","dc":"119","k":"KIBIBITOWNCOUNCIL","a":["KIBIBI","KIBIBITOWNCOUNCIL"],"lat":0.225598,"lon":32.155597},"geometry":{"type":"Polygon","coordinates":[[[32.13369465838048,0.23510286359962848],[32.137240540010524,0.231261753278433],[32.14045237543148,0.229795399746211],[32.14046494790947,0.22982731331729594],[32.1405,0.2298],[32.15227307078297,0.2449910590748013],[32.15267239586114,0.244922093259217],[32.152742734202704,0.2455970763905867],[32.15570871647308,0.24942415028784068],[32.15626032244522,0.24991904192218736],[32.160702381417394,0.25195033522102067],[32.16770218748253,0.251166446441826],[32.16905804684678,0.252090902566242],[32.171093299359484,0.256344694984081],[32.17565043488273,0.25878587725793295],[32.1759,0.2589],[32.185082236918,0.2533108123107828],[32.18379107257621,0.2503489915032866],[32.18346603522572,0.249809205561386],[32.18348115747214,0.24963807270380006],[32.183347329570445,0.249331082918663],[32.18367912425694,0.247397755977603],[32.18367951025817,0.247393387744746],[32.183665420433286,0.24736619380952107],[32.18242458779035,0.245214323886049],[32.18242205233923,0.24496644280601268],[32.18238480407205,0.244894552135047],[32.18237670199695,0.24053271828063408],[32.182376696352286,0.240532166423838],[32.18237670095205,0.24053215574534237],[32.18237670048537,0.240531904505686],[32.19166930519222,0.2189590702614683],[32.191816912956845,0.21861639399526747],[32.19358954922749,0.210553925424568],[32.19656912756313,0.21163830913833062],[32.19640265708824,0.21006076758748335],[32.196394408646825,0.20998309807561422],[32.19629786244315,0.20985532362581608],[32.19486217114264,0.207956019554481],[32.197331636077415,0.200120912606427],[32.197321822668385,0.20011070788076277],[32.19290582676648,0.19611708550938872],[32.1905324916632,0.1951320419271471],[32.19004818829046,0.19504420861670538],[32.18414990699763,0.194949047059745],[32.18084228417179,0.193382003322237],[32.17590490402722,0.193214757305747],[32.17331848380081,0.1933600967505398],[32.157831888175366,0.197227740837004],[32.15545612208698,0.197115599935821],[32.154365204571164,0.1964797517051658],[32.15352908246328,0.196299364416191],[32.153528997049406,0.19629964527889074],[32.15237162777957,0.20070242104632],[32.15200736012566,0.20130317736856995],[32.151852109715044,0.201813680498005],[32.14773383102635,0.208351342205945],[32.147733650889336,0.20835145029530092],[32.147733414632455,0.208351839934109],[32.14204870857719,0.21176264122976027],[32.138358450714044,0.213976942356737],[32.138358330021575,0.21397685386214055],[32.138357944056985,0.213977085439378],[32.127991734610475,0.206377133874209],[32.12580176646318,0.207968293009014],[32.126497270071624,0.20427941041439782],[32.12650169941624,0.20425578077290993],[32.125383384265376,0.201709402743935],[32.12538314477843,0.2017071331519095],[32.125382921050985,0.201706623451775],[32.125361583479204,0.20150279903548776],[32.12476853364408,0.195882529460295],[32.122308812680366,0.19825223120093627],[32.122272441277694,0.19828738361498],[32.12227231519707,0.19828739297374043],[32.12227200365994,0.198287693109446],[32.11954174469192,0.198490261759211],[32.11782079804815,0.199579961576869],[32.11726802212727,0.19968758783082158],[32.11792911095544,0.212875847264062],[32.11771153849052,0.2139839166371522],[32.1181,0.2214],[32.132531757086596,0.23553723143176455],[32.13302383606672,0.2356255822856735],[32.13369465838048,0.23510286359962848]]]}},{"type":"Feature","properties":{"n":"Ngando","c":"119107","d":"Butambala","od":"Butambala","dc":"119","k":"NGANDO","a":["NGANDO"],"lat":0.063993,"lon":31.887971},"geometry":{"type":"Polygon","coordinates":[[[31.825208715350023,0.061402902946575],[31.824601548394753,0.062263594360673094],[31.824211814434094,0.06783122237010587],[31.825228289658877,0.068678419151539],[31.83016873810806,0.069463333837145],[31.839637846862683,0.08036624950936007],[31.862086378933938,0.09285852886281884],[31.865712778165094,0.0936386420316992],[31.869088285956078,0.09413009527329869],[31.880465624880586,0.094153791558362],[31.88762752295999,0.096286819984648],[31.888328306652262,0.09693132434017596],[31.8888,0.097],[31.915804891001137,0.12262002479594956],[31.916518083386883,0.12281959934867638],[31.931326546983335,0.11997181788782015],[31.9327104771364,0.11881988142043],[31.939100755292564,0.109746879602722],[31.946614618353532,0.105482096406505],[31.94534338862351,0.095320856031907],[31.945406637690624,0.09465040284489373],[31.94534221247317,0.09419115738966],[31.946435592755858,0.083742831365216],[31.946435653901947,0.08374261827420648],[31.946435662587096,0.083742526209839],[31.947077788641806,0.0815048113866696],[31.949748057887966,0.072199058964757],[31.94974819231474,0.0721988474891885],[31.949748257304915,0.072198621007987],[31.95011913475598,0.07161529361745979],[31.953209822698117,0.066753129803276],[31.953210926216702,0.066752429510554],[31.95321095572716,0.066752383095599],[31.95477649803478,0.06572252071379675],[31.9394,0.0577],[31.938830157406116,0.05715697352818041],[31.93804852999323,0.056796063434841],[31.93424519455281,0.053501346399942],[31.93113675528241,0.049825613857354345],[31.92247256010567,0.041569145512462574],[31.922406696375415,0.041515788207679],[31.9183732269112,0.03921910055809179],[31.9081,0.0334],[31.8895,0.033],[31.889270514722455,0.032653222247261644],[31.887785351414383,0.032785630742145],[31.88694521941867,0.032106929897412],[31.887109156066888,0.029387169167736978],[31.881681594482924,0.021185520551972526],[31.87844137745849,0.017883424254848],[31.871781853932436,0.006225912609015734],[31.871513884905237,0.00582098163458083],[31.8388441831411,0.020298579626112],[31.83856518320532,0.020499769511893234],[31.812796707460013,0.04242220410118507],[31.812035443979784,0.04314093917044819],[31.81968976503244,0.05198197666537466],[31.824932021425887,0.058021672948745],[31.825208715350023,0.061402902946575]]]}}]}
