{"type":"FeatureCollection","name":"Butebo sub-counties","metadata":{"source":"Uganda Bureau of Statistics NPHC 2024 Map Explorer","retrieved":"2026-07-26","display_only":true,"clipped_to_dashboard_district":true,"positive_area_overlaps_removed":true,"source_gap_ratio":0.01815441},"features":[{"type":"Feature","properties":{"n":"Butebo","c":"233101","d":"Butebo","od":"Butebo","dc":"233","k":"BUTEBO","a":["BUTEBO"],"lat":1.227,"lon":33.927552},"geometry":{"type":"Polygon","coordinates":[[[33.91369734762535,1.239777674411865],[33.91439895940474,1.242726270106723],[33.92117863502379,1.251267409058521],[33.92130067924409,1.2511550838747083],[33.9263334394067,1.2428528663801959],[33.92644297652848,1.242254043102836],[33.93092736595674,1.2352745641881504],[33.9317,1.234],[33.93179386114766,1.2339826687922373],[33.93690134190421,1.230807304048188],[33.941469541734016,1.230033401831306],[33.94044653383348,1.227465863275111],[33.944732288947705,1.226534636424369],[33.95143151977127,1.223637503483663],[33.955586267342866,1.216923940161496],[33.94895801435473,1.203721152493094],[33.940160645971865,1.206383594923484],[33.935785040629355,1.206388652277812],[33.934231544594354,1.20907142459785],[33.93121934884655,1.210838808830446],[33.92825783968811,1.215699404509436],[33.92596344517746,1.213485799600989],[33.924743705358715,1.209931826210534],[33.92080926018781,1.210198541713494],[33.91682057131632,1.208242380467991],[33.91718132044304,1.202039156846118],[33.90384622087684,1.215412561720441],[33.91567474864446,1.231225486427614],[33.91369734762535,1.239777674411865]]]}},{"type":"Feature","properties":{"n":"Butebo Town Council","c":"233102","d":"Butebo","od":"Butebo","dc":"233","k":"BUTEBOTOWNCOUNCIL","a":["BUTEBO","BUTEBOTOWNCOUNCIL","TOWNCOUNCIL"],"lat":1.197504,"lon":33.909542},"geometry":{"type":"Polygon","coordinates":[[[33.86922554859174,1.2126511534493094],[33.87210871117616,1.214930270764533],[33.8737874576336,1.220042005170553],[33.87408554830562,1.2228696143861775],[33.8741,1.2229],[33.874344653594214,1.2244019012311598],[33.87517653147674,1.224604153585235],[33.886874001573815,1.22309011060447],[33.88880639336628,1.22209121952621],[33.891145041132035,1.218455561104855],[33.895821497464354,1.214282468712401],[33.898314958212815,1.214690786714367],[33.902166991797394,1.213071296328116],[33.9038462139999,1.21541255232032],[33.904061945316876,1.2151962176081539],[33.91718132044304,1.202039156846118],[33.91682057131632,1.208242380467991],[33.92080926018781,1.210198541713494],[33.924743705358715,1.209931826210534],[33.92593901581348,1.213414619413062],[33.92596349218021,1.2134858449486898],[33.92825783968811,1.215699404509436],[33.93121934884655,1.210838808830446],[33.9312194797778,1.2108387320074705],[33.93121954393187,1.210838626702423],[33.93423157438364,1.2090713731539688],[33.935785040629355,1.206388652277812],[33.9357852349082,1.2063886520532632],[33.93578529197326,1.206388553515944],[33.93960473476127,1.2063842374494311],[33.940160645971865,1.206383594923484],[33.945101938413714,1.204888158324083],[33.9489580096001,1.203721141984127],[33.94161863838626,1.198677680044219],[33.940514358494816,1.196330675388557],[33.93849031138175,1.194605399494924],[33.93584994662329,1.187969949048036],[33.92992283118993,1.187611169089821],[33.927110454927806,1.184889957967035],[33.93206948858502,1.175876705480526],[33.93316161008345,1.171955617180238],[33.92713042487095,1.174272511752854],[33.91740163786564,1.179489889482059],[33.91506008562611,1.179902919066942],[33.91447235424937,1.180801569605726],[33.908753642042676,1.18026579578232],[33.906814809766956,1.17925915919125],[33.89938018483564,1.181025339945732],[33.89930230176931,1.183542149798165],[33.89740285627851,1.184781412831522],[33.89635668561289,1.186732599553324],[33.88873710535226,1.184271944577439],[33.887831155255235,1.186868352384825],[33.882984601307605,1.189981977162617],[33.881365348228165,1.194858842899313],[33.876464028592856,1.198731801343699],[33.87345124715866,1.20279437639449],[33.867255480123006,1.207473501167577],[33.86759273452132,1.2092180571986566],[33.86922554859174,1.2126511534493094]]]}},{"type":"Feature","properties":{"n":"Kabelai","c":"233103","d":"Butebo","od":"Butebo","dc":"233","k":"KABELAI","a":["KABELAI"],"lat":1.199911,"lon":33.956939},"geometry":{"type":"Polygon","coordinates":[[[33.94868388815105,1.203032571331828],[33.9555862788045,1.216923937720675],[33.95881936942355,1.215900482868824],[33.96037926215247,1.21449788385575],[33.96231080918219,1.208065308752472],[33.96636456183737,1.206869836573371],[33.96736188646872,1.205874325104947],[33.968052355154676,1.203421911290464],[33.97016707909838,1.201142245815348],[33.97059312618508,1.195407268383074],[33.97173256129968,1.193235571404617],[33.971716295586795,1.1931918146591651],[33.9717,1.1932],[33.97167763961191,1.193087825386423],[33.96784356092116,1.182773687511496],[33.96285029534047,1.182104763272014],[33.96002455346529,1.18490806869049],[33.958591208957486,1.185371999401717],[33.95218122631815,1.185176945947815],[33.946337594523,1.183847653060609],[33.94780952771841,1.192514027611462],[33.945102154909414,1.192363680285443],[33.94585874932345,1.194533903651813],[33.94416473716399,1.194409930599275],[33.94337260725829,1.196830702159425],[33.94051437130118,1.196330677183134],[33.94161868750651,1.1986777137986264],[33.94162059623419,1.1986790254362454],[33.94868388815105,1.203032571331828]]]}},{"type":"Feature","properties":{"n":"Kabwangasi","c":"233104","d":"Butebo","od":"Butebo","dc":"233","k":"KABWANGASI","a":["KABWANGASI"],"lat":1.098121,"lon":34.12833},"geometry":{"type":"Polygon","coordinates":[[[34.11610902474563,1.12760836357068],[34.11736533125231,1.129403282752314],[34.12104422156221,1.131993892014197],[34.12520895005865,1.128659827528102],[34.12694800727076,1.125796044670279],[34.1269134788973,1.121146963640942],[34.127850194133515,1.120103143178482],[34.131625386764675,1.1194832507634078],[34.1313,1.1178],[34.133305675024715,1.1108614485631636],[34.13316971063743,1.109628645932625],[34.13435489725397,1.10507800507861],[34.13526779145928,1.1040735863030475],[34.13868776383232,1.0922423305260305],[34.13868769314598,1.092241102924123],[34.13642351031826,1.090541288849357],[34.1350813419329,1.0875660349932121],[34.13422811983821,1.086473419648934],[34.1339310977323,1.086502005419359],[34.134023168927484,1.086210964525839],[34.133724529960396,1.085828534769426],[34.13296980566964,1.085961663620465],[34.13078776824787,1.084281988674986],[34.130009415004785,1.0810710494305915],[34.12876157419311,1.0794730950098872],[34.1267557040993,1.078165565230481],[34.12676365961433,1.0769146144701573],[34.12613493231475,1.0761094816692418],[34.12474285765947,1.0746642833249538],[34.1184,1.104],[34.118277915591364,1.1042885631476946],[34.11820684006654,1.105075035744968],[34.11566156324467,1.114465316286737],[34.11334129968728,1.118034619433696],[34.11212284096012,1.124993379082643],[34.11348826877499,1.126920449424378],[34.11610902474563,1.12760836357068]]]}},{"type":"Feature","properties":{"n":"Kabwangasi Town Council","c":"233105","d":"Butebo","od":"Butebo","dc":"233","k":"KABWANGASITOWNCOUNCIL","a":["KABWANGASI","KABWANGASITOWNCOUNCIL"],"lat":1.136886,"lon":34.118395},"geometry":{"type":"Polygon","coordinates":[[[34.10061609960444,1.1340810463195],[34.10255468834123,1.138673143834526],[34.103466653147954,1.13869438604648],[34.104118254132715,1.143741762228873],[34.104965657864994,1.145021920639639],[34.10376355836298,1.146068045315168],[34.104860870144954,1.14729813809698],[34.10755514514636,1.146698499225211],[34.11086443118009,1.147641537613955],[34.115928229309034,1.145382829463133],[34.122882799002426,1.146645400140179],[34.126176594846875,1.14800826339028],[34.12474407749029,1.151392413236046],[34.1298368783877,1.152496217960143],[34.1364482414869,1.1447955296013355],[34.1365,1.1447],[34.13464413413272,1.1350994631096367],[34.13346216021808,1.131989313921354],[34.13280757412599,1.1255987969209862],[34.132622280535806,1.1246402589256048],[34.13086674473841,1.122355597940316],[34.131688395613835,1.119809200386938],[34.131625387935905,1.1194832568222541],[34.131409105194535,1.1195187645286506],[34.127850194133515,1.120103143178482],[34.1269134788973,1.121146963640942],[34.12694800727076,1.125796044670279],[34.12520895005865,1.128659827528102],[34.1252051702712,1.128662853428854],[34.12121076900602,1.131972617068695],[34.12113447427949,1.1319216403944967],[34.12104422156221,1.131993892014197],[34.11736533125231,1.129403282752314],[34.11610902474563,1.12760836357068],[34.11348826877499,1.126920449424378],[34.112994714884934,1.1262238816137509],[34.1127253159309,1.126104149483967],[34.1121269304676,1.1249991507305506],[34.11212284096012,1.124993379082643],[34.11330816621068,1.1182238485760758],[34.11334129073157,1.118034634373537],[34.11183385110595,1.119568865158936],[34.11180725849423,1.1195828435590924],[34.1118,1.1196],[34.111651876677975,1.1196645199746242],[34.102499847397496,1.124475282034747],[34.09787728857564,1.126494222886445],[34.09601748533,1.126474592279571],[34.0955,1.1267],[34.09494473353713,1.126692596447162],[34.09622856607096,1.129142570002474],[34.10061609960444,1.1340810463195]]]}},{"type":"Feature","properties":{"n":"Kachuru","c":"233106","d":"Butebo","od":"Butebo","dc":"233","k":"KACHURU","a":["KACHURU"],"lat":1.167163,"lon":34.112193},"geometry":{"type":"MultiPolygon","coordinates":[[[[34.102399796938165,1.185933796913523],[34.102732979976984,1.18530789720012],[34.10347163494948,1.185255145710379],[34.105364465164456,1.1840566702978832],[34.10592928994047,1.182982085950074],[34.10661269539433,1.1832663335694187],[34.10859859357729,1.1820089306998043],[34.109902999795096,1.180764089924027],[34.11059441692842,1.1807452435528583],[34.1203,1.1746],[34.12058425282452,1.1740753605275807],[34.12079539299418,1.17354011336585],[34.120961608581894,1.1733788829260134],[34.12708196680413,1.1620826662071921],[34.12983687047165,1.152496228018954],[34.12975286480948,1.1524780090047198],[34.12474407749029,1.151392413236046],[34.1256324508738,1.1492937380367796],[34.12617559808469,1.148007850963218],[34.122882799002426,1.146645400140179],[34.11592909269272,1.1453829862065357],[34.115907713523725,1.1453919805332018],[34.11086443118009,1.147641537613955],[34.11068329589611,1.1475899199766133],[34.11053061210419,1.147654154835414],[34.109677845081215,1.155774665697955],[34.10967727007229,1.155775590817603],[34.108043467646816,1.157858029573268],[34.10804287498398,1.157858663061438],[34.10357059377508,1.160918319494493],[34.097199008455625,1.172243815117535],[34.095896796591525,1.172951089649874],[34.09406180593834,1.17580793358645],[34.09108554890744,1.18768750775487],[34.10102635589837,1.1868034128482683],[34.102399796938165,1.185933796913523]]],[[[34.10905279534287,1.156571532835218],[34.109052799946824,1.156571536447302],[34.109052795342876,1.15657153283521],[34.10905279534287,1.156571532835218]]]]}},{"type":"Feature","properties":{"n":"Kadokolene","c":"233107","d":"Butebo","od":"Butebo","dc":"233","k":"KADOKOLENE","a":["KADOKOLENE"],"lat":1.163013,"lon":34.020285},"geometry":{"type":"Polygon","coordinates":[[[34.0122144463572,1.172439245966634],[34.00987387920215,1.175429707662689],[34.01334221810853,1.176633164937555],[34.013236492723415,1.174436386918243],[34.01576118893508,1.171594688055212],[34.019760693822654,1.17371625626496],[34.02270832825507,1.172271526661384],[34.02246415714361,1.174572009656193],[34.02485559247048,1.173540702700899],[34.02577689160008,1.171149290787655],[34.02922794215533,1.169387509316186],[34.0297045398699,1.167767059479196],[34.03033412170567,1.167826759322607],[34.02936332728659,1.16544136435037],[34.03184196542924,1.164058442060411],[34.03314322443398,1.158884933084803],[34.03580231372251,1.157214862162156],[34.03454674198968,1.153483543813064],[34.032850614774496,1.152788025303589],[34.032069851546645,1.151159242473826],[34.02885242518211,1.151395380648492],[34.02533162069341,1.1502699974515511],[34.007989089400716,1.1524057771674],[34.00804973008765,1.161968543400712],[34.0122144463572,1.172439245966634]]]}},{"type":"Feature","properties":{"n":"Kakoro","c":"233108","d":"Butebo","od":"Butebo","dc":"233","k":"KAKORO","a":["KAKORO"],"lat":1.177347,"lon":34.063441},"geometry":{"type":"Polygon","coordinates":[[[34.0116,1.2068],[34.011653215715796,1.206815593442302],[34.01312532675797,1.20688876683618],[34.014905480768725,1.2077685827368825],[34.03308365549919,1.2130952106811597],[34.03309834029429,1.213095767478996],[34.03311908498653,1.2130839215524385],[34.04766925110538,1.2008259048906704],[34.04772576411438,1.200769736841655],[34.059717248995376,1.196992894735794],[34.07916556563281,1.192299646128782],[34.07183947394,1.179042784482521],[34.07024934660056,1.179115423244586],[34.070297440785666,1.176941833346332],[34.066480777191096,1.172211502229715],[34.06518251756298,1.171916396330002],[34.064899038027356,1.170291895592881],[34.06278181379924,1.16762567848237],[34.06335255960108,1.16341976834255],[34.06156806190747,1.163007393080995],[34.058779031797044,1.145553238681626],[34.05738449817423,1.14202537225448],[34.054057947547925,1.144359871954562],[34.0461545223047,1.1518534899629553],[34.04600420271717,1.152003963782525],[34.04297704907882,1.152416863942515],[34.049522168380484,1.167772095156025],[34.05734446973628,1.176140511642181],[34.056340651480504,1.177751437800952],[34.05489603681969,1.178412629709995],[34.048866957954836,1.178140494565719],[34.05164496951314,1.182304923398549],[34.04081702831305,1.192056301374774],[34.03473705345816,1.201079466418919],[34.01941783505076,1.19006883451793],[34.014848254480114,1.192704069719525],[34.01356061158442,1.193720654886174],[34.009178646327335,1.2066925914164],[34.01155383457381,1.2068106535598897],[34.0116,1.2068]]]}},{"type":"Feature","properties":{"n":"Kakoro Town Council","c":"233109","d":"Butebo","od":"Butebo","dc":"233","k":"KAKOROTOWNCOUNCIL","a":["KAKORO","KAKOROTOWNCOUNCIL"],"lat":1.177242,"lon":34.034856},"geometry":{"type":"Polygon","coordinates":[[[34.01181446052571,1.190657328712732],[34.0135606061432,1.193720644544188],[34.0135606940282,1.193720589797375],[34.014848254480114,1.192704069719525],[34.01941783505076,1.19006883451793],[34.03473705345816,1.201079466418919],[34.040708465950715,1.1922174165333572],[34.04081693907533,1.192056407672673],[34.04081698386878,1.1920563673335969],[34.04081702831305,1.192056301374774],[34.05164496951314,1.182304923398549],[34.049055625533825,1.1784233201369105],[34.04886796448897,1.17814230398117],[34.0488681681546,1.1781423087377223],[34.048866957954836,1.178140494565719],[34.0489489465799,1.178144195294605],[34.05516532711668,1.178289377073576],[34.056123680304474,1.177850744273453],[34.05732599097095,1.1761701663394037],[34.05734446973628,1.176140511642181],[34.05001481408674,1.1682991349953886],[34.0495222325645,1.167772191431403],[34.04952221092944,1.1677721406755448],[34.049522168380484,1.167772095156025],[34.04857867311163,1.1655586002853486],[34.04297691497126,1.152416871712689],[34.036456551157215,1.154133494172128],[34.03454675497248,1.153483549037025],[34.03455361279587,1.1535039625311112],[34.03580231372251,1.157214862162156],[34.03314322443398,1.158884933084803],[34.03184196542924,1.164058442060411],[34.031841192620995,1.1640588732382122],[34.031841141946224,1.164059074612191],[34.03161305197866,1.1641861611928772],[34.02936332728659,1.16544136435037],[34.03019597026971,1.1674872994593495],[34.0303325024178,1.167821427603543],[34.03033193056898,1.1678213753542261],[34.03033412170567,1.167826759322607],[34.0297045398699,1.167767059479196],[34.02970205951258,1.1677754927857111],[34.02934084632982,1.169296224704236],[34.02923925646951,1.1693490402299709],[34.02922794215533,1.169387509316186],[34.02577689160008,1.171149290787655],[34.02485559247048,1.173540702700899],[34.0248554864739,1.1735407484119438],[34.02485548054583,1.173540763803936],[34.02247182703465,1.174568890756247],[34.022471847511795,1.1745686931833987],[34.02246415714361,1.174572009656193],[34.02270832825507,1.172271526661384],[34.02038981081717,1.173407905970196],[34.019761459770166,1.173716237916661],[34.01976110973104,1.1737160524149997],[34.019760693822654,1.17371625626496],[34.01893238870662,1.1732768754286933],[34.015760207789974,1.1715957923935962],[34.013236492723415,1.174436386918243],[34.01334221810853,1.176633164937555],[34.01317206664245,1.1765741251420756],[34.013059757403944,1.180318547838005],[34.011347795609666,1.187048221126334],[34.01181446052571,1.190657328712732]]]}},{"type":"Feature","properties":{"n":"Kanginima","c":"233110","d":"Butebo","od":"Butebo","dc":"233","k":"KANGINIMA","a":["KANGINIMA"],"lat":1.209805,"lon":33.978804},"geometry":{"type":"MultiPolygon","coordinates":[[[[34.003304511708166,1.174051798520733],[34.00643959748963,1.175793761579763],[34.00987386837195,1.175429705343854],[34.00988463029523,1.1754159713629335],[34.0122144463572,1.172439245966634],[34.00804973008765,1.161968543400712],[34.00804972555207,1.1619678281599852],[34.00804970733895,1.161967782369291],[34.00798907741122,1.1524057786439388],[34.00640477573011,1.1526008896884106],[34.0038046361612,1.154434845956595],[33.99672489790796,1.1612759413473588],[33.99733295514458,1.16810519510727],[33.99621780881304,1.172100391252852],[33.99866929026072,1.173470212645324],[34.003304511708166,1.174051798520733]]],[[[33.94902286675841,1.2308013793744836],[33.95865549737389,1.2290227401114595],[33.964590129083405,1.227006904297556],[33.97246276050664,1.225430104944846],[33.97992016374752,1.2250842722769333],[33.99727979644341,1.2115437587741391],[33.993784075331526,1.207381652106157],[33.99053722409607,1.20684677316466],[33.9849658323872,1.203178339564418],[33.98678548004342,1.200924741962184],[33.986682537927045,1.199359142888587],[33.988971171444405,1.198530289795359],[33.986912864481425,1.194461514688313],[33.98517427945581,1.193961412219527],[33.98178036853595,1.18943252088608],[33.98073872747652,1.1886598097007341],[33.97235779343049,1.1928695876316873],[33.970593868090354,1.1954058543548225],[33.97059312618508,1.195407268383074],[33.97016707909838,1.201142245815348],[33.97016672640855,1.2011426260138294],[33.970166706339,1.201142896019162],[33.970163829923784,1.2011457484149026],[33.96829641008149,1.2031588208798447],[33.96786824870859,1.20509705445163],[33.967437838915416,1.2056045564198459],[33.96736188646872,1.205874325104947],[33.9663658621364,1.2068685386383218],[33.96636544425098,1.206869031372632],[33.966365336722355,1.2068690630971535],[33.96636456183737,1.206869836573371],[33.96231080918219,1.208065308752472],[33.96122650512934,1.211676335120173],[33.96110680899862,1.213077298565586],[33.96051424899518,1.2140483410849408],[33.96037926215247,1.21449788385575],[33.960070515934085,1.2147754972667024],[33.95982622291245,1.215175826195111],[33.95946178788865,1.2153228434655352],[33.95881936942355,1.215900482868824],[33.9555862788045,1.216923937720675],[33.95557068687126,1.2168925582656125],[33.95557054191125,1.2168926167441463],[33.955586267342866,1.216923940161496],[33.95143151977127,1.223637503483663],[33.944732288947705,1.226534636424369],[33.94044653383348,1.227465863275111],[33.94146683961067,1.2300266200597518],[33.94146955437513,1.230033402286838],[33.94902286675841,1.2308013793744836]]]]}},{"type":"Feature","properties":{"n":"Kanginima Town Council","c":"233111","d":"Butebo","od":"Butebo","dc":"233","k":"KANGINIMATOWNCOUNCIL","a":["KANGINIMA","KANGINIMATOWNCOUNCIL"],"lat":1.192213,"lon":33.998279},"geometry":{"type":"MultiPolygon","coordinates":[[[[33.98887957959318,1.19820233242686],[33.988820885141514,1.198233210118164],[33.988971171444405,1.198530289795359],[33.986682537927045,1.199359142888587],[33.98678548004342,1.200924741962184],[33.98678532448359,1.2009249346199593],[33.98678532637796,1.200924962848609],[33.98677694805305,1.2009353086633763],[33.9849658323872,1.203178339564418],[33.990536753825864,1.2068464635193978],[33.993783525872416,1.207381298880323],[33.99378378197271,1.2073816037788887],[33.993784075331526,1.207381652106157],[33.99727979644341,1.2115437587741391],[33.99727979511544,1.211543759809955],[33.99727979511544,1.2115437598099554],[33.9999,1.2095],[34.0003287622213,1.2094010548720062],[34.0009167107043,1.208892443703727],[34.004974167996906,1.207244724891039],[34.009178633211306,1.206692592109531],[34.009178877535334,1.206691906971106],[34.0135550580343,1.1937370950666537],[34.011832892397,1.1906896642995053],[34.01181446052571,1.190657328712732],[34.01181441353989,1.1906569653322803],[34.01181432082691,1.190656801273508],[34.01181405888717,1.1906542225080998],[34.011347795609666,1.187048221126334],[34.01141924707407,1.1867673474450062],[34.01129251359904,1.185519671546134],[34.01247352917702,1.1826229943815818],[34.01282207023169,1.1812528893749508],[34.013107865997945,1.1787145933133376],[34.013171994641766,1.1765765256658003],[34.00976179815391,1.17544158555457],[34.00643959748963,1.175793761579763],[34.00643749066657,1.1757925909553508],[34.00643740786082,1.175792604071477],[34.003304489657594,1.1740517957540262],[33.99866929026072,1.173470212645324],[33.99635384494498,1.1721764045564993],[33.996217805674334,1.172100402659329],[33.995963872837365,1.176636550229464],[33.99543065193948,1.177677175180087],[33.99512947971914,1.17921520346388],[33.99447181425652,1.180789184549472],[33.993410064988424,1.182247188116106],[33.99340814849843,1.1822481459190781],[33.9934,1.1823],[33.98072173543679,1.1886683448727637],[33.98072173543679,1.188668344872765],[33.98073872747652,1.1886598097007341],[33.98178036853595,1.18943252088608],[33.98517398932429,1.1939610250631814],[33.98517432635145,1.1939614257090156],[33.986912864481425,1.194461514688313],[33.986915044133966,1.1944658233342855],[33.98887957959318,1.19820233242686]]],[[[33.99513439339522,1.179140401426186],[33.9951343993331,1.179140401808127],[33.99513439339522,1.179140401426166],[33.99513439339522,1.179140401426186]]]]}},{"type":"Feature","properties":{"n":"Kanyum","c":"233112","d":"Butebo","od":"Butebo","dc":"233","k":"KANYUM","a":["KANYUM"],"lat":1.241252,"lon":33.895569},"geometry":{"type":"Polygon","coordinates":[[[33.881170402265624,1.255839240386579],[33.88129479714812,1.2670680602703992],[33.88129724812894,1.267083106569309],[33.88590802260458,1.266042019989603],[33.8948134122623,1.2690927735655688],[33.90289044481943,1.264740924127461],[33.90256655411644,1.263402355736368],[33.905648107809505,1.260654090301201],[33.90869954862476,1.26063319998982],[33.91199805556338,1.25893151415498],[33.91346263900637,1.2590446988112238],[33.91781099691892,1.2567018335566158],[33.918017345994066,1.256559137152611],[33.92117862767534,1.251267418080369],[33.92096015468166,1.250992164184687],[33.91439895940474,1.242726270106723],[33.914398772851,1.2427254860954258],[33.914398772848635,1.242725486092446],[33.91439876791175,1.242725465337702],[33.91369734762535,1.239777674411865],[33.91369746356805,1.2397771729638971],[33.91369746012253,1.239777158478892],[33.91371217396863,1.2397135510127377],[33.91567474864446,1.231225486427614],[33.90384622087684,1.215412561720441],[33.90388327895056,1.215375397196752],[33.90388327319976,1.2153753894667905],[33.9038462139999,1.21541255232032],[33.902166991797394,1.213071296328116],[33.898314958212815,1.214690786714367],[33.89831301112914,1.2146904678686357],[33.895385829489804,1.2146712423009947],[33.89290779637964,1.2168825451306249],[33.88880812590708,1.2220885261207977],[33.88880639336628,1.22209121952621],[33.886874001573815,1.22309011060447],[33.88687387285876,1.2230901272644938],[33.88687379608131,1.223090166972841],[33.886872940664084,1.2230902479215922],[33.87517653147674,1.224604153585235],[33.87434465359422,1.2244019012311607],[33.87747681341391,1.2436298823464977],[33.879604568161966,1.247176285040869],[33.881170402265624,1.255839240386579]]]}},{"type":"Feature","properties":{"n":"Kapunyasi","c":"233113","d":"Butebo","od":"Butebo","dc":"233","k":"KAPUNYASI","a":["KAPUNYASI"],"lat":1.188425,"lon":33.871251},"geometry":{"type":"Polygon","coordinates":[[[33.8581773291731,1.180464119922235],[33.857916536296244,1.183454005009909],[33.858,1.1838],[33.8552,1.1981],[33.85526122464812,1.1981463321661394],[33.862180904157896,1.202155931484957],[33.86572666435069,1.2060661243734911],[33.8663,1.2065],[33.866498430184556,1.2069172121829121],[33.86710950942697,1.207591098057331],[33.86725669258345,1.2074797730062843],[33.867255480123006,1.207473501167577],[33.87345118596931,1.2027944226054943],[33.8739535153291,1.2021170945595474],[33.876464028592856,1.198731801343699],[33.87646435360184,1.198731544525866],[33.876464392696256,1.198731491811956],[33.87698746710751,1.1983181870997204],[33.881365348228165,1.194858842899313],[33.882984601307605,1.189981977162617],[33.887831155255235,1.186868352384825],[33.887832835719536,1.1868635362579194],[33.88929345421899,1.18213919988483],[33.88936916321061,1.17713700494694],[33.88683719634451,1.176772001577923],[33.883539551721775,1.175016203154758],[33.8769192894788,1.169906122583133],[33.871451175725475,1.168175037029106],[33.8679000203958,1.16796784284576],[33.86616332241015,1.166404977384603],[33.863531259008916,1.167918078189948],[33.86300129418879,1.171352751711168],[33.860662291643,1.170786282300565],[33.85535682406282,1.172842834296785],[33.856726885776574,1.1785223628556178],[33.85737337190631,1.178328512818371],[33.8581773291731,1.180464119922235]]]}},{"type":"Feature","properties":{"n":"Maizimasa","c":"233114","d":"Butebo","od":"Butebo","dc":"233","k":"MAIZIMASA","a":["MAIZIMASA"],"lat":1.165523,"lon":34.082024},"geometry":{"type":"Polygon","coordinates":[[[34.06648050821564,1.172211255662176],[34.066480691434315,1.1722114827364396],[34.066480777191096,1.172211502229715],[34.06968965211065,1.1761885467098439],[34.07029735781988,1.176941714082834],[34.07029735747096,1.1769417300869995],[34.070297440785666,1.176941833346332],[34.07029161147175,1.1772052859407551],[34.07024996760657,1.1791153948763498],[34.07183947394,1.179042784482521],[34.079165528966456,1.192299579779514],[34.079165576439664,1.192299640461529],[34.08757482651931,1.187773866664044],[34.091085537505904,1.187687508712618],[34.09123871670434,1.1870761465099722],[34.09406180593834,1.17580793358645],[34.094062143232996,1.175807408462141],[34.094062143233415,1.175807408460468],[34.09406215393649,1.1758073917981773],[34.095896796591525,1.172951089649874],[34.097199008455625,1.172243815117535],[34.10357059377508,1.160918319494493],[34.10804287498398,1.157858663061438],[34.108043430763914,1.1578580689968365],[34.109052796162864,1.1565715334785531],[34.10905279534287,1.156571532835218],[34.109052795342876,1.15657153283521],[34.10905279616287,1.1565715334785462],[34.10967730232733,1.1557755389231552],[34.109677845081215,1.155774665697955],[34.11044583208294,1.1484614762549425],[34.11053060004785,1.147654155204371],[34.10755781030007,1.1466992587069356],[34.10755532690586,1.1466985510207295],[34.10486226920157,1.14729846423124],[34.1048617943061,1.147297932415323],[34.104860870144954,1.14729813809698],[34.10377908318981,1.1460854487348213],[34.10376354973087,1.146068053452563],[34.102674014246084,1.14701323855808],[34.10192152966832,1.146564919652399],[34.09623572255474,1.148039267934767],[34.092053050089184,1.150061833092034],[34.08566155108161,1.150333854886859],[34.08291934693385,1.152591440693299],[34.07957155412339,1.152222498442534],[34.07652743580713,1.153671850125036],[34.07438546855735,1.153706540360786],[34.06876135265582,1.150609294681183],[34.06789087980231,1.149026356255627],[34.06809103011234,1.147308957472844],[34.066549983484535,1.146634125082544],[34.0632032043104,1.142561236838867],[34.06002351091118,1.141013016425219],[34.058291546971454,1.141107448904234],[34.05738450821525,1.142025366310844],[34.05747134127115,1.1422450663809323],[34.058779031797044,1.145553238681626],[34.06156806190747,1.163007393080995],[34.06335255960108,1.16341976834255],[34.06278181379924,1.16762567848237],[34.064899038027356,1.170291895592881],[34.06518251756298,1.171916396330002],[34.066101437529085,1.1721252749683635],[34.06648050821564,1.172211255662176]]]}},{"type":"Feature","properties":{"n":"Petete","c":"233115","d":"Butebo","od":"Butebo","dc":"233","k":"PETETE","a":["PETETE"],"lat":1.159263,"lon":33.878384},"geometry":{"type":"Polygon","coordinates":[[[33.871450356276576,1.168174888038113],[33.87145074811603,1.1681750120799892],[33.871451175725475,1.168175037029106],[33.8769192894788,1.169906122583133],[33.88353949833201,1.1750161619440076],[33.8840706471837,1.1752989797062885],[33.886837140486755,1.176771971837012],[33.88936916611607,1.177136993535293],[33.890575408303654,1.173129547054534],[33.89538031969233,1.167246822456215],[33.895629624953635,1.165829393918647],[33.89823871316606,1.16436792606973],[33.900392672604326,1.16111400819304],[33.90453528915698,1.157525505600039],[33.90515536998029,1.155065328965846],[33.90766775029514,1.1529606099412055],[33.8878,1.1405],[33.87476563995755,1.1413249594963575],[33.87223435482371,1.142631194025783],[33.86584885987846,1.149714202452778],[33.861945797922644,1.1515542020773541],[33.8525,1.161],[33.855356824062824,1.1728428342967836],[33.860662291643,1.170786282300565],[33.86300129418879,1.171352751711168],[33.863531259008916,1.167918078189948],[33.86616332241015,1.166404977384603],[33.8679000203958,1.16796784284576],[33.8702601683219,1.1681055470227744],[33.871450356276576,1.168174888038113]]]}},{"type":"Feature","properties":{"n":"Petete Town Council","c":"233116","d":"Butebo","od":"Butebo","dc":"233","k":"PETETETOWNCOUNCIL","a":["PETETE","PETETETOWNCOUNCIL"],"lat":1.175068,"lon":33.907824},"geometry":{"type":"Polygon","coordinates":[[[33.89740309979275,1.184781253289224],[33.897404436544704,1.18478038181195],[33.89930230176931,1.183542149798165],[33.89938018483564,1.181025339945732],[33.906814809766956,1.17925915919125],[33.90875352756124,1.1802657363438616],[33.91094023515576,1.1804706529792006],[33.91447235424937,1.180801569605726],[33.91506008562611,1.179902919066942],[33.91740163786564,1.179489889482059],[33.92713042487095,1.174272511752854],[33.92713048809578,1.174272487464883],[33.92713055049827,1.174272453999456],[33.92716416897659,1.1742595488720189],[33.93316161008345,1.171955617180238],[33.93207293778569,1.175864321674865],[33.93206952104667,1.175876630832189],[33.93206949742203,1.175876673752675],[33.93206948858502,1.175876705480526],[33.927110454927806,1.184889957967035],[33.92766578894157,1.1854272904411651],[33.92992318293439,1.1876111903816053],[33.93584994662329,1.187969949048036],[33.93585873821983,1.187992043042055],[33.939195757775586,1.1952067143801772],[33.94050557712984,1.1963231902479172],[33.94291547988796,1.1967507314691315],[33.94337260725829,1.196830702159425],[33.94413997226318,1.1944856128417136],[33.94416457878886,1.194410155899936],[33.94416466146863,1.1944101619264278],[33.94416473716399,1.194409930599275],[33.94497157782188,1.1944689776956683],[33.945858656165385,1.1945336364362424],[33.9457441687626,1.1942052395672447],[33.94510118068584,1.192364719448488],[33.94510254413264,1.1923647967374187],[33.945102154909414,1.192363680285443],[33.94780896630914,1.1925139964349716],[33.947504161038545,1.190716104967044],[33.946337594523,1.183847653060609],[33.95218122631815,1.185176945947815],[33.958591208957486,1.185371999401717],[33.96002455346529,1.18490806869049],[33.96285029534047,1.182104763272014],[33.96778034608613,1.1827652189181954],[33.967843555795284,1.182773676494304],[33.96730531056503,1.180563669641677],[33.96786883211031,1.1739803077534159],[33.96570349277032,1.1631175220644252],[33.965684504566234,1.1631010638656019],[33.94232574381467,1.1647047996783957],[33.94153261820429,1.165435495661431],[33.94005829481911,1.165874755034264],[33.929426078882656,1.166123204411463],[33.927004997342785,1.1631168459659365],[33.92434019636859,1.1619456913976618],[33.919418024008955,1.160414664018923],[33.91782001926257,1.1590801358542504],[33.9165,1.1585],[33.907667716877214,1.1529605889822236],[33.907667716877214,1.1529605889822259],[33.90766775029514,1.1529606099412055],[33.90515594627755,1.1550648461791417],[33.90491878767755,1.1560039715288608],[33.90453528915698,1.157525505600039],[33.900392672604326,1.16111400819304],[33.89823871316606,1.16436792606973],[33.895629624953635,1.165829393918647],[33.89538031969233,1.167246822456215],[33.890575408303654,1.173129547054534],[33.89056341727334,1.1731693843382311],[33.88936805050163,1.1772105231261911],[33.88929345421899,1.18213919988483],[33.888908847343004,1.183383201829386],[33.888850569238684,1.184283008806313],[33.896356816922754,1.186732354650586],[33.89740285627851,1.184781412831522],[33.89740309924541,1.1847812543116312],[33.89740309979275,1.184781253289224]]]}},{"type":"Feature","properties":{"n":"Putti","c":"233117","d":"Butebo","od":"Butebo","dc":"233","k":"PUTTI","a":["PUTTI"],"lat":1.139854,"lon":34.081437},"geometry":{"type":"Polygon","coordinates":[[[34.063202857802565,1.142561043219116],[34.06320289191554,1.1425610847310892],[34.0632032043104,1.142561236838867],[34.066549983484535,1.146634125082544],[34.067274540786514,1.1469514125203029],[34.068089120953694,1.147306872160044],[34.06808898389501,1.1473080614235567],[34.06809103011234,1.147308957472844],[34.06789774115515,1.1489674821074465],[34.067890942884176,1.1490264709688045],[34.06876135265582,1.150609294681183],[34.07438546855735,1.153706540360786],[34.076527234591445,1.153671853383825],[34.07710246363706,1.1533980705060427],[34.07957155412339,1.152222498442534],[34.079573004067186,1.1522226582330461],[34.0831486074757,1.1524026964141125],[34.08566155108161,1.150333854886859],[34.092053050089184,1.150061833092034],[34.09623572255474,1.148039267934767],[34.10192152966832,1.146564919652399],[34.102674014246084,1.14701323855808],[34.1037396353689,1.1460887994485016],[34.103771119415185,1.1460614653246843],[34.104965657864994,1.145021920639639],[34.104118254132715,1.143741762228873],[34.103466653147954,1.13869438604648],[34.10255468834123,1.138673143834526],[34.10255385770805,1.1386711762441428],[34.10255357661945,1.138671169930649],[34.10115538749982,1.1353585027275044],[34.10061609960444,1.1340810463195],[34.09622856607096,1.129142570002474],[34.09494473353713,1.126692596447162],[34.09495714603187,1.1266927619470917],[34.0730552317158,1.1264007364228774],[34.07298162599734,1.126422130698716],[34.068169603678946,1.131154887076524],[34.06780506608141,1.1313255669746622],[34.06046601335545,1.1382840762259425],[34.05829155576391,1.141107438192667],[34.058291703030534,1.1411074403953698],[34.06002351091118,1.141013016425219],[34.06027846730693,1.1411371569151743],[34.06096007213565,1.14114735184551],[34.063202857802565,1.142561043219116]]]}}]}
