{"type":"FeatureCollection","name":"Buyende sub-counties","metadata":{"source":"Uganda Bureau of Statistics NPHC 2024 Map Explorer","retrieved":"2026-07-26","display_only":true,"clipped_to_dashboard_district":true,"positive_area_overlaps_removed":true,"source_gap_ratio":0.05618623},"features":[{"type":"Feature","properties":{"n":"Bugaya","c":"226101","d":"Buyende","od":"Buyende","dc":"226","k":"BUGAYA","a":["BUGAYA"],"lat":1.103853,"lon":33.230817},"geometry":{"type":"Polygon","coordinates":[[[33.16152646428907,1.084866289817464],[33.171819958489266,1.085288895252392],[33.174978161085875,1.086817640731935],[33.18138274229723,1.093406980212655],[33.184064220435275,1.100125530681916],[33.18773960889499,1.104584308780177],[33.18635197987682,1.108470575682055],[33.18217307479384,1.115333697142048],[33.17989610472508,1.12309640257437],[33.178996466906554,1.133175215103883],[33.179669805308414,1.142891857532566],[33.1810618358732,1.144131276607202],[33.18656944812762,1.144664674855915],[33.19138536609814,1.143394001240844],[33.204384366997914,1.136440427626931],[33.21095093602799,1.145212804901607],[33.211294074422426,1.147154779046186],[33.21148438602993,1.15014391070866],[33.20887089902516,1.15941927776944],[33.20923594038883,1.167190780209466],[33.21166529173522,1.16971478120157],[33.22260209478587,1.17542370863224],[33.22949517270278,1.185174912378567],[33.238100269840075,1.177633586682867],[33.23833416301379,1.176068958616809],[33.23983547872051,1.174218498886956],[33.23937321954498,1.171604259955529],[33.240932410831476,1.169961642798111],[33.242009819747786,1.166048296665974],[33.24333680277329,1.164582678015969],[33.24570424106842,1.163469471564752],[33.25070770989069,1.1627270865034],[33.26111407942295,1.163142262448295],[33.26431365805995,1.164288374286319],[33.26386192940625,1.162181622842639],[33.2610840805281,1.160292271797369],[33.257338210105374,1.14907583536456],[33.25846176210174,1.145854104628978],[33.256802157410306,1.141936138039287],[33.25910912782061,1.13657812470251],[33.257620963985254,1.134484832710848],[33.258488678510595,1.131755963228281],[33.25789656899177,1.127642502367301],[33.25804032970382,1.127105023113739],[33.26191689168528,1.127221164852356],[33.264272229321925,1.123260157875772],[33.2676989805679,1.120760932052686],[33.26897139390969,1.1184641603902],[33.268542838314936,1.114538683688735],[33.27362411697045,1.104649933313526],[33.27529957156549,1.103122189211783],[33.27141070438053,1.100837855744335],[33.268326317002206,1.096914743452794],[33.26303068127355,1.080644130139565],[33.263628204767414,1.075484988468139],[33.262646678710524,1.073551679173754],[33.25073301607185,1.064015742386927],[33.24782980933811,1.05749576595883],[33.24157231176558,1.055508069813266],[33.24212028795531,1.051530654438655],[33.238290550831216,1.047263986627865],[33.236791494952044,1.046776199397883],[33.23239591543216,1.04761236952254],[33.22782591807958,1.044386444832994],[33.225498808443575,1.043815375086038],[33.222006761742186,1.043647090717971],[33.21726642687349,1.045074966604211],[33.2127511474619,1.043060196333708],[33.20726970791719,1.037515413494193],[33.2062010410605,1.031177895769326],[33.2037275032268,1.026736510415518],[33.191247905823914,1.02246568838614],[33.18878119934866,1.02455723119429],[33.1805,1.038],[33.1804139414104,1.0380441922487154],[33.17562378658556,1.041978531231667],[33.169436704866776,1.043697837025626],[33.169415773534375,1.0436919000769438],[33.1694,1.0437],[33.1518,1.0441],[33.14275011471475,1.0797339233106835],[33.15268199001798,1.081408012064893],[33.16152646428907,1.084866289817464]]]}},{"type":"Feature","properties":{"n":"Gumpi","c":"226102","d":"Buyende","od":"Buyende","dc":"226","k":"GUMPI","a":["GUMPI"],"lat":1.111092,"lon":33.313537},"geometry":{"type":"MultiPolygon","coordinates":[[[[33.25121550442164,1.0644019358308356],[33.262646678710524,1.073551679173754],[33.263628204767414,1.075484988468139],[33.2636281191555,1.0754857276591634],[33.263628149157896,1.075485786781344],[33.26360962961729,1.0756453701636381],[33.26303068127355,1.080644130139565],[33.26793319545149,1.0957068943739383],[33.268326419436356,1.0969148737414467],[33.27141070438053,1.100837855744335],[33.27529957156549,1.103122189211783],[33.27362411697045,1.104649933313526],[33.26854306474617,1.1145382430276174],[33.268614194066856,1.115192286967075],[33.26897139390969,1.1184641603902],[33.2676989805679,1.120760932052686],[33.26769843824788,1.1207613275818915],[33.26769839369294,1.120761408015354],[33.26741830294204,1.1209656381197928],[33.264272229321925,1.123260157875772],[33.26356481015933,1.124449835395804],[33.26191747859955,1.127220685598102],[33.26191718198092,1.1272206766577892],[33.26191689168528,1.127221164852356],[33.25804032970382,1.127105023113739],[33.25789656899177,1.127642502367301],[33.258488678510595,1.131755963228281],[33.25848857308599,1.1317562947774085],[33.258488619499055,1.131756617244665],[33.25825635430222,1.132486598043983],[33.257620963985254,1.134484832710848],[33.25910912782061,1.13657812470251],[33.259108689005046,1.13657914386584],[33.25910889245096,1.136579430118271],[33.256802319212944,1.1419365200202167],[33.25846176210174,1.145854104628978],[33.257338210105374,1.14907583536456],[33.2610840805281,1.160292271797369],[33.26386192940625,1.162181622842639],[33.26393684655057,1.16253101799539],[33.264245095689176,1.162772891631928],[33.265405117367166,1.165748891017005],[33.26528337907361,1.16799121345294],[33.26715901633664,1.171076213209105],[33.277626726053086,1.17327356601035],[33.28112431365057,1.172676144915619],[33.28314748107213,1.172060646769788],[33.29430157728229,1.164704088272224],[33.30019240259949,1.162433134287151],[33.302070654077,1.162839609492779],[33.30458650523908,1.159446643505291],[33.305355497795624,1.153348862558857],[33.304493346134244,1.148400884183408],[33.30636624603465,1.143885280521459],[33.30635808855127,1.140583354739882],[33.30890875242526,1.135979488827006],[33.311695206387654,1.133390043134312],[33.31395627300966,1.129191313233439],[33.324679877945066,1.123021210911708],[33.326387028044984,1.124942735685406],[33.337392633653906,1.128483521617157],[33.343351027661704,1.129061903735917],[33.34508514951112,1.130825793059437],[33.34805814768231,1.131639680191675],[33.35566868362757,1.131493334486016],[33.353496575567654,1.125861536248604],[33.354324416413654,1.121765162215501],[33.355338143780855,1.120479703790227],[33.35540950183308,1.11514066088484],[33.35790796121738,1.107644892153042],[33.35710974491547,1.102164904870652],[33.35204949057017,1.102760579463413],[33.35143386747986,1.101095818030784],[33.35108229026092,1.096865995031216],[33.35037906375179,1.095332171289602],[33.35029508972529,1.0933049884045263],[33.335,1.0773],[33.32702780426209,1.0660839453066617],[33.32483370031618,1.063987444014505],[33.32262392009339,1.059888135855526],[33.32075418250718,1.0572576084928542],[33.30936119004849,1.0549343276556165],[33.3069,1.0545],[33.306901749514836,1.0544944916265477],[33.29689755080484,1.067893799367613],[33.29058523860081,1.059960184211336],[33.27993588802758,1.055288649464889],[33.27568339407792,1.050107958560728],[33.273146611242055,1.048556156826022],[33.261409578349756,1.046307265405132],[33.25408087517265,1.046350936301423],[33.25198745321372,1.047386095503915],[33.25015655394478,1.050530456162727],[33.248531743404925,1.058247794183345],[33.25073244510762,1.0640144601243644],[33.250732999599876,1.0640157053944315],[33.25121550442164,1.0644019358308356]]],[[[33.35138638210469,1.099951600870557],[33.35138638137647,1.099951600885731],[33.351386382104856,1.099951600888855],[33.35138638210469,1.099951600870557]]]]}},{"type":"Feature","properties":{"n":"Irundu","c":"226103","d":"Buyende","od":"Buyende","dc":"226","k":"IRUNDU","a":["IRUNDU"],"lat":1.276404,"lon":33.397319},"geometry":{"type":"MultiPolygon","coordinates":[[[[33.40201430859836,1.3067238190197852],[33.4046,1.2961],[33.43984053515961,1.292029966361848],[33.4400842167621,1.291923899283345],[33.432326638271405,1.247129355372463],[33.41888622270469,1.2341867329748881],[33.418346075919416,1.233886893126428],[33.41610461946019,1.231572777546525],[33.40053345495372,1.23420152499417],[33.39919828090377,1.235486372438714],[33.398956615814235,1.237508864030427],[33.39144371749791,1.238067665458461],[33.3883165287118,1.240055162090696],[33.38706051455492,1.242801400681683],[33.383703887775795,1.243545580863287],[33.38137413607389,1.250056819362861],[33.38190628923848,1.252192570664008],[33.381288772769715,1.253144067250391],[33.37691001177931,1.255476910845167],[33.37364996044723,1.258808361576873],[33.372436466595424,1.262258600226934],[33.373015133361285,1.267533059908661],[33.37253181498245,1.269539095300218],[33.37134119423648,1.269610606073199],[33.36884348802469,1.267374326531543],[33.36610711121639,1.266279774741716],[33.36356109030317,1.266565308149077],[33.35987444371905,1.270280446913492],[33.35739980517386,1.274658655474243],[33.35697729985053,1.279306306776933],[33.343560965692674,1.278149452103172],[33.34059954883786,1.27998859256215],[33.33741232469472,1.278798920724969],[33.335651636342355,1.278941673916815],[33.332414555321925,1.281559470556801],[33.327332271131304,1.282519865615589],[33.35096164221693,1.322978048850325],[33.40201430859836,1.3067238190197852]]],[[[33.32622050616465,1.142537471067829],[33.329475272022144,1.145402333127283],[33.33202008299293,1.14652189898631],[33.333765754061105,1.148898492980097],[33.33432895914829,1.150330119382971],[33.33279731211206,1.154331432687006],[33.33338265753077,1.158928549203784],[33.34069550166502,1.170590256633683],[33.34195049934893,1.174140421996521],[33.339930273554366,1.177989165343473],[33.3466738329974,1.182933673662372],[33.34697620359898,1.186436409230217],[33.349497348048345,1.189834693752558],[33.350926669300605,1.206878475636636],[33.35197372673075,1.211522154423257],[33.35359119881446,1.214059137746618],[33.355351241413196,1.214489703525431],[33.36186677597915,1.208887594380005],[33.36466696794638,1.204864986182608],[33.37299535467199,1.204519854630589],[33.37565212922183,1.198330188264201],[33.37782947275387,1.197125677048003],[33.378353117176324,1.195416376939553],[33.37966542796928,1.19751948838718],[33.38585196701243,1.200303551434309],[33.38734666814645,1.20202051674252],[33.39859498192171,1.203276188726548],[33.393663352581115,1.179875124012325],[33.393217974244195,1.1787275420724928],[33.390282181345334,1.174850380798458],[33.386375479950395,1.171028861955393],[33.384401228921064,1.167083688194658],[33.38185818397305,1.163725210355712],[33.380535088241835,1.162400180590191],[33.38041540676448,1.1618198034987381],[33.3751,1.1548],[33.37505652027923,1.1547286826531222],[33.37504757606009,1.154719244621713],[33.37502294698056,1.1546736142546852],[33.36684804193012,1.1412647760926915],[33.36609217017227,1.140467439418042],[33.36428801328477,1.1370657047170987],[33.36241753969863,1.133997671822756],[33.35586113479887,1.131421587817435],[33.35564346144603,1.1314279389193072],[33.35566868362757,1.131493334486016],[33.3490208722032,1.1316211676190548],[33.348161945636356,1.13164622870281],[33.348132067910704,1.1316382587532816],[33.34805814768231,1.131639680191675],[33.34508514951112,1.130825793059437],[33.34348675468311,1.1291999606112515],[33.34335092251696,1.1290618935295025],[33.34150323277925,1.128882538034732],[33.33739322890778,1.128483652183928],[33.337392904918715,1.1284835479488686],[33.337392633653906,1.128483521617157],[33.326387028044984,1.124942735685406],[33.32467995418062,1.1230212967205033],[33.31395626188453,1.129191333892463],[33.311695206387654,1.133390043134312],[33.31006564906353,1.1349043872616122],[33.309855234005504,1.135213406434033],[33.321104324761016,1.140871445610003],[33.32622050616465,1.142537471067829]]]]}},{"type":"Feature","properties":{"n":"Irundu Town Council","c":"226104","d":"Buyende","od":"Buyende","dc":"226","k":"IRUNDUTOWNCOUNCIL","a":["IRUNDU","IRUNDUTOWNCOUNCIL"],"lat":1.221448,"lon":33.382443},"geometry":{"type":"Polygon","coordinates":[[[33.353826913321576,1.242213044995244],[33.355507584166865,1.24588021696367],[33.362451862608495,1.241915089342225],[33.36642285560913,1.244732374151352],[33.368654003813774,1.244532432984893],[33.37096121586932,1.249885274962777],[33.374958707276875,1.25050393575479],[33.38031304157692,1.249076507412896],[33.38137413052295,1.250056806317021],[33.38370301924967,1.243547414528411],[33.38370325004245,1.2435473632136942],[33.383703887775795,1.243545580863287],[33.3862821189131,1.2429739747115658],[33.387060766728396,1.2428008493116753],[33.387077107222275,1.2427651212948787],[33.387954072142065,1.240456272719034],[33.38824053725581,1.2402213152091723],[33.3883165287118,1.240055162090696],[33.388878833987846,1.2396977868508667],[33.39032113651916,1.238514816237813],[33.39079379550305,1.2384807258345192],[33.39144371749791,1.238067665458461],[33.398956615814235,1.237508864030427],[33.39918681757058,1.235582308906123],[33.399198066534886,1.235487019045991],[33.39919822144966,1.2354868700092867],[33.39919828090377,1.235486372438714],[33.40053345495372,1.23420152499417],[33.40969446325237,1.2326549497734836],[33.41610461212016,1.231572767135027],[33.404047707486775,1.213488755568979],[33.399814334923,1.2052525953591415],[33.39861130190375,1.2033181729474989],[33.39830855821508,1.20324421466971],[33.38734666814645,1.20202051674252],[33.38585196701243,1.200303551434309],[33.37966542796928,1.19751948838718],[33.379665253936025,1.1975192094812037],[33.37966505848315,1.197519121520587],[33.37964296854361,1.197483494874444],[33.378353117176324,1.195416376939553],[33.37782947275387,1.197125677048003],[33.377829266193025,1.1971257913179116],[33.377829250122865,1.197125844184572],[33.37712383254282,1.197516038760016],[33.375652148097075,1.1983301778223718],[33.375330902451395,1.1990785718773476],[33.37299535467199,1.204519854630589],[33.36466696794638,1.204864986182608],[33.36186677597915,1.208887594380005],[33.3578295682006,1.2123588181743488],[33.355353097691186,1.214488124202108],[33.355353082534904,1.2144881205141438],[33.355351241413196,1.214489703525431],[33.353794476779676,1.2141088663926585],[33.353778336982415,1.214104939110463],[33.35387700360503,1.21721881850999],[33.35718795977846,1.225676582407006],[33.35518158211991,1.227730786959173],[33.35536856914511,1.230144077318836],[33.35380793812963,1.235149724958783],[33.35081908118269,1.237092113467044],[33.350627514564806,1.238941944176816],[33.353826913321576,1.242213044995244]]]}},{"type":"Feature","properties":{"n":"Kagulu","c":"226105","d":"Buyende","od":"Buyende","dc":"226","k":"KAGULU","a":["KAGULU"],"lat":1.238017,"lon":33.305239},"geometry":{"type":"Polygon","coordinates":[[[33.30175979250128,1.337592464354193],[33.35096163070782,1.322978051748152],[33.35083865515863,1.322767470544113],[33.327332271131304,1.282519865615589],[33.332043071822994,1.2816296694877172],[33.33241485124262,1.2815592312485522],[33.335651636342355,1.278941673916815],[33.335652653345974,1.278941591460137],[33.33565265335072,1.278941591456298],[33.33565268219484,1.2789415891211264],[33.33741232469472,1.278798920724969],[33.33862970779439,1.279253324407827],[33.3405999262636,1.2799883581679454],[33.343560965692674,1.278149452103172],[33.35697729985053,1.279306306776933],[33.35739980517386,1.274658655474243],[33.35987444371905,1.270280446913492],[33.36356109030317,1.266565308149077],[33.36610711121639,1.266279774741716],[33.36884348802469,1.267374326531543],[33.3690628630457,1.2675707402927479],[33.37134141189865,1.2696105930000268],[33.37253178013221,1.2695390973933844],[33.372806063759995,1.268400813004452],[33.373015133361285,1.267533059908661],[33.372863379369456,1.2661498453218225],[33.37243643236362,1.262258964605393],[33.37243648892669,1.2622588037730371],[33.372436466595424,1.262258600226934],[33.37364996044723,1.258808361576873],[33.37691001177931,1.255476910845167],[33.37691010670156,1.2554768602740654],[33.37691015984711,1.255476805963916],[33.38190507312058,1.2521944445120605],[33.38190628923848,1.252192570664008],[33.3819033388253,1.2521807294325669],[33.3813201178744,1.250006906126865],[33.38031304157692,1.249076507412896],[33.374958707276875,1.25050393575479],[33.37096121586932,1.249885274962777],[33.37002003118322,1.2477016816148774],[33.36865355231279,1.24453247344551],[33.36642285560913,1.244732374151352],[33.362451862608495,1.241915089342225],[33.355507584166865,1.24588021696367],[33.353874200519925,1.2423162242041481],[33.35382681951435,1.242212949085696],[33.350627514564806,1.238941944176816],[33.35081908118269,1.237092113467044],[33.35380789481599,1.2351497531073024],[33.35465871953752,1.232420885211088],[33.35536856914511,1.230144077318836],[33.35518158211991,1.227730786959173],[33.35718795977846,1.225676582407006],[33.35387700360503,1.21721881850999],[33.353786333169296,1.2143572955907518],[33.353778325691835,1.214104936774253],[33.35377829195297,1.214104907038197],[33.35359119881446,1.214059137746618],[33.35341782927266,1.2137872099397868],[33.35263960649732,1.213101316139555],[33.35226141946078,1.2119733966213153],[33.35197372673075,1.211522154423257],[33.351693677190134,1.2102801403049117],[33.35130740723591,1.209128113983039],[33.35121727235322,1.2081672943698778],[33.350926669300605,1.206878475636636],[33.34949737130968,1.1898349711297385],[33.34835199212183,1.1882908530897835],[33.34697620359898,1.186436409230217],[33.34697617472925,1.1864360747961948],[33.346976079167185,1.186435945966273],[33.34687224957968,1.1852321802512575],[33.3466738329974,1.182933673662372],[33.339930273554366,1.177989165343473],[33.34195049934893,1.174140421996521],[33.34069552504463,1.1705903227704595],[33.33703205153874,1.1647481953545997],[33.33338265753077,1.158928549203784],[33.33279731211206,1.154331432687006],[33.33432895914829,1.150330119382971],[33.334325141029815,1.1503204140032808],[33.332020223589176,1.146522090397046],[33.33202008299293,1.14652189898631],[33.329475272022144,1.145402333127283],[33.32622050616465,1.142537471067829],[33.321104324761016,1.140871445610003],[33.31538240062696,1.137993446701819],[33.30985522420908,1.135213414234193],[33.30635899342112,1.1409496212636283],[33.30636624603465,1.143885280521459],[33.306366150487456,1.1438855108878834],[33.3063661514214,1.143885520023614],[33.306348312521095,1.1439285186248138],[33.30449335285248,1.1484008679855762],[33.30455060083173,1.1487294748685004],[33.305355497795624,1.153348862558857],[33.30535544147813,1.153349309132407],[33.30535549664675,1.153349625803621],[33.305200817839676,1.1545754082258266],[33.30458650523908,1.159446643505291],[33.302070654077,1.162839609492779],[33.30019240259949,1.162433134287151],[33.294366675408234,1.1646789924935228],[33.2943015534737,1.1647041039749084],[33.28957822020968,1.1678193252179023],[33.28314793813054,1.172060368153255],[33.28314787385998,1.1720603877109834],[33.28314748107213,1.172060646769788],[33.28135990167445,1.1726044731447456],[33.281124759475695,1.172676027638848],[33.281124621910976,1.1726760511350922],[33.28112431365057,1.172676144915619],[33.277626726053086,1.17327356601035],[33.2776260004656,1.1732734136970235],[33.26787916122279,1.171546530904794],[33.26150127862217,1.19021156029348],[33.26098031753257,1.197486358864249],[33.25836672266573,1.20460599580138],[33.258611053442095,1.208479091455055],[33.255500673848914,1.211599685500493],[33.2530254969526,1.212266637703765],[33.25602347029492,1.217120228761495],[33.25575815952868,1.220236168368162],[33.26085492416038,1.242906732568456],[33.24546368849597,1.248471073551598],[33.23964024350128,1.274927286267255],[33.2233530575458,1.276738727845467],[33.28204462035159,1.340541997514378],[33.30175979250128,1.337592464354193]]]}},{"type":"Feature","properties":{"n":"Ngandho","c":"226106","d":"Buyende","od":"Buyende","dc":"226","k":"NGANDHO","a":["NGANDHO"],"lat":1.028617,"lon":33.259948},"geometry":{"type":"Polygon","coordinates":[[[33.20620089832042,1.031177514783774],[33.20620092847474,1.0311776936148505],[33.2062010410605,1.031177895769326],[33.20726970294941,1.0375153840337448],[33.20727005360718,1.037515763178965],[33.21223271080387,1.0425357686425167],[33.213666606662436,1.0434686848928802],[33.21726581778551,1.0450746948220582],[33.220292041689376,1.0441635958769688],[33.222006761742186,1.043647090717971],[33.225498808443575,1.043815375086038],[33.22782591807958,1.044386444832994],[33.23239591543216,1.04761236952254],[33.236791494952044,1.046776199397883],[33.23715315897504,1.0468938835312183],[33.23745814123717,1.046847796622343],[33.23767205344253,1.0470627298687465],[33.238290550831216,1.047263986627865],[33.24212028795531,1.051530654438655],[33.24157231176558,1.055508069813266],[33.24160179974042,1.0555174366780962],[33.246392991098105,1.056648836818824],[33.24730127269105,1.057327876120445],[33.24782980933811,1.05749576595883],[33.24798149302634,1.057836414821452],[33.24853173644448,1.058247781636849],[33.250084221930805,1.0508740104343561],[33.25015655394478,1.050530456162727],[33.25198745321372,1.047386095503915],[33.252797157919424,1.046985711207842],[33.2531645075325,1.046492559664957],[33.253824456868145,1.046477730503835],[33.25408087517265,1.046350936301423],[33.261409578349756,1.046307265405132],[33.26141052108821,1.0463074460399169],[33.2719796214146,1.048031462704637],[33.272795466613495,1.0484888752438788],[33.273146611242055,1.048556156826022],[33.27568339407792,1.050107958560728],[33.27662951113848,1.0512605857267936],[33.279935965631516,1.0552886835072914],[33.29058523860081,1.059960184211336],[33.29689755080484,1.067893799367613],[33.297288118408595,1.067370685456338],[33.30694736495859,1.0543508707244367],[33.31383883851271,1.0326529638906723],[33.31442072725877,1.030631455476717],[33.31452365540598,1.030496807731679],[33.31682937060216,1.0232372291932064],[33.316476014857415,1.022096102630371],[33.31028616612776,1.016354564033503],[33.308761173902575,1.0120166870385023],[33.2988,0.9991],[33.30276464583833,0.9919140794180334],[33.30066190230903,0.985688005147026],[33.29522415884323,0.987695265204857],[33.29054601791594,0.9872322238192811],[33.2873626008414,0.987747756948761],[33.28670961997239,0.988076133700718],[33.28207037475502,0.988646587872423],[33.27539945835258,0.988131507390485],[33.27411236709471,0.9872426244736108],[33.2668,0.986],[33.2667516314731,0.9860290211161413],[33.26339449637454,0.990602337715718],[33.26040356798243,0.992981403543952],[33.25530693127089,0.9928958412374681],[33.25041107380996,0.9958333557140283],[33.250302433800286,0.995922842113107],[33.24180414402255,0.995588472954258],[33.24094998722351,0.994494410451774],[33.23900083441005,0.994222035814719],[33.23814781155721,0.992449935179514],[33.23479896354379,0.990487273574765],[33.23451486368426,0.9900607829075914],[33.22642874250669,0.9870695754801159],[33.22557167864239,0.9869153214815184],[33.223528431315636,0.9887515731640576],[33.219377974372904,0.992858372017908],[33.216427735197925,0.997363673600498],[33.21413574383351,0.998133278100422],[33.20751397498503,1.004295000436887],[33.203962311290354,1.006466466261851],[33.20167277035582,1.010249007305351],[33.19858428177062,1.01190428455914],[33.196805084207206,1.01398434582818],[33.195120664126385,1.014281429298181],[33.1951,1.0143],[33.194904106807286,1.0146179910046078],[33.19124791264245,1.022465678959894],[33.19153482120041,1.0225638778125266],[33.2037275032268,1.026736510415518],[33.203727847100474,1.026737127861292],[33.20372825565427,1.026737267695093],[33.20620089832042,1.031177514783774]]]}},{"type":"Feature","properties":{"n":"Bukungu Town Council","c":"226201","d":"Buyende","od":"Buyende","dc":"226","k":"BUKUNGUTOWNCOUNCIL","a":["BUKUNGU","BUKUNGUTOWNCOUNCIL"],"lat":1.43871,"lon":32.889412},"geometry":{"type":"Polygon","coordinates":[[[32.8653,1.4803],[32.866601843014514,1.4803401252983925],[32.91304339831878,1.480663029006213],[32.92130874097941,1.480423685106774],[32.93851534853051,1.479402208556296],[32.943234344311705,1.4797887738133675],[32.9463,1.4797],[32.95493257793251,1.4789123560280557],[32.97404724695765,1.471971908765461],[32.945374195089656,1.430048115494118],[32.942412306893225,1.428799290128423],[32.936487390902165,1.423338576213631],[32.935059525708255,1.416878998972523],[32.93589317772661,1.415747232799353],[32.916451209715916,1.399610205466888],[32.91018949756848,1.391714333594943],[32.90568986647802,1.395021507884679],[32.902354748342105,1.390575249435179],[32.900572702809114,1.390895050344432],[32.89738588602192,1.389962396078514],[32.89241154041153,1.387306204739328],[32.890412955514975,1.387249111026833],[32.88487335822632,1.389162002434285],[32.874182651691946,1.383356312102259],[32.87287460539989,1.388173376561497],[32.869899614829826,1.390423423521481],[32.8734901875768,1.395437209352551],[32.87320504809147,1.396297514443148],[32.86904177489844,1.395920294912521],[32.86515895512713,1.394050254116372],[32.86318928317399,1.392164461902007],[32.8447566002879,1.392366095215283],[32.83173143771147,1.4238061719885466],[32.830577622810445,1.4274190037531176],[32.82518490283507,1.447372270850854],[32.820316846959756,1.4749047180145107],[32.823309742480255,1.4753544807810077],[32.8653,1.4803]]]}},{"type":"Feature","properties":{"n":"Buyanja","c":"226202","d":"Buyende","od":"Buyende","dc":"226","k":"BUYANJA","a":["BUYANJA"],"lat":1.402932,"lon":32.941243},"geometry":{"type":"Polygon","coordinates":[[[32.869899517705015,1.390425301339588],[32.86990045287439,1.3904245937459123],[32.869899614829826,1.390423423521481],[32.87287422780394,1.3881736621451333],[32.87320845426078,1.386943931172374],[32.874182651691946,1.383356312102259],[32.88487335822632,1.389162002434285],[32.890412955514975,1.387249111026833],[32.892373305013344,1.3873051124660727],[32.89241137824481,1.387306198052057],[32.89241138231009,1.3873062002228334],[32.89241154041153,1.387306204739328],[32.89738588602192,1.389962396078514],[32.900572702809114,1.390895050344432],[32.90217844944598,1.3906068875421962],[32.90235436448525,1.390575118361912],[32.90235449662595,1.3905752946074572],[32.902354748342105,1.390575249435179],[32.90568986647802,1.395021507884679],[32.91018949756848,1.391714333594943],[32.916451209715916,1.399610205466888],[32.93589317772661,1.415747232799353],[32.935059525708255,1.416878998972523],[32.936487359766815,1.4233384353591587],[32.939915358426056,1.4264979712135646],[32.942412022850625,1.428799028339836],[32.94280894792546,1.4289665264821518],[32.945374195089656,1.430048115494118],[32.96253443804348,1.4551386597931304],[32.97404725777954,1.471971904007032],[33.00612082965079,1.460326143931353],[32.96919883651789,1.404227229697373],[32.96679186562992,1.405418885491604],[32.96536344080342,1.405026682949259],[32.95997402497701,1.401636248767549],[32.95893867168891,1.395247039429642],[32.95490962422134,1.391935046299203],[32.952191670411125,1.37939239987305],[32.95157531579701,1.367964046079031],[32.94766830742957,1.36099714874445],[32.945316632061726,1.353791626570203],[32.9422391845682,1.35142775771829],[32.92793342897912,1.347985906863573],[32.92241993456129,1.343841562652911],[32.91975982647033,1.343621733480562],[32.91230040014082,1.338905469679777],[32.910644356948026,1.336792427777562],[32.90944516731329,1.332395459310192],[32.867651342730994,1.333750446795392],[32.86393876219476,1.338187488410942],[32.84847235576124,1.383396989673922],[32.84475660496989,1.392366083756523],[32.84687774860085,1.3923428921815775],[32.86318928317399,1.392164461902007],[32.86515895512713,1.394050254116372],[32.86904177489844,1.395920294912521],[32.87320504809147,1.396297514443148],[32.8734901875768,1.395437209352551],[32.872500213396286,1.3940548342082009],[32.869899517705015,1.390425301339588]]]}},{"type":"Feature","properties":{"n":"Buyende","c":"226203","d":"Buyende","od":"Buyende","dc":"226","k":"BUYENDE","a":["BUYENDE"],"lat":1.257246,"lon":33.219924},"geometry":{"type":"Polygon","coordinates":[[[33.2469,1.3343],[33.260096840984126,1.3438255393569623],[33.282044607000046,1.340541999770002],[33.28128838070527,1.3397198936244492],[33.2233530575458,1.276738727845467],[33.23964024350128,1.274927286267255],[33.24546368849597,1.248471073551598],[33.26085492416038,1.242906732568456],[33.25575815952868,1.220236168368162],[33.25602345447466,1.2171204145624217],[33.2556802491462,1.2165645683509323],[33.2530254969526,1.212266637703765],[33.255500673848914,1.211599685500493],[33.258611053442095,1.208479091455055],[33.25836672266573,1.20460599580138],[33.26098031753257,1.197486358864249],[33.26150127862217,1.19021156029348],[33.26729456132053,1.1732573768139252],[33.26787915029846,1.171546527214041],[33.26760401143877,1.171169625355667],[33.26715901633664,1.171076213209105],[33.26528337907361,1.16799121345294],[33.26534448229444,1.1668657407773453],[33.2654050054533,1.165748603905477],[33.26540382237001,1.1657455687422544],[33.26452968007687,1.164390495762042],[33.26112602100054,1.1631465400063714],[33.26111412071541,1.1631422772395472],[33.25070770859698,1.1627270866953534],[33.24570424106842,1.163469471564752],[33.24333680277329,1.164582678015969],[33.242009819747786,1.166048296665974],[33.2410032389719,1.169704382044855],[33.24093249255695,1.169961412677029],[33.240932466690815,1.1699614399067877],[33.240932410831476,1.169961642798111],[33.23937321954498,1.171604259955529],[33.23983547872051,1.174218498886956],[33.23983219490228,1.1742225463856713],[33.23810046894648,1.17763283159982],[33.23810036971653,1.1776329185594663],[33.238100269840075,1.177633586682867],[33.22949517270278,1.185174912378567],[33.22282884018597,1.1757444710872027],[33.222601929155395,1.1754236221743994],[33.21166529173522,1.16971478120157],[33.211665076030165,1.1697145570924536],[33.21166474396922,1.169714383768449],[33.209541420474864,1.167687180542984],[33.20949493627134,1.167459866797283],[33.20923594038883,1.167190780209466],[33.209175118284335,1.1658959156254844],[33.20917315816603,1.165886330394389],[33.20853246379108,1.166571545206431],[33.200253325511454,1.167656523349216],[33.19842599878945,1.168303706945011],[33.195874751836925,1.170892711189006],[33.191607257901886,1.171849336385154],[33.19609393338478,1.175161178927629],[33.19692694316227,1.177201692536453],[33.198259518086914,1.178190200096885],[33.196318800844736,1.182936709120111],[33.19448198329585,1.184145126837716],[33.19196382813313,1.183902339496009],[33.19596188998349,1.18747506607287],[33.19748050999617,1.1904702556139],[33.20172570426335,1.194803866367932],[33.20419455341691,1.21011174462897],[33.20446622153995,1.214706665050385],[33.192198215061225,1.218225612820953],[33.18930717140119,1.219724671124078],[33.18823641707153,1.221152346660362],[33.188887856406545,1.225454778130091],[33.192198459325326,1.227996942928757],[33.19387687998747,1.232439108793808],[33.19138349230653,1.236118679989374],[33.191742879514564,1.240464067665188],[33.18980644831943,1.243488958334117],[33.190452076663966,1.244121580201719],[33.19005345759963,1.246216387935842],[33.19437661749594,1.247668065118886],[33.19563620045422,1.251318531664309],[33.1989072710259,1.254535195774416],[33.19591700196707,1.257663608729921],[33.190284223073874,1.25872718823056],[33.18810293681614,1.258042315024863],[33.180975015554495,1.258423003826008],[33.175645020114494,1.256901169456097],[33.173313275956495,1.257591168688191],[33.164811297165855,1.264624439677172],[33.15744854126426,1.267842005745994],[33.15242527841327,1.269106355798876],[33.148715212501706,1.271232236158686],[33.14546185479651,1.274736885417614],[33.14298342829247,1.281083740467139],[33.14011044947162,1.281882206413601],[33.13975352273254,1.288413566987849],[33.13721982914479,1.293909627279425],[33.13600550811973,1.294945194439636],[33.13439974818971,1.29490975796346],[33.141148657354414,1.304475799951214],[33.134164998391,1.309799865840303],[33.1696581944366,1.3519691643366443],[33.2469,1.3343]]]}},{"type":"Feature","properties":{"n":"Buyende Town Council","c":"226204","d":"Buyende","od":"Buyende","dc":"226","k":"BUYENDETOWNCOUNCIL","a":["BUYENDE","BUYENDETOWNCOUNCIL","TOWNCOUNCIL"],"lat":1.161242,"lon":33.167128},"geometry":{"type":"Polygon","coordinates":[[[33.098632521106474,1.210387789756449],[33.10412515153674,1.213574529676204],[33.10866415527009,1.214835844716748],[33.11258871163437,1.214475852557988],[33.11560888377243,1.2156083993464],[33.117739422015084,1.218814839965673],[33.126661303218505,1.224145494716135],[33.13268189740788,1.216200331590317],[33.135692717400815,1.21361496345313],[33.13990026360984,1.211477895620997],[33.14506356650484,1.213909934747469],[33.15411191308714,1.22523068264981],[33.155191587442154,1.225850205846011],[33.157122537885435,1.22554166695866],[33.157483147880384,1.22879527905059],[33.16156407017295,1.238622248117226],[33.16657824160739,1.242883260617121],[33.168657404858756,1.243389715285046],[33.169629806879804,1.2422044619125],[33.172601201199384,1.233968206052603],[33.174471552938336,1.235442183771793],[33.18049231647553,1.236318452544847],[33.18604457481577,1.242175828711668],[33.18980643811218,1.243488952754202],[33.1898064748347,1.2434889169147327],[33.191742622518525,1.2404644691175744],[33.191742861686556,1.2404638521049485],[33.19138349230653,1.236118679989374],[33.191384745966545,1.2361168299235732],[33.19379560847084,1.2322240128020259],[33.1921984765133,1.2279969884190338],[33.191745702308864,1.2276492772685028],[33.188887856406545,1.225454778130091],[33.1888878214849,1.2254545474900556],[33.18888770420828,1.225454457426645],[33.18876805590966,1.22466355567827],[33.18823641707153,1.221152346660362],[33.18930717140119,1.219724671124078],[33.192198215061225,1.218225612820953],[33.20446622153995,1.214706665050385],[33.204461568680166,1.214627967850981],[33.20392248381021,1.2084248013777463],[33.20172570426335,1.194803866367932],[33.19748050999617,1.1904702556139],[33.195961904756246,1.1874750952093256],[33.191967000109145,1.183909663722147],[33.191972612921205,1.1839101897111861],[33.19196382813313,1.183902339496009],[33.19448198329585,1.184145126837716],[33.196318800844736,1.182936709120111],[33.19671962632097,1.1819563902470978],[33.198259128804935,1.1781899113264944],[33.196964621945234,1.1772296427560902],[33.1969271414967,1.177201867414947],[33.196927125245494,1.1772018276062688],[33.19692694316227,1.177201692536453],[33.19609393338478,1.175161178927629],[33.19608956125472,1.1751579516368693],[33.19160934555902,1.171855243378427],[33.19161387541878,1.1718542211097243],[33.191607257901886,1.171849336385154],[33.195837341858585,1.1709010972179998],[33.19587482331697,1.170892638651086],[33.19842599878945,1.168303706945011],[33.20025322613165,1.167656558546522],[33.200253228884,1.167656557571435],[33.200253228885295,1.1676565575712656],[33.200253325511454,1.167656523349216],[33.20853246379108,1.166571545206431],[33.20916649541059,1.1658934561299872],[33.209173160195014,1.165886312530642],[33.20887088866367,1.15941943937699],[33.208870904051,1.1594193847663474],[33.20887089902516,1.15941927776944],[33.21148438602993,1.15014391070866],[33.2112940832431,1.147154917588136],[33.21128202078396,1.1470865620975188],[33.21095093602799,1.145212804901607],[33.204384366997914,1.136440427626931],[33.19138536609814,1.143394001240844],[33.18656944812762,1.144664674855915],[33.18221077560165,1.1442425484997616],[33.18106225431204,1.144131363316026],[33.181062196090885,1.1441313114933689],[33.1810618358732,1.144131276607202],[33.17999411380175,1.1431806113450718],[33.17967008939437,1.142892197188895],[33.179670082987386,1.1428921047689564],[33.179669805308414,1.142891857532566],[33.17900807174382,1.133342679270302],[33.178996468600204,1.133175305443014],[33.1789964711711,1.1331752766435836],[33.178996466906554,1.133175215103883],[33.17989610472508,1.12309640257437],[33.18206071515538,1.1157167565365336],[33.18217280089445,1.115334604384305],[33.182172815917546,1.1153345797098044],[33.18217307479384,1.115333697142048],[33.1862571512198,1.1086263151827338],[33.18635198904606,1.1084705500022018],[33.18638877961206,1.1083675124056367],[33.18773928081018,1.1045839107658222],[33.184064220435275,1.100125530681916],[33.1840641433329,1.1001253374988367],[33.18406405784653,1.100125233827584],[33.18138274091078,1.093406978786206],[33.174978161085875,1.086817640731935],[33.172844492587515,1.0857848266638275],[33.17181981312801,1.0852888892845005],[33.16340773372458,1.084943526436298],[33.161526911582314,1.084866362107429],[33.16152675748549,1.0848663018548148],[33.16152646428907,1.084866289817464],[33.15268199001798,1.081408012064893],[33.14912664659449,1.080808733453261],[33.142750111958705,1.0797339341626149],[33.1422,1.0819],[33.13647646357084,1.0965069419285909],[33.13592720952765,1.098761822315844],[33.13256694267969,1.1066639651696033],[33.12945928856489,1.1314788151908177],[33.126635470323656,1.155814254763635],[33.126179921856846,1.157664803083385],[33.1259,1.1599],[33.125575585270965,1.1601197648164423],[33.125022852149996,1.162365100763793],[33.12091123694439,1.166182883899231],[33.11359282522074,1.1682371183988534],[33.1135,1.1683],[33.09503784680331,1.168763873195897],[33.09341513997696,1.1691636089709456],[33.08676184623202,1.1822502528659424],[33.086179242322615,1.18465860283861],[33.08318688188971,1.190066926461506],[33.094302859989334,1.201022500089017],[33.098632521106474,1.210387789756449]]]}},{"type":"Feature","properties":{"n":"Kidera","c":"226205","d":"Buyende","od":"Buyende","dc":"226","k":"KIDERA","a":["KIDERA"],"lat":1.360623,"lon":32.956803},"geometry":{"type":"Polygon","coordinates":[[[32.909442597959426,1.3323955426105925],[32.90944516731329,1.332395459310192],[32.910644356948026,1.336792427777562],[32.91230040014082,1.338905469679777],[32.91975982647033,1.343621733480562],[32.92241993456129,1.343841562652911],[32.92793336896176,1.3479858617501512],[32.94223881134005,1.351427617469728],[32.94223890699525,1.351427690936449],[32.9422391845682,1.35142775771829],[32.94387281344149,1.352682591283209],[32.94531577843076,1.353790841556393],[32.94531583477547,1.3537910141535356],[32.945316632061726,1.353791626570203],[32.94766830742957,1.36099714874445],[32.94867315741236,1.3627889766619563],[32.95157526395467,1.367963873843117],[32.95157526871571,1.3679639621246218],[32.95157531579701,1.367964046079031],[32.95219166635744,1.3793923247102673],[32.954909634790006,1.391935054986955],[32.958197833948404,1.3946380494569306],[32.95893831277395,1.395246456575792],[32.95893836658381,1.3952467886244562],[32.95893867168891,1.395247039429642],[32.95997399163499,1.4016360430125336],[32.96443149917032,1.404440406649561],[32.965363440802086,1.4050266829484186],[32.96536344191424,1.4050266832542573],[32.96679168903498,1.4054188370039375],[32.96686152515457,1.405384398088127],[32.96919883651789,1.404227229697373],[32.99306699370398,1.4404922736262262],[33.006120840011725,1.460326140284169],[33.04596756347402,1.445857985207245],[33.069696513936066,1.4320991820078455],[33.07971536910801,1.423207141843015],[33.022065462573714,1.367306367963463],[33.022148688665595,1.361064271769283],[33.012847956846784,1.359308591308948],[33.01201613341895,1.359549930360333],[33.011251575314986,1.362833016625644],[33.00519853505282,1.364520723665895],[33.0021338318569,1.362317790938939],[32.996139621873404,1.355294875353444],[32.99303466037956,1.353785576643077],[32.99062172060909,1.354623927451351],[32.981248472087856,1.364960956731596],[32.978639908740774,1.3621216660421],[32.97542273105938,1.360846240938069],[32.97080143055594,1.360400386861191],[32.966260811204556,1.361405082928706],[32.96526744913787,1.357561504314258],[32.96884707183797,1.354717756131333],[32.965513160886914,1.352122623435153],[32.96581591399627,1.350384763479386],[32.974945439200944,1.343924277218252],[32.97821010149202,1.343974481104519],[32.97836679743754,1.342715899423066],[32.98136002741639,1.341475222143883],[32.97968020267998,1.337798645552662],[32.977449153184686,1.336360566479052],[32.97282045418453,1.330015359095894],[32.97263111922664,1.320053680029659],[32.95977739780115,1.311726808385689],[32.95855291748103,1.285763302400223],[32.964112323199295,1.281954421171673],[32.96622663848929,1.282069023064617],[32.969443849389016,1.285033358056187],[32.97225168913304,1.284787718520236],[32.975642416831114,1.281694298008105],[32.975548389546425,1.279573773602621],[32.97189501606143,1.27449673740245],[32.971597332546246,1.270451474015827],[32.970652044236985,1.268914496186791],[32.968402770773345,1.269160122405962],[32.96340469257493,1.272086789140974],[32.9586945732095,1.271373000428864],[32.95626870766444,1.269660955990269],[32.95633912239937,1.267446228474965],[32.95891049483976,1.26111740534779],[32.916758542306916,1.265909621565939],[32.908953316681085,1.277735366818459],[32.90848255873302,1.2786058862707192],[32.905,1.2861],[32.903082637725376,1.2885913497071548],[32.89789157273945,1.298190599314659],[32.89275211619781,1.305043168489401],[32.88832816372167,1.309039115507129],[32.86765135240724,1.333750435498529],[32.90944243050862,1.332394929956305],[32.909442597959426,1.3323955426105925]]]}},{"type":"Feature","properties":{"n":"Kidera Town Council","c":"226206","d":"Buyende","od":"Buyende","dc":"226","k":"KIDERATOWNCOUNCIL","a":["KIDERA","KIDERATOWNCOUNCIL"],"lat":1.351269,"lon":32.99974},"geometry":{"type":"Polygon","coordinates":[[[32.977743515513005,1.3365503051223715],[32.97968020267998,1.337798645552662],[32.98125820308163,1.3412523626053243],[32.98135855290025,1.341471902218943],[32.98135851730141,1.3414719170053948],[32.98136002741639,1.341475222143883],[32.97836679743754,1.342715899423066],[32.97821010149202,1.343974481104519],[32.974945439200944,1.343924277218252],[32.96581591399627,1.350384763479386],[32.96581052340177,1.3504157065086548],[32.96551357825012,1.3521229483127242],[32.96884707183797,1.354717756131333],[32.96552500575927,1.3573568944334236],[32.96526749451792,1.3575616799015773],[32.966260811204556,1.361405082928706],[32.97080143055594,1.360400386861191],[32.97122801139928,1.3604415425505867],[32.97542228433809,1.360846150385888],[32.9754224425026,1.3608462130986723],[32.97542273105938,1.360846240938069],[32.978639908740774,1.3621216660421],[32.97864031878385,1.3621221123534744],[32.97864041304148,1.362122149726956],[32.97867467697753,1.362159509528261],[32.981248472087856,1.364960956731596],[32.99062172060909,1.354623927451351],[32.99303466037956,1.353785576643077],[32.99303489393929,1.3537856901747285],[32.99303522063558,1.353785576643077],[32.996139557710336,1.355294820256927],[32.996139592584626,1.3552948611163873],[32.996139621873404,1.355294875353444],[33.002133681234355,1.3623176144670734],[33.00267334333737,1.3627055960283436],[33.00519853505282,1.364520723665895],[33.0058690692235,1.364333765510724],[33.0112516183633,1.3628328317720075],[33.01201613341895,1.359549930360333],[33.012847956846784,1.359308591308948],[33.01305976917077,1.3593485746958183],[33.02214451957587,1.361062573952876],[33.022144507956405,1.3610634825852082],[33.022148688665595,1.361064271769283],[33.022065462573714,1.367306367963463],[33.06029297670479,1.404374036445236],[33.07971537653086,1.423207135255009],[33.090130660547274,1.413963252374912],[33.0346271051209,1.3594762362117],[33.03414526687371,1.352776223976728],[33.0320753776328,1.343225151213751],[33.04108329040201,1.340354847779432],[33.03910646590685,1.33585839565869],[33.037502303906145,1.334843175046471],[33.0370720245375,1.332075052264756],[33.034301149279415,1.329130301247716],[33.03358119599078,1.325960713431373],[33.03113570291062,1.3216540746103],[33.026968700910295,1.315800666755745],[33.022473295530155,1.312135468105058],[33.02147462660527,1.309150936715532],[33.021290457242976,1.303104794706496],[33.02360320639554,1.293941096489893],[33.02255771122742,1.286740211894367],[33.01343181266729,1.285908540304702],[33.00800740189238,1.282833707490141],[33.000077595059736,1.285131001735488],[32.989678256684286,1.283610412688578],[32.97554840073383,1.279573778788503],[32.975548395048506,1.279573897686766],[32.975642416831114,1.281694298008105],[32.975438090982756,1.2818807080730685],[32.97540435033878,1.282586332724699],[32.97225225750078,1.2847871999883522],[32.97225168913304,1.284787718520236],[32.969443849389016,1.285033358056187],[32.96622663848929,1.282069023064617],[32.96411276939246,1.2819544453566096],[32.96282420739353,1.282836939980588],[32.95855291748103,1.285763302400223],[32.95977739780115,1.311726808385689],[32.97263111922664,1.320053680029659],[32.97282045418453,1.330015359095894],[32.97744900494391,1.3363603632646077],[32.977743515513005,1.3365503051223715]]]}},{"type":"Feature","properties":{"n":"Ndolwa","c":"226207","d":"Buyende","od":"Buyende","dc":"226","k":"NDOLWA","a":["NDOLWA"],"lat":1.249493,"lon":33.125512},"geometry":{"type":"Polygon","coordinates":[[[33.051228208850105,1.246755992088635],[33.054432914784364,1.246756075187249],[33.057640436994404,1.252295252568214],[33.059454773442994,1.253425495589013],[33.0713481875577,1.25478473970574],[33.07409364923554,1.252928470656163],[33.07752029240102,1.252214712107723],[33.08926873572455,1.254856918156648],[33.09881902461,1.267785147336765],[33.121774662501046,1.275677564092477],[33.12297356300893,1.278370782473091],[33.12080391920114,1.278414531078347],[33.117431710908306,1.280332616747082],[33.11675487013125,1.297817126747195],[33.12568593320621,1.299726248979797],[33.13416498954462,1.309799857434869],[33.134212936714306,1.3097633195551475],[33.141148657354414,1.304475799951214],[33.13439974818971,1.29490975796346],[33.13600550811973,1.294945194439636],[33.13721971189207,1.2939097272719826],[33.138197491462755,1.2917888929213732],[33.13975352273254,1.288413566987849],[33.14011044947162,1.281882206413601],[33.14298342829247,1.281083740467139],[33.14544500886915,1.2747800251512067],[33.14546177148372,1.274737077287369],[33.14546178596295,1.2747370616893736],[33.14546185479651,1.274736885417614],[33.148715212501706,1.271232236158686],[33.15242527841327,1.269106355798876],[33.15744854126426,1.267842005745994],[33.164811297165855,1.264624439677172],[33.173313275956495,1.257591168688191],[33.173314185149124,1.2575908996440013],[33.17331418515388,1.257590899640072],[33.173314199568814,1.2575908953769914],[33.175645020114494,1.256901169456097],[33.180975015554495,1.258423003826008],[33.184592496294975,1.2582298010175441],[33.1881024884427,1.258042322032976],[33.188102534534664,1.2580423365099562],[33.18810293681614,1.258042315024863],[33.190284223073874,1.25872718823056],[33.195915071552164,1.2576639732302426],[33.19742285313316,1.256088190530297],[33.1989072710259,1.254535195774416],[33.19576405431848,1.2514442589843076],[33.195636655106064,1.251319189803261],[33.19563654487482,1.2513188703562976],[33.19563620045422,1.251318531664309],[33.19437661749594,1.247668065118886],[33.191897059817734,1.246835452541088],[33.19005480077392,1.24621733107047],[33.19005486042427,1.2462168589914056],[33.19005345759963,1.246216387935842],[33.19005781014125,1.2461935146248317],[33.19033420656078,1.2440060846454233],[33.190178724814935,1.243853735150135],[33.186050430871205,1.2421778728388944],[33.18604457481577,1.242175828711668],[33.18049231647553,1.236318452544847],[33.174471552938336,1.235442183771793],[33.172601201199384,1.233968206052603],[33.169629806879804,1.2422044619125],[33.168657404858756,1.243389715285046],[33.16865627575323,1.24338944025096],[33.168656081516104,1.2433896766822],[33.16688859910401,1.242958859299805],[33.16657824160739,1.242883260617121],[33.166578159396735,1.242883190755008],[33.16657815230282,1.242883189025891],[33.16620539451351,1.24256641741614],[33.16156407017295,1.238622248117226],[33.15822155833626,1.2305733910037577],[33.15748334407297,1.228795850701272],[33.15748332908291,1.228795715391071],[33.157483147880384,1.22879527905059],[33.157122537885435,1.22554166695866],[33.155191587442154,1.225850205846011],[33.15411191308714,1.22523068264981],[33.15128740005323,1.221696821550108],[33.14506344619512,1.2139098780787125],[33.13990026360984,1.211477895620997],[33.135782386660985,1.2135694192613558],[33.13569268042297,1.2136149952057216],[33.13323754956214,1.2157231973284341],[33.13268188021982,1.2162003542727844],[33.126661303218505,1.224145494716135],[33.117739422015084,1.218814839965673],[33.11560888377243,1.2156083993464],[33.1125887329992,1.2144758605696715],[33.11258781709695,1.2144759346122194],[33.10866415527009,1.214835844716748],[33.10854507525259,1.2148027543238074],[33.108454436203516,1.214810081684549],[33.10808528295493,1.214674985550165],[33.10412515153674,1.213574529676204],[33.10249692580046,1.2126298580806807],[33.102057537551616,1.212469058591199],[33.10146854154633,1.2120332053116525],[33.098632521106474,1.210387789756449],[33.098314037413964,1.209698892414606],[33.09766361773587,1.209217586009742],[33.09430308257387,1.2010229815513371],[33.094302859989334,1.201022500089017],[33.08694469750765,1.1937705164930745],[33.08318687455022,1.190066936449346],[33.08204283603577,1.191532272921382],[33.0815,1.1926],[33.081141571899295,1.1926866529474227],[33.0797593228544,1.194457100282307],[33.076598030198774,1.196519683063135],[33.06151139610983,1.1974324097316904],[33.05447550580675,1.1991333942005669],[33.05348809563094,1.199931186333519],[33.04869740157113,1.206893106109032],[33.0483145817062,1.211859297728643],[33.043188327998266,1.218259012789366],[33.04053298211935,1.231322460851033],[33.03806298911439,1.235130467156057],[33.04630559702186,1.243937580338359],[33.051228208850105,1.246755992088635]]]}},{"type":"Feature","properties":{"n":"Nkondo","c":"226208","d":"Buyende","od":"Buyende","dc":"226","k":"NKONDO","a":["NKONDO"],"lat":1.323807,"lon":33.089157},"geometry":{"type":"Polygon","coordinates":[[[32.956339118612455,1.2674463475833666],[32.956268717645244,1.2696606420679348],[32.95859434198903,1.2713022626652104],[32.9586945732095,1.271373000428864],[32.959106266656526,1.271435389959264],[32.96340485841114,1.2720866920341884],[32.96829066351474,1.2692257677543295],[32.96840237244951,1.269160338092561],[32.96840240927721,1.2691603340830646],[32.968402770773345,1.269160122405962],[32.970652044236985,1.268914496186791],[32.971597332546246,1.270451474015827],[32.97189501606143,1.27449673740245],[32.975110459454925,1.2789651889788975],[32.97554839899903,1.279573766377002],[32.989678352930966,1.2836104267617474],[33.000077595059736,1.285131001735488],[33.00800740189238,1.282833707490141],[33.01343174992584,1.285908504739647],[33.01355650531734,1.2859199039346834],[33.02255771122742,1.286740211894367],[33.02360320639554,1.293941096489893],[33.02360309032141,1.2939415564050374],[33.023603126428604,1.29394180477033],[33.0217440066555,1.301307717000031],[33.021290457242976,1.303104794706496],[33.02147462660527,1.309150936715532],[33.022473295530155,1.312135468105058],[33.026968700910295,1.315800666755745],[33.03012185670788,1.3202299199480403],[33.03113559857176,1.321653924358068],[33.03113560891713,1.3216539425771976],[33.03113570291062,1.3216540746103],[33.03358119599078,1.325960713431373],[33.03358124392975,1.3259609244822632],[33.03358124563396,1.325960927483532],[33.03358417535731,1.3259738300654778],[33.034301149279415,1.329130301247716],[33.0370720245375,1.332075052264756],[33.037502303906145,1.334843175046471],[33.03910646590685,1.33585839565869],[33.040362075161944,1.338714383588694],[33.04108308785846,1.340354197357368],[33.04108301469363,1.340354220657757],[33.04108329040201,1.340354847779432],[33.03207563824974,1.3432250681701319],[33.03414524083453,1.352776087600964],[33.03414524257848,1.3527761118714559],[33.03414526687371,1.352776223976728],[33.0346271051209,1.3594762362117],[33.090130660547274,1.413963252374912],[33.09013065647618,1.4139632559881359],[33.09013065647618,1.4139632559881365],[33.1053,1.4005],[33.1516,1.3561],[33.169658181610785,1.3519691672705665],[33.13370097370405,1.3092485798270401],[33.12568593320621,1.299726248979797],[33.11675487013125,1.297817126747195],[33.117431710908306,1.280332616747082],[33.120739370219646,1.2784512460335284],[33.120803418569096,1.278414789416354],[33.12080346668036,1.2784147884686248],[33.12080391920114,1.278414531078347],[33.12297356300893,1.278370782473091],[33.121774662501046,1.275677564092477],[33.09881902461,1.267785147336765],[33.09460491240514,1.2620805022701387],[33.089268255669246,1.25485681019298],[33.07987505096083,1.25274429352878],[33.07752017815648,1.252214735904485],[33.074635150833195,1.2528156776468955],[33.07409361990675,1.2529284904860278],[33.0713481875577,1.25478473970574],[33.07134662751689,1.2547845614157824],[33.07134638871032,1.254784722773161],[33.064111989474895,1.2539577475925698],[33.059454773442994,1.253425495589013],[33.057640436994404,1.252295252568214],[33.054432914784364,1.246756075187249],[33.051228208850105,1.246755992088635],[33.04630559702186,1.243937580338359],[33.03917823849761,1.2363220957831642],[33.03806297973804,1.235130474322537],[33.03412348510654,1.235811976606024],[33.029396775931396,1.23793690778337],[33.026556792499214,1.232909034453192],[33.025152915671136,1.23289713860946],[33.02086939020672,1.235609942355707],[33.00961930442254,1.240687195556365],[33.00737820622502,1.239035909591093],[33.0052470666972,1.235789868724445],[33.00052562263973,1.2357524665476],[32.9976146723032,1.241158413081551],[32.99110282455873,1.233396824477824],[32.9858918065785,1.231469461699451],[32.98296507301414,1.231897763775788],[32.980638055296886,1.233994759304308],[32.97961003790006,1.242748099097721],[32.98110746341139,1.246670091903373],[32.976183853778245,1.245817640746739],[32.971900076161766,1.243319385652308],[32.97040151935327,1.243961630979013],[32.9650244837499,1.250598670243589],[32.96352345997962,1.254009258142698],[32.92470838248722,1.253140322390052],[32.916758550048975,1.265909609342],[32.91892329321134,1.2656635130521192],[32.95891049483976,1.26111740534779],[32.9563547114831,1.2674078596443363],[32.956339118612455,1.2674463475833666]]]}}]}
