{"type":"FeatureCollection","name":"Dokolo sub-counties","metadata":{"source":"Uganda Bureau of Statistics NPHC 2024 Map Explorer","retrieved":"2026-07-26","display_only":true,"clipped_to_dashboard_district":true,"positive_area_overlaps_removed":true,"source_gap_ratio":0.01037384},"features":[{"type":"Feature","properties":{"n":"Adok","c":"317101","d":"Dokolo","od":"Dokolo","dc":"317","k":"ADOK","a":["ADOK"],"lat":2.00875,"lon":32.941266},"geometry":{"type":"Polygon","coordinates":[[[32.86717190230863,1.9914586785961692],[32.86963942046609,1.992974000950132],[32.87212383562695,1.993926299226134],[32.8748610482917,1.9961806437641958],[32.88433434243494,2.00199826838328],[32.88447236221221,2.002060158863474],[32.88449040369229,2.0020941068317786],[32.8845,2.0021],[32.8935,2.0154],[32.8879,2.045],[32.89392758809268,2.0701627883869143],[32.90287722909963,2.074262079260613],[32.90603511302692,2.0762983244337],[32.9148,2.08],[32.9356,2.0706],[32.935756426617935,2.0697273041315096],[32.9351923689763,2.064970478254688],[32.93594026457394,2.062481023681908],[32.93741249604634,2.0604881799520043],[32.9375,2.06],[32.937788023136726,2.0599798585219076],[32.93793861558755,2.059776013388164],[32.93890571026463,2.0599016985828933],[32.943325031755414,2.0595926551219987],[32.94335093463373,2.059577116184212],[32.94338294128988,2.059588605504204],[32.94983586612874,2.0591373520189697],[32.95080026910666,2.058717869510672],[32.95119107930065,2.0590425818670877],[32.9518,2.059],[32.95926955991726,2.061736692211065],[32.96011411019456,2.061459276250935],[32.96245341083964,2.0629031893162497],[32.96855776288491,2.0651396976086955],[32.969310242346914,2.065205197587259],[32.974996459215205,2.067475973877283],[32.97502075133096,2.067472984116301],[32.98923892464885,2.0489625320609304],[32.98909782525381,2.046483434585235],[32.98364854952924,2.041861581337081],[32.97932522202537,2.04041548948074],[32.975429992313195,2.036633903302327],[32.97297715956694,2.033295397088872],[32.97220833197879,2.030071238069181],[32.98988570876394,2.031406222975794],[32.995430606291706,1.996946326751988],[32.98288467572062,1.994808319690235],[32.97451295007134,1.992228710772797],[32.97642927312344,1.986423102367954],[32.97223250695919,1.984974013790636],[32.968949074298884,1.987229532605783],[32.961622090256675,1.986932304192806],[32.96242996216175,1.983760867968007],[32.966504508267086,1.977953669568786],[32.967937948465874,1.977048460611512],[32.96901252165334,1.9738096785217],[32.968833647793375,1.967766231164531],[32.96493751111399,1.964028262469475],[32.964459177411605,1.946993722789051],[32.95742992729353,1.941609217685275],[32.954358700623196,1.945138565921049],[32.9493828534148,1.94824171045549],[32.9449788022003,1.950133677647931],[32.94482659049938,1.9501500732518584],[32.932659730821165,1.9588258737610427],[32.932488831255526,1.959220094884944],[32.93042859009647,1.960416829220981],[32.9233,1.9655],[32.9177,1.9762],[32.9019,1.9627],[32.8933,1.9619],[32.880543971769974,1.9533254084096903],[32.87902642761157,1.952897943511444],[32.869163277961405,1.9459947178995012],[32.86592246216293,1.9720043421282862],[32.865899820277505,1.97520884656293],[32.86538062655716,1.9763529201950452],[32.8653,1.977],[32.86067602326667,1.9867197878272072],[32.86040994482164,1.9873061071933742],[32.86510584848791,1.9901898986564748],[32.865528920003705,1.990252256218274],[32.86717190230863,1.9914586785961692]]]}},{"type":"Feature","properties":{"n":"Agwata Town Council","c":"317102","d":"Dokolo","od":"Dokolo","dc":"317","k":"AGWATATOWNCOUNCIL","a":["AGWATA","AGWATATOWNCOUNCIL"],"lat":1.96144,"lon":32.998808},"geometry":{"type":"Polygon","coordinates":[[[32.95446447568876,1.9185013460169174],[32.956690084161636,1.9305785449359174],[32.95910641501888,1.935295554968274],[32.95910621278797,1.938444202708346],[32.95838909859088,1.9397981967652198],[32.9585,1.9404],[32.95780964634879,1.9408922692228807],[32.95742993455563,1.941609208747091],[32.957533284698634,1.9416883909208151],[32.964459177411605,1.946993722789051],[32.964846221851566,1.9607772463788493],[32.96493759928001,1.9640283470563051],[32.968833647793375,1.967766231164531],[32.96883368968681,1.967767646579619],[32.96883370663876,1.967767662844441],[32.968971516064386,1.9724242602262174],[32.96901252165334,1.9738096785217],[32.967938510470184,1.9770467667208407],[32.96793847328764,1.977046878799729],[32.96793847328342,1.9770468788023974],[32.967937948465874,1.977048460611512],[32.966504508267086,1.977953669568786],[32.96565844151279,1.9791595161524718],[32.96242995031803,1.9837609144625057],[32.961622090256675,1.986932304192806],[32.968949074298884,1.987229532605783],[32.97223250695919,1.984974013790636],[32.97642927312344,1.986423102367954],[32.97451295007134,1.992228710772797],[32.982514069490186,1.9946941235045346],[32.98288472648185,1.994808328340679],[32.995430606291706,1.996946326751988],[32.98988570876394,2.031406222975794],[32.97220833197879,2.030071238069181],[32.97297715956694,2.033295397088872],[32.975429992313195,2.036633903302327],[32.97932522202537,2.04041548948074],[32.98364854952924,2.041861581337081],[32.98909782525381,2.046483434585235],[32.98923892464885,2.04896253206093],[32.9909,2.0468],[32.99143807176751,2.046378794498741],[32.99209160982043,2.045536781169639],[32.99751659637415,2.040922449004448],[33.01830382259952,2.025348138870062],[33.02691075050073,2.0186105889745383],[33.02709191953926,2.011106004738063],[33.026534836584666,2.008815487236918],[33.02556695328416,2.008034953868627],[33.02592930081075,2.005452804682212],[33.0203108412896,1.995755265156877],[33.020358784204,1.994560438762291],[33.02098850053333,1.991807224867123],[33.02718834823151,1.984009532545203],[33.02861716163179,1.978063880862351],[33.02767248924961,1.972606054342003],[33.029029037566794,1.970095665123039],[33.03147479267217,1.967927016544607],[33.03118422336177,1.964540556268847],[33.03273405220859,1.962103201173125],[33.03278245369083,1.96025128550684],[33.02789021035848,1.953355407695159],[33.02196489176317,1.939669264455776],[33.023591849896434,1.940778255305298],[33.02656931980316,1.940099499719329],[33.024759298743604,1.935962841214249],[33.0222881460335,1.925571867657381],[33.01710424700459,1.917571255297922],[33.01501395926794,1.91964641145206],[33.00859018514485,1.913365280150402],[32.992772051587636,1.900897929212723],[32.976138404148685,1.883092973560549],[32.96940781905116,1.877519627337539],[32.96561475677941,1.875891083937512],[32.95429130217449,1.8738854669244596],[32.9543,1.8739],[32.95428950225309,1.8740195128110386],[32.9557483018814,1.886747944789964],[32.95460799563937,1.893704596524168],[32.95171651777961,1.903311951432192],[32.9517,1.9035],[32.95291488256563,1.9100925245105178],[32.954557634013916,1.914034116337846],[32.95446447568876,1.9185013460169174]]]}},{"type":"Feature","properties":{"n":"Agwatta","c":"317103","d":"Dokolo","od":"Dokolo","dc":"317","k":"AGWATTA","a":["AGWATTA"],"lat":1.998719,"lon":33.056859},"geometry":{"type":"Polygon","coordinates":[[[33.02592912367916,2.0054524989506164],[33.02592930081075,2.005452804682212],[33.02556695328416,2.008034953868627],[33.026534836584666,2.008815487236918],[33.02709191953926,2.011106004738063],[33.02709190312892,2.0111066845053704],[33.02709190465971,2.011106690800661],[33.026910761138,2.018610580647633],[33.030827746108834,2.0155443435437648],[33.034155185028844,2.012694729016636],[33.03464083146356,2.012559439623547],[33.0351,2.0122],[33.03559604146698,2.0122933411362594],[33.039871426571,2.011102321879046],[33.04488520205009,2.011102212329446],[33.05198841994801,2.014322587611078],[33.05294723196989,2.015558350101861],[33.0537,2.0157],[33.05402125962175,2.016942607970918],[33.0554562117376,2.018792042438128],[33.05679757646836,2.0276811920002684],[33.05849908988677,2.034262517486586],[33.05936803677682,2.0365339210081808],[33.0649341150064,2.041584042547948],[33.067146599198345,2.040873776846454],[33.07452253846925,2.045869973664321],[33.07630741264282,2.051104862913877],[33.07761568153018,2.051701145546689],[33.07757008405769,2.0530486998613338],[33.08321037603558,2.058166155785095],[33.09142680098921,2.050755227141707],[33.097555824209515,2.046573112323253],[33.1024320776469,2.040569536014277],[33.10437024846488,2.035007102045191],[33.09849817283353,2.032736282552711],[33.08876974405547,2.014949765084215],[33.089036067737034,2.010858929134137],[33.09339326104499,2.003125762024697],[33.09158814201815,2.000360198843417],[33.092141517260714,1.999626817372196],[33.091239383873074,1.997811053114226],[33.089753979710416,1.996971577751108],[33.09046211899506,1.994087224378636],[33.09210079844201,1.994241762547372],[33.094730284890524,1.976096208592418],[33.09226718102866,1.97313739351865],[33.08989541378954,1.966850193564449],[33.081026234429004,1.956708686897777],[33.06651246909971,1.953678666359797],[33.06354463406049,1.951244841658708],[33.059013841521,1.949209440250718],[33.0526390870101,1.948648721913621],[33.049002385535,1.950376517517447],[33.04122582775271,1.94977077708741],[33.0380960585461,1.947861810403103],[33.037293673758285,1.945781154135209],[33.03218617468609,1.941655708785717],[33.02732167121282,1.940072508279033],[33.02361588579541,1.9407727759885613],[33.023591849896434,1.940778255305298],[33.02196489176317,1.939669264455776],[33.02789021035848,1.953355407695159],[33.027890357252126,1.953355614749589],[33.03224977751107,1.958814111014443],[33.032377368938675,1.959680296951195],[33.03278245369083,1.96025128550684],[33.03273408487653,1.9621019512470534],[33.032734089685206,1.962101983891931],[33.03273408378059,1.9621019931794332],[33.03273405220859,1.962103201173125],[33.03118422336177,1.964540556268847],[33.03147479267217,1.967927016544607],[33.029029037566794,1.970095665123039],[33.027672590551404,1.9726058668758275],[33.028617073856374,1.978063081618098],[33.02861704446619,1.978063203940314],[33.02861716163179,1.978063880862351],[33.02718834823151,1.984009532545203],[33.02098850053333,1.991807224867123],[33.02098812181839,1.9918088806654073],[33.02031102737296,1.9957506276141779],[33.0203108412896,1.995755265156877],[33.02357941190655,2.0013968636466295],[33.02592914824323,2.005452324171629],[33.02592912367916,2.0054524989506164]]]}},{"type":"Feature","properties":{"n":"Amwoma","c":"317104","d":"Dokolo","od":"Dokolo","dc":"317","k":"AMWOMA","a":["AMWOMA"],"lat":1.983299,"lon":33.11647},"geometry":{"type":"Polygon","coordinates":[[[33.08157100653048,1.957043187688267],[33.089894922777624,1.966849632114459],[33.08989541378954,1.966850193564449],[33.090486533161574,1.9684171625433122],[33.09226724354149,1.9731374686124796],[33.094730284890524,1.976096208592418],[33.09210079844201,1.994241762547372],[33.09046211899506,1.994087224378636],[33.089753979710416,1.996971577751108],[33.091239383873074,1.997811053114226],[33.092141517260714,1.999626817372196],[33.09214133988448,1.9996270524467636],[33.09214160388815,1.999627583980373],[33.09203537510038,1.9997674862849268],[33.09158814201815,2.000360198843417],[33.09339326104499,2.003125762024697],[33.089036067737034,2.010858929134137],[33.088845937602194,2.013779402395163],[33.08876977263613,2.0149498173383287],[33.09849817283353,2.032736282552711],[33.09856730528696,2.032763017106669],[33.10448922174086,2.035029311449457],[33.10873119403254,2.034585729833773],[33.13430616482779,2.024738148704428],[33.1334078879135,2.022876949229053],[33.13097716375988,2.021984459841594],[33.132160881204065,2.014255158782036],[33.13451727712662,2.007252114856266],[33.13857480329627,2.00720435313836],[33.1434991077067,2.00826513348103],[33.14698540577107,2.007577998135464],[33.14694681330107,2.004081368808539],[33.142142567453924,2.003702472207932],[33.141110223494174,2.001110802044641],[33.1437658285775,1.998323668330088],[33.13966284828882,1.993592508132059],[33.13707175675217,1.987935022068648],[33.14143485696746,1.978662273810865],[33.14193616385755,1.972001509685068],[33.14601696114648,1.972391863267105],[33.14763291566165,1.973737316932419],[33.153992931834665,1.966880846922773],[33.156851550784644,1.962236674726116],[33.16073037688047,1.961285145761017],[33.16437867174931,1.957213751701247],[33.1623624336074,1.955106751895949],[33.16043976358835,1.948653570470527],[33.15600158510046,1.939422567586775],[33.15401918416477,1.937261876937279],[33.13713169563388,1.924765693677251],[33.12925881241399,1.922528374283571],[33.12511389463323,1.922878862224352],[33.11871705447472,1.924190858207937],[33.11876607112987,1.925480976631589],[33.112283892433986,1.927248349025593],[33.10157646048988,1.92814065646579],[33.0928318038781,1.92986578001485],[33.08720396944912,1.93248235125521],[33.07341677725914,1.946096418662529],[33.065469090712085,1.952819045886892],[33.068076277154304,1.9540051406009995],[33.081026234429004,1.956708686897777],[33.08126611422576,1.9569829786286244],[33.08157100653048,1.957043187688267]]]}},{"type":"Feature","properties":{"n":"Bata Town Council","c":"317105","d":"Dokolo","od":"Dokolo","dc":"317","k":"BATATOWNCOUNCIL","a":["BATA","BATATOWNCOUNCIL"],"lat":2.042178,"lon":33.201948},"geometry":{"type":"Polygon","coordinates":[[[33.1700657574054,2.053009093470097],[33.17395831522365,2.054180460339047],[33.177521245809395,2.059419865833255],[33.17307332229267,2.064704278746219],[33.17140378646086,2.070424404523355],[33.1816998580273,2.073264177700354],[33.18538797572315,2.073561625171204],[33.190468124961214,2.073139325257968],[33.19382317316941,2.071521321254245],[33.196606829783576,2.071143661514722],[33.19627330674013,2.078885975890238],[33.193880591332515,2.079905113505305],[33.193877143810255,2.082395196842474],[33.19440055510948,2.083953518769403],[33.19712019356899,2.086372624173896],[33.20331424672191,2.079585092583592],[33.20675965380945,2.079153178272733],[33.210855868367766,2.077327002833567],[33.21314398967331,2.089228348694116],[33.22479122976009,2.08494357085359],[33.2243223760121,2.081393375289632],[33.221009482888306,2.080712063046382],[33.21989619896884,2.079050802665422],[33.21870269969697,2.074667046784498],[33.22030834258577,2.070690672862503],[33.21832162550713,2.069260132676886],[33.21941732299476,2.065750738354783],[33.22115205052672,2.065918589324848],[33.22360853633628,2.06156052587556],[33.22984327654542,2.064217156368341],[33.23271422367652,2.058230912237186],[33.22814046515974,2.055880775717357],[33.22955680391745,2.051075652928862],[33.233491863519994,2.044062683954413],[33.236721056996096,2.044619277598335],[33.235355575364395,2.043276610662671],[33.23289713561996,2.037536859718093],[33.24562495528246,2.041079029863675],[33.24741699119658,2.039923810295482],[33.255505726106755,2.040101434784808],[33.25673017110326,2.038871712690785],[33.25399844555444,2.037748166902506],[33.25358372267882,2.032491384688218],[33.24729409420896,2.033875635597777],[33.24714926194095,2.026059714896452],[33.2485958652818,2.020242925053614],[33.247915238700635,2.018607268983469],[33.23441595782704,2.022393097855094],[33.24784462870521,2.010650095461789],[33.24491917462407,2.007131789927267],[33.24437984754397,2.006838703432721],[33.23877329121119,2.010349476556444],[33.23449335250801,2.009375244697204],[33.23289605308923,2.007631992343243],[33.23102717544292,2.006975318532949],[33.22345764762346,2.008040853110433],[33.2106954956512,2.005958690093869],[33.20709815260329,2.006947749345197],[33.201482109877375,2.010526628225256],[33.19745560470854,2.011138028369565],[33.196782151017715,1.997899861122044],[33.193584787555345,1.999981209007631],[33.190507156605356,1.997819319128975],[33.1888312848133,1.998159738629631],[33.18613358932084,1.997179899561699],[33.18562627294798,2.006145082178094],[33.17806287302903,2.023081719795878],[33.18021315383157,2.030860976216691],[33.17745116065695,2.031276507007539],[33.174009092605466,2.030142680775535],[33.173354742652926,2.030751819206783],[33.17107399264349,2.036485256331024],[33.17049676287041,2.04010680498112],[33.16602204495749,2.04634316101459],[33.17056773578289,2.048114472002805],[33.1700657574054,2.053009093470097]]]}},{"type":"Feature","properties":{"n":"Batta","c":"317106","d":"Dokolo","od":"Dokolo","dc":"317","k":"BATTA","a":["BATTA"],"lat":2.062062,"lon":33.131401},"geometry":{"type":"MultiPolygon","coordinates":[[[[33.10987882084857,2.0669657177069],[33.115949433077134,2.06806891507157],[33.11781429251935,2.069483656462684],[33.1182,2.0695],[33.12036516651356,2.0714188302036325],[33.12975827098799,2.078544736526776],[33.1341874864754,2.083230458719095],[33.13453865823472,2.0839797689744795],[33.1349,2.0843],[33.13482357661766,2.0845877115570466],[33.1355062223436,2.086044302042083],[33.134870444762434,2.090178502940729],[33.13150499743911,2.097114367637435],[33.13371407085937,2.103465453720675],[33.13481389731489,2.105522694460935],[33.135537259846885,2.1085848200623816],[33.14619776341528,2.1042416519419205],[33.14632072275354,2.104164784047867],[33.14966190912114,2.103124204356544],[33.153224613066435,2.104842787108145],[33.159804689123554,2.104715460395164],[33.16137753231718,2.104832924480384],[33.16278795106491,2.105040768622684],[33.17054808664381,2.1072421953722866],[33.173141714455916,2.1075675951715915],[33.17365191683423,2.1073207921753974],[33.1854,2.0943],[33.18562028048826,2.0942652188702753],[33.187315018106176,2.092833408018123],[33.193513351286185,2.091529831828304],[33.19446141013192,2.090507510576961],[33.20062507909244,2.091755123025299],[33.205480327103395,2.090307325060682],[33.21059466651478,2.090321894760825],[33.21169156139748,2.090148700831977],[33.213143979262526,2.089228354126734],[33.21313491502319,2.089181148159155],[33.210855868367766,2.077327002833567],[33.206829100832095,2.0791222173830453],[33.2067599734649,2.079153069377652],[33.20675986856086,2.0791530825322027],[33.20675965380945,2.079153178272733],[33.20487947108229,2.0793888769307602],[33.20331418769107,2.079585157270428],[33.19712019356899,2.086372624173896],[33.197116693142945,2.0863695105616635],[33.19711647151753,2.086369753175531],[33.195020631190616,2.084505073478382],[33.19440055510948,2.083953518769403],[33.19440049278522,2.0839533332150078],[33.194400229662854,2.083953099113715],[33.19387714880966,2.082395339327666],[33.193877149051076,2.0823952124456646],[33.193877143810255,2.082395196842474],[33.193880591332515,2.079905113505305],[33.19627330674013,2.078885975890238],[33.196606829783576,2.071143661514722],[33.19382317316941,2.071521321254245],[33.190468124961214,2.073139325257968],[33.190467590719344,2.0731393696681386],[33.19046758319398,2.073139373296884],[33.189918845082175,2.0731849855002937],[33.18538797572315,2.073561625171204],[33.185387824312066,2.0735616129598675],[33.185387824307426,2.073561612960253],[33.185387773941926,2.0735616088975055],[33.1816998580273,2.073264177700354],[33.18169957309583,2.0732640991130262],[33.18169954459173,2.073264096813735],[33.18166996859201,2.0732559338554997],[33.17140378646086,2.070424404523355],[33.17140430799104,2.0704226176684895],[33.171404151498436,2.070422574476625],[33.173073256344736,2.064704410642093],[33.17307329835191,2.0647043607715143],[33.17307332229267,2.064704278746219],[33.177521245809395,2.059419865833255],[33.17395831522365,2.054180460339047],[33.1700657574054,2.053009093470097],[33.17056771060212,2.048114717531955],[33.17034681756614,2.048028387207367],[33.16602204495749,2.04634316101459],[33.17049676287041,2.04010680498112],[33.17094141026583,2.0373170802479845],[33.17107368314702,2.036486440154087],[33.17107388472621,2.0364859334057464],[33.17107399264349,2.036485256331024],[33.173354742652926,2.030751819206783],[33.174009092605466,2.030142680775535],[33.177450681605485,2.0312763492067307],[33.17762206890851,2.0312507945468474],[33.18021315383157,2.030860976216691],[33.17829247973383,2.023912387786049],[33.17806284039947,2.023082445252235],[33.17806299064447,2.0230821453034253],[33.17806287302903,2.023081719795878],[33.181680095598615,2.0149817133833507],[33.18127351994944,2.014860835989159],[33.17863215253079,2.014313516582966],[33.177765872329914,2.016644829971422],[33.17446863735591,2.017216382502632],[33.16924007120883,2.016082093479261],[33.163353972035885,2.018669634234781],[33.157186421324,2.019112255319762],[33.15347475161308,2.0215249727301],[33.15202624553043,2.021599955662597],[33.14874408601511,2.019454105351617],[33.14367594794818,2.019354194518454],[33.134310653758526,2.024736391744098],[33.12229554313438,2.029834825441442],[33.11914235150642,2.0305769386333776],[33.10873119403254,2.034585729833773],[33.10448922174086,2.035029311449457],[33.104418908751,2.035002402942322],[33.10437025982488,2.035007104602674],[33.104144038888464,2.0356563099582985],[33.1024320776469,2.040569536014277],[33.102431281345915,2.040570516409127],[33.100421267676744,2.043710116210745],[33.09869913094889,2.045165488756816],[33.097555824209515,2.046573112323253],[33.094843590782,2.0484237941041212],[33.083261068194396,2.058212148951657],[33.09434874184016,2.068272032624635],[33.09841834879984,2.068495445900338],[33.10987882084857,2.0669657177069]]],[[[33.161058350197315,2.104814833293393],[33.16105835026269,2.104814832138857],[33.1610583501713,2.104814833291618],[33.161058350197315,2.104814833293393]]]]}},{"type":"Feature","properties":{"n":"Dokolo","c":"317107","d":"Dokolo","od":"Dokolo","dc":"317","k":"DOKOLO","a":["DOKOLO"],"lat":1.973064,"lon":33.210353},"geometry":{"type":"Polygon","coordinates":[[[33.13430617604109,2.024738144421358],[33.14353157884177,2.019437162868223],[33.14367594794818,2.019354194518454],[33.144179671683474,2.0193641246855907],[33.148743517954834,2.019453991739801],[33.14874367949665,2.0194540973377078],[33.14874408601511,2.019454105351617],[33.151212007029244,2.0210676128764438],[33.152026366062856,2.021599949423152],[33.15347436953541,2.0215249925086187],[33.15529335921872,2.020342813062232],[33.157186421324,2.019112255319762],[33.15718683280288,2.019112225789526],[33.15718696081339,2.019112142594223],[33.16169028620226,2.0187890304851157],[33.163353972035885,2.018669634234781],[33.16924007120883,2.016082093479261],[33.16924014105064,2.0160821086307954],[33.169240248066316,2.016082061586785],[33.170974875897535,2.0164584432969237],[33.174468590880046,2.017216372420125],[33.177765939289856,2.0166446497703556],[33.17863215253079,2.014313516582966],[33.18127351994944,2.014860835989159],[33.181680095598615,2.0149817133833507],[33.18502005631159,2.007502576373608],[33.18563947310828,2.0059118118678936],[33.18613358932084,1.997179899561699],[33.18883122443123,1.9981597166980591],[33.1889331666654,1.9981390433894684],[33.190507156605356,1.997819319128975],[33.1905077398736,1.9978197288472752],[33.190507901923716,1.997819695984429],[33.190881520677216,1.998082292146543],[33.19358460933915,1.9999810838191998],[33.1935850538171,1.9999810356825294],[33.19666229098096,1.9979778849178984],[33.20420612020857,1.990837509379584],[33.20975188550895,1.993080041563322],[33.21524961581982,1.992993763464265],[33.22231507163322,1.994370211316266],[33.22694733193048,1.992933003721485],[33.22787576800225,1.993803863173107],[33.233373616654106,1.995159447350659],[33.23652367636032,1.993446371457437],[33.24538719706764,1.992502566418401],[33.25009138419612,1.991035629517124],[33.24978488700962,1.990217167465031],[33.25952152242082,1.988169695431439],[33.261199669603705,1.989590534020429],[33.262672041691886,1.98686296412981],[33.26588716313388,1.98534943599972],[33.26809841236845,1.98694395447433],[33.27051987975801,1.98693825346899],[33.2720018741123,1.988334696675563],[33.27401315962804,1.9865609567893714],[33.272282253950124,1.9716205077799838],[33.272268134589424,1.971607753291657],[33.27087805960966,1.967218304458617],[33.27146212346415,1.9645414867431614],[33.2706,1.9571],[33.260483429699875,1.9548900695946325],[33.2590969897253,1.955187958817119],[33.2578849518247,1.95432244093258],[33.25,1.9526],[33.250038579707955,1.9523275308125825],[33.24796876706393,1.951890772824207],[33.24955665607126,1.946297302625188],[33.25115798536626,1.944421728350805],[33.25151678300089,1.9418877200562437],[33.251187565210515,1.9406580652066858],[33.25107246112194,1.9404789112623788],[33.24482971895762,1.933765072209439],[33.24341099129515,1.9285542041932588],[33.23958179561722,1.92259424640423],[33.237834757014,1.9217269514028008],[33.23645279374559,1.9214505587491193],[33.232177820236565,1.922014567468387],[33.23054112615942,1.926958049904204],[33.23057414257583,1.929632777999204],[33.22702552273449,1.929686259913545],[33.22538964708396,1.930965217397288],[33.22439026418931,1.934611463534438],[33.21974913804038,1.942291844961943],[33.22193628267028,1.94536451194515],[33.22303811761982,1.959327234110298],[33.220722639032694,1.964599772224356],[33.21751209720231,1.965202719604023],[33.2109205139535,1.963353344463218],[33.20559260567946,1.963591448566652],[33.198210862029235,1.957739678511852],[33.196620305049684,1.957459384717332],[33.19142333567217,1.957496558610168],[33.184211442390435,1.96038551110826],[33.184119127466644,1.960989122567775],[33.169231582440624,1.960938708986269],[33.16719641909811,1.95824927719351],[33.164378681618295,1.957213757595648],[33.1607305759842,1.961284938784646],[33.16073055851339,1.9612849430638097],[33.16073037688047,1.961285145761017],[33.156851550784644,1.962236674726116],[33.153992931834665,1.966880846922773],[33.151558825344914,1.969504956310745],[33.147633285415786,1.973737006888803],[33.14763323905514,1.9737369682952925],[33.14763291566165,1.973737316932419],[33.14601711776549,1.972391993669056],[33.145855877944356,1.9723764546593003],[33.14193616385755,1.972001509685068],[33.14143485696746,1.978662273810865],[33.1370717690236,1.987934995988606],[33.13772211635211,1.9893550415163632],[33.13966284828882,1.993592508132059],[33.1437658285775,1.998323668330088],[33.14131538976595,2.0008954741569425],[33.141110372633584,2.001111176454888],[33.142142567453924,2.003702472207932],[33.14639192846972,2.0040376066899848],[33.14694387151768,2.00408085588536],[33.14694387474695,2.004081137053504],[33.14694681330107,2.004081368808539],[33.14698540577107,2.007577998135464],[33.1434991077067,2.00826513348103],[33.13857480329627,2.00720435313836],[33.13451727712662,2.007252114856266],[33.13216091842373,2.014255048167803],[33.13212703581703,2.0144761584700674],[33.13097716375988,2.021984459841594],[33.1334078879135,2.022876949229053],[33.134292438030826,2.024709707243997],[33.13430617604109,2.024738144421358]]]}},{"type":"Feature","properties":{"n":"Okwalongwen","c":"317108","d":"Dokolo","od":"Dokolo","dc":"317","k":"OKWALONGWEN","a":["OKWALONGWEN"],"lat":2.035706,"lon":33.270884},"geometry":{"type":"Polygon","coordinates":[[[33.20148226114632,2.010526531827623],[33.20709815260329,2.006947749345197],[33.2106954956512,2.005958690093869],[33.21529735788729,2.006709490380226],[33.22345777584942,2.0080408350605365],[33.23102717544292,2.006975318532949],[33.23289605308923,2.007631992343243],[33.23379002953871,2.0086076557233365],[33.23449439286662,2.009375481511461],[33.238773125060526,2.010349438735979],[33.23944969153692,2.009925921000503],[33.24437984754397,2.006838703432721],[33.24491917462407,2.007131789927267],[33.24784462870521,2.010650095461789],[33.23441595782704,2.022393097855094],[33.247915238700635,2.018607268983469],[33.2485958652818,2.020242925053614],[33.24781717006596,2.0233740573372785],[33.247149262589666,2.026059749904688],[33.24725698053652,2.031872784128714],[33.24729416016838,2.033875621081119],[33.25358372267882,2.032491384688218],[33.25399844555444,2.037748166902506],[33.25673017110326,2.038871712690785],[33.255505726106755,2.040101434784808],[33.24741699119658,2.039923810295482],[33.24562495528246,2.041079029863675],[33.23289713561996,2.037536859718093],[33.23535555251475,2.0432765573153087],[33.236717181167904,2.044614067388251],[33.23671545644964,2.0446137706267455],[33.236721056996096,2.044619277598335],[33.233491863519994,2.044062683954413],[33.229556878379924,2.0510755202236184],[33.22948659768897,2.051313837153167],[33.22814046515974,2.055880775717357],[33.23271422367652,2.058230912237186],[33.22984327654542,2.064217156368341],[33.22360853633628,2.06156052587556],[33.22115205052672,2.065918589324848],[33.21941732299476,2.065750738354783],[33.21832162550713,2.069260132676886],[33.22030834258577,2.070690672862503],[33.21872333358816,2.074615946961865],[33.21870274690246,2.0746672201715612],[33.21989619896884,2.079050802665422],[33.221009482888306,2.080712063046382],[33.2243223760121,2.081393375289632],[33.22478866587178,2.084924156899978],[33.224791241670665,2.084943571093958],[33.22997467949368,2.084964377287521],[33.23504950499032,2.0835144271456225],[33.23753643808023,2.082106577988049],[33.23805290353449,2.0826563132758613],[33.2421,2.0815],[33.2500005887394,2.083870176621819],[33.250035311229375,2.083845459149257],[33.248675636982185,2.080027918012514],[33.245946803539475,2.077423614961277],[33.24914580688454,2.073008813836238],[33.25200402848557,2.074267587248515],[33.25231879888192,2.071405351334688],[33.257287455956856,2.066526665610059],[33.26010771384025,2.067274516565483],[33.26121188533962,2.064351901844297],[33.26388701935399,2.0665007260758625],[33.2648862790029,2.065803326112558],[33.26805371806699,2.060135550872624],[33.269862506498896,2.061465963803208],[33.274780852035825,2.058897738683332],[33.275590493744446,2.058332676240855],[33.27442460479089,2.057169267874468],[33.27419839225698,2.055456637927878],[33.27656582654137,2.04828422079387],[33.27942279526927,2.047783750771839],[33.28071812557224,2.048318055262651],[33.28245513015732,2.04584342016812],[33.28329960569692,2.042221731590184],[33.28623815220402,2.041436415308373],[33.28821257683375,2.039521290672351],[33.29006625165217,2.039068629948072],[33.28488864542795,2.030918084419333],[33.28293698877771,2.025318592047348],[33.28209996923775,2.021111485598855],[33.28227735702561,2.0202775744781727],[33.2819,2.0194],[33.28360704465046,2.011889003538005],[33.28329611828945,2.0092841735359457],[33.279372806481724,2.000735483597013],[33.27930985706912,2.000638049611739],[33.27926544424127,2.000501546925706],[33.2744,1.9899],[33.27401315962804,1.986560956789372],[33.2720018741123,1.988334696675563],[33.27200064005994,1.9883335338614003],[33.27200007924007,1.988334027950205],[33.27051976072651,1.9869382537492328],[33.26809841236845,1.98694395447433],[33.26588716313388,1.98534943599972],[33.262672041691886,1.98686296412981],[33.261199669603705,1.989590534020429],[33.261198153494675,1.9895892503748451],[33.26119803572379,1.989589468254407],[33.260963287808096,1.9893903964041568],[33.25952152242082,1.988169695431439],[33.24978488700962,1.990217167465031],[33.25009138419612,1.991035629517124],[33.24538719706764,1.992502566418401],[33.23652388754564,1.993446348970011],[33.23566536929608,1.9939131388453164],[33.233373616654106,1.995159447350659],[33.23337330467869,1.9951593704280364],[33.233373212446864,1.995159420575931],[33.22980988002494,1.9942807500104123],[33.22787576800225,1.993803863173107],[33.2269474304034,1.9929330960876381],[33.22510123934151,1.993505773410421],[33.22231507163322,1.994370211316266],[33.22231470430901,1.9943701397564637],[33.22231447361528,1.994370211316266],[33.216282308233325,1.9931949461327134],[33.21524961581982,1.992993763464265],[33.20975188550895,1.993080041563322],[33.20420612020857,1.990837509379584],[33.20403714373894,1.9909974487702935],[33.196782161244705,1.997899852378565],[33.19678427210591,1.9979415556300348],[33.19745559090837,2.011137757097844],[33.20148226114632,2.010526531827623]]]}},{"type":"Feature","properties":{"n":"Adeknino","c":"317201","d":"Dokolo","od":"Dokolo","dc":"317","k":"ADEKNINO","a":["ADEKNINO"],"lat":1.765476,"lon":33.022526},"geometry":{"type":"Polygon","coordinates":[[[32.99522245293101,1.796700529509158],[32.997792380141014,1.798655496823299],[33.00813853403929,1.813772789332892],[33.01908582428684,1.818015594183354],[33.024811380115935,1.821553372945656],[33.03221847204682,1.823277669194174],[33.035301999066114,1.82007273523837],[33.04389399938535,1.801583314355407],[33.05257262071601,1.790345302957917],[33.054942007048744,1.788109542420445],[33.06107858880376,1.784986864623048],[33.06546686390848,1.781586225661826],[33.065044048575245,1.778668852390474],[33.066718010552854,1.772171032751001],[33.065053132711846,1.771783904909594],[33.06539876192484,1.768015468659717],[33.063905719656546,1.767868526724077],[33.063924763331606,1.763083683142644],[33.06552011359489,1.757565395129707],[33.06771348731267,1.754355045863064],[33.07319837824576,1.751177180739385],[33.08394329765938,1.7481629000822845],[33.0839,1.7481],[33.083803006059014,1.7323869815604234],[33.082968359237114,1.7313511170964968],[33.053297886888636,1.7117686053464989],[33.047921655850836,1.7086966653942162],[33.0267,1.7062],[33.02394948253556,1.7068260506169053],[33.02247064974472,1.707376813734236],[33.020968390731035,1.7075045827067417],[33.010752058981296,1.709829941799033],[33.00991510272052,1.71025725109483],[33.008252512610994,1.711954573251191],[33.00491051373056,1.712452436852391],[33.00424424601625,1.713356779403737],[32.99987817025691,1.7123283979843644],[32.999671912687894,1.712596715352911],[32.99988192839417,1.716061021920606],[32.999025614574755,1.719129935309037],[32.99474234637547,1.724984287427089],[32.9931983465813,1.732085654489657],[32.98850186405918,1.732040839885203],[32.98834947613063,1.736731343892131],[32.986372971912296,1.7464622889404005],[32.9863,1.7471],[32.985998637779666,1.7479722526236494],[32.979910951698045,1.769888758036458],[32.975402749782845,1.781713367375249],[32.9721272314538,1.788121182200622],[32.9721,1.7882],[32.97207993301271,1.78822443531105],[32.9893347560865,1.793669760720403],[32.99522245293101,1.796700529509158]]]}},{"type":"Feature","properties":{"n":"Dokolo Town Council","c":"317202","d":"Dokolo","od":"Dokolo","dc":"317","k":"DOKOLOTOWNCOUNCIL","a":["DOKOLO","DOKOLOTOWNCOUNCIL","TOWNCOUNCIL"],"lat":1.910742,"lon":33.155739},"geometry":{"type":"Polygon","coordinates":[[[33.13424044474582,1.923766261830836],[33.135181830667506,1.924211580199064],[33.13713169563388,1.924765693677251],[33.138511357550186,1.925786597887575],[33.14015597970689,1.926564578987894],[33.15401844900924,1.9372613329464923],[33.15401918416477,1.937261876937279],[33.15401925730371,1.9372619566540599],[33.15401925730473,1.937261956654852],[33.154019262174444,1.9372619619628515],[33.15600158510046,1.939422567586775],[33.160439583057915,1.948653194983836],[33.16043962649949,1.948653285337902],[33.16043962649981,1.9486532853389744],[33.16043976358835,1.948653570470527],[33.161893733985096,1.9535336251156012],[33.16236245801147,1.9551067773985809],[33.16423132327507,1.9570597702840278],[33.16717801772394,1.9582425146814895],[33.16719641909811,1.95824927719351],[33.169231582440624,1.960938708986269],[33.184119127466644,1.960989122567775],[33.184211442390435,1.96038551110826],[33.19142333567217,1.957496558610168],[33.196620305049684,1.957459384717332],[33.19662068597809,1.9574594518459352],[33.196620761650955,1.957459451305428],[33.19667843490744,1.9574696285744306],[33.198210862029235,1.957739678511852],[33.20538823044104,1.963429433065054],[33.21091721322587,1.9633534919726634],[33.2109205139535,1.963353344463218],[33.21094860053122,1.9633612246062206],[33.21756506832994,1.965192771500466],[33.220722639032694,1.964599772224356],[33.22303810612302,1.9593272602894736],[33.22253893279274,1.9530014418012933],[33.22193628267028,1.94536451194515],[33.21974913804038,1.942291844961943],[33.22439026418931,1.934611463534438],[33.22538964708396,1.930965217397288],[33.22539030534985,1.9309647027529844],[33.22539034520831,1.930964557393961],[33.2258254299333,1.930624514400534],[33.22702552273449,1.929686259913545],[33.227025933687386,1.9296862537199968],[33.22702600274003,1.929686199751503],[33.227147324447195,1.9296844242171174],[33.23057414257583,1.929632777999204],[33.23054112615942,1.926958049904204],[33.23215761456158,1.9220755968328864],[33.22721791341214,1.919635416227061],[33.22714775251983,1.9195232120367167],[33.2206,1.9099],[33.21973037365943,1.9098095933012282],[33.2110932477574,1.91118980696093],[33.206608648108144,1.910295043417046],[33.200408899990485,1.9078009252465356],[33.2004,1.9078],[33.20039524108151,1.9077954303566744],[33.20037984711124,1.907789237462991],[33.200344149181646,1.9077463705210123],[33.19244809770233,1.9001643665437165],[33.190437031583464,1.899457563866961],[33.18501308312005,1.893632247370325],[33.18047308835031,1.890602063051059],[33.17857979829328,1.887616523458712],[33.1750001860676,1.884965873277685],[33.16515911495875,1.87403796860881],[33.164923620490775,1.8739666438523352],[33.15878029745299,1.8732252083132925],[33.15616376132119,1.874520282611627],[33.14782960594007,1.8719035731306979],[33.1478,1.8719],[33.14778820604775,1.8718707116852489],[33.145042054355486,1.868794290998513],[33.144147489100284,1.865575676275241],[33.14416651380915,1.862876842626046],[33.142073356272206,1.857678834742632],[33.140475341575524,1.8570498825348132],[33.11896245606793,1.8578599911940945],[33.11840822859947,1.858025606115887],[33.11844836481999,1.866342565879425],[33.12085052173227,1.874783481177746],[33.12448334162915,1.880003178015165],[33.12537316908749,1.885611342191982],[33.118199094576624,1.886291745273741],[33.11284954221305,1.889494853627305],[33.111842470546115,1.893738073073259],[33.11400716170669,1.898654411972504],[33.109765927216294,1.903391419411121],[33.1060084559499,1.905735100211971],[33.10329426544968,1.908829423099126],[33.09991138284418,1.918528263647698],[33.092831813068265,1.929865769752242],[33.09586956205601,1.9292664988307258],[33.10157646048988,1.92814065646579],[33.112283892433986,1.927248349025593],[33.11876607112987,1.925480976631589],[33.11871705447472,1.924190858207937],[33.12511389463323,1.922878862224352],[33.12925881241399,1.922528374283571],[33.12925917958676,1.9225284786268915],[33.13424044474582,1.923766261830836]]]}},{"type":"Feature","properties":{"n":"Kangai","c":"317203","d":"Dokolo","od":"Dokolo","dc":"317","k":"KANGAI","a":["KANGAI"],"lat":1.877393,"lon":33.107592},"geometry":{"type":"Polygon","coordinates":[[[33.046509717449304,1.839249460639699],[33.0529422314642,1.840099676304032],[33.05903759289441,1.838154421533435],[33.06757594390852,1.842397165976632],[33.078037763522076,1.844087847922414],[33.08048321794415,1.845452930567648],[33.087186445195556,1.854769802899607],[33.09025210180413,1.857681465875913],[33.087562303789966,1.866798639327832],[33.08913988184636,1.868540400258999],[33.091055461018804,1.869081313132163],[33.09152884452239,1.874057642890886],[33.09411763033634,1.88278890793262],[33.09249126879572,1.89223104819373],[33.08862594705588,1.898367840278845],[33.08704443194125,1.903177749474877],[33.0870206409357,1.906533034302877],[33.088040098691415,1.909496308143496],[33.08731574778558,1.911872122969375],[33.089495177989065,1.913143960696347],[33.09029031101101,1.919264137920756],[33.089129005227264,1.922239449404053],[33.08256199973791,1.918919945386785],[33.07634243595958,1.935610466914619],[33.077263731964706,1.942247291856065],[33.08720365951289,1.932482630071388],[33.08720371162594,1.932482605840922],[33.08720396944912,1.93248235125521],[33.09244885866917,1.9300438242400222],[33.09283179819966,1.929865772819631],[33.09582213132009,1.9250769545406228],[33.09991138284418,1.918528263647698],[33.10329426544968,1.908829423099126],[33.1060084559499,1.905735100211971],[33.10976589593694,1.9033914389212712],[33.10988678766482,1.9032564311559355],[33.11400716170669,1.898654411972504],[33.111842470546115,1.893738073073259],[33.11206199444816,1.8928131259015828],[33.11284911390718,1.889495570719168],[33.11284941478284,1.889495390544737],[33.11284954221305,1.889494853627305],[33.118199094576624,1.886291745273741],[33.12537281170381,1.8856113760869402],[33.12457494227092,1.88058049380027],[33.12448335394933,1.880003255663444],[33.120850675239375,1.874783708273436],[33.12085067209341,1.8747836972191623],[33.12085052173227,1.874783481177746],[33.11844836481999,1.866342565879425],[33.11844550019392,1.865748962908627],[33.118407053286305,1.858001010647648],[33.118282946812215,1.857885579408745],[33.1179,1.8579],[33.117220390450655,1.85689729738621],[33.113903974796564,1.853812704334261],[33.11193778226459,1.8491032853084035],[33.1118,1.8489],[33.11333970871442,1.8347346798273418],[33.11330819842147,1.834306444514146],[33.112023140969626,1.830569436241965],[33.113826347450434,1.827261694668677],[33.10970967151624,1.826336507753589],[33.10970748393532,1.822776650030559],[33.105894284038584,1.820930431775489],[33.10214485306929,1.822097749863265],[33.10125340576275,1.824474958449049],[33.09989000022847,1.824359351829261],[33.098889472940854,1.820932764672274],[33.09691472552723,1.82086426859056],[33.09608101154318,1.818535675690525],[33.09456012858108,1.819008236991136],[33.093973943639114,1.811645523255732],[33.08880495769628,1.811926152781106],[33.08520021625159,1.813206257815915],[33.08023731150348,1.81668945068984],[33.07608662964714,1.817895592929822],[33.075141140762454,1.817418068334523],[33.07511910838874,1.815775856320054],[33.07377737187496,1.815139810215586],[33.06691199016945,1.81537305980149],[33.067265348040046,1.81180643166651],[33.06482605507598,1.810696100674695],[33.06287772563912,1.810820462006856],[33.05952952849529,1.815578938706734],[33.06034763151635,1.817246589366208],[33.05314814725888,1.823729141818622],[33.0346310390044,1.827748148708275],[33.042015685698956,1.836698110873974],[33.046509717449304,1.839249460639699]]]}},{"type":"Feature","properties":{"n":"Kangai Town Council","c":"317204","d":"Dokolo","od":"Dokolo","dc":"317","k":"KANGAITOWNCOUNCIL","a":["KANGAI","KANGAITOWNCOUNCIL"],"lat":1.786548,"lon":33.079987},"geometry":{"type":"Polygon","coordinates":[[[33.034632101509935,1.827747918098992],[33.052779981937306,1.8238090494879837],[33.06034753581372,1.817246394282521],[33.05952952849529,1.815578938706734],[33.06287772563912,1.810820462006856],[33.06482605507598,1.810696100674695],[33.06482649869987,1.810696302605893],[33.06482681044361,1.81069628274111],[33.06726019387081,1.811803507287834],[33.06726013947634,1.8118040608033972],[33.067265348040046,1.81180643166651],[33.06691199016945,1.81537305980149],[33.07319336527972,1.8151596516901534],[33.07377708189552,1.81513980344374],[33.07377711460485,1.8151398189562722],[33.07377737187496,1.815139810215586],[33.07511910838874,1.815775856320054],[33.075141140762454,1.817418068334523],[33.07608662964714,1.817895592929822],[33.08023705923709,1.8166895239956617],[33.08430883648318,1.8138318687866823],[33.08520021625159,1.813206257815915],[33.08880450743044,1.8119263126781688],[33.08880453557509,1.811926302682849],[33.08880453557734,1.811926302682727],[33.08880495769628,1.811926152781106],[33.091783238200925,1.8117644588911066],[33.09396943297195,1.811645674945317],[33.09396944041633,1.8116457677402955],[33.093973943639114,1.811645523255732],[33.09456012858108,1.819008236991136],[33.09608101154318,1.818535675690525],[33.09691472552723,1.82086426859056],[33.098889472940854,1.820932764672274],[33.09989000022847,1.824359351829261],[33.10125340576275,1.824474958449049],[33.10214485306929,1.822097749863265],[33.105894284038584,1.820930431775489],[33.10970748393532,1.822776650030559],[33.10970967151624,1.826336507753589],[33.1136706353179,1.8272266997286228],[33.11382635386608,1.82726168440845],[33.11427798192302,1.8261025663082535],[33.11478572597158,1.8214313210614825],[33.114763199426505,1.821323799398547],[33.10485863263861,1.802189138336287],[33.10163052493547,1.791603953350508],[33.10162244728886,1.789831217406239],[33.1014,1.7893],[33.10161549479044,1.7883054086595012],[33.10161490278431,1.788175485850196],[33.10394958153631,1.777276567157721],[33.0990856607541,1.770581287074042],[33.094336527157274,1.765814500673639],[33.09124196403634,1.758765937804045],[33.08394330423094,1.7481629096290332],[33.08208217231033,1.7486850030338406],[33.07319837824576,1.751177180739385],[33.06771348731267,1.754355045863064],[33.06655603569226,1.7560491593334042],[33.06392476189648,1.7630840437266555],[33.063905719656546,1.767868526724077],[33.06539876192484,1.768015468659717],[33.065398422220795,1.768019172493136],[33.06539851986745,1.768019182059032],[33.065374279783484,1.7682824003468756],[33.065053132711846,1.771783904909594],[33.066718010552854,1.772171032751001],[33.06671720288492,1.7721741678763192],[33.06671768515045,1.772174280520264],[33.06542083840482,1.7772062669869204],[33.065044048575245,1.778668852390474],[33.06546686390848,1.781586225661826],[33.06107858880376,1.784986864623048],[33.054942007048744,1.788109542420445],[33.05257262071601,1.790345302957917],[33.04389399938535,1.801583314355407],[33.035301999066114,1.82007273523837],[33.03249310480648,1.8229922233877043],[33.03221848086905,1.823277676064505],[33.034631032318416,1.827748138350773],[33.034632101509935,1.827747918098992]]]}},{"type":"Feature","properties":{"n":"Kwera","c":"317205","d":"Dokolo","od":"Dokolo","dc":"317","k":"KWERA","a":["KWERA"],"lat":1.850803,"lon":32.998085},"geometry":{"type":"Polygon","coordinates":[[[32.9385,1.8475],[32.93863975729566,1.8477335185193315],[32.949866383178275,1.863803383961894],[32.95423130645617,1.8737852209141055],[32.95429129433997,1.873885453833867],[32.956749257510616,1.8743208214352038],[32.96561475677941,1.875891083937512],[32.96561492413444,1.875891155791046],[32.96561523007236,1.875891209980409],[32.965615948799275,1.8758915957287638],[32.96940781905116,1.877519627337539],[32.970805115985286,1.8786766767585612],[32.97193624875263,1.879283767703904],[32.97351086658379,1.880917207806016],[32.976138404148685,1.883092973560549],[32.99277189394216,1.9008977604661716],[32.992772072503506,1.90089794569795],[33.00839120757808,1.913208452346118],[33.01506372461475,1.906395050794662],[33.02699110833538,1.890533807850854],[33.02466675325267,1.885342055671843],[33.02550538010319,1.882124270170517],[33.02747823698113,1.881807577717958],[33.026659706476124,1.879880222317469],[33.02452128758553,1.879055680843327],[33.0260261926024,1.876572400675125],[33.02837240398658,1.876956701915553],[33.03205851567162,1.874437345454725],[33.032280911321514,1.873193352312344],[33.033404120606974,1.872907267645075],[33.034263804416604,1.874907930195925],[33.03665967122587,1.872465821495372],[33.04221562018498,1.875728081867142],[33.04693949602017,1.876380040263292],[33.048312033640705,1.878315716574954],[33.05046827158645,1.88533615281108],[33.05349877864914,1.889135815847284],[33.05875711398927,1.892371551130553],[33.06011898174584,1.889982507392218],[33.06306797604162,1.888408586239405],[33.06686546832524,1.884816917995644],[33.06597596382384,1.884136753972663],[33.06581459857147,1.881950631463282],[33.06434528791516,1.881540176743585],[33.063855689445234,1.882765274163199],[33.05853313413947,1.881135701751887],[33.05958835811564,1.878153141168259],[33.06205622208635,1.875852584306357],[33.059685360044405,1.868395257735138],[33.05563126244869,1.864426325953821],[33.05615443912469,1.855850788106653],[33.05748349152866,1.853872954609959],[33.052781521383224,1.846995727827005],[33.05221228908898,1.840162498747121],[33.04650988977253,1.83924951879444],[33.04650980854623,1.8392494726804087],[33.046509717449304,1.839249460639699],[33.042015685698956,1.836698110873974],[33.04201553271266,1.8366979254593407],[33.0376966933319,1.832169705712851],[33.035979532205744,1.8293824805364483],[33.0346310390044,1.827748148708275],[33.034932357478354,1.8276827496726291],[33.034632101509935,1.827747918098992],[33.034631032318416,1.827748138350773],[33.0322185719475,1.82327784483305],[33.03221847026614,1.823277679788048],[33.029556885785084,1.822658078773394],[33.024811380115935,1.821553372945656],[33.01908582428684,1.818015594183354],[33.00813853403929,1.813772789332892],[33.00813840460709,1.813772600212905],[33.00813820244235,1.813772521859242],[32.997792331944815,1.7986554601600064],[32.997790398846064,1.7986539896339684],[32.989335400154005,1.7936700922625568],[32.989334855235604,1.7936698117586982],[32.972079925166085,1.788224444865781],[32.972042890670416,1.7882695412924825],[32.9659736233929,1.797019183133193],[32.9574449187009,1.80610330945558],[32.948987879148476,1.810950314924112],[32.94052863409092,1.813344763008015],[32.940444525337256,1.8133808802963538],[32.935668555960895,1.835324790631854],[32.9385,1.8475]]]}},{"type":"Feature","properties":{"n":"Okwongodul","c":"317206","d":"Dokolo","od":"Dokolo","dc":"317","k":"OKWONGODUL","a":["OKWONGODUL"],"lat":1.895192,"lon":33.057057},"geometry":{"type":"Polygon","coordinates":[[[33.018993308426545,1.920216780100779],[33.02228602053077,1.9255685872456008],[33.0222881460335,1.925571867657381],[33.024759298743604,1.935962841214249],[33.02631354543963,1.9395149478486815],[33.026569329559024,1.940099495393623],[33.0267982409091,1.94017141884686],[33.02732167121282,1.940072508279033],[33.03218617468609,1.941655708785717],[33.03260882219864,1.941997090975022],[33.032932853900114,1.942098901037826],[33.03724814031282,1.9457443757162256],[33.037293673758285,1.945781154135209],[33.03804741292694,1.947735667916414],[33.038400934864256,1.948047766202323],[33.040547410991266,1.9493569845965955],[33.04899322896394,1.950375804283463],[33.049002385535,1.950376517517447],[33.0526390870101,1.948648721913621],[33.059013841521,1.949209440250718],[33.06354463406049,1.951244841658708],[33.06528485165817,1.9526719373424368],[33.06546936178442,1.952773805143024],[33.07341469996297,1.9460981757635054],[33.073416751225146,1.946096440683634],[33.077263721991635,1.942247302259846],[33.07723476973322,1.9420386539598604],[33.07634243595958,1.935610466914619],[33.07634269226885,1.9356097790954174],[33.07634266823432,1.935609605887353],[33.08103733486191,1.9230114625482102],[33.08256199973791,1.918919945386785],[33.089129005227264,1.922239449404053],[33.09029031101101,1.919264137920756],[33.09011174523292,1.9178897085133984],[33.08949486779828,1.9131437796800688],[33.08731574778558,1.911872122969375],[33.088040079273,1.9094963718343867],[33.08702069972127,1.906533362522649],[33.08702070081237,1.9065332083473245],[33.0870206409357,1.906533034302877],[33.08704443194125,1.903177749474877],[33.08704444761803,1.9031777017966307],[33.08704444823938,1.903177613996968],[33.08862592979293,1.898367875531519],[33.088625941659444,1.8983678566911966],[33.08862594705588,1.898367840278845],[33.08884979274776,1.8980124508539404],[33.092491299050025,1.8922308725468098],[33.09411762229855,1.8827889545975227],[33.09152888683224,1.87405780990459],[33.0915288834262,1.8740577741027957],[33.09152884452239,1.874057642890886],[33.091249518273194,1.8711212931538654],[33.09105544215665,1.8690813078059518],[33.08913988184636,1.868540400258999],[33.08913947703569,1.8685399533185694],[33.08913927882415,1.868539897481147],[33.08756245723197,1.866799130309471],[33.08756252884335,1.8667988878031414],[33.087562303789966,1.866798639327832],[33.09025210180413,1.857681465875913],[33.087186445195556,1.854769802899607],[33.08048321794415,1.845452930567648],[33.07808934025407,1.8441166386866596],[33.07803774897217,1.8440878455710774],[33.06757594390852,1.842397165976632],[33.05903759289441,1.838154421533435],[33.0529422314642,1.840099676304032],[33.05258589079299,1.8400525770797165],[33.05221230060123,1.840162496722894],[33.05227509870234,1.8409164835101701],[33.05278151850554,1.8469956932824343],[33.05290131479255,1.8471709408584676],[33.05748349152866,1.853872954609959],[33.05615443912469,1.855850788106653],[33.05563126244869,1.864426325953821],[33.059314870013466,1.8680325507149615],[33.059685268155356,1.868395114714092],[33.05968529264051,1.8683951917472192],[33.059685360044405,1.868395257735138],[33.06205622208635,1.875852584306357],[33.05960518281385,1.8781374570886773],[33.05958834194865,1.8781531868638142],[33.05853313413947,1.881135701751887],[33.06296822587778,1.8824935651695882],[33.063855824649096,1.882764935849435],[33.06434528791516,1.881540176743585],[33.06581459857147,1.881950631463282],[33.06597596382384,1.884136753972663],[33.06686546832524,1.884816917995644],[33.06306797604162,1.888408586239405],[33.060247386396995,1.8899139759620736],[33.06011897309482,1.8899825225681746],[33.05875711398927,1.892371551130553],[33.058754385041006,1.8923698718625686],[33.0587541457197,1.892370290774719],[33.05481042532197,1.8899429422749285],[33.05349877864914,1.889135815847284],[33.05046909442354,1.8853371844878293],[33.05046879039008,1.88533680330203],[33.05046879038374,1.8853368032813869],[33.05046827158645,1.88533615281108],[33.048312033640705,1.878315716574954],[33.04693949602017,1.876380040263292],[33.04221562018498,1.875728081867142],[33.03665967122587,1.872465821495372],[33.034263804416604,1.874907930195925],[33.033404120606974,1.872907267645075],[33.032280911321514,1.873193352312344],[33.03205851567162,1.874437345454725],[33.02837240398658,1.876956701915553],[33.0260261926024,1.876572400675125],[33.02506397645573,1.8781601768123228],[33.02452144482835,1.8790557414737434],[33.026659706476124,1.879880222317469],[33.02690444715983,1.880456501729867],[33.02747660588804,1.881802830187815],[33.027476245584346,1.8818028886693174],[33.02747823698113,1.881807577717958],[33.02550538010319,1.882124270170517],[33.02466675325267,1.885342055671843],[33.02699110833538,1.890533807850854],[33.026990469076374,1.8905346579486337],[33.026990485030524,1.890534693599624],[33.01678302544607,1.9041086945561303],[33.01506372461475,1.906395050794662],[33.01506369358617,1.9063950824783797],[33.01506365400333,1.906395135116117],[33.008391216800334,1.9132084596148087],[33.00859018514485,1.913365280150402],[33.01501395926794,1.91964641145206],[33.01710424700459,1.917571255297922],[33.01712110736124,1.9175972768652882],[33.018993308426545,1.920216780100779]]]}}]}
