{"type":"FeatureCollection","name":"Gulu sub-counties","metadata":{"source":"Uganda Bureau of Statistics NPHC 2024 Map Explorer","retrieved":"2026-07-26","display_only":true,"clipped_to_dashboard_district":true,"positive_area_overlaps_removed":true,"source_gap_ratio":0.01486807},"features":[{"type":"Feature","properties":{"n":"Awach","c":"304101","d":"Gulu","od":"Gulu","dc":"304","k":"AWACH","a":["AWACH"],"lat":2.929254,"lon":32.368937},"geometry":{"type":"Polygon","coordinates":[[[32.29165289235224,2.954814637617825],[32.29236864041264,2.955900879866504],[32.29450967913508,2.955902154838456],[32.29578393552351,2.958598902907105],[32.29988522644403,2.961641134431094],[32.30516360266332,2.957763244730913],[32.30590567839334,2.957620464695685],[32.307934250760084,2.959737402751245],[32.31071861399322,2.960146237064896],[32.31357114063497,2.958248398306942],[32.320320469645175,2.955981903179954],[32.32643085053203,2.956338248101067],[32.33087606147547,2.960529335031369],[32.33188225669053,2.965134853366977],[32.335344541619946,2.969759030894535],[32.345873053703905,2.97266079141761],[32.34763497146999,2.97201518205885],[32.352359283997075,2.966714364273437],[32.357774319289014,2.964857029745369],[32.36264139206005,2.966163169421694],[32.365045914780616,2.968114943291879],[32.369797351282145,2.968058109055435],[32.37585258277567,2.969384784511339],[32.380078950581094,2.969039135710236],[32.3806038519112,2.969911578123844],[32.37973161131154,2.973444620615959],[32.3813655827414,2.977294222075666],[32.3837628483554,2.97852630465369],[32.38411663129775,2.980248691991375],[32.386308994561176,2.980917881009919],[32.38701548152905,2.982510985902294],[32.39071606937611,2.983766796258409],[32.39523705475755,2.986562640575582],[32.4023156612076,2.985818291430808],[32.403589116881435,2.982096950886768],[32.407587162353316,2.97826080671922],[32.40952489426163,2.974307828582541],[32.41506523882481,2.97988288020592],[32.41847379960825,2.982052957948],[32.41871797686116,2.993881271888433],[32.42078651674391,2.999025061142295],[32.42631937768039,2.991321070297351],[32.43064342954577,2.987728579191077],[32.4294780672283,2.978185896582245],[32.43221112498917,2.97649049497991],[32.434930913635164,2.971489079891243],[32.43534194563078,2.969035468274526],[32.434357768189834,2.967266411545208],[32.43266342284246,2.966908009317895],[32.42876620577798,2.962150800417292],[32.427873800208175,2.958432374331537],[32.428528093496766,2.956053068704376],[32.42817116880455,2.949658396860718],[32.42507077268503,2.944632072931591],[32.425296424680056,2.942634238871479],[32.42308351707087,2.937832470194644],[32.42069965876027,2.936651937469604],[32.420558604512316,2.93059751411376],[32.418302903691206,2.927599381292166],[32.41753222052642,2.924687399941086],[32.419102374570286,2.922374092856132],[32.42032008247415,2.917934438653392],[32.419160125792,2.912372954214592],[32.418684411148995,2.901159966616448],[32.42018351237896,2.897787265717959],[32.41778337827801,2.896348873301796],[32.41168198658337,2.895438959371363],[32.407410466332884,2.895158208446112],[32.3988768234585,2.89659986175908],[32.3922539755679,2.896599867032984],[32.390995122872866,2.895761583154593],[32.38452997453181,2.894801327669473],[32.38043032086433,2.895932901938409],[32.37008589495665,2.902659538500106],[32.36629884279082,2.893831964219499],[32.363455884518544,2.891849039237778],[32.36176584540034,2.888130058987037],[32.36334937996505,2.877039700673132],[32.36221627421183,2.872876826211051],[32.36384848024811,2.866328969985713],[32.353193923997345,2.867088161568408],[32.35098049773052,2.863461396034965],[32.3466373855547,2.862330808505019],[32.340641854877944,2.858571929195119],[32.33923307298333,2.861764534382484],[32.339008518267136,2.864976329028231],[32.33646116152039,2.870265878760454],[32.331116989022085,2.877084619349171],[32.32990722241686,2.880196444032434],[32.327324498517704,2.882364873587021],[32.32043446551619,2.88422501077023],[32.31865695882248,2.886720118681505],[32.31591717961136,2.887958489788267],[32.315621078657436,2.889720662557182],[32.31399333171982,2.890408922899072],[32.311028564148174,2.894089287934073],[32.30636443029194,2.896628236052295],[32.30636556910895,2.897523833433961],[32.30787845105499,2.898202267031347],[32.3086242559541,2.899607168305512],[32.308470495435195,2.902401055608661],[32.309983272629204,2.902882665133787],[32.30964438381307,2.904862542592655],[32.313625655656814,2.904376309630231],[32.31888394347714,2.910007366279389],[32.317799349786135,2.910467315407936],[32.31757296675915,2.911923658902498],[32.32010729083853,2.917867410845441],[32.31918446112938,2.918874682170885],[32.32041373610801,2.922517837550662],[32.318419146818414,2.925728998671183],[32.319448212765,2.927911127193635],[32.31644182127616,2.931508199318271],[32.314701722064804,2.932059392972425],[32.31484507714538,2.933064608297622],[32.31299239455662,2.935813130442871],[32.309170736188854,2.937139669130458],[32.306012757459534,2.93589876399508],[32.30221527958363,2.935914556407409],[32.301074797275064,2.936972310257157],[32.302189109982685,2.937940572326688],[32.30238999347493,2.939659850291358],[32.30105001057462,2.939749444762612],[32.300366242489694,2.9409883725783],[32.30130940066799,2.942445486357327],[32.30061306270236,2.94423620645303],[32.30152834136765,2.945549572171915],[32.29984901904393,2.949246309562475],[32.29910681703445,2.949057606038433],[32.298732558659566,2.947021353633678],[32.29744755401608,2.948458248833267],[32.292166338132425,2.947668497651527],[32.28953962824623,2.954107867132394],[32.29165289235224,2.954814637617825]]]}},{"type":"Feature","properties":{"n":"Bungatira","c":"304102","d":"Gulu","od":"Gulu","dc":"304","k":"BUNGATIRA","a":["BUNGATIRA"],"lat":2.905505,"lon":32.264917},"geometry":{"type":"Polygon","coordinates":[[[32.21336309615406,2.931612768997336],[32.228869263853795,2.935854693116198],[32.22962618189695,2.937518326141199],[32.22887395175542,2.940323423418146],[32.23187270652666,2.941815553348178],[32.23266117447082,2.94341325086686],[32.23405931778354,2.939967585352568],[32.2394786183544,2.938017547406406],[32.24371534215333,2.93785734982805],[32.246580939017214,2.934577460582539],[32.24880958593487,2.933586176242971],[32.25147141268116,2.934072652693431],[32.253536425178005,2.935747482807696],[32.25706819045746,2.941319730269907],[32.26106019649515,2.943884888300424],[32.26459512756896,2.939081898081966],[32.267821776054625,2.938025176158415],[32.27223339073301,2.934984772806395],[32.27501122244776,2.937969958648288],[32.281410459520835,2.941242765175366],[32.28281145413508,2.943820709135305],[32.28072381965754,2.948176950602652],[32.27961144819491,2.948926893309418],[32.279883178262004,2.950003528947612],[32.278486604905844,2.951260139993445],[32.278573866533186,2.953187891277505],[32.276694392112645,2.956370183408052],[32.28163552210199,2.957242350821911],[32.28446401450068,2.959215818674092],[32.28666186615543,2.958638272683413],[32.28808479166317,2.955455938053123],[32.289539617397025,2.954107870452124],[32.28987294981593,2.951240193884551],[32.292166013344314,2.947668955635166],[32.29216614338342,2.9476689750779945],[32.292166338132425,2.947668497651527],[32.29744755401608,2.948458248833267],[32.298732558659566,2.947021353633678],[32.29873290382188,2.94702323158121],[32.2987342604986,2.947021714169425],[32.29902726334448,2.948624772992111],[32.29910672997412,2.949057132363503],[32.29930794823014,2.9491087432826553],[32.29984901904393,2.949246309562475],[32.30077877599724,2.947199610578688],[32.3015282187595,2.9455493962371464],[32.300662614039865,2.9443073094192362],[32.300613337414504,2.944236682861253],[32.30061335794395,2.9442366301056277],[32.30061306270236,2.94423620645303],[32.30130940066799,2.942445486357327],[32.300366242489694,2.9409883725783],[32.30055336982282,2.940649314258378],[32.30047956579698,2.940474202573007],[32.30070239571421,2.9403792924100802],[32.30105001057462,2.939749444762612],[32.30238999347493,2.939659850291358],[32.302189109982685,2.937940572326688],[32.301074797275064,2.936972310257157],[32.30221527958363,2.935914556407409],[32.30309435209939,2.9359109006453243],[32.30358524770731,2.935653033526601],[32.30520497244289,2.935902123296825],[32.306012757459534,2.93589876399508],[32.30654623297683,2.93610838938073],[32.30825655710807,2.93637141200149],[32.309167324788476,2.9371383286450987],[32.30917067550303,2.9371396452843985],[32.31299249277601,2.9358129847308305],[32.31459217738968,2.9334397943026542],[32.3148450583949,2.9330644768180503],[32.314701722064804,2.932059392972425],[32.314703427311095,2.9320588528187783],[32.314703300093605,2.93205795388461],[32.31572522658464,2.9317351877819107],[32.31644182127616,2.931508199318271],[32.319448212765,2.927911127193635],[32.318419146818414,2.925728998671183],[32.31841998843775,2.925727643717903],[32.31841938152893,2.925726357529375],[32.320007698213296,2.9231715325783876],[32.32041342488943,2.922518338592654],[32.31984795338291,2.920841048862556],[32.31918446112938,2.918874682170885],[32.319184872724875,2.9188742329131965],[32.31918466481058,2.918873616202156],[32.31949636878379,2.9185342340542344],[32.32010709855676,2.917867620721551],[32.319007613949196,2.915288337908096],[32.31757296675915,2.911923658902498],[32.317573064980046,2.9119230270381515],[32.317573012592,2.911922904140941],[32.31765995836837,2.911364033625579],[32.317799349786135,2.910467315407936],[32.31839242939729,2.9102158051395532],[32.318883402289416,2.9100067867259574],[32.31362587785715,2.904376547582721],[32.31222216169503,2.9045477184296207],[32.30964438381307,2.904862542592655],[32.30964446891489,2.9048620454054954],[32.3096441698079,2.904862081878963],[32.30972522493011,2.904390247557344],[32.309983272629204,2.902882665133787],[32.308470495435195,2.902401055608661],[32.308489062090665,2.90206369239372],[32.308213545234985,2.901912995418601],[32.30862375537256,2.89960622534087],[32.30862335682988,2.8996054745907496],[32.30663175840198,2.897643202800573],[32.30636556910895,2.897523833433961],[32.30636538717299,2.897380753934858],[32.30630858156449,2.897324784798947],[32.306365109802975,2.897162622438454],[32.30636443029194,2.896628236052295],[32.306595177739986,2.8965026273504337],[32.306620501557,2.896429981004933],[32.31102863967809,2.8940891941737146],[32.31399333171982,2.890408922899072],[32.31399353036344,2.890408838906577],[32.31399368055251,2.890408652463996],[32.314159162308755,2.8903388047405305],[32.315620036786484,2.8897211030915444],[32.31574123444715,2.889005584615491],[32.31591717961136,2.887958489788267],[32.31865680041098,2.8867201902829795],[32.319367845465855,2.884911901960685],[32.31640732425948,2.880784915399532],[32.31263818137197,2.880700862302199],[32.31152342322257,2.879334518311387],[32.30788111527612,2.87749591930105],[32.30690864135763,2.876318658756504],[32.30697098204466,2.874708991602803],[32.294938380192725,2.870042763449105],[32.29193646391571,2.866730585318017],[32.29003001349155,2.861101708171402],[32.28528460646147,2.856267869393122],[32.2836846837728,2.855244699077252],[32.28147948893082,2.855233677357003],[32.27241965930143,2.850820171740352],[32.26904587165346,2.853476036684091],[32.26822847063715,2.855492819482516],[32.26390026697787,2.858494826857309],[32.26010666676502,2.858165064152606],[32.249625066907335,2.860723621121323],[32.247125577005605,2.867777428952534],[32.24735323060145,2.869443139528689],[32.245599368115975,2.872525868777466],[32.24631224886131,2.873502544927792],[32.24571343142542,2.876515388518539],[32.247538844866604,2.878633938539737],[32.244372873282366,2.889269065043796],[32.24209098463596,2.89170994871084],[32.237241023194414,2.891363817792652],[32.23709877405765,2.89337130472207],[32.2354552604949,2.895397058995799],[32.23317603254855,2.894074962452302],[32.22698509621361,2.89474012150728],[32.22330295809306,2.893796900311061],[32.21670280945145,2.895191976495879],[32.21486628725355,2.898231155397479],[32.217792638166216,2.89973028409163],[32.220647904910706,2.902892976780947],[32.216744989189124,2.904086959195455],[32.21443400393114,2.906147891236827],[32.21173836273634,2.907086821411813],[32.21125324232075,2.90966466549219],[32.21242281030009,2.911556216518425],[32.21573990915686,2.913286323284785],[32.21720094224343,2.912953067437571],[32.21936842918699,2.914438476500596],[32.22101852591541,2.918719034889072],[32.219530160706306,2.919677328281924],[32.21564737928244,2.919962940679577],[32.20868031979111,2.923446470448401],[32.20833767739735,2.929214274485467],[32.21336309615406,2.931612768997336]]]}},{"type":"Feature","properties":{"n":"Omel","c":"304103","d":"Gulu","od":"Gulu","dc":"304","k":"OMEL","a":["OMEL"],"lat":2.871637,"lon":32.585013},"geometry":{"type":"Polygon","coordinates":[[[32.52659485728057,2.827329960108003],[32.528102413963296,2.830536927780122],[32.529812383241904,2.832132319231554],[32.53041847116113,2.834698306873896],[32.53407417726621,2.834168120117212],[32.536236020730996,2.835044762754812],[32.53796225374775,2.834763910202526],[32.54250405540799,2.837002365781404],[32.545782223397445,2.8371584642293],[32.545271355942404,2.839981109344757],[32.546177573424046,2.841103064673866],[32.55003576312345,2.840924062515241],[32.55432421754418,2.842719954771489],[32.550172755302555,2.846451407631208],[32.551729824826324,2.847872473847516],[32.55157381678622,2.851339431908448],[32.54948397400023,2.852404230140276],[32.54737124495098,2.852290017186069],[32.544005593600055,2.855364404557881],[32.53797475969948,2.8551143988675],[32.53358464713167,2.853294148822858],[32.528394419654845,2.853341838173057],[32.527605858939694,2.854180892424977],[32.52632094971687,2.863793910412125],[32.53074644398037,2.870502102270927],[32.528081752202816,2.877261659952124],[32.528652822040485,2.884923524940286],[32.529903442199554,2.887607666558288],[32.52980808752817,2.890129008554991],[32.53109293141176,2.891796514970614],[32.53073612008088,2.893008271406782],[32.53316316306018,2.893579339429593],[32.53680346313866,2.892223080780761],[32.53865972062127,2.893841078420075],[32.539469452285786,2.893365498309694],[32.54103857951428,2.894126277412207],[32.54334708617386,2.898386171739108],[32.54322828890537,2.900908082899905],[32.544941793806245,2.901314122654062],[32.54517883813983,2.902811462435066],[32.54415627974857,2.90364446244452],[32.547320931182824,2.904596247600768],[32.54682354452566,2.908448131725695],[32.54426136087492,2.907952786276793],[32.538074772144654,2.909826606614545],[32.53572437300495,2.914228733532464],[32.531412382957356,2.916280811473488],[32.52818845437272,2.920377106502282],[32.530340615715076,2.920959535041442],[32.5320314168937,2.922733192786421],[32.531971789042714,2.92537397559854],[32.53329150194165,2.926992663303872],[32.53268562956713,2.928633835335962],[32.53626671188535,2.929894947652351],[32.5417991698297,2.928062778773422],[32.54414289178081,2.928883817059463],[32.54981722093899,2.933844332444683],[32.55270165266791,2.938070776433937],[32.558841534655414,2.942117387535506],[32.56374322615742,2.947685332180615],[32.57337042803001,2.952342878863087],[32.58087878868891,2.9579522436637533],[32.581453761418956,2.957238851572773],[32.585468096077314,2.951734279154567],[32.586183606808014,2.9513703397011697],[32.59724971621863,2.9376401669139285],[32.59913992842596,2.934776333484284],[32.60509118199722,2.92786684251127],[32.60625374158561,2.924927227215417],[32.613603082456386,2.9133076133329143],[32.6206,2.9013],[32.62433147566681,2.895513219554157],[32.6244558385021,2.894987233138283],[32.627898635750434,2.8899812600661776],[32.63461962618218,2.8795583337281787],[32.635496389280604,2.877793254974355],[32.63451325866803,2.875466841609132],[32.63669663973632,2.87283633534751],[32.63899612915674,2.8727712435537303],[32.64706221118237,2.8602623462947188],[32.64952057946046,2.856264730837273],[32.65011594044071,2.8555266164288393],[32.65796004357575,2.843361964508196],[32.65796215691916,2.843330985273381],[32.65798734835888,2.8432819437743233],[32.653934764109636,2.837498158486565],[32.653604903869414,2.837359233605884],[32.65366481551367,2.8371128920437787],[32.6520858151091,2.834859367194543],[32.650003032556356,2.833711072834081],[32.64954405096576,2.832481380889136],[32.64818975472695,2.833457878208511],[32.64802530411548,2.82930550232076],[32.64575533835336,2.827347755757844],[32.641038435638606,2.8243103562824334],[32.638768062836,2.824027742907965],[32.63446686992719,2.820109869405011],[32.63447536363031,2.820045476886743],[32.62231170139214,2.793125896523593],[32.62228039588188,2.7931020558625743],[32.5956,2.7959],[32.5772,2.7839],[32.57707517094988,2.7839051582252115],[32.57997790664136,2.786633113911771],[32.581844996629265,2.789918745605137],[32.57561147677341,2.799483759498436],[32.57147139943722,2.80409969576833],[32.56680791353721,2.806074752564781],[32.56121563771174,2.805289651519749],[32.55836040232458,2.805813142417314],[32.553530097959836,2.8110003623568],[32.553202547627535,2.814830179819103],[32.54432177429362,2.818662139143909],[32.52566318508806,2.822255215999774],[32.52749739067858,2.825468391250434],[32.52659485728057,2.827329960108003]]]}},{"type":"Feature","properties":{"n":"Owalo","c":"304104","d":"Gulu","od":"Gulu","dc":"304","k":"OWALO","a":["OWALO"],"lat":3.043578,"lon":32.380617},"geometry":{"type":"Polygon","coordinates":[[[32.31334320962735,3.089821961014154],[32.32734052234583,3.093897243935948],[32.33190253260126,3.101929955618663],[32.33507055120925,3.100619900270378],[32.33688442770198,3.094087846401776],[32.33790958609315,3.093282383126926],[32.33742987953323,3.091680603816053],[32.33828190073767,3.087429533331298],[32.337035608842996,3.085565156134586],[32.33781896048816,3.0847786139439],[32.33811245993678,3.082123015335218],[32.338995716457,3.082725479679082],[32.34252656701437,3.08125064105798],[32.34767745322516,3.081268826579813],[32.352981329104736,3.07783779520919],[32.370577544098964,3.082052281000182],[32.36785517598472,3.085929302378374],[32.367926562312505,3.088820338785831],[32.368997387851934,3.092127900200711],[32.37234045612893,3.095316265391054],[32.37702013206003,3.095395357665354],[32.379657970814534,3.097124501856478],[32.380045432749824,3.09612371325889],[32.38889476117097,3.094410881927505],[32.39520826941167,3.089982264412225],[32.397079654131495,3.091924718579458],[32.40148557337555,3.092026989720262],[32.40589251272323,3.095756390934664],[32.408182806799374,3.095097336982491],[32.410228104431404,3.095695883623224],[32.420774200708436,3.102314442907756],[32.42494266546354,3.102615487272161],[32.42779116399069,3.104552808132425],[32.431808046173344,3.104249826642242],[32.43447476809603,3.106501455414231],[32.43743607924786,3.10510994022399],[32.43937706544067,3.105166358868695],[32.443855141286726,3.107981068018419],[32.44346920371753,3.104501967274031],[32.444227553283305,3.101881828885967],[32.44057646536958,3.099018829314745],[32.4405565463802,3.094756671439618],[32.447472531432126,3.084560054393692],[32.44699188870498,3.080872292762452],[32.447782569509435,3.07894745398893],[32.447553100968676,3.077227120591218],[32.44495474231395,3.074612356127718],[32.438953795091486,3.072344742517573],[32.438306727372634,3.070474357074886],[32.43468570207672,3.067184788694461],[32.4320363285595,3.06245568028933],[32.42753346409503,3.059523043666902],[32.42656346419509,3.058047656054303],[32.4229110999196,3.057080481024241],[32.419161526634696,3.057917930655025],[32.41769412694566,3.057485543763651],[32.41897626924717,3.052665901108585],[32.416428690161204,3.047019430705992],[32.41578620510245,3.042665028886435],[32.411488142538666,3.041726500761277],[32.410060627220176,3.039228293415299],[32.407175211589646,3.03866211376205],[32.407948856691114,3.035302180274912],[32.40531684412364,3.028768866047868],[32.40875946627101,3.025950582817523],[32.416095988267315,3.022392218822196],[32.41816875846448,3.018749143466346],[32.41922522599333,3.014766209773076],[32.42340823183871,3.011553801381081],[32.42401409954356,3.010429321585186],[32.422668336221335,3.008736672580232],[32.42189950664377,3.003317527254744],[32.42049400718909,3.00230355361198],[32.4189793433623,3.003442399131615],[32.4166888016693,3.002147722222079],[32.40912428421732,3.00122992883386],[32.40639446749566,3.003028645535863],[32.40398650620287,3.001507567628345],[32.403585871399514,3.002303496827129],[32.40025994998135,3.003178918601613],[32.39622583464625,2.998870718132981],[32.393851200572634,2.999674388664229],[32.39026325809246,2.998017180875439],[32.38853846143295,2.995381721635042],[32.38930915079096,2.994202410290877],[32.38643361601712,2.991821185485835],[32.38633243848676,2.984865698038742],[32.387281949561896,2.982810468773973],[32.38715184481602,2.982557261368531],[32.38701548152905,2.982510985902294],[32.38630900777417,2.980917910804785],[32.384376044890175,2.980453159865088],[32.373508121814574,2.985828369951722],[32.374849274504584,2.990712431281174],[32.37342165732173,2.993549092193999],[32.36948143770902,2.995833089524854],[32.36244517938334,2.99527230098497],[32.360320004617336,3.005387678948039],[32.356815770855064,3.008692891443819],[32.35376891250444,3.006802181168414],[32.346688352670604,3.006099210895872],[32.33983013757176,3.012916430647949],[32.33463217416392,3.014777190505721],[32.33293422799711,3.016261411219138],[32.332449631955264,3.01915389721629],[32.33094343770318,3.020239668185163],[32.32998200166011,3.02230967377268],[32.333944051726384,3.026672775300697],[32.3297040574813,3.032093020863816],[32.33582890584933,3.030710119986793],[32.33804475660491,3.032537998211666],[32.33825400307461,3.035488098429215],[32.343869507583726,3.038648043869232],[32.34626726029653,3.040858277826622],[32.344992391574024,3.04449085752818],[32.33439777269776,3.051960665770737],[32.325974420435955,3.060859910010966],[32.3253073951252,3.063144825909541],[32.319740300178744,3.06761748985974],[32.319169164567704,3.069854269905072],[32.31974162161842,3.075179148217372],[32.31460051042103,3.078943892031245],[32.31264944005508,3.081846752425564],[32.313458459455724,3.085225954716494],[32.31334320962735,3.089821961014154]]]}},{"type":"Feature","properties":{"n":"Owoo","c":"304105","d":"Gulu","od":"Gulu","dc":"304","k":"OWOO","a":["OWOO"],"lat":2.912307,"lon":32.203159},"geometry":{"type":"Polygon","coordinates":[[[32.189685533839,2.977544361236779],[32.189480984741444,2.977934057127157],[32.190028256904405,2.9793338109285714],[32.190196961991774,2.979488123452048],[32.190147199776426,2.9796380301973935],[32.192083034578026,2.9845892999784183],[32.19308802980509,2.984478013390223],[32.19263377626362,2.9855581720251734],[32.19355940851303,2.986184450866263],[32.1962125131459,2.987198465833493],[32.196074415799586,2.987803485411177],[32.19890136092602,2.98720328707843],[32.2000600150798,2.988689838098564],[32.20343828690692,2.990301441626598],[32.20346260472243,2.992300666218001],[32.20296380538512,2.992547425771209],[32.20582722524054,2.9944848034606193],[32.20683167919401,2.994234898973796],[32.20687900636008,2.995196434090439],[32.215857445351226,3.0012712077057264],[32.21591676388803,3.001279641065033],[32.2172019169294,2.999010054611338],[32.22083653784753,2.997357220715364],[32.222687676912926,2.997624490935711],[32.222545922324095,2.998481321562039],[32.2234084729537,2.998862030674881],[32.224925096765524,2.998564580947613],[32.22469338412174,2.999968484102362],[32.22645066367389,3.00040587595984],[32.2277,3.0003],[32.2277777940719,3.0007362024745903],[32.227900570873246,3.000766761968172],[32.22857763385531,3.002680311761412],[32.22841026962699,3.004282583265617],[32.229587652780104,3.01088433880272],[32.23094576530453,3.009618853824416],[32.23581485557535,3.008208419205451],[32.23887504268198,3.002346742167489],[32.24086729045535,3.002416090618105],[32.24185971903667,3.000414162520233],[32.24397855566813,3.000189109160415],[32.24537387391628,3.002876623148115],[32.249625047639455,3.003600762396738],[32.251230278703396,3.002751950996212],[32.25233782455778,3.000421505370144],[32.25353563265725,3.001369443551038],[32.25599050410202,2.999670413178142],[32.25659919825542,2.997852506870929],[32.26073973116707,2.995957045569301],[32.261142098194114,2.997068566418799],[32.263396889613546,2.996400663833531],[32.264505307094936,2.992276268553852],[32.2631015835245,2.988611817699866],[32.263184996861085,2.986811986366937],[32.26392536129057,2.985916700184929],[32.265068658072686,2.9861702202741],[32.261753709325454,2.983915324898777],[32.26090658183541,2.979836127924944],[32.26130436401325,2.978487710037101],[32.262969128165906,2.975006902468015],[32.26468332151484,2.974916377434327],[32.26394069765566,2.973565689499537],[32.26562302247257,2.972854436210019],[32.265135679063214,2.971244148785887],[32.26577676089766,2.969542288319106],[32.26745986845739,2.969282335796768],[32.26814016898106,2.965184200848618],[32.27015077127938,2.963413015989353],[32.27077588420823,2.960237581738207],[32.27542539998634,2.957644892026212],[32.277240280383076,2.955445895251661],[32.27788483695119,2.9543545437163665],[32.278486559093594,2.951261628198838],[32.278486667839694,2.9512615303046097],[32.278486604905844,2.951260139993445],[32.279883178262004,2.950003528947612],[32.27961144819491,2.948926893309418],[32.27961272666621,2.9489260313849104],[32.27961270267842,2.948925936118372],[32.28193765835338,2.9456440481628987],[32.28268893664679,2.9440763648876396],[32.28192886786679,2.942196678666998],[32.28147786773907,2.9413668017757124],[32.27501154327403,2.937970170915988],[32.27501145772842,2.937970078979519],[32.27501122244776,2.937969958648288],[32.27223339073301,2.934984772806395],[32.267821776054625,2.938025176158415],[32.26459512756896,2.939081898081966],[32.26106019649515,2.943884888300424],[32.26105764935719,2.9438832515765965],[32.26105760808279,2.943883307598593],[32.25706866694701,2.941320209967959],[32.257068481391464,2.941319917216444],[32.25706819045746,2.941319730269907],[32.253536425178744,2.9357474828088597],[32.25353641642753,2.9357474757106163],[32.25147141268116,2.934072652693431],[32.24947062008611,2.9337069870913752],[32.24880953159003,2.9335862004151227],[32.24658108688758,2.9345773948109817],[32.24641751527561,2.9347645112383014],[32.24371534215333,2.93785734982805],[32.2394786183544,2.938017547406406],[32.23405931778354,2.939967585352568],[32.23266117447082,2.94341325086686],[32.2318728095583,2.9418157621244436],[32.22887437519193,2.940323820241092],[32.22887441924088,2.940323656031048],[32.22887395175542,2.940323423418146],[32.229625973729874,2.937519102404804],[32.22946890792035,2.9371726530742004],[32.22886932574152,2.9358548291394637],[32.21912299608689,2.9331884683526135],[32.21336309615406,2.931612768997336],[32.20833767739735,2.929214274485467],[32.208337866026994,2.929211099225132],[32.207938028814276,2.927843700582353],[32.208680149485275,2.9234493372584325],[32.20868031979111,2.923446470448401],[32.21564737928244,2.919962940679577],[32.219530160706306,2.919677328281924],[32.22101852591541,2.918719034889072],[32.21936842918699,2.914438476500596],[32.21720094224343,2.912953067437571],[32.21573990915686,2.913286323284785],[32.212623079097035,2.9116606711686024],[32.21242327862488,2.911556481376395],[32.21242325982473,2.9115564509780123],[32.21242281030009,2.911556216518425],[32.21125324232075,2.90966466549219],[32.21173836273634,2.907086821411813],[32.21443400393114,2.906147891236827],[32.216744989189124,2.904086959195455],[32.220647904910706,2.902892976780947],[32.217792638166216,2.89973028409163],[32.21590181957727,2.898761644141494],[32.214866453150776,2.898231379300875],[32.214866517244225,2.898231273218488],[32.21486628725355,2.898231155397479],[32.21670280945145,2.895191976495879],[32.22330295809306,2.893796900311061],[32.22330342652109,2.893797020304183],[32.2233038262247,2.893796935825455],[32.22698551440421,2.8947400765765536],[32.23317603254855,2.894074962452302],[32.23401086999987,2.8945592210410678],[32.23545609810119,2.895396026582952],[32.23709855573979,2.893371573815276],[32.23724046915617,2.891364277681808],[32.23724098798016,2.8913643147528583],[32.237241023194414,2.891363817792652],[32.24209098463596,2.89170994871084],[32.24437274513505,2.8892692021200257],[32.24642592244679,2.88237246568978],[32.247538844866604,2.878633938539737],[32.24623660427432,2.8771225758138206],[32.24571378758443,2.876516087960234],[32.24571383378845,2.876515855495599],[32.24571343142542,2.876515388518539],[32.24631219677274,2.8735028070021795],[32.24615653551252,2.8732892111899315],[32.245599368115975,2.872525868777466],[32.24559974944045,2.872525198531012],[32.245599728226956,2.872525169422206],[32.246013534184165,2.8717978973071636],[32.24735323060145,2.869443139528689],[32.247125577005605,2.867777428952534],[32.24712568589406,2.8677771216585235],[32.24712568148013,2.86777708944985],[32.2471258182577,2.8677767481152476],[32.249625066907335,2.860723621121323],[32.24977061064655,2.860688093916193],[32.25065204641638,2.854812554977542],[32.25095306253328,2.853942746566839],[32.25283612545171,2.853771108027842],[32.25384964568296,2.851772630427541],[32.255141525332114,2.851059103924639],[32.25380014520505,2.8485311801322],[32.2546629854395,2.847219637562714],[32.25632913308724,2.847198839311374],[32.25727805900422,2.84505969379518],[32.25523483921178,2.841464786559504],[32.256769333647654,2.836479373101199],[32.25534154097487,2.833161074118987],[32.25692397847113,2.830782326550127],[32.25839938142258,2.830625835040964],[32.259660378133546,2.82936477777051],[32.26044559958699,2.825997846271745],[32.25794985282208,2.823728745937163],[32.25455682136569,2.824849513399329],[32.25189171287137,2.824193385163514],[32.2495779468825,2.826102174253415],[32.24672438072868,2.826018756248506],[32.243217964362074,2.823375430545788],[32.24013730857861,2.823002128675629],[32.23795547253394,2.821010997450717],[32.2362131967717,2.817307187035433],[32.23352561984362,2.816515433062758],[32.23285822994652,2.815115988765828],[32.22264092686486,2.815988546767952],[32.21862506520054,2.814168014283668],[32.21270599084484,2.829235245155066],[32.21244878737087,2.835432367007908],[32.20971632659157,2.843166130847959],[32.208,2.8512],[32.210173824460846,2.8592742051403],[32.210393488346476,2.859492211126953],[32.21044334164497,2.860275268967036],[32.2108,2.8616],[32.210560104805,2.8621092962161194],[32.210622248513594,2.863085402505892],[32.20826877980778,2.868827653029586],[32.20706836236491,2.869522246744017],[32.19766318817768,2.8894893812484588],[32.1976899361585,2.890766460840386],[32.196887187770514,2.8911368259631396],[32.19573189701463,2.8935895020598585],[32.19579229349656,2.896545841454652],[32.19208590057648,2.901503722282787],[32.19204637352731,2.9020748478095233],[32.192326143497844,2.902785069280645],[32.19192606083804,2.9038132434014385],[32.191756504655515,2.906263157222435],[32.19358088734425,2.908719536047514],[32.19159812145814,2.915042227390847],[32.192510924900496,2.917710571228042],[32.19089019556001,2.918780439663561],[32.19083854607681,2.919526721992229],[32.191525913743526,2.920308823714489],[32.19078473840588,2.921654437309904],[32.191497433297755,2.923264660728759],[32.190499258845,2.924521887153566],[32.19075466207888,2.926133120536198],[32.19034756887804,2.9266208415173622],[32.18978412222005,2.9347620707797293],[32.18978534097538,2.934762769785295],[32.189955412798476,2.93997992913445],[32.18939745964096,2.940348950493936],[32.188768624211576,2.949434980779698],[32.189036975984564,2.950045795807802],[32.188620756743894,2.952302082739646],[32.18960808222198,2.953633647909155],[32.18943564072222,2.956448286964622],[32.188168695651314,2.958103336303468],[32.1881666328719,2.9581331413611216],[32.1887099694472,2.959904453277466],[32.18801889757071,2.960267765713024],[32.187218638033826,2.9718306994295736],[32.18855953713703,2.973005677389846],[32.189685533839,2.977544361236779]]]}},{"type":"Feature","properties":{"n":"Paibona","c":"304106","d":"Gulu","od":"Gulu","dc":"304","k":"PAIBONA","a":["PAIBONA"],"lat":3.054873,"lon":32.469414},"geometry":{"type":"Polygon","coordinates":[[[32.389308628004336,2.994201780202692],[32.38930854440099,2.9942019081405107],[32.38930915079096,2.994202410290877],[32.38853862205562,2.9953814758497184],[32.389393538859466,2.996688265042664],[32.39026325809246,2.998017180875439],[32.393851200572634,2.999674388664229],[32.39622583464625,2.998870718132981],[32.39998680629385,3.0028872170351715],[32.40025997670162,3.0031789115685226],[32.403585871399514,3.002303496827129],[32.40398650620287,3.001507567628345],[32.4039879427195,3.0015084750572636],[32.403988317770086,3.001507729266657],[32.40639525588561,3.0030281260540357],[32.40912428421732,3.00122992883386],[32.4166888016693,3.002147722222079],[32.417987083296886,3.0028815465617287],[32.41898012001811,3.0034418151796034],[32.42049400718909,3.00230355361198],[32.42189950664377,3.003317527254744],[32.421930228136375,3.003534069695215],[32.42211035829175,3.003688343290396],[32.42266552346269,3.0087168466678165],[32.422668336221335,3.008736672580232],[32.42401409954356,3.010429321585186],[32.42340823183871,3.011553801381081],[32.423408181206895,3.0115538402646163],[32.42340812397309,3.01155394676467],[32.422595072261416,3.0121782807020985],[32.41922522599333,3.014766209773076],[32.41816875846448,3.018749143466346],[32.416095988267315,3.022392218822196],[32.40875946627101,3.025950582817523],[32.40531684412364,3.028768866047868],[32.407948856691114,3.035302180274912],[32.40794882524175,3.035302316859182],[32.40794885845243,3.035302399214387],[32.407948731466384,3.0353027241247363],[32.407216861490326,3.0384812286303853],[32.40731525606316,3.038689593453576],[32.41005511844612,3.0392272124771655],[32.410059329841204,3.039227642370049],[32.410059585196414,3.0392280889481693],[32.410060627220176,3.039228293415299],[32.41142216888593,3.0416110443022326],[32.411488193760434,3.0417265119461003],[32.41578620510245,3.042665028886435],[32.416428690161204,3.047019430705992],[32.41897626924717,3.052665901108585],[32.417694231822246,3.0574851495268565],[32.4186275339856,3.057760583326082],[32.419161526634696,3.057917930655025],[32.41988071655271,3.057757302955406],[32.422910835133145,3.057080513341797],[32.422910890089604,3.0570805278887887],[32.4229110999196,3.057080481024241],[32.42386270999512,3.057332474920243],[32.426562689781356,3.05804716042764],[32.42656292114281,3.058047512249752],[32.42656346419509,3.058047656054303],[32.42753346409503,3.059523043666902],[32.4320363285595,3.06245568028933],[32.43468570207672,3.067184788694461],[32.434697210742115,3.0671952438939383],[32.437193654137474,3.069085985567111],[32.43759415977081,3.0698270156010437],[32.438306727372634,3.070474357074886],[32.438951795337154,3.0723389621157966],[32.438955208049904,3.072345276440571],[32.44495474231395,3.074612356127718],[32.447553100968676,3.077227120591218],[32.447782569509435,3.07894745398893],[32.44727203542867,3.080190301656823],[32.44711659687,3.081829124022149],[32.447472531432126,3.084560054393692],[32.44261523672088,3.091721431070752],[32.44269638439625,3.092033558415048],[32.44108394181139,3.0939791033559354],[32.4406044175676,3.0946860923157806],[32.44055802133201,3.0950722736695226],[32.44057445976838,3.0985896815901484],[32.44068620915548,3.0991048848739116],[32.44422017898382,3.101876046331077],[32.44422714130269,3.101881174301155],[32.44422706311817,3.101881444523115],[32.444227553283305,3.101881828885967],[32.44346938331821,3.104501346744045],[32.443855149403554,3.107981078522886],[32.44544510504501,3.109222761714546],[32.44418416438018,3.110180694991302],[32.445005077265265,3.114392335603844],[32.445896386837056,3.115498161830704],[32.44357740143502,3.119853201685492],[32.444077086814836,3.124207609579324],[32.4481809525107,3.123886384002599],[32.44982358976772,3.125136569660999],[32.44964500674122,3.126420502494008],[32.44600445241512,3.130525082974042],[32.44803868826298,3.132309993815027],[32.44743212643363,3.135771788765825],[32.44907536689464,3.134380091113766],[32.45253606281351,3.135307794800627],[32.457104074122405,3.130846705606911],[32.46085228543098,3.129632813067016],[32.46385052932138,3.129775505561671],[32.46806603810219,3.126495655871251],[32.470297053839126,3.12630530278572],[32.47093824271414,3.122451625952205],[32.47516480051167,3.119649295328856],[32.48415970585039,3.109657198183805],[32.48425930823105,3.1094576098383113],[32.48535111080277,3.1049954601973857],[32.48543502950326,3.103062516778013],[32.48649671044407,3.100313444272039],[32.4865,3.1003],[32.48650314425976,3.1002967848170875],[32.48650364970005,3.100295476051011],[32.486528933455745,3.1002704139099175],[32.491757544503955,3.0949238642666344],[32.49513213703022,3.089841628123],[32.49969148217843,3.0868109655919853],[32.4998,3.0867],[32.500619374689826,3.085277267584032],[32.51001243550568,3.068552150369011],[32.51054598430259,3.0680410636200532],[32.5108,3.0676],[32.52311188427,3.0513441973705264],[32.52372393931889,3.04992180953146],[32.52804805627789,3.043898646549599],[32.527835585094806,3.0405507398528],[32.53026435865619,3.039765035599196],[32.53280108529155,3.037477273894764],[32.53353929792007,3.036591101797946],[32.533017008149066,3.033912478247103],[32.53483979662655,3.030711038545003],[32.536434464795185,3.028966525149568],[32.53841213740354,3.028541462130101],[32.54075957639571,3.025778186578904],[32.538353149628456,3.023351213301763],[32.535896861791194,3.022779335610719],[32.533156407769155,3.019353718025562],[32.52321903748166,3.020838146767367],[32.518239557061065,3.019531600863902],[32.514595471914674,3.017046231824072],[32.51174009223594,3.012442008692781],[32.50909892466507,3.011085288694262],[32.50742145217576,3.008729730701267],[32.50749315646395,3.006017104732726],[32.510253534312355,3.002890869878034],[32.504578542974464,3.00042809785263],[32.4994729007739,2.99666271283244],[32.482379571478035,2.993322173415092],[32.477833982052225,2.98991926981167],[32.46384285258327,2.983780308889203],[32.45763272987855,2.982281277302802],[32.45599066769195,2.978854817526894],[32.45661166829205,2.969912818879944],[32.45404185057629,2.971340467252906],[32.437687120913616,2.975895118478216],[32.433975448176334,2.976037990036986],[32.43280494654459,2.9753985174500985],[32.43221112498917,2.97649049497991],[32.432104104360214,2.9765568832386635],[32.43203743520964,2.976749865543467],[32.429501735470154,2.978171214428164],[32.4294780672283,2.978185896582245],[32.43009694482016,2.983253635897564],[32.43064350475919,2.987728360669657],[32.430643412246454,2.987728437533965],[32.43064342954577,2.987728579191077],[32.42631937768039,2.991321070297351],[32.42078651674391,2.999025061142295],[32.41871797686116,2.993881271888433],[32.418473801933516,2.982053070587393],[32.41688665343105,2.98104249317668],[32.41506523882481,2.97988288020592],[32.41506489362121,2.9798825328398193],[32.41506474827674,2.979882440295337],[32.41476850448084,2.9795842869925915],[32.40952489426163,2.974307828582541],[32.407587162353316,2.97826080671922],[32.407587033178544,2.978260930663044],[32.407586982146476,2.97826103490139],[32.40644133083886,2.979360237656686],[32.4035891403655,2.982096928353693],[32.40358489334067,2.982109293078031],[32.4023156612076,2.985818291430808],[32.39523705475755,2.986562640575582],[32.39523690062605,2.9865625452583786],[32.39523683119228,2.986562552576978],[32.39181477712872,2.9844462534048484],[32.39071606937611,2.983766796258409],[32.39071459703249,2.983766296612287],[32.387173398529804,2.982599208800262],[32.387281949561896,2.982810468773973],[32.38710988056751,2.983182914385278],[32.38701837390687,2.984471343669573],[32.38633355460747,2.984863282180723],[32.38633259058175,2.9848653688271307],[32.3864287375378,2.99148581258641],[32.38643361601712,2.991821185485835],[32.388140422841104,2.9932345889277507],[32.389308628004336,2.994201780202692]]]}},{"type":"Feature","properties":{"n":"Paicho","c":"304107","d":"Gulu","od":"Gulu","dc":"304","k":"PAICHO","a":["PAICHO"],"lat":2.906653,"lon":32.494628},"geometry":{"type":"Polygon","coordinates":[[[32.41778391034234,2.896349076733697],[32.41790603548179,2.8964223813577172],[32.42018351237896,2.897787265717959],[32.418684411148995,2.901159966616448],[32.41902182356916,2.909113056432806],[32.42133968013999,2.908531506872793],[32.42590738766483,2.909102553353471],[32.42922744243116,2.912065029423746],[32.43403582860982,2.914119214918864],[32.442428985824115,2.905352904200869],[32.441921799123634,2.908238104898714],[32.443615430207075,2.913083124207264],[32.44700784604292,2.914072047465096],[32.44818269987838,2.915630576610018],[32.45339094404467,2.918883689662041],[32.45534581733852,2.921905583905637],[32.45523791127154,2.926890381316327],[32.456202407104776,2.927790284436131],[32.45578653428479,2.93022846195041],[32.4567541086398,2.931511056067845],[32.45663558601948,2.934236520981851],[32.457477138773086,2.932921583150633],[32.45911170072971,2.932416449567016],[32.46440628236933,2.936431628040703],[32.46845157231569,2.933278877505552],[32.47573832412739,2.936074680487669],[32.48005112102125,2.935896261445327],[32.48156822037931,2.933516886147519],[32.48397724803013,2.93289224191441],[32.48490119161302,2.93159044598224],[32.48942180340436,2.94065050991739],[32.49617966239503,2.946076624381936],[32.497654803511764,2.955974317432708],[32.50141434895539,2.95911520310043],[32.50336552908918,2.959686649751751],[32.50641118092455,2.963303860164851],[32.50655370774555,2.965206005698273],[32.50574543689067,2.966110149872188],[32.500081852678385,2.96758609331191],[32.49975173145187,2.975295671855917],[32.50073329879579,2.978954099099487],[32.501986015206064,2.980257903779641],[32.50359582342767,2.980513006752536],[32.50380091632324,2.982610616705958],[32.50162632065792,2.986966404377263],[32.50034238364721,2.99484870664237],[32.49935393775305,2.994711553452828],[32.49947291031627,2.996662704670458],[32.50117628635942,2.9979189509931534],[32.504578542974464,3.00042809785263],[32.505148144491656,3.0006752874250258],[32.51025157271102,3.002889779889776],[32.51025142043895,3.0028899525218677],[32.510253534312355,3.002890869878034],[32.50749315646395,3.006017104732726],[32.50742145217576,3.008729730701267],[32.50909892466507,3.011085288694262],[32.51136365239129,3.0122486383549396],[32.51173988250788,3.012441829502335],[32.51173993710541,3.0124419290050355],[32.51174009223594,3.012442008692781],[32.51447001627481,3.01684393797036],[32.51821091460714,3.0195120659009795],[32.518239557061065,3.019531600863902],[32.52321903748166,3.020838146767367],[32.52972902636734,3.0198656948680047],[32.53315569788657,3.01935358534973],[32.533155868508764,3.0193537985794308],[32.533156407769155,3.019353718025562],[32.53567273079567,3.0224991677722928],[32.53589692787653,3.022779350996834],[32.538353149628456,3.023351213301763],[32.540681022127494,3.025698961600044],[32.540759584274014,3.025778176203424],[32.5430933611619,3.022590589502966],[32.54668955308755,3.020176718575292],[32.54685896139773,3.019929765623863],[32.555429832810624,3.005359284221939],[32.55927009943597,2.997048274886454],[32.567076873854234,2.984776100875699],[32.56774814264259,2.9844181575075908],[32.569734767198526,2.9810408957625096],[32.57011653504039,2.979873301891894],[32.5756505875773,2.970928238273887],[32.5762411716276,2.968051591193293],[32.57653481346083,2.9675955300508585],[32.57770994528149,2.9629439665941],[32.57769322117121,2.962895329505387],[32.57791116256372,2.9621474815185813],[32.5781,2.9614],[32.58087878118554,2.957952252973498],[32.57337039253795,2.9523428616923764],[32.56374322615742,2.947685332180615],[32.56374312130242,2.947685213073398],[32.56374300708106,2.947685157813521],[32.55942618038117,2.942781500125355],[32.55884155065252,2.942117405706981],[32.55852866432743,2.9419111841353205],[32.55270165266791,2.938070776433937],[32.549817321917345,2.9338444804042862],[32.544142863180255,2.928883807040294],[32.542934750963475,2.928460588584989],[32.541799069847116,2.9280628118843803],[32.5397234722406,2.9287501818342436],[32.5362672189647,2.929894906124584],[32.53626703399191,2.9298948409812056],[32.53626671188535,2.929894947652351],[32.53268562956713,2.928633835335962],[32.53329150194165,2.926992663303872],[32.531971789042714,2.92537397559854],[32.531971796958985,2.925373625004805],[32.5319717205661,2.925373531384496],[32.5320312604597,2.922733028686477],[32.530340888564396,2.9209598212615617],[32.53020555637727,2.9209229846159364],[32.52818845437272,2.920377106502282],[32.531412382957356,2.916280811473488],[32.531413015875636,2.916280510267403],[32.53141334767742,2.916280087931618],[32.5339412503395,2.915077322385297],[32.53572437300495,2.914228733532464],[32.538074772144654,2.909826606614545],[32.53807561569263,2.9098263511171436],[32.5380756923995,2.909826207457244],[32.538323529574924,2.9097512619048294],[32.54426136087492,2.907952786276793],[32.54682354452566,2.908448131725695],[32.547320931182824,2.904596247600768],[32.54728556309441,2.9045856104667087],[32.5441575476553,2.903645302128352],[32.54415795816513,2.9036449672369122],[32.54415627974857,2.90364446244452],[32.54517883813983,2.902811462435066],[32.54496476528301,2.9014592267595796],[32.544941730487395,2.9013141076497444],[32.54374978577603,2.9010316591213963],[32.54322885902254,2.900908853509796],[32.543228888516296,2.9009082249863813],[32.54322828890537,2.900908082899905],[32.54334708617386,2.898386171739108],[32.54103862188919,2.8941263556067676],[32.53946940689442,2.893365524969429],[32.53865972062127,2.893841078420075],[32.53680352812328,2.892223137424283],[32.53513221504373,2.8928457340330267],[32.53316316306018,2.893579339429593],[32.53316300633654,2.8935793025535],[32.53316292463384,2.893579332989341],[32.53073649314859,2.893008398169679],[32.53073650386009,2.8930083617076274],[32.53073612008088,2.893008271406782],[32.53091204092677,2.8924108318110697],[32.53109262596854,2.891796118557836],[32.52980808752817,2.890129008554991],[32.52980810007789,2.890128676718718],[32.52980790137523,2.890128419074795],[32.52990331181677,2.887607386724428],[32.528652822040485,2.884923524940286],[32.528081752202816,2.877261659952124],[32.52808188717971,2.8772613175545136],[32.52808185734505,2.877260917171174],[32.52851305047024,2.876167580126074],[32.53074611354425,2.8705029404924627],[32.52811243539401,2.866509455596229],[32.52632094971687,2.863793910412125],[32.52632105095108,2.8637931530307443],[32.526320934858525,2.863792976997892],[32.52760567439058,2.854181612642853],[32.527605777289956,2.8541815032855387],[32.527605858939694,2.854180892424977],[32.528394419654845,2.853341838173057],[32.53358464713167,2.853294148822858],[32.53797475969948,2.8551143988675],[32.538687097992394,2.855143928552721],[32.54400578292549,2.855364231616701],[32.54737124495098,2.852290017186069],[32.549450956785556,2.852402445248063],[32.549484013921294,2.852404209800048],[32.54965528674187,2.8523169443857666],[32.55157387187763,2.851338207615011],[32.551729824826324,2.847872473847516],[32.550172755302555,2.846451407631208],[32.55017532070972,2.846449101769959],[32.5501746350112,2.846448474098216],[32.55432197867369,2.842719017191238],[32.550319372299256,2.8410428306010522],[32.55003523999865,2.8409240867858125],[32.546177573424046,2.841103064673866],[32.546176744150735,2.841102037980349],[32.54617616355852,2.841102064813838],[32.54527144010901,2.83998182599866],[32.54527153079583,2.839981325824508],[32.545271355942404,2.839981109344757],[32.54578221667683,2.8371585013620497],[32.54436874576366,2.837091157835766],[32.54250405540799,2.837002365781404],[32.53796242215636,2.834763993203773],[32.537113766545865,2.8349019563376183],[32.536236020730996,2.835044762754812],[32.53623581972696,2.83504468124627],[32.53623580054889,2.835044684363986],[32.53602537936732,2.8349593462093248],[32.53407417726621,2.834168120117212],[32.53041847116113,2.834698306873896],[32.530418307431205,2.8346976136923634],[32.53041800672922,2.834697657252373],[32.53010808113248,2.8333842120824553],[32.529812457502146,2.832132633626314],[32.52858825696319,2.8309902164903114],[32.528102413963296,2.830536927780122],[32.52659485728057,2.827329960108003],[32.52749737107779,2.825468431679105],[32.525381707768865,2.822251740039372],[32.52578557143532,2.821160659056835],[32.52459518152385,2.819539963117076],[32.52454825479164,2.817044199017861],[32.52178719411186,2.816924774846287],[32.52074111768187,2.814902683548357],[32.51574286132272,2.813116921639463],[32.51569665837473,2.810262730510535],[32.51378048277339,2.808141351918328],[32.51114798558345,2.810194065901613],[32.50946542819349,2.810139650751126],[32.50836636691484,2.806899653508543],[32.50632345098673,2.806211234055158],[32.50522497464039,2.806743679041845],[32.50363022867413,2.805631158859752],[32.50361162146954,2.8055948461308993],[32.5036,2.8056],[32.49703311987532,2.800154961896621],[32.49607410833897,2.799466673563136],[32.49604990257252,2.79933971088305],[32.491479939000264,2.795550449421054],[32.49045776189567,2.795718824070546],[32.48840045039872,2.794062684738259],[32.48500386945481,2.794531598086615],[32.48401350747844,2.790903423297882],[32.48269880451312,2.790422262711953],[32.48149611918498,2.78747358025997],[32.47958138561694,2.7857000802344096],[32.47957883746383,2.7857000912178282],[32.47772607466551,2.786196171952903],[32.476043647531576,2.785715329105467],[32.474839613339114,2.785720518908021],[32.47360249302263,2.786871332974348],[32.47163019055595,2.785940264723193],[32.46974624862059,2.786826179668421],[32.46626446461311,2.786923839970363],[32.46465656543669,2.7857644113558764],[32.45726748637055,2.78579626083461],[32.4562231753108,2.786045072814867],[32.45577732891444,2.786663000276484],[32.45335627602396,2.793612482683404],[32.450701151510096,2.793710485961953],[32.44854363738668,2.79209045047938],[32.443125403716515,2.802789761691062],[32.43902369889684,2.803043721484718],[32.43564508581832,2.805660979904103],[32.435072560686514,2.807232313709118],[32.42831626697254,2.8096585604918],[32.422938655604405,2.817653635122598],[32.42074959517015,2.826838141200145],[32.42113671352589,2.833131837659243],[32.413594883097815,2.838202440351079],[32.40730885947914,2.844794211333083],[32.39771903262397,2.852729875681143],[32.400834308783786,2.856172873414423],[32.39687445700286,2.857576006528264],[32.39508848866008,2.859593400907227],[32.393590214714216,2.86458125674123],[32.394242972136944,2.872099180049354],[32.39264713274618,2.874251458872497],[32.3924942865337,2.877363830015176],[32.39035888184116,2.881723226769092],[32.389732141184055,2.882608823573775],[32.38740634186526,2.883204804479818],[32.38454365635412,2.887979865301761],[32.38397666466154,2.890847226699994],[32.38452997886139,2.89480131615796],[32.38713469571926,2.8951882016707353],[32.390995122872866,2.895761583154593],[32.3922539755679,2.896599867032984],[32.3988768234585,2.89659986175908],[32.407410466332884,2.895158208446112],[32.41168198658337,2.895438959371363],[32.41778337827801,2.896348873301796],[32.417783672089875,2.8963490493822754],[32.41778391034234,2.896349076733697]]]}},{"type":"Feature","properties":{"n":"Palaro","c":"304108","d":"Gulu","od":"Gulu","dc":"304","k":"PALARO","a":["PALARO"],"lat":3.189924,"lon":32.395307},"geometry":{"type":"MultiPolygon","coordinates":[[[[32.2838479979758,3.161360752598927],[32.2882,3.1703],[32.3277,3.233],[32.3275,3.2511],[32.3508,3.2672],[32.3642,3.2678],[32.3597,3.2828],[32.3631,3.2991],[32.36355888008574,3.2990102941185775],[32.36534647436311,3.298493756708073],[32.36595766600165,3.2985413585259944],[32.3764,3.2965],[32.38514271152758,3.286496320463639],[32.388229208874286,3.280878101889879],[32.38860771943166,3.2798923973133816],[32.388381987443395,3.275584379472316],[32.395339279282915,3.262362293534071],[32.3964,3.2596],[32.41251954471338,3.249296785853301],[32.41536585794796,3.247396904509936],[32.41548930613582,3.2473985878307103],[32.4158,3.2472],[32.44779115049254,3.2347082174267214],[32.44792951131972,3.234014839686076],[32.44616861765217,3.232485725030171],[32.44598805376958,3.231510528009039],[32.4470209339447,3.230473528903668],[32.457957863707215,3.2306539524385336],[32.45863720527012,3.2300254597950078],[32.45947434093279,3.226145655486498],[32.465435579595706,3.2237359458231345],[32.46793790670376,3.2214209186483176],[32.46726530718783,3.218605495422159],[32.468050588770446,3.216202072868835],[32.47739473292743,3.2126719386988754],[32.47867997156168,3.2114829005612004],[32.48407336548611,3.205622630668986],[32.48569975365197,3.204988551262097],[32.48933393079103,3.2016263933699793],[32.49152449115331,3.197995749284541],[32.49180210109397,3.1963666172643643],[32.48991958586344,3.192684352510658],[32.49018380689569,3.187163583386008],[32.49348124786636,3.186512676994769],[32.49487126044341,3.1783554979241773],[32.49478120346543,3.177911521874278],[32.49499751762547,3.1776145676189236],[32.495,3.1776],[32.5002087550501,3.167554543831946],[32.500255706052826,3.167402549877126],[32.500321677963946,3.167336763926668],[32.5006,3.1668],[32.5013281544,3.1663331245317656],[32.50342825762582,3.164238941046385],[32.504686058528165,3.164180115414294],[32.51037580813863,3.1605319818405238],[32.51045906598669,3.159795886754209],[32.51232662471165,3.157139791270704],[32.51450486253887,3.157884529313314],[32.51668093454871,3.156489283142297],[32.51574869035161,3.15210788727588],[32.51348842988573,3.151604551200788],[32.51496759355099,3.1487266924264556],[32.51441567360257,3.147222710567012],[32.513536722957014,3.147049036599],[32.51356103042464,3.14501457966307],[32.5136153545119,3.144938177886295],[32.5174,3.1297],[32.492,3.1327],[32.48067905716994,3.129361104418784],[32.476129149951454,3.128615353496669],[32.47029705923832,3.12630531424148],[32.47027605880281,3.126307094108783],[32.46806603810219,3.126495655871251],[32.468059838126926,3.1265004797224165],[32.46459943055865,3.129490209467107],[32.46419755919495,3.1295055011843638],[32.46385052932138,3.129775505561671],[32.46085228543098,3.129632813067016],[32.45710431200928,3.13084662856507],[32.455605659698605,3.132310047079094],[32.45253606281351,3.135307794800627],[32.45030690533546,3.134710227820036],[32.44907527177732,3.134380171670784],[32.44841372407739,3.1349404514366257],[32.44743457575406,3.135771897472901],[32.44743502289402,3.1357693356877663],[32.44743212643363,3.135771788765825],[32.44803868826298,3.132309993815027],[32.44600445241512,3.130525082974042],[32.4460058740977,3.130523480083369],[32.44600527264846,3.130522951649032],[32.44958570406302,3.126487363909487],[32.44964500674122,3.126420502494008],[32.44965462551093,3.1263513478017253],[32.44982339823947,3.125136423891825],[32.44818102726342,3.123886440895735],[32.448102046391114,3.1238925602923824],[32.444077086814836,3.124207609579324],[32.44357740143502,3.119853201685492],[32.443577791088146,3.1198524699193984],[32.4435777570291,3.119852173058731],[32.44387481633676,3.1192946583892165],[32.445896386837056,3.115498161830704],[32.445005077265265,3.114392335603844],[32.44418416438018,3.110180694991302],[32.44544510504501,3.109222761714546],[32.443855149403554,3.107981078522886],[32.44383703026628,3.1078176381890135],[32.443837010019415,3.107817620583838],[32.443855141286726,3.107981068018419],[32.43937783315389,3.1051668414173417],[32.43937696193755,3.10516635586017],[32.43743607924786,3.10510994022399],[32.43447476809603,3.106501455414231],[32.43447414587134,3.1065009300429853],[32.43447357633511,3.106501197525188],[32.433762669136094,3.105900199432849],[32.431808046173344,3.104249826642242],[32.427976328726324,3.1045388417064803],[32.427791898143006,3.104552870633889],[32.427791742101824,3.1045527645272193],[32.42779116399069,3.104552808132425],[32.42494266546354,3.102615487272161],[32.420774200708436,3.102314442907756],[32.410228104431404,3.095695883623224],[32.40932113539818,3.095430463442032],[32.40818189041792,3.0950976006799884],[32.40719427753335,3.095381795701743],[32.40589392443674,3.095756811641131],[32.40589319520838,3.095756194543057],[32.40589251272323,3.095756390934664],[32.40148557337555,3.092026989720262],[32.398767424227536,3.09196389546028],[32.3970803363161,3.091924918283328],[32.39708015513045,3.091924730208753],[32.397079654131495,3.091924718579458],[32.39520826941167,3.089982264412225],[32.38889476117097,3.094410881927505],[32.380045432749824,3.09612371325889],[32.379657970814534,3.097124501856478],[32.37702013206003,3.095395357665354],[32.37234045612893,3.095316265391054],[32.37233940250894,3.095315260528151],[32.37233830239449,3.095315241724296],[32.36899807614901,3.092128883479032],[32.36899792317123,3.09212841074769],[32.368997387851934,3.092127900200711],[32.367926562312505,3.088820338785831],[32.36791772811302,3.088462567303024],[32.36785462675078,3.08593100602396],[32.36785519800121,3.0859301940121586],[32.36785517598472,3.085929302378374],[32.370577544098964,3.082052281000182],[32.370519707833026,3.0820384285824276],[32.352797264870176,3.07795686476838],[32.35105145228363,3.079086215810463],[32.349844122208715,3.080447878189735],[32.34767783965723,3.081268576600252],[32.34767745322516,3.081268826579813],[32.34252656701437,3.08125064105798],[32.338995716457,3.082725479679082],[32.33811467220713,3.082124524312483],[32.33785640621794,3.084439802990823],[32.33781896048816,3.0847786139439],[32.33781856843487,3.0847790075939963],[32.33781847197355,3.084779872341397],[32.337380112057296,3.085219249778801],[32.337035608842996,3.085565156134586],[32.33828190073767,3.087429533331298],[32.33828183141612,3.0874298792038966],[32.338281913554916,3.087430002046587],[32.33790084656319,3.0893307631901163],[32.33742987953323,3.091680603816053],[32.33767900591474,3.092512457113532],[32.337909596781515,3.093281623095617],[32.33790940385525,3.093281774619736],[32.33790958609315,3.093282383126926],[32.33688442770198,3.094087846401776],[32.336874268871746,3.0941244299434945],[32.335189008396,3.100427824836824],[32.33511037953296,3.100476472227155],[32.33507055120925,3.100619900270378],[32.33449158884721,3.1008593157640045],[32.3326420248992,3.102003634222219],[32.3323571819919,3.1017419466643283],[32.33190253260126,3.101929955618663],[32.33118323901016,3.1006634354424545],[32.33031047875429,3.099861623306266],[32.32735747200604,3.0939270886153727],[32.32734052234583,3.093897243935948],[32.31362594343077,3.0899042782605917],[32.313343206341685,3.089821971590538],[32.31188334433259,3.092386300946237],[32.31140806946933,3.095286707702921],[32.30907037341667,3.09639897003851],[32.30851806242884,3.092684785130316],[32.30502739629406,3.09083166290042],[32.30244381664007,3.090803222370104],[32.30005920198262,3.089675253265233],[32.29704614363329,3.091788158261624],[32.29304968186912,3.091888165121699],[32.28828074951198,3.089004236259553],[32.28510541550906,3.088583476576021],[32.27982683997327,3.092241246311609],[32.27521742569912,3.093193255642285],[32.27451521295677,3.095773741132954],[32.27190434586089,3.099378439671688],[32.2727778555753,3.101716374387712],[32.27119078261372,3.106704843039103],[32.269489448678335,3.108358430648608],[32.26900365679502,3.111357686929048],[32.26720041614944,3.1126640091486],[32.26743793453658,3.115958534177166],[32.26847496500839,3.117153572382031],[32.26840156232592,3.120202908368566],[32.26677408412821,3.124137620389588],[32.26727212194383,3.126037521672135],[32.26505776212592,3.126904721773596],[32.265734483878994,3.129952795497509],[32.26284089792017,3.130413146991653],[32.261570310937856,3.134202181389793],[32.25923454940053,3.135312149103951],[32.2644,3.1343],[32.2799,3.1413],[32.28076602109604,3.1545789901392842],[32.28184446473275,3.15600057941362],[32.2838479979758,3.161360752598927]]],[[[32.24960030480294,3.137197912099885],[32.2496,3.1372],[32.24965933807717,3.137188372944338],[32.249638745172355,3.137179428326787],[32.24960030480294,3.137197912099885]]]]}},{"type":"Feature","properties":{"n":"Patiko","c":"304109","d":"Gulu","od":"Gulu","dc":"304","k":"PATIKO","a":["PATIKO"],"lat":3.045388,"lon":32.285132},"geometry":{"type":"Polygon","coordinates":[[[32.23068640764963,3.062197260161038],[32.23140038572643,3.061625135700738],[32.23449862106242,3.062819560209407],[32.23386895458864,3.06631220846102],[32.2319057702238,3.067502365900153],[32.23166517981601,3.0685989091432813],[32.2317,3.0687],[32.23733452162564,3.073236887542723],[32.237801387540664,3.073243476643954],[32.2381878724713,3.0739240012106577],[32.2394,3.0749],[32.240139803531385,3.0828264664076994],[32.241864172241364,3.083504928493755],[32.24041049211776,3.085643884492514],[32.2404092418072,3.0857133050771512],[32.2408,3.0899],[32.243959172890705,3.0948115266035128],[32.24396760191816,3.094816662711967],[32.24396596528492,3.094822086653901],[32.24810257333005,3.1012532194740645],[32.24814374878061,3.101259345269745],[32.248181841182664,3.1013764562136723],[32.2536,3.1098],[32.25279798209154,3.1152938226729106],[32.2530870485031,3.116326298533437],[32.25211151962871,3.120074570657954],[32.253991272579725,3.121050165203422],[32.25400837709524,3.121954330706566],[32.252153198867134,3.12453595835002],[32.25222424018986,3.126089031715514],[32.251191380848425,3.1262990411882927],[32.24960036173203,3.137197522135603],[32.24963766994031,3.137179575936619],[32.24963807361441,3.1371797512405575],[32.249638745172355,3.137179428326787],[32.24965933807717,3.137188372944338],[32.24965836565822,3.1371885634858896],[32.24965836565822,3.13718856348589],[32.259234078830545,3.135312241310232],[32.25980359305498,3.135041736189663],[32.261570310937856,3.134202181389793],[32.26284089792017,3.130413146991653],[32.265734025923805,3.1299528683553253],[32.26529956339465,3.1279938371896],[32.26505776212592,3.126904721773596],[32.26505800465294,3.1269046267937926],[32.26505798077409,3.126904519121852],[32.26544533808703,3.1267529370861764],[32.26727212194383,3.126037521672135],[32.26677408412821,3.124137620389588],[32.26677446075257,3.1241367098345956],[32.26677434899976,3.124136283477106],[32.2673732088174,3.122689132096477],[32.26840156232592,3.120202908368566],[32.26847493900111,3.1171546527912315],[32.26763633366547,3.1161871625012925],[32.26743793453658,3.115958534177166],[32.26720041614944,3.1126640091486],[32.26900365679502,3.111357686929048],[32.269489448678335,3.108358430648608],[32.269489997819356,3.1083578969187102],[32.269490053111134,3.108357555682038],[32.2707299761664,3.107152717389824],[32.27119078261372,3.106704843039103],[32.27277782453843,3.10171647194243],[32.27240615416523,3.100721521535759],[32.27190434586089,3.099378439671688],[32.27451521295677,3.095773741132954],[32.27481339831146,3.094677972094746],[32.27521702193199,3.093193631447844],[32.27521734139223,3.093193565452542],[32.27521742569912,3.093193255642285],[32.27982683997327,3.092241246311609],[32.28510541550906,3.088583476576021],[32.28528467067178,3.088607229461692],[32.28535293668627,3.088561773017821],[32.28825794472116,3.0890012144241923],[32.28828074951198,3.089004236259553],[32.29304960964705,3.0918881214466576],[32.29494815978151,3.091840657895021],[32.29704614363329,3.091788158261624],[32.299078700051766,3.09036282953774],[32.30005884767882,3.089675301298243],[32.30005901836467,3.0896753820271856],[32.30005920198262,3.089675253265233],[32.30244363342007,3.0908031357034793],[32.30365451352407,3.090816549948907],[32.30502739629406,3.09083166290042],[32.30851806242884,3.092684785130316],[32.30907037341667,3.09639897003851],[32.31140806946933,3.095286707702921],[32.31188334433259,3.092386300946237],[32.31271636101969,3.0909230604952813],[32.31334321052154,3.089821850846897],[32.31297862221737,3.083221717124871],[32.31264944005508,3.081846752425564],[32.31288343820015,3.0814986030407296],[32.312839637955015,3.08070568820591],[32.314088334871684,3.0797059220139116],[32.31460051042103,3.078943892031245],[32.31974162161842,3.075179148217372],[32.319169164567704,3.069854269905072],[32.319740300178744,3.06761748985974],[32.31974065633455,3.067617203720332],[32.31974069406193,3.067617056007899],[32.32530740403616,3.063144795384785],[32.325974420435955,3.060859910010966],[32.33439777269776,3.051960665770737],[32.33439780767414,3.0519606411104037],[32.33439783844679,3.051960608597917],[32.33448654313301,3.0518980775703812],[32.344992391574024,3.04449085752818],[32.34626726029653,3.040858277826622],[32.34625687018844,3.0408487002877878],[32.3382633228465,3.0354933428325688],[32.33825400307461,3.035488098429215],[32.33805170812421,3.032636005497734],[32.33804461927493,3.0325378849267475],[32.33582890584933,3.030710119986793],[32.3297040574813,3.032093020863816],[32.333944051726384,3.026672775300697],[32.32998200166011,3.02230967377268],[32.33092521351111,3.0202789055111285],[32.330943341897985,3.020239794100343],[32.330943397990474,3.0202397536880174],[32.33094343770318,3.020239668185163],[32.332449631955264,3.01915389721629],[32.33272209441227,3.017527606917608],[32.332933956677984,3.016262115118995],[32.332934136388886,3.016261958015809],[32.33293422799711,3.016261411219138],[32.33463217416392,3.014777190505721],[32.334632839914754,3.014776952181146],[32.33463294942332,3.014776856448804],[32.33983019275545,3.012916375794122],[32.346688352670604,3.006099210895872],[32.352924681008425,3.006718364399857],[32.353768376682076,3.006802116696291],[32.35376839277648,3.00680212956892],[32.35376891250444,3.006802181168414],[32.35672855025113,3.0086387672039896],[32.36030765258522,3.0053993294524446],[32.36031984628365,3.005387828289239],[32.360927440201706,3.00249641531061],[32.36244517938334,2.99527230098497],[32.36948143770902,2.995833089524854],[32.3731072543916,2.9937313397649],[32.373421669546595,2.9935490679033108],[32.374849274504584,2.990712431281174],[32.373508121814574,2.985828369951722],[32.38325913948085,2.9810055746347066],[32.38437603521478,2.980453152950501],[32.384339829717455,2.980316820268251],[32.38411663129775,2.980248691991375],[32.383775318479294,2.9785870152785305],[32.38275312740526,2.978007355237291],[32.3813655827414,2.977294222075666],[32.381324378628456,2.977197146073935],[32.38126040013546,2.977160865405057],[32.37975718478579,2.973504871169916],[32.37973161131154,2.973444620615959],[32.3797399956847,2.9734106594054257],[32.38047733649233,2.969701295903053],[32.38029435360779,2.969397158686613],[32.37802973529366,2.969206728508571],[32.37585258277567,2.969384784511339],[32.37317766415609,2.9687987212232656],[32.36504637513222,2.968114966787975],[32.36504633992133,2.968114938206565],[32.365045914780616,2.968114943291879],[32.36264139911461,2.9661631751479463],[32.35777399783084,2.9648571400041828],[32.353378724624974,2.9663647003884512],[32.352359234303314,2.9667144200313],[32.34763497146999,2.97201518205885],[32.34763485114218,2.972015226149874],[32.3476346633357,2.972015436873986],[32.345873337047955,2.972660758390055],[32.34587322679822,2.972660727991659],[32.345873053703905,2.97266079141761],[32.335344541619946,2.969759030894535],[32.3319206708726,2.965186158791315],[32.331882405120574,2.965135058164939],[32.33188240309906,2.9651350489080865],[32.33188225669053,2.965134853366977],[32.33087606147547,2.960529335031369],[32.32643089197889,2.95633828717849],[32.32515321954814,2.956263739274106],[32.320320469645175,2.955981903179954],[32.31357114602987,2.958248396495278],[32.31356171260466,2.9582546709499633],[32.31071861399322,2.960146237064896],[32.31071795415711,2.9601461401796776],[32.31071788414451,2.960146186747165],[32.31034251694883,2.960091013890284],[32.307934250760084,2.959737402751245],[32.306652100830924,2.958399401690763],[32.305905442511325,2.9576205100808677],[32.30516360822037,2.9577632436617014],[32.305163602642864,2.957763244745942],[32.3051516377656,2.957772035039092],[32.30031060337276,2.961668339861275],[32.30003316560781,2.96153244726375],[32.29988522644403,2.961641134431094],[32.29916626790098,2.961107829579889],[32.297442092225836,2.960263306084229],[32.29685937338167,2.959396634893835],[32.29578393552351,2.958598902907105],[32.29450972845574,2.9559022592172983],[32.29237008985007,2.95590137686816],[32.29236976246662,2.9559008805346783],[32.29236864041264,2.955900879866504],[32.2916529295396,2.954814694054557],[32.28956246285819,2.9541155040528038],[32.28953974484058,2.954107906126784],[32.289242523755554,2.954383162745357],[32.288084946251864,2.9554557948084637],[32.28694612735031,2.958376809567716],[32.28674898636183,2.958443430684777],[32.28666186615543,2.958638272683413],[32.28446401450068,2.959215818674092],[32.28163552210199,2.957242350821911],[32.28163307731466,2.957241919288264],[32.279236373120206,2.957303217485784],[32.27689032027953,2.9564047670281917],[32.276694392112645,2.956370183408052],[32.27671387511904,2.9563371951336346],[32.27655491356233,2.9562763188051493],[32.27542539998634,2.957644892026212],[32.27077588420823,2.960237581738207],[32.27037874235708,2.9622549737621044],[32.27015172811917,2.963410845502127],[32.270151087332,2.9634114105125264],[32.27015077127938,2.963413015989353],[32.268536125285344,2.9648353940201093],[32.2681401057077,2.965184582007782],[32.267900576695396,2.9666275063952683],[32.2674604290678,2.969280050329372],[32.26746024302152,2.9692800794199297],[32.26745986845739,2.969282335796768],[32.26631157446782,2.96945968745635],[32.26577635117177,2.969543376005968],[32.265135679063214,2.971244148785887],[32.26562302247257,2.972854436210019],[32.26562198887397,2.9728548731948385],[32.265622163665654,2.972855451893983],[32.26394146233929,2.9735670803098793],[32.26468332151484,2.974916377434327],[32.26468297426028,2.9749163957725324],[32.26468304809863,2.974916529665809],[32.264485153724394,2.974926842499961],[32.26296964399988,2.975006875227279],[32.26148515920878,2.978109690553651],[32.26130436401325,2.978487710037101],[32.260906634066245,2.979835950870758],[32.26175374768298,2.983915350990344],[32.26187977757023,2.984001079075931],[32.26506788658656,2.986165258644535],[32.26505828651093,2.9861631653274263],[32.265068658072686,2.9861702202741],[32.26392583644424,2.985916805547773],[32.263467847645934,2.986469948865993],[32.263185058769054,2.9868119115046827],[32.263138298430604,2.987819610588934],[32.263101585070615,2.9886117843389655],[32.26450522525891,2.992275732859978],[32.26450517437951,2.992275922097355],[32.264505307094936,2.992276268553852],[32.263396889613546,2.996400663833531],[32.261802230215174,2.996873025545402],[32.261143366777425,2.997068586364072],[32.26114323755863,2.9970682289221693],[32.261142098194114,2.997068566418799],[32.26073973116707,2.995957045569301],[32.25659919825542,2.997852506870929],[32.25599050410202,2.999670413178142],[32.25353563265725,3.001369443551038],[32.25233782455778,3.000421505370144],[32.2512427488412,3.0027257119217925],[32.25123039589629,3.002751741988985],[32.25123037203648,3.0027517546091453],[32.251230278703396,3.002751950996212],[32.250258333986594,3.0032658942999735],[32.24962535817522,3.00360069393873],[32.24962522124007,3.0036006706004934],[32.249625047639455,3.003600762396738],[32.24537387391628,3.002876623148115],[32.24537357691618,3.0028760510980343],[32.24537274901794,3.002875909997047],[32.24461657172662,3.0014179880085505],[32.24397855566813,3.000189109160415],[32.241860190774574,3.0004141124143406],[32.24086846375133,3.002415070733624],[32.24086780720696,3.0024150482261507],[32.24086729045535,3.002416090618105],[32.23887504268198,3.002346742167489],[32.23581485557535,3.008208419205451],[32.23094576530453,3.009618853824416],[32.23000739286759,3.0104932263095],[32.22958765469617,3.010884349546357],[32.2305,3.016],[32.23034836588677,3.0170523407458023],[32.230380253220986,3.017461082551171],[32.23026596864906,3.0176241775755477],[32.228295774693535,3.0312973236268395],[32.22843493505734,3.031695649330873],[32.22820753467353,3.03190970936567],[32.22701647655896,3.040175652680811],[32.2271382058507,3.040785734249883],[32.226825060497944,3.041504080144238],[32.22662247866843,3.0429099980410452],[32.22688011106071,3.044984921198038],[32.226207455986795,3.0457902554516054],[32.2255,3.0507],[32.23035680203067,3.064800392992269],[32.23125140857236,3.064647006095435],[32.23068640764963,3.062197260161038]]]}},{"type":"Feature","properties":{"n":"Pukony","c":"304110","d":"Gulu","od":"Gulu","dc":"304","k":"PUKONY","a":["PUKONY"],"lat":2.953491,"lon":32.462835},"geometry":{"type":"Polygon","coordinates":[[[32.42055831096178,2.930597093415786],[32.42055831170003,2.930597124926448],[32.420558604512316,2.93059751411376],[32.42060918170398,2.9327684216542624],[32.420700172215426,2.9366521917425255],[32.42308351707087,2.937832470194644],[32.425296424680056,2.942634238871479],[32.425198183112904,2.943504031088239],[32.42507111185882,2.9446326227959485],[32.42817116880455,2.949658396860718],[32.42824643976599,2.9510069533160626],[32.428528093496766,2.956052156958495],[32.42852805119625,2.956052310847308],[32.428528093496766,2.956053068704376],[32.42793529536323,2.958208750199958],[32.4278738123267,2.9584324248263383],[32.428766202348534,2.962150786127658],[32.428766251978786,2.962150856813143],[32.43266342284246,2.966908009317895],[32.43429276652069,2.9672526618435686],[32.434357263100836,2.967266237978664],[32.4343573051757,2.9672663136045507],[32.434357768189834,2.967266411545208],[32.43534194563078,2.969035468274526],[32.43495666161157,2.971335380094865],[32.43493126000442,2.971487745926012],[32.434931092648625,2.971488011289479],[32.434930913635164,2.971489079891243],[32.43280494654459,2.975398517450099],[32.433975429289745,2.976037979718798],[32.434415481742235,2.976021052045433],[32.43768709380438,2.9758951195217183],[32.44323626449374,2.9743497298274755],[32.45404185057629,2.971340467252906],[32.45661166829205,2.969912818879944],[32.45599066769195,2.978854817526894],[32.45763272987855,2.982281277302802],[32.46384285258327,2.983780308889203],[32.477833982052225,2.98991926981167],[32.48237943414071,2.9933220706020927],[32.4994728979158,2.996662701434729],[32.49946880970117,2.9965954545420654],[32.49935393775305,2.994711553452828],[32.50034231643536,2.994848697316296],[32.500955853419214,2.991082513960704],[32.50162632065792,2.986966404377263],[32.50380091632324,2.982610616705958],[32.50359582342767,2.980513006752536],[32.501986015206064,2.980257903779641],[32.501044141909205,2.9792776190140855],[32.50073352351236,2.978954503467514],[32.50073346003764,2.9789542669171007],[32.50073329879579,2.978954099099487],[32.49975186938283,2.9752961859422524],[32.49975183504365,2.975296057970881],[32.49975183504421,2.9752960579578125],[32.49975173145187,2.975295671855917],[32.499925334621516,2.971241381600199],[32.50008167787426,2.967587647680998],[32.50008178734324,2.9675876191344757],[32.500081852678385,2.96758609331191],[32.50574543689067,2.966110149872188],[32.50655370774555,2.965206005698273],[32.50641118092455,2.963303860164851],[32.50336552908918,2.959686649751751],[32.50141434895539,2.95911520310043],[32.497654803511764,2.955974317432708],[32.496195987998725,2.946186163606644],[32.496179652624924,2.9460766165371894],[32.48942180340436,2.94065050991739],[32.4894217181503,2.940650339053957],[32.489421627360244,2.940650266164219],[32.48927851447468,2.94036333487913],[32.48490119161302,2.93159044598224],[32.48397724803013,2.93289224191441],[32.48397656862438,2.9328924180796294],[32.483976327939324,2.932892759466467],[32.48222735508074,2.9333459770714243],[32.48156822037931,2.933516886147519],[32.48005112102125,2.935896261445327],[32.48004955106321,2.9358963263939937],[32.48004953522753,2.935896351207286],[32.47931358623405,2.935926773026017],[32.47573832412739,2.936074680487669],[32.475738047996465,2.9360745745409207],[32.47573789987475,2.936074580663807],[32.468451525668435,2.933278913860716],[32.46440628236933,2.936431628040703],[32.464405958269836,2.936431382257861],[32.464405809900576,2.936431497879979],[32.462358256518,2.9348784950697637],[32.45911170072971,2.932416449567016],[32.45801633835043,2.9327549526881502],[32.45747711404804,2.9329216217838567],[32.45663558601948,2.934236520981851],[32.45663594227776,2.9342283287108297],[32.45663321891966,2.934232563338712],[32.45675402531159,2.9315109456099013],[32.45578653428479,2.93022846195041],[32.4557868467317,2.930226630137931],[32.45578677764767,2.930226538423091],[32.45620215886115,2.9277900528174965],[32.45523791127154,2.926890381316327],[32.4553458169569,2.921905601534926],[32.45339082304737,2.9188836140861114],[32.44839970945829,2.915766122616366],[32.4481828155875,2.915630661305216],[32.448182797890404,2.9156306378291488],[32.44818269987838,2.915630576610018],[32.44700784604292,2.914072047465096],[32.443615430207075,2.913083124207264],[32.443615263838446,2.9130826482717285],[32.44361505240015,2.913082586610196],[32.44299152305969,2.9112982950284794],[32.441921799123634,2.908238104898714],[32.442428985824115,2.905352904200869],[32.43403582860982,2.914119214918864],[32.42962604634454,2.912235316573472],[32.4292289903692,2.912065880788493],[32.42922858169178,2.912065516126051],[32.42922744243116,2.912065029423746],[32.42590738766483,2.909102553353471],[32.42133968013999,2.908531506872793],[32.41920502649657,2.9090670908699807],[32.41902182392758,2.909113064881083],[32.41904910864893,2.909756188330419],[32.42032009566583,2.917934260564281],[32.420320067072865,2.917934364810966],[32.42032008247415,2.917934438653392],[32.419102374570286,2.922374092856132],[32.41753222052642,2.924687399941086],[32.418302903691206,2.927599381292166],[32.419433889894606,2.9291026155976416],[32.42055831096178,2.930597093415786]]]}},{"type":"Feature","properties":{"n":"Unyama","c":"304111","d":"Gulu","od":"Gulu","dc":"304","k":"UNYAMA","a":["UNYAMA"],"lat":2.839089,"lon":32.377369},"geometry":{"type":"Polygon","coordinates":[[[32.348259570875264,2.841730036751559],[32.34736759834098,2.848629751058472],[32.342181717746506,2.857360878305499],[32.34064186382577,2.858571922371871],[32.340641873468584,2.8585719408504615],[32.346637339284044,2.862330779495776],[32.34663739542284,2.8623308110738663],[32.35098049773052,2.863461396034965],[32.350980579095065,2.863461529353225],[32.35098067714983,2.863461554877091],[32.35319481627213,2.8670880979892694],[32.36079011409659,2.866546894203708],[32.3638471303432,2.866328409857765],[32.36384696393821,2.8663290780305424],[32.36384848024811,2.866328969985713],[32.36222358509236,2.872847497441587],[32.36221627771126,2.8728768390674753],[32.363265552716754,2.876731730909344],[32.36334937975998,2.877039556393755],[32.36334936631796,2.8770396505356066],[32.36334937996505,2.877039700673132],[32.36176584540034,2.888130058987037],[32.363455884518544,2.891849039237778],[32.365615169055474,2.8933551110266866],[32.366298533664626,2.893831582144136],[32.36629863547349,2.8938318196184665],[32.36629884279082,2.893831964219499],[32.37008589495665,2.902659538500106],[32.38043032086433,2.895932901938409],[32.38425754201482,2.8948765236863183],[32.38452996735484,2.89480131691985],[32.38431789583717,2.8932857301663146],[32.38397666466154,2.890847226699994],[32.3839766756036,2.8908471713643826],[32.38397666883203,2.890847122970801],[32.38454344118018,2.887980631493803],[32.38454353618717,2.8879804730039225],[32.38454365635412,2.887979865301761],[32.387147921426234,2.8836358589247304],[32.38740605998542,2.883205234299079],[32.38740608857868,2.883205226970805],[32.38740634186526,2.883204804479818],[32.389732141184055,2.882608823573775],[32.390325534429344,2.8817703473141107],[32.390358944654125,2.8817230985373685],[32.39229120724245,2.8777784133520723],[32.39249428712462,2.8773638179823244],[32.39255455831555,2.876136530028281],[32.392646799610525,2.874252691072448],[32.392647091577075,2.8742522971892033],[32.39264713274618,2.874251458872497],[32.394242972136944,2.872099180049354],[32.39384678676126,2.867536242629548],[32.39359019117885,2.864581715594144],[32.393590240343066,2.8645815519132816],[32.393590214714216,2.86458125674123],[32.39508848866008,2.859593400907227],[32.395877163152704,2.8587025298597752],[32.396873932615094,2.857576323921588],[32.3968742872976,2.857576198223959],[32.39687445700286,2.857576006528264],[32.399267263483885,2.8567281399427737],[32.40083424975783,2.8561728081790347],[32.39771903262397,2.852729875681143],[32.39772250045137,2.8527270060240855],[32.39772190991826,2.852726352679837],[32.407105359939166,2.8449626089557474],[32.40730885947914,2.844794211333083],[32.413594883097815,2.838202440351079],[32.42113671352589,2.833131837659243],[32.42074959517015,2.826838141200145],[32.42113123260741,2.8252369285031005],[32.42113021006577,2.824173836031906],[32.42221039377544,2.8207091584373303],[32.422938655604405,2.817653635122598],[32.423356862165946,2.8170318734440896],[32.42365271679458,2.81608292291475],[32.428308320835335,2.809670374279673],[32.42831626697254,2.8096585604918],[32.42831712029493,2.8096582540559356],[32.428317474082334,2.809657766755269],[32.43507268179721,2.8072319813126496],[32.43564508581832,2.805660979904103],[32.43564591101613,2.805660340660761],[32.43564601749009,2.80566004823233],[32.439023560152506,2.80304378755337],[32.43902361823068,2.8030437839731372],[32.43902369889684,2.803043721484718],[32.443125403716515,2.802789761691062],[32.44848262200222,2.792210936716547],[32.44854362976524,2.792090440872408],[32.4457143036722,2.790866621474851],[32.44400568625172,2.788361146473482],[32.442447641848986,2.7871185738713002],[32.44009867248423,2.786458579142755],[32.439869467216276,2.785427929114458],[32.438069749865754,2.784287731830969],[32.438298694383846,2.783809702545795],[32.42680411289864,2.7746425363199902],[32.42609750415054,2.7747577740884073],[32.4202,2.78],[32.39106025126301,2.78297148753568],[32.38910202384261,2.785348267150361],[32.3918802057162,2.793305120306698],[32.392794230951694,2.799878294014564],[32.39144659713147,2.807422247966613],[32.38364758754643,2.810514630171291],[32.378893693199686,2.815288828716712],[32.37702752492495,2.814695370169783],[32.37221291393203,2.810805076525856],[32.36491652641058,2.807394271657588],[32.35666903872491,2.814171133716142],[32.349618105359355,2.814845974253001],[32.34860797460758,2.817206115204691],[32.34683959901125,2.818589689031116],[32.346812645071,2.820363508903867],[32.34450096806762,2.822425633713403],[32.34172698379195,2.827201000655802],[32.342095465576456,2.828925208334512],[32.340324567092935,2.833666475500084],[32.340146442025585,2.836426821002459],[32.33846158192712,2.838037690097329],[32.33633313801932,2.838149815591548],[32.34732597410691,2.839976154319054],[32.348259570875264,2.841730036751559]]]}},{"type":"Feature","properties":{"n":"Bardege-Layibi Division","c":"339101","d":"Gulu City","od":"Gulu","dc":"339","k":"BARDEGELAYIBIDIVISION","a":["BARDEGE","BARDEGELAYIBI","BARDEGELAYIBIDIVISION","LAYIBI"],"lat":2.782094,"lon":32.262547},"geometry":{"type":"Polygon","coordinates":[[[32.23649833628069,2.767962586141085],[32.22477793056874,2.798401099339427],[32.22456582353127,2.7981663076874366],[32.218331079349106,2.814472561702338],[32.21851503228927,2.8144481072809797],[32.21862506520054,2.814168014283668],[32.21907786615465,2.8143732850112912],[32.21929224445079,2.814344785889835],[32.22263921966054,2.8159877728317],[32.2226408951174,2.815988532375703],[32.23285771893163,2.815115842474341],[32.232857805898156,2.8151160249795715],[32.23285822994652,2.815115988765828],[32.23352561984362,2.816515433062758],[32.2362131967717,2.817307187035433],[32.23621356419885,2.8173079681290685],[32.23621394382296,2.817308080060234],[32.238863962333504,2.821840080099635],[32.24013730857861,2.823002128675629],[32.243217964362074,2.823375430545788],[32.243218321881535,2.823375700063232],[32.24321833771111,2.823375701980574],[32.243218460543865,2.8233758045943724],[32.24659708153795,2.825922791255302],[32.24956859029079,2.826101900733135],[32.2495779468825,2.826102174253415],[32.25189171287137,2.824193385163514],[32.25189317945628,2.8241937462249025],[32.25189351510858,2.824193469376114],[32.25444294054487,2.824821476858897],[32.25455682136569,2.824849513399329],[32.25455696375659,2.8248494663655506],[32.25723606590939,2.823646940470914],[32.257542187141574,2.823863403819363],[32.25794985282208,2.823728745937163],[32.25966238009218,2.825285753345211],[32.26338941900324,2.824474022600306],[32.26455791357412,2.823244860257553],[32.26744180999201,2.823381982591624],[32.270178006864164,2.821122108248767],[32.271815915186906,2.817197003543695],[32.27212613182717,2.813959021991427],[32.27649126172034,2.809799629712036],[32.27633736438049,2.808037325943877],[32.27791899135295,2.806063780353535],[32.278740014917695,2.802665130941089],[32.28036825414843,2.803365073409381],[32.286137034300154,2.802660279371421],[32.28828512310516,2.80302341347884],[32.289183365061255,2.804117376904193],[32.290277016225865,2.803517509451966],[32.293388881345365,2.796275550891198],[32.29269092099395,2.786849437118337],[32.29544462321971,2.777112161504215],[32.29724527378087,2.777337815425894],[32.29834744399549,2.768629736463152],[32.30397721303133,2.751650410947303],[32.30619452155466,2.7402073838413536],[32.2991,2.7366],[32.298567119124186,2.7366581881416123],[32.298541875793845,2.736702938798248],[32.29665332413574,2.737131572340196],[32.29650520940728,2.7368833392026537],[32.2937921851861,2.737179588973932],[32.29255834639124,2.738077962989968],[32.28882596509387,2.737968551524133],[32.287926737034596,2.738872059775264],[32.2847285089816,2.7381693007433885],[32.2817,2.7385],[32.2715,2.7569],[32.2538,2.7575],[32.23695765869729,2.7674912194168595],[32.23738452218272,2.767778907812286],[32.23649833628069,2.767962586141085]]]}},{"type":"Feature","properties":{"n":"Laroo-Pece Division","c":"339201","d":"Gulu City","od":"Gulu","dc":"339","k":"LAROOPECEDIVISION","a":["LAROO","LAROOPECE","LAROOPECEDIVISION","PECE"],"lat":2.812917,"lon":32.315707},"geometry":{"type":"MultiPolygon","coordinates":[[[[32.268228496858214,2.855492754786981],[32.268897530299014,2.8538420409903944],[32.26904557125572,2.853476486821232],[32.26904574440895,2.8534763506359133],[32.26904587165346,2.853476036684091],[32.27241965930143,2.850820171740352],[32.28147948893082,2.855233677357003],[32.2836846837728,2.855244699077252],[32.28528460646147,2.856267869393122],[32.2896843220688,2.860749574709713],[32.29002966438102,2.861101333306736],[32.29002967433395,2.8611013626935233],[32.29003001349155,2.861101708171402],[32.291936336290625,2.866730208499443],[32.29396497911303,2.8689687568908186],[32.2949383306849,2.870042708824419],[32.29532309552789,2.870191955581464],[32.30697098204466,2.874708991602803],[32.30691050856517,2.8762704465408886],[32.30690874560755,2.8763187849597043],[32.30788111527612,2.87749591930105],[32.31152342322257,2.879334518311387],[32.312316149334606,2.8803061519882753],[32.31263829111367,2.8807008647494743],[32.3139471776359,2.880730053339436],[32.31640592811537,2.880784253222644],[32.31640636540609,2.8807848940167933],[32.31640732425948,2.880784915399532],[32.319367845465855,2.884911901960685],[32.31931479191456,2.88504682465877],[32.31945116273175,2.885246658817471],[32.31989476094362,2.8849826006873602],[32.32043446551619,2.88422501077023],[32.32177580493946,2.8838628825574935],[32.322518464450575,2.883420803945434],[32.327324505090814,2.8823648680683],[32.32932565154805,2.8806847252073715],[32.32990724864653,2.8801963765631062],[32.331116989022085,2.877084619349171],[32.33224982459974,2.8756392109279094],[32.33262691932003,2.874905523612036],[32.33334182202229,2.8742459087561985],[32.33626338082512,2.8705182312537407],[32.33900501818237,2.8649835969040183],[32.339008518267136,2.864976329028231],[32.33923307298333,2.861764534382484],[32.339583627284064,2.8609701023392757],[32.339701949950054,2.860145516088605],[32.34029826542639,2.85935057738016],[32.340641854877944,2.858571929195119],[32.340641873468584,2.8585719408504615],[32.34064186382577,2.858571922371871],[32.34122839746065,2.858110633110158],[32.343668241492985,2.8548581157081383],[32.34613936873302,2.8506976407447717],[32.34743113526326,2.848138271113943],[32.348259570875264,2.841730036751559],[32.34732597410691,2.839976154319054],[32.33633313801932,2.838149815591548],[32.33634976447154,2.8381489397173163],[32.336338149499674,2.838147006408295],[32.338462080674944,2.8380372132521274],[32.340146442025585,2.836426821002459],[32.340324567092935,2.833666475500084],[32.34032481586109,2.8336658094673983],[32.34032481808453,2.83366577494237],[32.34036999120927,2.8335448604705897],[32.3420953887434,2.8289254140414144],[32.3416658422704,2.82734130442362],[32.34173233291254,2.8272260303728225],[32.34172698379195,2.827201000655802],[32.34450096806762,2.822425633713403],[32.346812645071,2.820363508903867],[32.34683959901125,2.818589689031116],[32.34860783907162,2.8172062212477784],[32.349418599102776,2.81504469925199],[32.349541251799884,2.815025540346467],[32.349618105359355,2.814845974253001],[32.352387935358514,2.8145808755112127],[32.357058208230185,2.813851357784952],[32.36491652641058,2.807394271657588],[32.37221291393203,2.810805076525856],[32.37221295894488,2.8108051128970604],[32.37221304913056,2.810805155052309],[32.37367056376688,2.8119828842232826],[32.37702729404123,2.8146951836115166],[32.37831562694896,2.8151049983720275],[32.378893693199686,2.815288828716712],[32.38364758754643,2.810514630171291],[32.383649620436074,2.810513824111021],[32.39144664093401,2.8074220027632615],[32.392794230951694,2.799878294014564],[32.39188021139628,2.793305161154756],[32.39184754458463,2.793211577176824],[32.38910202384261,2.785348267150361],[32.39106025126301,2.78297148753568],[32.39114781597758,2.7829625582391286],[32.3898,2.7831],[32.383,2.7756],[32.37993860323212,2.7762526835748784],[32.37512759069421,2.779514751542171],[32.36994145929211,2.780326156094803],[32.36522911480951,2.779969014264196],[32.36529767109446,2.779374100578846],[32.3633,2.7798],[32.3324,2.7735],[32.3361,2.7566],[32.335832328852554,2.7560102161157958],[32.33533755008755,2.75592445167943],[32.3309170528398,2.748999726014241],[32.33017601930246,2.743684964824646],[32.33021956129129,2.7436431011502975],[32.3302,2.7436],[32.3109,2.7426],[32.3062890769566,2.74025546285929],[32.305743227960335,2.744066016213245],[32.30491167398752,2.7468278695920594],[32.30397721303133,2.751650410947303],[32.29834749035826,2.7686295966335064],[32.298347440904394,2.7686297608854185],[32.29724527378087,2.777337815425894],[32.29544462321971,2.777112161504215],[32.29269092099395,2.786849437118337],[32.29319682020701,2.793681721402459],[32.293388900024596,2.796275388382554],[32.293388873826245,2.7962754493437556],[32.293388881345365,2.796275550891198],[32.290277016225865,2.803517509451966],[32.289183365061255,2.804117376904193],[32.28828512310516,2.80302341347884],[32.286137034300154,2.802660279371421],[32.28036825414843,2.803365073409381],[32.278740014917695,2.802665130941089],[32.27794656706515,2.8059496299416606],[32.27791933002244,2.806062528991315],[32.27791927793804,2.80606259402674],[32.27791899135295,2.806063780353535],[32.276955566541126,2.807265936628122],[32.276337406240344,2.8080378052879675],[32.27649126172034,2.809799629712036],[32.27649107999965,2.8097998028678517],[32.276491088986006,2.809799905351824],[32.2759326599689,2.8103319034058405],[32.27212613182717,2.813959021991427],[32.271815915186906,2.817197003543695],[32.270178006864164,2.821122108248767],[32.26744180999201,2.823381982591624],[32.26744147153712,2.823381966498909],[32.267441312414526,2.823382098092637],[32.26670018361238,2.823346720042126],[32.26455791357412,2.823244860257553],[32.26338941900324,2.824474022600306],[32.260205060508746,2.825167560219435],[32.26013411989471,2.8257146530071444],[32.26044559958699,2.825997846271745],[32.25966136043312,2.8293605657926575],[32.25966093975133,2.829363810083347],[32.259660501563324,2.829364248519052],[32.259660378133546,2.82936477777051],[32.25887594510069,2.8301492484758364],[32.258399944140706,2.830625518509689],[32.258399669040045,2.83062554740968],[32.25839938142258,2.830625835040964],[32.25692397847113,2.830782326550127],[32.255341846081535,2.8331606154773405],[32.25603853204272,2.834780934477682],[32.256769333647654,2.836479373101199],[32.25676911391814,2.8364800869796363],[32.256769238744766,2.836480377295461],[32.256220004695706,2.8382640859590884],[32.255234840846214,2.8414647812494085],[32.25523861955125,2.841471437811495],[32.25727805900422,2.84505969379518],[32.25632913308724,2.847198839311374],[32.25632867049014,2.8471988450858987],[32.25632846772151,2.847199301970451],[32.25585654185657,2.8472047385911945],[32.254663402559125,2.8472196323558774],[32.25427477423316,2.847809730030289],[32.25380014520505,2.8485311801322],[32.255141525332114,2.851059103924639],[32.25384965854006,2.851772623326352],[32.253835553497844,2.851800417654103],[32.25283612545171,2.853771108027842],[32.25283543736613,2.8537711707458753],[32.25283536101831,2.853771321191104],[32.25237195543726,2.853813416472422],[32.25095306253328,2.853942746566839],[32.2509495621602,2.853952861154633],[32.25022654910239,2.8576488660533848],[32.249770612048664,2.860688084569897],[32.25031325781321,2.8605556338233966],[32.26010666676502,2.858165064152606],[32.26390026697787,2.858494826857309],[32.26798835072443,2.855659364729821],[32.268228496858214,2.855492754786981]]],[[[32.29379488323732,2.7371792943591435],[32.2847285089816,2.738169300743389],[32.28778472579219,2.7388408550951815],[32.28792687659183,2.738871919553759],[32.28882596509387,2.737968551524133],[32.29255834639124,2.738077962989968],[32.2937921851861,2.737179588973932],[32.29379488323732,2.737179294359144],[32.29379488323732,2.7371792943591435]]],[[[32.298568775095255,2.736658007317185],[32.29650520940728,2.7368833392026537],[32.29665332413574,2.737131572340196],[32.298541875793845,2.736702938798248],[32.298567119124186,2.7366581881416123],[32.298568775095255,2.7366580073171853],[32.298568775095255,2.736658007317185]]]]}}]}
