{"type":"FeatureCollection","name":"Hoima sub-counties","metadata":{"source":"Uganda Bureau of Statistics NPHC 2024 Map Explorer","retrieved":"2026-07-26","display_only":true,"clipped_to_dashboard_district":true,"positive_area_overlaps_removed":true,"source_gap_ratio":0.03835716},"features":[{"type":"Feature","properties":{"n":"Buhanika","c":"403101","d":"Hoima","od":"Hoima","dc":"403","k":"BUHANIKA","a":["BUHANIKA"],"lat":1.334652,"lon":31.456012},"geometry":{"type":"Polygon","coordinates":[[[31.407413544040462,1.373684072806199],[31.41174870943356,1.381591174697105],[31.41828543461369,1.389427445600343],[31.426849582027454,1.392336314129468],[31.43454079666743,1.398356431817434],[31.434660131875756,1.400273142892255],[31.439649821403297,1.400457815532873],[31.443933648320417,1.403137576332035],[31.44644972173653,1.40671000055171],[31.449359058411726,1.407549070169342],[31.454703172155977,1.407406289702314],[31.457601247944563,1.401798712372747],[31.460496550391273,1.399114785822757],[31.461341438687096,1.394186098674893],[31.465080089389517,1.390082710896913],[31.464847853705333,1.386565230148692],[31.465546890536764,1.384719791576274],[31.46716123777743,1.383473177533998],[31.473271288059692,1.384408381054571],[31.47822669241066,1.382521381133896],[31.481216234362947,1.367356151279807],[31.48430105977581,1.364536798848571],[31.491776239675755,1.363311267555145],[31.49448095372551,1.360355532367161],[31.496078672863582,1.356521477944145],[31.4992105514727,1.353177270315746],[31.50400336343759,1.345086249429088],[31.50925984529849,1.3387852416949175],[31.500468669512514,1.3259463302952572],[31.50025216046259,1.325728949193965],[31.499797709214594,1.3254461247660727],[31.47109781433589,1.310940199637162],[31.469804868153382,1.310479839877495],[31.464627486203344,1.3076698707440821],[31.4635,1.3071],[31.45781987576639,1.300373537091776],[31.45591779584079,1.298134833576056],[31.455917146268973,1.2981203047922052],[31.4559,1.2981],[31.45591016505195,1.2979641579421182],[31.455731791375523,1.293974525816209],[31.456391580802816,1.2915306929078114],[31.456983671926878,1.2836182024317362],[31.45697169303201,1.283385184821986],[31.456964644992826,1.2833729980989175],[31.439153893506838,1.269770281304672],[31.432442559913568,1.269622532300462],[31.430854913806957,1.2693052674952685],[31.4184,1.269],[31.415248638719085,1.287451448659267],[31.416325933342637,1.290504753160011],[31.415707349390814,1.296645565740349],[31.41159233706019,1.310346454866924],[31.4127,1.3217],[31.412683910368067,1.321717070707054],[31.412687441693475,1.321740617316196],[31.41035572361199,1.326902050998523],[31.407260222904117,1.327471470821242],[31.405846303740688,1.3289716045678048],[31.404525903358476,1.330407538290784],[31.404530430315805,1.330518098606584],[31.4087,1.3467],[31.40866121938981,1.3468361830729947],[31.407873096096253,1.353552251881741],[31.406049472086128,1.357304760349207],[31.40537844422341,1.360894371449759],[31.40443423802397,1.3616797687995406],[31.4044,1.3618],[31.404285420931974,1.361803555902111],[31.40420924134665,1.361866922616348],[31.405549135761824,1.36412390082751],[31.407413544040462,1.373684072806199]]]}},{"type":"Feature","properties":{"n":"Bulindi Town Council","c":"403102","d":"Hoima","od":"Hoima","dc":"403","k":"BULINDITOWNCOUNCIL","a":["BULINDI","BULINDITOWNCOUNCIL"],"lat":1.475314,"lon":31.464256},"geometry":{"type":"Polygon","coordinates":[[[31.42184402167261,1.474857226463393],[31.423010176495023,1.481329540426084],[31.42765908711,1.480361249361096],[31.43388441720048,1.483304530035549],[31.44227092814064,1.484939338122362],[31.447303323358188,1.483954136021647],[31.448703513015765,1.482696677497653],[31.450930850409225,1.475770752457951],[31.45353004531392,1.480073725124334],[31.458758794053722,1.482229495907209],[31.466551631054887,1.482913636428986],[31.46852081469315,1.484111183497357],[31.46713014081298,1.486672286987397],[31.468472673154302,1.493452443352709],[31.473911469812403,1.495665618801611],[31.475694717477527,1.50123304301076],[31.478349243957247,1.505182607364031],[31.48576038996502,1.508873375323484],[31.4951816705388,1.511696525123811],[31.500629583192623,1.512269677700884],[31.50403666220283,1.5151492336794075],[31.5069,1.5078],[31.507161694152327,1.5076105443376406],[31.507439592062152,1.506925441532319],[31.510419877091383,1.5052517556473854],[31.5261,1.4939],[31.53,1.4798],[31.53012264887102,1.4796802257118948],[31.530129084151795,1.479594325177354],[31.52743595443192,1.477875227801661],[31.52537267598182,1.478956587638186],[31.521410697272085,1.479077357362931],[31.516976974583567,1.48087858106791],[31.514222621103194,1.483421972573062],[31.510866764160422,1.482585533660417],[31.508480173585646,1.480905903395319],[31.507141309392033,1.478626751651573],[31.505718022177234,1.470146689668452],[31.500514335543414,1.460195170078532],[31.491970263484692,1.459035773435373],[31.489620798135054,1.455123941660693],[31.487016830482457,1.453399274372458],[31.485944565296002,1.454072727075503],[31.484690959626885,1.457787413054211],[31.480062534927068,1.456915285633767],[31.47954118343437,1.457409327231543],[31.479985016879517,1.460496770847597],[31.479373440271086,1.461349969156578],[31.477007618419936,1.461722244007069],[31.47290129412424,1.458243777806135],[31.46985007233122,1.45731256418692],[31.463543290574044,1.447137803509342],[31.458492349589513,1.445208992632346],[31.45730615471776,1.44878363668855],[31.45416686323534,1.45062644675753],[31.45137369439008,1.450307745526902],[31.44796622399301,1.447809382848139],[31.443616339345464,1.441403697519],[31.437476533264118,1.438899885935641],[31.434328505854083,1.435449391618806],[31.43419895969733,1.442806336395509],[31.43645641280738,1.448886208834361],[31.4361498882179,1.449988009527595],[31.433988217369837,1.451162760971799],[31.43561709968355,1.455981115461413],[31.4350270479956,1.457885267285119],[31.433428055645447,1.459522220220854],[31.429202175315492,1.461416156439582],[31.420987480188217,1.463715821282015],[31.418826849304548,1.469188109403643],[31.419916878589632,1.47312040291077],[31.42184402167261,1.474857226463393]]]}},{"type":"Feature","properties":{"n":"Buraru","c":"403103","d":"Hoima","od":"Hoima","dc":"403","k":"BURARU","a":["BURARU"],"lat":1.41024,"lon":31.504186},"geometry":{"type":"Polygon","coordinates":[[[31.434328506153904,1.43544937688402],[31.43432857817344,1.4354494708867092],[31.43689482023592,1.438262281100491],[31.44361608290573,1.441403572319328],[31.443616102274547,1.4414036008415312],[31.443616339345464,1.441403697519],[31.4479662025358,1.4478093512500272],[31.44796653060087,1.447809607653507],[31.451028882193178,1.4500549286793456],[31.452709257918066,1.4504601336436007],[31.453917736403813,1.450598021326706],[31.456359626998577,1.4493392623197618],[31.45695497245091,1.4489897858215701],[31.457357102624957,1.4486301032026325],[31.458492349589513,1.445208992632346],[31.458494761474256,1.445209913662613],[31.458494794478792,1.445209726500301],[31.461720422081868,1.4464417018154572],[31.463543290574044,1.447137803509342],[31.463543382253764,1.4471379514166667],[31.463543444096434,1.447137975036455],[31.469850086419996,1.4573125684867254],[31.47290129412424,1.458243777806135],[31.477007618419936,1.461722244007069],[31.477556285034265,1.4616359083509336],[31.479373690208803,1.4613496204734604],[31.479985016879517,1.460496770847597],[31.47954118343437,1.457409327231543],[31.480062534927068,1.456915285633767],[31.48241833443393,1.457359185552261],[31.484691013517327,1.4577872533659797],[31.485944565296002,1.454072727075503],[31.4859448017461,1.454072578569368],[31.48594480600573,1.454072565942692],[31.487016011278175,1.45339959411671],[31.487016162270407,1.4533996940533511],[31.487016830482457,1.453399274372458],[31.488903998501897,1.4546491888816815],[31.489619225346758,1.455122573293333],[31.489619551321223,1.4551231158673985],[31.489620798135054,1.455123941660693],[31.491970263484692,1.459035773435373],[31.500514335543414,1.460195170078532],[31.505718022177234,1.470146689668452],[31.50677021057088,1.4764157144325958],[31.507141397670697,1.4786269019285558],[31.50848017136347,1.4809058996125006],[31.51086681504668,1.4825855463436886],[31.514222621103194,1.483421972573062],[31.516976974583567,1.48087858106791],[31.519322749845067,1.479925597242713],[31.521410384293816,1.479077456087808],[31.52141045993521,1.4790774537823137],[31.521410697272085,1.479077357362931],[31.52537267598182,1.478956587638186],[31.52743595443192,1.477875227801661],[31.530103608057818,1.4795780630990818],[31.530129091737706,1.479594316495604],[31.53160589256852,1.4782317455385527],[31.541015120570453,1.4690430463179174],[31.549701341657254,1.452960141815045],[31.5504057286334,1.4521848177791883],[31.5507,1.4516],[31.550971951443632,1.4515615720786172],[31.55234731020002,1.450047704364045],[31.558838817683093,1.447991810792265],[31.56758617738379,1.4492139097175076],[31.56807742891206,1.4491444937406872],[31.57418956743087,1.4465255141772557],[31.577092201782243,1.4451142886362578],[31.57937310210206,1.442497364752339],[31.583030480741115,1.442227169584429],[31.584877606051776,1.4413291197096334],[31.586167660802122,1.440698821592752],[31.587009831305302,1.439699556066584],[31.58143968801774,1.4250412842572113],[31.578567863043546,1.421212136999553],[31.57771114894945,1.41650084521675],[31.575676751777255,1.412931637654634],[31.573786060833946,1.405997630045086],[31.573979961497177,1.4054104249925723],[31.5739,1.4052],[31.574130838773645,1.4049535111400056],[31.57556922885247,1.400597518191334],[31.57831791381005,1.398954693780552],[31.58013822354666,1.394029095397042],[31.579959977669194,1.390566616187526],[31.580703675072368,1.3870957443671998],[31.580968241200285,1.3836398493212823],[31.57988848454356,1.380002557669951],[31.581620935680593,1.3751140276722178],[31.58170338038029,1.3740370937824244],[31.5807806890486,1.372400475841834],[31.582042511003962,1.36960720001072],[31.582522332769354,1.3633395282002823],[31.581743790048876,1.362974490398323],[31.58267232623825,1.359229597816419],[31.58173170562768,1.357677571973759],[31.580178823397,1.358499544095272],[31.57761310261606,1.36189916674469],[31.572857477762213,1.36207681104762],[31.565363589029513,1.365099027926505],[31.5647,1.3654],[31.55998466736395,1.364869873845651],[31.551898755373173,1.366511977151913],[31.54755976456435,1.364971076658643],[31.547111001948345,1.36348624255226],[31.546954700280473,1.3634049663037218],[31.5309,1.3616],[31.53032108833141,1.3610592202377247],[31.529262866866226,1.36070726397667],[31.527989290016208,1.3588810134283154],[31.525232157340575,1.3563054882941894],[31.52239077632719,1.354594703914891],[31.520678996314903,1.3520522360785916],[31.519901636373373,1.351326079486506],[31.519294189579277,1.351455104171193],[31.514119998440673,1.346886306198363],[31.512768773542383,1.344807098712735],[31.513032225813795,1.3442945456129547],[31.50925985120319,1.3387852503183282],[31.508119238676436,1.340152500507446],[31.504003479866977,1.3450861098637865],[31.50060246344133,1.351279979420769],[31.49974793649247,1.3522700798290384],[31.4992105514727,1.353177270315746],[31.496078739289718,1.3565214070145795],[31.496078668000536,1.3565214896140194],[31.49607671463134,1.3565261771236268],[31.494812413057662,1.359822525631468],[31.49459102829605,1.3600913858823471],[31.49448095372551,1.360355532367161],[31.49340838211106,1.3615276480156704],[31.492274456762352,1.362904741233435],[31.492089537085096,1.3629688934039204],[31.491776239675755,1.363311267555145],[31.49049907813835,1.3635206540116318],[31.488449651164252,1.364231639400473],[31.48430349144488,1.3645364001843807],[31.484301234435776,1.3645367702136408],[31.48429977434207,1.3645379736608394],[31.481605795592216,1.3670001147941506],[31.47823064895794,1.3825013105177695],[31.47822669241066,1.382521381133896],[31.478226241504622,1.3825215528372732],[31.47822623195465,1.382521596697878],[31.47788817175305,1.3826502885668348],[31.473271288059692,1.384408381054571],[31.46716123777743,1.383473177533998],[31.465546890536764,1.384719791576274],[31.46484791440824,1.3865650698946412],[31.464873928330157,1.3869601608035362],[31.465080089389517,1.390082710896913],[31.461341438687096,1.394186098674893],[31.460496550391273,1.399114785822757],[31.460496159257332,1.3991151484013782],[31.46049605973195,1.399115728937061],[31.458057090232042,1.4013761495350148],[31.457601247944563,1.401798712372747],[31.454703172155977,1.407406289702314],[31.449540530688672,1.4075442217140706],[31.449359516090723,1.40754908897825],[31.449359417589516,1.4075490605730694],[31.449359058411726,1.407549070169342],[31.44644972173653,1.40671000055171],[31.443933648320417,1.403137576332035],[31.439649821403297,1.400457815532873],[31.434806023961674,1.4002785424820698],[31.434660129699687,1.400273155095044],[31.43281751234322,1.415194341448129],[31.43061223079893,1.424842675979707],[31.43418139993155,1.433219160516968],[31.434328506153904,1.43544937688402]]]}},{"type":"Feature","properties":{"n":"Buseruka","c":"403104","d":"Hoima","od":"Hoima","dc":"403","k":"BUSERUKA","a":["BUSERUKA"],"lat":1.652463,"lon":31.068449},"geometry":{"type":"Polygon","coordinates":[[[31.05256853601656,1.78185800532305],[31.077106134776166,1.818071118591547],[31.181019451708615,1.616445207267265],[31.18232008486707,1.61525201963247],[31.182243971599373,1.611173278878838],[31.189997261941542,1.60995083130415],[31.19190083637625,1.607737061433538],[31.191754932597576,1.605258015815313],[31.19354082465256,1.604139498971934],[31.19298036457825,1.601761494778053],[31.19564353036503,1.601301822400619],[31.196194077614834,1.595578346736274],[31.195013914145143,1.59047732815918],[31.19958179006994,1.588509764046685],[31.203257264131807,1.583177825430436],[31.20335499462231,1.581712220910475],[31.20567299193046,1.579309603503586],[31.205119972860643,1.57655105822795],[31.2056304334721,1.575240294359546],[31.203964705071982,1.57345628860316],[31.203722669787926,1.570545667053191],[31.20851185322807,1.570350549149412],[31.213196337764906,1.565395617163199],[31.210550107825416,1.558906889998679],[31.21187581800748,1.553703584463279],[31.212380968753866,1.553017215050712],[31.21565778002396,1.553652094707555],[31.216590446167675,1.552172450483726],[31.21762937079805,1.552669850412404],[31.217431785236418,1.553715432551179],[31.218286932631287,1.552115495708365],[31.222333492457246,1.552983669801463],[31.223357607449714,1.552488725610127],[31.223609830119685,1.551334692437087],[31.219973619311734,1.5442077308852],[31.22014890410973,1.54232819262314],[31.21908609442662,1.540852648936625],[31.2202045756848,1.538304980644106],[31.224884887116836,1.538799267785074],[31.225787214936435,1.536363735329759],[31.224759021004715,1.51919125983081],[31.226581824262496,1.514191411492218],[31.226048348240436,1.511153282375649],[31.22729987574933,1.509643400309781],[31.226515419027418,1.506414429977874],[31.225233500725384,1.505120240221007],[31.220029703142146,1.504049098258445],[31.21645920952365,1.501767124294474],[31.209870691251822,1.502910181936242],[31.205670819986434,1.502798025594598],[31.20440828126361,1.5018645901336765],[31.204,1.502],[31.188591496630146,1.4914816204541117],[31.187139072678907,1.490879195842209],[31.18589409410964,1.4910979250028362],[31.18466489213545,1.4915332673686938],[31.181214134420962,1.494234310028548],[31.176792882089707,1.49627236662524],[31.172008675208133,1.496738567095671],[31.17154733374093,1.497468922520751],[31.16897519430628,1.4970900353498584],[31.166016891917238,1.498137767445978],[31.165803228555042,1.498632045810449],[31.16350607237412,1.4990270160341663],[31.1633,1.4991],[31.16322249006638,1.499147408988523],[31.159621837042526,1.503627610974058],[31.157057943187233,1.504972687902642],[31.152973635159892,1.50541612606725],[31.14935717262392,1.5076281371329434],[31.149133790871694,1.508568606434848],[31.146159477647156,1.510043759334313],[31.14582444466516,1.5097889319038351],[31.145125500174764,1.510216441640679],[31.144838557726327,1.51082928841807],[31.142534098680684,1.511947977449004],[31.14237117927725,1.5118264695087495],[31.133591345717793,1.5152033285700794],[31.133658063769058,1.51539927001722],[31.131877929909763,1.516631709605522],[31.131501761804113,1.5160070146907252],[31.1206,1.5202],[31.120369042482984,1.5200160893846002],[31.120095648144943,1.520989582221632],[31.117954239862325,1.522417517644369],[31.116610420130804,1.522108417026289],[31.116013439048437,1.52451980504276],[31.113839771189202,1.525488468538397],[31.113276797217324,1.527631147219138],[31.11462737210282,1.529760679984181],[31.1149555854049,1.532586197434215],[31.114149962979447,1.533698620115053],[31.111500745500532,1.534681568174875],[31.11133544377916,1.542759357013334],[31.109262162486072,1.544063093641724],[31.1094894776995,1.545627375345034],[31.10822442989897,1.54600257883231],[31.108537563598972,1.550792614340505],[31.10662221637446,1.551561848156926],[31.10536118135955,1.555712613227142],[31.080598074416045,1.539100632531682],[31.07407814372513,1.533009011713712],[31.064512224045494,1.520652995611914],[31.06053577694027,1.52628174942914],[31.05739500173192,1.535037828600915],[31.05553904589528,1.537464858782561],[31.050636906568002,1.538654828799163],[31.04116701265287,1.537607891117672],[31.037883359043942,1.538940386231159],[31.02333350161367,1.558271123292598],[30.955745687215117,1.688481787743875],[31.024107883975095,1.743027843040992],[31.05256853601656,1.78185800532305]]]}},{"type":"Feature","properties":{"n":"Kabaale","c":"403105","d":"Hoima","od":"Hoima","dc":"403","k":"KABAALE","a":["KABAALE"],"lat":1.537536,"lon":30.988796},"geometry":{"type":"Polygon","coordinates":[[[30.95816377552519,1.6838232425851314],[31.02333350161367,1.558271123292598],[31.0233346256575,1.5582696299036902],[31.023334756710277,1.558269377426553],[31.028182821943524,1.551828384133651],[31.037883359043942,1.538940386231159],[31.04116701265287,1.537607891117672],[31.050283728502933,1.538615783438369],[31.050636937151495,1.5386548213751716],[31.05553904589528,1.537464858782561],[31.05739500173192,1.535037828600915],[31.057802034542128,1.5339030732378964],[31.06053543673847,1.526282456002218],[31.060535612733588,1.526282207216348],[31.06053577694027,1.52628174942914],[31.064512224045494,1.520652995611914],[31.074023347460262,1.5329382329957504],[31.074078181450613,1.533009046960915],[31.080598074416045,1.539100632531682],[31.10536118135955,1.555712613227142],[31.106614119330185,1.5515885000168324],[31.106621839054306,1.551562459385805],[31.106622057211638,1.5515623720499785],[31.10662221637446,1.551561848156926],[31.10853657103988,1.5507930129679752],[31.108244962138624,1.5463166624234286],[31.10822442989897,1.54600257883231],[31.1094894776995,1.545627375345034],[31.10933484365873,1.544563252988065],[31.109261608418617,1.544064246027206],[31.109262269595593,1.544063830721587],[31.109262162486072,1.544063093641724],[31.11133538060465,1.5427593967392148],[31.11137279236549,1.54093424599048],[31.111500745500532,1.534681568174875],[31.111500960778695,1.5346814882994955],[31.111500967232864,1.534681173429716],[31.1145227120864,1.5331839192480756],[31.11478191044387,1.5328260119672255],[31.11387799024466,1.5285790844742828],[31.113276797217324,1.527631147219138],[31.11349746964849,1.5267912680465574],[31.113435954773603,1.526502250040757],[31.113838118513833,1.5254947586201049],[31.113839771189202,1.525488468538397],[31.113840815031672,1.5254880033651677],[31.113840816053273,1.525488000805881],[31.113859898471162,1.5254794991076626],[31.116013439048437,1.52451980504276],[31.11640503620054,1.5229380251375737],[31.116610411092765,1.522108409400427],[31.116692917658558,1.519157894374793],[31.113361958623052,1.516493040844295],[31.112652401540874,1.5138713567825486],[31.1101344015716,1.511866282732941],[31.109911628862832,1.511805538797819],[31.109896115346906,1.5116765362947575],[31.1098,1.5116],[31.109870775345627,1.511465821740582],[31.10953100691181,1.508640480365483],[31.112060055149936,1.5073153121115794],[31.1146,1.5025],[31.13264104676604,1.49089521856671],[31.132214703749753,1.487297986319727],[31.13268051716489,1.4869193764145126],[31.132298022198484,1.4835632915479986],[31.131455790201187,1.483205381606902],[31.131453609102493,1.482110222151687],[31.132092576677955,1.4817606727872412],[31.131114008347325,1.473174524853961],[31.130876660133847,1.472994024564151],[31.129060434162156,1.466645156839505],[31.129067828653337,1.463371568510968],[31.127008413383937,1.460223068795898],[31.124516044970417,1.458711449903217],[31.124188216185775,1.456251068836805],[31.12207701839093,1.453003415510189],[31.12216066451742,1.452062127051058],[31.1234867802712,1.4517003270530942],[31.130091647694666,1.4448752973821781],[31.131179655466703,1.442801737103244],[31.12953546308978,1.440159951777089],[31.12968432304633,1.435485150475848],[31.12822029759373,1.426586173120086],[31.12557857885806,1.4211634858925934],[31.119654490044695,1.4210213077610727],[31.11673389974753,1.422118792338616],[31.114573783635194,1.420887726686782],[31.114527103287564,1.4207408002831847],[31.105942270515232,1.4019923149183262],[31.105881741476622,1.4019012172348917],[31.0924,1.4028],[31.091752976605907,1.4025664272394769],[31.090970377665023,1.402629570351565],[31.090363588082816,1.4020648637477386],[31.077134841450153,1.3972893411044114],[31.072555137438663,1.398227408350725],[31.067480080961044,1.3941819919038958],[31.0543,1.3955],[31.05389254864778,1.3950925486477783],[31.051253789428078,1.39544423835837],[31.04859812522794,1.39363298860546],[31.044404124799247,1.3866953836367921],[31.0371718243523,1.3908046452543759],[31.036892774487367,1.391291109932272],[31.0349802375454,1.392627540570331],[31.03287506861338,1.3932459837423994],[31.0319,1.3938],[31.031611648862096,1.3936171431808415],[31.030929370879782,1.393817578477599],[31.028441692349336,1.392956896929525],[31.023560567137437,1.388795206007588],[31.02198878615989,1.3909956993761543],[31.020843046428165,1.396612610866979],[31.01864561346651,1.395868842569602],[31.018432628470418,1.395974320141415],[31.0117,1.4054],[30.9943,1.4225],[30.992212453776958,1.4232701626842295],[30.990405416834506,1.424479971597438],[30.99049849902029,1.425430128332542],[30.989620189634188,1.425288992883451],[30.989211810151605,1.426216976032663],[30.985554032908244,1.4257266674707458],[30.984,1.4263],[30.98309197711706,1.4347090814811643],[30.983118210454453,1.436543390675294],[30.98285030546365,1.436947171141],[30.9817,1.4476],[30.9858,1.4571],[30.98433273343754,1.462066132980636],[30.984384621401443,1.462657905778656],[30.98393701744348,1.4634054794220692],[30.9819,1.4703],[30.9922,1.482],[30.995064887471653,1.4988522792450139],[30.99522315332204,1.499268976173927],[30.99517613768373,1.4995066922572315],[30.9956,1.502],[30.994198515046673,1.5025472465055854],[30.993414582953495,1.503434065324972],[30.99183953164539,1.5034683733575147],[30.990506320277323,1.5039889606536163],[30.986572163130777,1.506258311117638],[30.983849311740688,1.506588363986969],[30.980049983821914,1.5080719110790624],[30.97861769089219,1.508882053686706],[30.974715678165023,1.514122107249088],[30.972178421704154,1.51477118383612],[30.963966506052728,1.5144484372995788],[30.956844714513807,1.522367444309273],[30.956828508051185,1.522559812764955],[30.951998003576772,1.527861153750451],[30.95179927635266,1.5279776703242824],[30.9507,1.5292],[30.8905,1.5469],[30.889610041604808,1.5469],[30.88950097990148,1.546932151473678],[30.823318043691003,1.5469],[30.8034,1.5469],[30.8621844853404,1.613489205145483],[30.955745677982666,1.68848178059198],[30.95816377552519,1.6838232425851314]]]}},{"type":"Feature","properties":{"n":"Kitoba","c":"403106","d":"Hoima","od":"Hoima","dc":"403","k":"KITOBA","a":["KITOBA"],"lat":1.546082,"lon":31.329671},"geometry":{"type":"Polygon","coordinates":[[[31.22066832956286,1.5041805521719922],[31.225233500725384,1.505120240221007],[31.226515419027418,1.506414429977874],[31.226720174970453,1.5072572436690173],[31.22738057820537,1.508206094989246],[31.22711017828475,1.508862570127489],[31.22729987574933,1.509643400309781],[31.22628348877073,1.5108696014600287],[31.226083704651693,1.511354636022399],[31.226581824262496,1.514191411492218],[31.226581371339627,1.51419265383455],[31.226209959904985,1.516134936000915],[31.225440473020033,1.5173220747105407],[31.224828720476637,1.5190000780412263],[31.22577530473865,1.533852775036322],[31.225681691314303,1.5346013228512347],[31.225787214936435,1.536363735329759],[31.225295200670956,1.537691763443295],[31.225113919655648,1.539141315244663],[31.22740532804544,1.53936067387334],[31.228646399053325,1.540381490055462],[31.229583608104406,1.539539249889529],[31.230354966211063,1.540274884212349],[31.232372080190714,1.539553545409994],[31.234133288948534,1.54064548143817],[31.23679844880448,1.539929176764233],[31.23712541062953,1.542316954104789],[31.23824857324259,1.54253638726986],[31.239295819865763,1.544568257830707],[31.243031411858933,1.545620236425791],[31.250949919064265,1.552671497677125],[31.25157154573486,1.551587446554753],[31.2560441512296,1.551346353172463],[31.256684019185,1.550045095877535],[31.260769181178365,1.551377459907019],[31.263155934750927,1.550203986835326],[31.26445306393274,1.550476845133519],[31.26518378453792,1.551589066152479],[31.267767569820048,1.551844788245308],[31.270507704873086,1.554794774965178],[31.27604239671721,1.552773672007925],[31.280288067345033,1.553401267305226],[31.28686903824114,1.558154251990414],[31.28824836932869,1.560099988253679],[31.288603739980296,1.562216061763479],[31.291757582175375,1.565564961184281],[31.296429505290043,1.573056416434754],[31.301469970532715,1.578079484068816],[31.316639184370224,1.580027121950715],[31.32628368853745,1.58494562981299],[31.3278837728013,1.581916964564205],[31.339631775548934,1.574692166232633],[31.343352608606157,1.573845035168227],[31.347287652787635,1.574345460866191],[31.355394575477344,1.578467063562863],[31.362414853030558,1.587588274789461],[31.369228004208672,1.589302939947377],[31.370292764819386,1.591338779417508],[31.377647970700213,1.59666145778097],[31.377839841968008,1.603327503437114],[31.38055296596671,1.602280818886945],[31.382443616731127,1.6026101614786936],[31.384074452788006,1.6022165113959985],[31.38573957440447,1.601018703131605],[31.38763259690819,1.600775928294808],[31.388381029881405,1.6011769927872468],[31.3887,1.6011],[31.396977691730793,1.6054359337637496],[31.401769950132124,1.606358085248705],[31.4061339888598,1.6100191252953127],[31.411537456993184,1.611034426632477],[31.418441681957475,1.612168387522462],[31.418803651617182,1.612399730717878],[31.428348613919848,1.614193210895767],[31.428764127361955,1.614193006407008],[31.42948576455279,1.6144068793267978],[31.43621509174179,1.615671307047024],[31.437381367310856,1.6152754330586836],[31.443263681683575,1.6088652186781556],[31.444355682297182,1.607575823896778],[31.444527373558405,1.60405809520263],[31.442034599621195,1.596025314256209],[31.441121560627412,1.585831863900931],[31.438465381306916,1.58251071323205],[31.438044630784983,1.579534962070201],[31.432504428592534,1.576347707287058],[31.429853460377696,1.565619255770388],[31.424380187923045,1.561012159098127],[31.424080767908816,1.559021917894633],[31.416189421918553,1.546544555032026],[31.41197483458306,1.541657904193779],[31.41077433665725,1.538572709889841],[31.407986343916413,1.536255690578441],[31.40565841961683,1.532906809289243],[31.403597217417403,1.525815738496662],[31.400190995434063,1.520884913278949],[31.400541801891055,1.516335597507331],[31.395151324567934,1.51357270295307],[31.39422469200015,1.509122739365477],[31.39504746608068,1.507451022270179],[31.394626069315184,1.506792867330261],[31.392227503737654,1.504265783230883],[31.389840082532235,1.503978310620672],[31.388380653177713,1.502586697192168],[31.385882223259394,1.502134600597545],[31.383669629773948,1.503062511700584],[31.37910051868815,1.503371687878262],[31.37571423503554,1.502033694974648],[31.37382380554467,1.499638310229336],[31.3714437169639,1.499295120501606],[31.366491072466374,1.495748585151338],[31.365388624285927,1.48741483167457],[31.358561299868455,1.489992056330911],[31.354120176698835,1.490471519452361],[31.344431379553463,1.495010833929307],[31.335101280137476,1.496078060311823],[31.33159317021003,1.502855794580579],[31.331651033178026,1.505610405373351],[31.329438102778592,1.506092147350866],[31.32649154560372,1.50400029329348],[31.322592369451307,1.506467462896139],[31.32194395168831,1.50747884686186],[31.322445043798172,1.508148623627641],[31.320714037106534,1.509621263959542],[31.315256049665468,1.509287364628539],[31.311252424153665,1.51469622616442],[31.30447136136262,1.514118288883127],[31.30358229025458,1.511995315988449],[31.299423671529436,1.507512815193252],[31.297105765457168,1.50620386600751],[31.292859055064547,1.506172833094948],[31.292522151116398,1.50339134298712],[31.289106948477418,1.502081133567175],[31.285530663987384,1.499282651007857],[31.289666655743282,1.493099441424626],[31.29575890339601,1.490429952799083],[31.298393003005387,1.488365549906183],[31.302585542985838,1.48897445777159],[31.302775999056085,1.487161079437559],[31.30048290666226,1.485016824318864],[31.300008749309605,1.485451863507378],[31.296769854349282,1.484401918390126],[31.291009092362252,1.479121200972489],[31.28795432038366,1.479777298023956],[31.283287702404856,1.477684767511426],[31.278213640628366,1.479777781438828],[31.271762732451304,1.476798583945317],[31.26483893640121,1.477787873779165],[31.264876541300097,1.478574399596598],[31.257389127809027,1.4776422699057472],[31.25671349061803,1.477771714414303],[31.253123396800902,1.480202233182424],[31.249402306000725,1.484802166533168],[31.24783477828576,1.484945345744855],[31.2438,1.4888],[31.22122781326808,1.4962862528859633],[31.216229002867646,1.50050095558689],[31.215765034535192,1.50165805619535],[31.21607762035928,1.5018333271025033],[31.21645920952365,1.501767124294474],[31.22002957739456,1.5040490178906454],[31.22066832956286,1.5041805521719922]]]}},{"type":"Feature","properties":{"n":"Kyabigambire","c":"403107","d":"Hoima","od":"Hoima","dc":"403","k":"KYABIGAMBIRE","a":["KYABIGAMBIRE"],"lat":1.534581,"lon":31.444523},"geometry":{"type":"Polygon","coordinates":[[[31.38964932261887,1.477978905343329],[31.38989528612177,1.481381265426449],[31.39170686251472,1.483309750045199],[31.392521809941673,1.486892543064535],[31.391373589382116,1.489731181948323],[31.39181392690233,1.491648771494088],[31.39335345851244,1.493087853922362],[31.396847857352604,1.493524732478341],[31.39876123643626,1.497035203719199],[31.39936018551988,1.50035331598394],[31.398756990805,1.5031303833285],[31.396697357292002,1.506501954540949],[31.39465164849696,1.5082552467067336],[31.394330026473334,1.5089087201787847],[31.395151363536822,1.5135727229266127],[31.399676452466498,1.5158920617925264],[31.400541386417693,1.516335296323527],[31.40054137987714,1.5163353812036764],[31.400541801891055,1.516335597507331],[31.400191010006722,1.5208847242983075],[31.40359709998096,1.525815550163129],[31.40359710918327,1.5258155818176202],[31.403597217417403,1.525815738496662],[31.40411377664942,1.527592836388274],[31.40565874180495,1.5329072727792978],[31.407986343916413,1.536255690578441],[31.408936376203517,1.5370452346555923],[31.410774221742194,1.538572569863066],[31.41077424734829,1.5385726356677731],[31.41077433665725,1.538572709889841],[31.411974825040897,1.5416578796711031],[31.41445537017038,1.5445339891677459],[31.416189421918553,1.546544555032026],[31.416189444230806,1.5465445903109383],[31.416189447717695,1.546544594353868],[31.41623188045465,1.5466116881373468],[31.424080767908816,1.559021917894633],[31.424380181470195,1.5610121162060968],[31.427439289198563,1.5635871405965482],[31.429853460377696,1.565619255770388],[31.43250437904566,1.5763475067711759],[31.436270601163475,1.5785143703661122],[31.438044630784983,1.579534962070201],[31.438465381306916,1.58251071323205],[31.441121560627412,1.585831863900931],[31.441192334787527,1.5866220085634197],[31.44134593177517,1.586853576607816],[31.44203413043911,1.596020076161971],[31.442034599621195,1.596025314256209],[31.444527373558405,1.60405809520263],[31.444516976768913,1.6042711117793915],[31.444583452264887,1.604491924022637],[31.44447296735175,1.605172806999385],[31.444355682297182,1.607575823896778],[31.44410563253387,1.6078710736025759],[31.4441708227458,1.6078766675206049],[31.4447,1.6073],[31.44698826263378,1.608118429701133],[31.44808563514088,1.608212594326011],[31.448609972893447,1.6086984574582395],[31.458159230892598,1.6121138855017312],[31.46008479126888,1.605145684524381],[31.46187181577532,1.602054400120557],[31.463916586937255,1.6015472803970292],[31.4642,1.601],[31.471519317411317,1.599299552520603],[31.477459033643644,1.59573969598791],[31.476263966496496,1.586733024939095],[31.47452021480455,1.581254168419111],[31.474833419929723,1.578267291758785],[31.483783333608432,1.580307939806663],[31.487514456661845,1.579489419504027],[31.487505754243873,1.5788465784145276],[31.4788,1.5462],[31.478806506487558,1.5461779244172114],[31.478737648258843,1.544148976694253],[31.479310290506046,1.542096027901182],[31.480334239252826,1.5409945453921983],[31.48476235166374,1.5259705925694518],[31.482709844374522,1.51995908481428],[31.487123554218936,1.5179593696143319],[31.4872,1.5177],[31.487899382735932,1.5176078657473624],[31.488012507391993,1.517556612470145],[31.488325874645927,1.5175516811843692],[31.50285481807075,1.5156376886373866],[31.504009283288482,1.5152195062262324],[31.50403665877199,1.5151492424852244],[31.503893949777517,1.515028617627862],[31.500629583192623,1.512269677700884],[31.4951816705388,1.511696525123811],[31.48576038996502,1.508873375323484],[31.484754488390347,1.5083724339983142],[31.478349998892728,1.505183161086782],[31.478349819279337,1.5051828938757716],[31.478349243957247,1.505182607364031],[31.475694717477527,1.50123304301076],[31.473911533405534,1.4956658173438184],[31.473449198704678,1.4954775097159685],[31.468472673154302,1.493452443352709],[31.46847227286253,1.493450421769529],[31.46847168222258,1.493450181203533],[31.467130203669864,1.486673120378349],[31.467130278505753,1.4866729823736426],[31.46713014081298,1.486672286987397],[31.46751443295744,1.4859645639429049],[31.468519800912965,1.484110566973095],[31.468455723600105,1.4840715987444992],[31.46641717002826,1.482901831968441],[31.458758794053722,1.482229495907209],[31.45875873801188,1.4822294728016112],[31.458758680002997,1.48222946988866],[31.456334543990096,1.4812299972283445],[31.45353004531392,1.480073725124334],[31.450930850409225,1.475770752457951],[31.448703513015765,1.482696677497653],[31.447303323358188,1.483954136021647],[31.44227092814064,1.484939338122362],[31.442270364928202,1.4849392283336482],[31.442270256783257,1.484939249508449],[31.43388495180928,1.48330468727371],[31.433884760955035,1.4833045970446699],[31.43388441720048,1.483304530035549],[31.430343746606884,1.4816305324834067],[31.427658980780066,1.4803612715078598],[31.423010176495023,1.481329540426084],[31.42184402167261,1.474857226463393],[31.419916878589632,1.47312040291077],[31.419916829131964,1.4731202244916477],[31.419916802948286,1.473120200892012],[31.418817360614597,1.469435569617783],[31.418862480145986,1.469316648084534],[31.418826849304548,1.469188109403643],[31.42098713958734,1.4637166839310454],[31.42098746615679,1.463715823192052],[31.417134181167718,1.463735271807853],[31.41273600637769,1.465933888438258],[31.405726723398644,1.46434026270797],[31.40456383445369,1.463066982235591],[31.403501658048437,1.458841060749148],[31.401188154832568,1.455697700158731],[31.39855937291003,1.46137516094336],[31.39850364770898,1.463627307185442],[31.393873633257055,1.466861440652487],[31.392498272575022,1.46876857775992],[31.391945937692164,1.473026611264044],[31.388528858974833,1.470158182288589],[31.38595674807901,1.47339332425581],[31.38845536881926,1.47544605004521],[31.38964932261887,1.477978905343329]]]}},{"type":"Feature","properties":{"n":"Bombo","c":"403201","d":"Hoima","od":"Hoima","dc":"403","k":"BOMBO","a":["BOMBO"],"lat":1.723206,"lon":31.152862},"geometry":{"type":"Polygon","coordinates":[[[31.149772696956642,1.837953289209295],[31.202961364668937,1.63418981316633],[31.20331055596232,1.629687848728383],[31.23652976118601,1.656933641757337],[31.238260899026518,1.655961301836338],[31.240378620957536,1.653700814736772],[31.240426398346,1.650083856105447],[31.24301982023652,1.645753418563748],[31.240378933935666,1.638949157300948],[31.241232606743083,1.636277135678116],[31.23999063368736,1.633685877493441],[31.24048307618542,1.632622281947517],[31.238727737904387,1.631552404262009],[31.238905493805056,1.629174446105915],[31.23708656750149,1.627911161520915],[31.243420737106405,1.622917286411838],[31.242684286147302,1.621342317006558],[31.24407949445687,1.621007597379278],[31.24424263183044,1.619971154022551],[31.24319835513152,1.617741641295983],[31.244929342914766,1.614362889066297],[31.24583797626327,1.613646268531018],[31.248919879004795,1.614277253335919],[31.258335359849163,1.610911170775081],[31.261678499066125,1.607199212701506],[31.26139428261291,1.604842145413583],[31.26462457184411,1.601873681580051],[31.266458538416867,1.597855367521473],[31.268641753385303,1.587917517481176],[31.273556639881615,1.589735930227294],[31.281583425519326,1.588142201035779],[31.283515431833614,1.58660088334055],[31.286822359371826,1.579844711142909],[31.290734560355716,1.577104873030928],[31.29491582901805,1.572593982147618],[31.295426805259236,1.5714485812401076],[31.292927579911705,1.5674410591999706],[31.288604358484413,1.562216803250189],[31.288604324569057,1.562216682507587],[31.288603739980296,1.562216061763479],[31.28860313004179,1.562212429852082],[31.287853179322028,1.5595425183802107],[31.287232248866804,1.558666610547352],[31.28643059276501,1.557837592842968],[31.28234976822596,1.5548902926887416],[31.278802781250015,1.5531817122219205],[31.276838093897137,1.5528912920147444],[31.270543042354905,1.554781870779901],[31.270507704873086,1.554794774965178],[31.27050604074495,1.5547929833907486],[31.270505453503674,1.55479315975561],[31.267767438453944,1.5518447752437574],[31.26518378453792,1.551589066152479],[31.265183565351656,1.5515887325317073],[31.265182700078633,1.551588646885222],[31.26445259024188,1.5504767454900261],[31.263155934750927,1.550203986835326],[31.262430822403264,1.5505604961221322],[31.260769690186176,1.551377259226233],[31.260769629561878,1.5513772394544405],[31.260769181178365,1.551377459907019],[31.256684019185,1.550045095877535],[31.25650278408834,1.5504136617505901],[31.256045000528538,1.551345911277254],[31.25604435132449,1.5513459462526646],[31.2560441512296,1.551346353172463],[31.251572206707245,1.5515874109253935],[31.251019159036673,1.5525507504933982],[31.250949919064265,1.552671497677125],[31.243031412819704,1.5456202372813386],[31.239296073585734,1.54456839449824],[31.239296034304793,1.5445683182187984],[31.239295819865763,1.544568257830707],[31.23824888971691,1.5425370012941435],[31.237943680519372,1.5424768201381867],[31.23712541062953,1.542316954104789],[31.23712520228532,1.5423154325828707],[31.237124589449035,1.542315311743799],[31.236797621012315,1.5399293992467213],[31.234133288948534,1.54064548143817],[31.234132582883337,1.5406450436831205],[31.23413175644394,1.540645266004011],[31.23237196236775,1.5395535875445872],[31.230354966211063,1.540274884212349],[31.230354500754235,1.5402744403121482],[31.23035440453863,1.540274474704902],[31.230222774540778,1.5401488147136133],[31.229583786543607,1.5395394200647041],[31.229492043935693,1.5396215357152605],[31.228646399053325,1.540381490055462],[31.228644625227172,1.540380031033031],[31.228644338271504,1.540380287877174],[31.226229576095797,1.5392481180598554],[31.225113919655648,1.539141315244663],[31.225163095799214,1.538748094987315],[31.22497412058834,1.538659493288925],[31.224927114507587,1.5386852890531333],[31.224884887116836,1.538799267785074],[31.2247461226231,1.5387846128831784],[31.224005822183802,1.539190871292075],[31.220136955958868,1.5384590043529955],[31.219909596045536,1.5389768830728663],[31.21924297467946,1.5410704524345602],[31.220027619872358,1.5421598085807533],[31.220106806916608,1.542222931283274],[31.220103943005437,1.5422657712182208],[31.22014890410973,1.54232819262314],[31.219975388233376,1.544188763148445],[31.219974062184,1.5442085989134249],[31.223609830119685,1.551334692437087],[31.223357607449714,1.552488725610127],[31.22335724412565,1.5524889012008918],[31.22335719600619,1.552489121087776],[31.223192769690453,1.552568389995532],[31.222333492457246,1.552983669801463],[31.218286932631287,1.552115495708365],[31.217431785236418,1.553715432551179],[31.21743179092615,1.5537154024422828],[31.21743178670553,1.553715410348632],[31.217629255402596,1.5526697951651898],[31.21659136402331,1.5521728899201517],[31.215731316703586,1.5535354311790446],[31.21565778002396,1.553652094707555],[31.212380968753866,1.553017215050712],[31.21187581800748,1.553703584463279],[31.210550225692657,1.558906427379259],[31.211268582979816,1.5606686376011187],[31.213196337764906,1.565395617163199],[31.209704283013384,1.5690892772980274],[31.208512418457037,1.570350233531191],[31.20851214092725,1.5703502448406124],[31.20851185322807,1.570350549149412],[31.20372277440346,1.5705456627910106],[31.20396501875905,1.573456624564012],[31.2056304334721,1.575240294359546],[31.205119972860643,1.57655105822795],[31.20567299193046,1.579309603503586],[31.20471325168892,1.580304379728006],[31.20335499231685,1.5817122554840233],[31.203257264131807,1.583177825430436],[31.201291359721107,1.5860297246594413],[31.199582277663698,1.588509242269663],[31.19958209572601,1.5885093206373742],[31.19958179006994,1.588509764046685],[31.195013914145143,1.59047732815918],[31.196194077614834,1.595578346736274],[31.19616387989164,1.5958922815236842],[31.195643948890364,1.601300985064442],[31.19564360520182,1.6013010443991942],[31.19564353036503,1.601301822400619],[31.192980903018956,1.6017614018411728],[31.193540885200633,1.604138355900584],[31.1935405977468,1.6041385362221035],[31.19354082465256,1.604139498971934],[31.192434560746094,1.60483235989214],[31.191754971131807,1.6052586705490162],[31.19190083637625,1.607737061433538],[31.189997261941542,1.60995083130415],[31.185541329864847,1.6106533902332931],[31.18224397601108,1.6111735152923257],[31.18232008486707,1.61525201963247],[31.181019451708615,1.616445207267265],[31.09184254384507,1.7894776524615374],[31.077106142134664,1.818071129157889],[31.09980349518816,1.8515682520265806],[31.149772696956642,1.837953289209295]]]}},{"type":"Feature","properties":{"n":"Kapaapi","c":"403202","d":"Hoima","od":"Hoima","dc":"403","k":"KAPAAPI","a":["KAPAAPI"],"lat":1.70493,"lon":31.338315},"geometry":{"type":"Polygon","coordinates":[[[31.32202380404422,1.7313787076073],[31.33396871975951,1.74701174801152],[31.340726286043886,1.751960931650395],[31.347069888006512,1.754411882132421],[31.356377968789293,1.760428335423064],[31.358388576076642,1.76219405201001],[31.363141219434887,1.772324262055215],[31.36355039699942,1.772476169526529],[31.36785563662491,1.7708900286118743],[31.36808418451199,1.7696296538872545],[31.368046506062072,1.7668414485933965],[31.366056266382614,1.766347474909487],[31.366881720701443,1.764224582763092],[31.366603308366038,1.760995508135337],[31.36532326421846,1.758856532481468],[31.36740570793697,1.755793122205841],[31.367904794518154,1.7563547943435733],[31.367811364967594,1.749441007602072],[31.367165534110114,1.749113821394405],[31.367805338025846,1.748995013912783],[31.3678,1.7486],[31.370155528730532,1.7473372423300237],[31.370802169649224,1.745923389416534],[31.373162925067724,1.745725029860602],[31.374051113095046,1.7452488878253367],[31.374156763198922,1.744183343743937],[31.376582813999196,1.7438916873406385],[31.3775,1.7434],[31.377898123201373,1.7372290903787246],[31.37752773622505,1.736470739812918],[31.377587136483413,1.732263864955783],[31.37627844059607,1.731695177286951],[31.374673007804944,1.732977910221626],[31.373482736948674,1.730893761214519],[31.37415318783835,1.728392897081402],[31.37509319144543,1.727666785397902],[31.376159563146718,1.7285708812598],[31.37863686657789,1.7257785680427011],[31.378642043793942,1.725698321193905],[31.37752778092555,1.723685973448512],[31.376299722214867,1.723160063905634],[31.375717476487406,1.724442113112858],[31.374910758654746,1.723931466676882],[31.374565223178912,1.721615776238206],[31.3730637637786,1.720413901802066],[31.373842331591714,1.71851267708576],[31.375681189802354,1.717963297901344],[31.373823549095842,1.715834121919045],[31.375523637525813,1.7144961900227522],[31.375480574869837,1.7143564989680071],[31.37446778080366,1.711703001061187],[31.374625878410807,1.7115839470399297],[31.3746,1.7115],[31.37604582211914,1.7100446028999396],[31.37652697563404,1.707906783275991],[31.37786738085092,1.7082109808653017],[31.389629669745485,1.6963707960177914],[31.389582039520366,1.6960574520474927],[31.380828865446475,1.6780593525472414],[31.380790396586974,1.678029941692023],[31.380791096728256,1.677792998931976],[31.380420192998454,1.6691694872140683],[31.37859220972503,1.664852038043695],[31.378796500686548,1.662834348097007],[31.371141769483742,1.661671664833523],[31.365450164235277,1.657111538840683],[31.362975238350824,1.656945375012089],[31.36050515748126,1.652805210562768],[31.355833949644264,1.650564195091874],[31.3511821779373,1.645282887016645],[31.345298526965795,1.642877751469358],[31.33533675984983,1.636868469984549],[31.330340584108267,1.646769618846697],[31.331905206608237,1.657582844965376],[31.326128739204744,1.65975868560709],[31.32166325352529,1.658693759314692],[31.310357140668177,1.666270940236198],[31.309290304697143,1.670497420864577],[31.303751757093174,1.672762111355516],[31.301410369425934,1.677482958349569],[31.301505531223615,1.679900369855586],[31.30545164629174,1.687437929414676],[31.302294140027136,1.687715458424317],[31.301354350291042,1.688720700910961],[31.3010502030665,1.690973378531123],[31.3027723585701,1.692303628808888],[31.3030021968586,1.694493629809067],[31.304385652661733,1.696437722035995],[31.30328167653209,1.697516222095355],[31.301117183424875,1.697755342453948],[31.300066091428683,1.699580355402815],[31.298463646006777,1.698816183387293],[31.29832091526659,1.700100754453313],[31.297374735522876,1.700362198703548],[31.296098716430496,1.699042656827129],[31.2934134599321,1.69915455292901],[31.291788547431956,1.701953108784116],[31.314670742079997,1.720289888775605],[31.32202380404422,1.7313787076073]]]}},{"type":"Feature","properties":{"n":"Kiganja","c":"403203","d":"Hoima","od":"Hoima","dc":"403","k":"KIGANJA","a":["KIGANJA"],"lat":1.725834,"lon":31.248693},"geometry":{"type":"Polygon","coordinates":[[[31.290692663201494,1.802092151789622],[31.3087,1.7984],[31.32223518894436,1.79034333991407],[31.322649306118,1.789345088742814],[31.32343434355508,1.7896295574076915],[31.3339,1.7834],[31.352862689930397,1.7764137458151168],[31.353693366280883,1.775377638903777],[31.354294522459394,1.775886228567591],[31.35966205131446,1.7739087179367776],[31.359694462179228,1.773487004779298],[31.36052324939645,1.7735914344328856],[31.360542246290517,1.7735844355771768],[31.36054296967576,1.772260994617797],[31.36087528136361,1.772726952752653],[31.36176505937658,1.771574381184926],[31.362680267159675,1.771669500867427],[31.358388467152135,1.7621939563524387],[31.358385867920767,1.7621916737058143],[31.347074189611725,1.7544146625559514],[31.347069888006512,1.754411882132421],[31.340726286043886,1.751960931650395],[31.337449034801114,1.7495607009240288],[31.3339688251242,1.747011840604799],[31.333968798361507,1.747011805578947],[31.33396871975951,1.74701174801152],[31.323746433685308,1.7336332181808785],[31.32202405410354,1.731379042508493],[31.32202401580555,1.73137898475228],[31.32202380404422,1.7313787076073],[31.314670810725044,1.7202899922960828],[31.314165331376604,1.7198848749639493],[31.291788547431956,1.701953108784116],[31.2934134599321,1.69915455292901],[31.296098716430496,1.699042656827129],[31.296099783340853,1.6990437601279365],[31.296100140503086,1.699043745342069],[31.297375167562844,1.700362079324153],[31.29832065199418,1.7001008271995939],[31.298463193019835,1.698816956671977],[31.298463541615693,1.698817122902946],[31.298463646006777,1.698816183387293],[31.30006558251884,1.6995801127145747],[31.301116634134775,1.697755763149796],[31.3011169620148,1.6977557268886658],[31.301117183424875,1.697755342453948],[31.303281572198998,1.6975162336214562],[31.30421176693722,1.696607595060576],[31.304385652661733,1.696437722035995],[31.3030021968586,1.694493629809067],[31.3027723585701,1.692303628808888],[31.3010502030665,1.690973378531123],[31.301050286018434,1.6909727641445582],[31.30105021397535,1.690972708485506],[31.30108304230264,1.6907301535191999],[31.301354350291042,1.688720700910961],[31.30221906006104,1.687795767422082],[31.302294068494483,1.687715519944529],[31.30229408374555,1.6877155186256978],[31.302294140027136,1.687715458424317],[31.305450381408324,1.6874380405916023],[31.302152575645728,1.6811363033711706],[31.301505531223615,1.679900369855586],[31.301505510116282,1.679899833662368],[31.3015054766683,1.679899769747024],[31.301410342801354,1.67748319866753],[31.301410376232585,1.677483131260062],[31.301410369425934,1.677482958349569],[31.303751757093174,1.672762111355516],[31.307871758993308,1.6710774586644033],[31.309290368458864,1.6704971682599676],[31.310110681548824,1.6672473365350795],[31.31035684131563,1.666271310474213],[31.310357089132967,1.6662711444030678],[31.310357140668177,1.666270940236198],[31.32166325352529,1.658693759314692],[31.326128700040304,1.6597586762671779],[31.32614981082386,1.6597507484922307],[31.331905163838346,1.6575828610756491],[31.330340545368458,1.64676989836387],[31.330340606906645,1.6467697764080282],[31.330340584108267,1.646769618846697],[31.334769533811187,1.6379925676419613],[31.335336748721833,1.63686846607215],[31.33308360794809,1.635438212010743],[31.332196660582046,1.629082821352868],[31.328739827640494,1.627377292245872],[31.32814102703574,1.626349315495545],[31.32855262629308,1.624369249383592],[31.3303253556478,1.623534266159237],[31.33086987633877,1.622302038147667],[31.33168087757411,1.617388210663745],[31.32678503564513,1.615005060864072],[31.32583468507233,1.610728047875028],[31.320596760304145,1.613816603396889],[31.319204235217533,1.613757838477758],[31.318948780825746,1.616012352518858],[31.317271985853342,1.615537734054338],[31.31440149167315,1.618480057293271],[31.314375796128644,1.620120872323577],[31.315413234554047,1.621330004588207],[31.320405926732345,1.62314768286957],[31.323723674975508,1.625842558234287],[31.320822130885965,1.628417822494277],[31.31974291086094,1.633340903568868],[31.315103413900307,1.634157287260581],[31.313274819145327,1.631451412838288],[31.31345223506406,1.629744241989795],[31.308562517047903,1.631441204268114],[31.29927170011325,1.63071872896807],[31.297360755447414,1.629948339162099],[31.29689082704896,1.632235664171064],[31.294534686631657,1.633878165848642],[31.29364845576534,1.63948428561213],[31.29165764574292,1.639856950844754],[31.28909556433214,1.643197527521558],[31.288332425869275,1.647952069636373],[31.28541737124488,1.6519616961581],[31.28516603450208,1.654681275612318],[31.281594676804595,1.65685692288115],[31.27738563524899,1.657619980206049],[31.276852571947895,1.660193837603125],[31.275886960621044,1.66089972284257],[31.273118150148303,1.661746697014435],[31.27177694495751,1.661402781336019],[31.267747507025387,1.663493081180624],[31.26750506604649,1.664330036177744],[31.266416569789154,1.664140876750447],[31.263725544906993,1.666015431118526],[31.26190043848539,1.666202150436067],[31.26210185199302,1.66769500246702],[31.26100095383231,1.669739800212986],[31.25934083757241,1.671676728726563],[31.258289976141082,1.671517228022376],[31.257783203623507,1.672769941790213],[31.255697581784165,1.672208775554022],[31.25544221758808,1.673090139993579],[31.236646807545352,1.6568678995355843],[31.23652976118601,1.656933641757337],[31.226496412493393,1.648704470107215],[31.225146524641698,1.647872736966061],[31.22298399817648,1.6458236512295168],[31.20331055596232,1.629687848728383],[31.202961364668937,1.63418981316633],[31.20296132219899,1.6341899758668443],[31.20296132219899,1.634189975866856],[31.14977270944947,1.8379532858054108],[31.234783556454456,1.814790628006685],[31.253073725857895,1.809758401357221],[31.290692663201494,1.802092151789622]]]}},{"type":"Feature","properties":{"n":"Kigorobya","c":"403204","d":"Hoima","od":"Hoima","dc":"403","k":"KIGOROBYA","a":["KIGOROBYA"],"lat":1.639585,"lon":31.356481},"geometry":{"type":"Polygon","coordinates":[[[31.345286273370778,1.642870359678244],[31.345298526965795,1.642877751469358],[31.3511821779373,1.645282887016645],[31.352337491985924,1.6465945527214094],[31.355834055026133,1.6505642456489045],[31.36050515748126,1.652805210562768],[31.360936464189507,1.6535281345456376],[31.362975551905677,1.6569453960638203],[31.36522654220371,1.6570965251010166],[31.36544991856434,1.657111446175948],[31.365450022326808,1.657111529313103],[31.365450164235277,1.657111538840683],[31.371141705402508,1.6616716134915046],[31.378796507131128,1.662834337606413],[31.379969690934104,1.659354799663076],[31.379960837262843,1.659307128366171],[31.376786617089437,1.651779691954946],[31.37657340205737,1.651429836194581],[31.37449560566409,1.646346722003415],[31.373,1.6428],[31.373384324255202,1.6305656778760567],[31.373306477642323,1.630337448412588],[31.37339779861225,1.6301367441767627],[31.373672388685726,1.6213956268376517],[31.36918063026659,1.617084951386098],[31.363634910955366,1.618845201324338],[31.36140940067136,1.618101823048155],[31.35820307849989,1.620451539109301],[31.358250827828446,1.623027121164741],[31.356798976102564,1.623621824287507],[31.355371518311184,1.622466646427739],[31.352849292701745,1.624489186545886],[31.352253707900072,1.626499849583986],[31.34991116872141,1.626678227803842],[31.347543336883575,1.623228621874386],[31.348590046817375,1.619908722113422],[31.347531158350968,1.616483285567965],[31.34930299700914,1.612728565002395],[31.34389327220187,1.610598190589647],[31.341167200594562,1.611106173937991],[31.34038208429915,1.615543642226619],[31.337703865861485,1.620413784876211],[31.338092354966065,1.621469702862381],[31.336891128728908,1.626834159228403],[31.333305261363133,1.627724562636041],[31.33201845942892,1.628841933130154],[31.332047694754802,1.6290093247278916],[31.332196660582046,1.629082821352868],[31.332738006318397,1.632961815493003],[31.33318135104691,1.6355002576075797],[31.33455296017309,1.6363709309122594],[31.345286273370778,1.642870359678244]]]}},{"type":"Feature","properties":{"n":"Kigorobya Town Council","c":"403205","d":"Hoima","od":"Hoima","dc":"403","k":"KIGOROBYATOWNCOUNCIL","a":["KIGOROBYA","KIGOROBYATOWNCOUNCIL"],"lat":1.621178,"lon":31.303066},"geometry":{"type":"Polygon","coordinates":[[[31.297360755258282,1.629948327435072],[31.297459495286503,1.6299881457388343],[31.299271638956476,1.6307187043129578],[31.308562532570786,1.6314411988809434],[31.31345223506406,1.629744241989795],[31.313274819145327,1.631451412838288],[31.313302850050032,1.631492891743262],[31.31533643632689,1.6341162837400527],[31.31974291086094,1.633340903568868],[31.320822130885965,1.628417822494277],[31.323723674975508,1.625842558234287],[31.320405926732345,1.62314768286957],[31.32040436391231,1.6231471138971736],[31.31592413238185,1.621705931937553],[31.315636307498412,1.6214112182564355],[31.315413234554047,1.621330004588207],[31.314375796128644,1.620120872323577],[31.31440149167315,1.618480057293271],[31.3147701262644,1.618102198270947],[31.314873196984813,1.617573991833869],[31.317268105924374,1.6155417110716928],[31.317271985853342,1.615537734054338],[31.318948780825746,1.616012352518858],[31.319204235217533,1.613757838477758],[31.319371118905863,1.6137648810126057],[31.319890028770114,1.610995690455463],[31.31893759094672,1.609827015058065],[31.314372536971725,1.608909815481254],[31.30801266834617,1.609691271460564],[31.305598587763996,1.608585994117357],[31.302292225484667,1.608311915453513],[31.29700208583794,1.609718144781325],[31.292584232199438,1.612798316054227],[31.29242032395766,1.61785292808307],[31.290623420318447,1.621025939642074],[31.29680998658232,1.625199698090275],[31.297360755258282,1.629948327435072]]]}},{"type":"Feature","properties":{"n":"Kijongo","c":"403206","d":"Hoima","od":"Hoima","dc":"403","k":"KIJONGO","a":["KIJONGO"],"lat":1.602275,"lon":31.351082},"geometry":{"type":"Polygon","coordinates":[[[31.325766964783945,1.6107679793135063],[31.32583468507233,1.610728047875028],[31.32678503564513,1.615005060864072],[31.326788084214535,1.6150065448167148],[31.329567416517065,1.615824715584388],[31.330545872161668,1.6168357238881235],[31.33168087757411,1.617388210663745],[31.331593418580773,1.6179181215768792],[31.33194221632278,1.618278523620075],[31.33101444452553,1.6214261046737801],[31.33086987633877,1.622302038147667],[31.33052865315862,1.623074212222507],[31.33043861758245,1.623379669097303],[31.33038010377544,1.6234103733897318],[31.3303253556478,1.623534266159237],[31.328553872779835,1.6243686622688553],[31.3285526106695,1.624369324543397],[31.328551321708666,1.6243755253020808],[31.328242398207006,1.626523342051944],[31.32837848428445,1.6267569646009927],[31.33201845116342,1.628841925557087],[31.332067074632825,1.6287997190232562],[31.333305261363133,1.627724562636041],[31.333305867464226,1.6277244121356391],[31.333306081029683,1.62772422675484],[31.33689122163544,1.6268337443248475],[31.338092142717528,1.6214706507254746],[31.337760532447042,1.6205678053267174],[31.337703865861485,1.620413784876211],[31.34038208429915,1.615543642226619],[31.341167200594562,1.611106173937991],[31.343252393401894,1.610717613629681],[31.34389203034986,1.610598102332456],[31.3438925812073,1.6105983193513915],[31.34389327220187,1.610598190589647],[31.34930299700914,1.612728565002395],[31.34753136613352,1.6164828452539322],[31.348191128707366,1.618618247511024],[31.348590046817375,1.619908722113422],[31.348589941853543,1.619909055032201],[31.34858998529234,1.61990919562717],[31.34840704673836,1.6204891521819254],[31.347543380260788,1.6232284842928164],[31.34801634515491,1.623917729990686],[31.34991116872141,1.626678227803842],[31.352253707900072,1.626499849583986],[31.352849292701745,1.624489186545886],[31.355371518311184,1.622466646427739],[31.356798976102564,1.623621824287507],[31.35825065802512,1.6230271907190672],[31.358235253223256,1.6221870324167176],[31.35820307849989,1.620451539109301],[31.36140940067136,1.618101823048155],[31.36140959069165,1.6181018865198704],[31.361409863993586,1.618101686233933],[31.36230564768187,1.61840119284325],[31.363634857696653,1.6188451835345434],[31.36918061683448,1.617084942560946],[31.367706926190518,1.614931984148616],[31.36782712598125,1.613710824876996],[31.370464683374767,1.610565909541502],[31.37252974050139,1.609915965252945],[31.374182139984143,1.6051685438380763],[31.3742,1.6046],[31.37439654121612,1.6045525590167982],[31.37448697212179,1.604292746772468],[31.37783983003984,1.603327507891767],[31.37783983459239,1.6033272471913078],[31.377667909991736,1.5973541942660878],[31.376468288508832,1.5958077673503337],[31.370292764819386,1.591338779417508],[31.370292714363714,1.5913386829454477],[31.37029267690857,1.591338657324392],[31.37015797103823,1.5910810515327163],[31.369228020906,1.5893029718729352],[31.369226925311384,1.5893026684213918],[31.362414853030558,1.587588274789461],[31.3622462365856,1.5873691970964408],[31.36205684524398,1.587316740563482],[31.355394766958632,1.5784673123480804],[31.355394575477344,1.578467063562863],[31.347287829768874,1.5743455508443955],[31.343884730986876,1.573912706000241],[31.343352608606157,1.573845035168227],[31.343352373296273,1.5738450887417976],[31.339134950566507,1.5749977041509704],[31.335507324681647,1.5772286251001317],[31.32773908516581,1.5821908316494835],[31.32734703142328,1.5829329172836457],[31.326603353178985,1.584846417031248],[31.327596789496635,1.587302852357732],[31.328305105144764,1.594005365592871],[31.327564148080523,1.5970178343028],[31.324320414271494,1.601222678108499],[31.32445496762451,1.605304377509863],[31.325766964783945,1.6107679793135063]]]}},{"type":"Feature","properties":{"n":"Kisukuma","c":"403207","d":"Hoima","od":"Hoima","dc":"403","k":"KISUKUMA","a":["KISUKUMA"],"lat":1.622311,"lon":31.267833},"geometry":{"type":"MultiPolygon","coordinates":[[[[31.2556982010875,1.672208928977125],[31.25778351787386,1.672769164980634],[31.258289976141082,1.671517228022376],[31.258290251205334,1.6715172697718783],[31.258290280777445,1.671517196328029],[31.259530785055208,1.671455108889205],[31.25971543781824,1.6712396666274378],[31.26209843337285,1.6677013521795276],[31.262101775702934,1.6676951441674996],[31.262057688774625,1.6673676701492957],[31.26190043848539,1.666202150436067],[31.263725544906993,1.666015431118526],[31.26627013098242,1.6642428852850544],[31.266416365814194,1.664140975560647],[31.26641641558967,1.664140984165029],[31.266416569789154,1.664140876750447],[31.266562833781922,1.664166294580706],[31.267505304298567,1.6643292136836731],[31.267747507025387,1.663493081180624],[31.27177694495751,1.661402781336019],[31.271777160968195,1.6614028367260978],[31.2717776668981,1.661402574266369],[31.273118421751267,1.6617466139315744],[31.275886795936813,1.6608997732191821],[31.275972656783736,1.6608370768745282],[31.27685228657419,1.660194046218207],[31.277385046935194,1.65762053263895],[31.27738553934176,1.6576204432871324],[31.27738563524899,1.657619980206049],[31.280016675828865,1.657142998746005],[31.281595301728405,1.6568565421817354],[31.285017088541842,1.6547720124970102],[31.285416524786616,1.6519708552268186],[31.28541737124488,1.6519616961581],[31.288332425869275,1.647952069636373],[31.28909556433214,1.643197527521558],[31.289678289455296,1.6424377398164456],[31.29165735657649,1.639857205585107],[31.291657465950045,1.6398571852681734],[31.29165764574292,1.639856950844754],[31.29364845576534,1.63948428561213],[31.294534686631657,1.633878165848642],[31.29453606848187,1.6338772025396304],[31.297010071380456,1.6316552554481414],[31.297308311546296,1.6302036041066976],[31.296814450275257,1.625238183255078],[31.29680998658232,1.625199698090275],[31.290623420318447,1.621025939642074],[31.292420292968334,1.6178529828046955],[31.292584194332864,1.612798383200122],[31.292584230816193,1.6127983587108017],[31.292584232199438,1.612798316054227],[31.29700208583794,1.609718144781325],[31.297285103188624,1.6096429128733996],[31.297697199560666,1.609366294476059],[31.302292119760775,1.608311935546497],[31.302292142732874,1.6083119374506638],[31.302292225484667,1.608311915453513],[31.305598587763996,1.608585994117357],[31.30801257828095,1.6096912302245576],[31.313696236883164,1.608836937640596],[31.314196489563162,1.608931446950104],[31.314372536971725,1.608909815481254],[31.31893759094672,1.609827015058065],[31.31893772164092,1.6098271754245386],[31.31893803096222,1.609827233862491],[31.319860868338637,1.6109599095593155],[31.319890028770114,1.610995690455463],[31.319371118905863,1.6137648810126057],[31.319800689892546,1.6137830090194447],[31.32523059450117,1.6110842514006285],[31.325724667253166,1.61079292015898],[31.325613992390487,1.6101309503086838],[31.32445496762451,1.605304377509863],[31.32436850118423,1.6026814029825132],[31.32421460479382,1.601760915998802],[31.324332646971992,1.6015937592089504],[31.324320414271494,1.601222678108499],[31.32756307243132,1.597019228664098],[31.327564196707524,1.5970176366026487],[31.328305105144764,1.594005365592871],[31.327652091600108,1.587826154477972],[31.327596778048854,1.5873028240512064],[31.326603391877292,1.584846512719201],[31.3263596426429,1.5848018626596772],[31.32628368853745,1.58494562981299],[31.325801190323887,1.58469956519258],[31.32466787556206,1.584491964246874],[31.316646901551522,1.5800310575617356],[31.316639184370224,1.580027121950715],[31.301469970532715,1.578079484068816],[31.30146980167083,1.578079315789774],[31.298503382210306,1.57559911063446],[31.297168761991937,1.573793121527194],[31.296429505290043,1.573056416434754],[31.295426805259236,1.5714485812401076],[31.29491582901805,1.572593982147618],[31.293628410664535,1.5739828916348706],[31.292808956104192,1.575138996051724],[31.291879873308343,1.5758692715487541],[31.290734560355716,1.577104873030928],[31.286822376917552,1.5798446988550823],[31.28570156523458,1.5821345339775055],[31.283515431833614,1.58660088334055],[31.281583425519326,1.588142201035779],[31.28158336680816,1.5881422126929607],[31.28158328763729,1.588142275859947],[31.280025031721873,1.588891915940721],[31.278467882955606,1.589159903467701],[31.27712911750213,1.589346555528203],[31.274867037508017,1.5894757489985991],[31.273556639881615,1.589735930227294],[31.268642072596975,1.5879176355833082],[31.266976467730522,1.5954977875648533],[31.266458538416867,1.597855367521473],[31.26462457184411,1.601873681580051],[31.262476725134626,1.6038474383617929],[31.26139430499907,1.6048423310667579],[31.261394928891615,1.6048475051398763],[31.261916167954272,1.60590345186121],[31.261628460500777,1.6067842322730832],[31.261678499066125,1.607199212701506],[31.261387288638097,1.607522549789578],[31.261333642052364,1.607686782107172],[31.25833585751848,1.610910666545786],[31.258335786753143,1.6109106967745739],[31.258335359849163,1.610911170775081],[31.258331173484677,1.6109126674217966],[31.256668848419803,1.611622761858383],[31.248920769120982,1.6142769351148296],[31.248919879004795,1.614277253335919],[31.248916981828067,1.614276660171681],[31.24556166222416,1.613864191761482],[31.245094891448502,1.6142323243241408],[31.243202590498687,1.6177333741918438],[31.24319835513152,1.617741641295983],[31.24424263183044,1.619971154022551],[31.244242475521247,1.619972147085136],[31.244242664044666,1.619972549745703],[31.244192353149757,1.6202905842269073],[31.24407949445687,1.621007597379278],[31.244078904135197,1.6210077390013204],[31.244078859034534,1.621008024099916],[31.2438381560257,1.6210654960523112],[31.242684552555783,1.6213422530934158],[31.242853899835506,1.6217050517770644],[31.243420737106405,1.622917286411838],[31.243420013413296,1.622917856973289],[31.24342017029723,1.622918193071306],[31.241738212475944,1.624243793025418],[31.23708656750149,1.627911161520915],[31.238905493805056,1.629174446105915],[31.238727766390326,1.6315520231867628],[31.240481866797307,1.632620214386357],[31.240481387963264,1.632621252977072],[31.24048307618542,1.632622281947517],[31.23999063368736,1.633685877493441],[31.241232606743083,1.636277135678116],[31.24123229847261,1.6362781005739877],[31.24123231489024,1.636278134846198],[31.241196275341128,1.636390854061517],[31.24037897220678,1.6389490375112052],[31.2408374936163,1.6401306393930113],[31.24301982023652,1.645753418563748],[31.243019575473333,1.6457538272638115],[31.24301970538304,1.645754162038923],[31.240883756941372,1.6493201690097767],[31.240426398346,1.650083856105447],[31.240392930415176,1.6526175258006615],[31.240378703180113,1.65370032806739],[31.2403786263782,1.6537004043686487],[31.240378620957536,1.653700814736772],[31.238260899026518,1.655961301836338],[31.2378973661504,1.6561654898101525],[31.236937663644127,1.6571189362281755],[31.25544221758808,1.673090139993579],[31.255697581784165,1.672208775554022],[31.255698197646215,1.672208941260471],[31.2556982010875,1.672208928977125]]],[[[31.279296607719626,1.589017272228741],[31.279296608751565,1.589017278224844],[31.27929660771963,1.58901727222874],[31.279296607719626,1.589017272228741]]]]}},{"type":"Feature","properties":{"n":"Hoima East Division","c":"438101","d":"Hoima City","od":"Hoima","dc":"438","k":"HOIMAEASTDIVISION","a":["EAST","EASTDIVISION","HOIMAEAST","HOIMAEASTDIVISION"],"lat":1.419227,"lon":31.385474},"geometry":{"type":"Polygon","coordinates":[[[31.34746981659314,1.429347654148882],[31.349516053020192,1.436982685699511],[31.35058454103545,1.438501686586972],[31.353366653653083,1.435370115853312],[31.359026460449346,1.432820736262935],[31.359530417387052,1.43097493811191],[31.363018267868373,1.428486349920939],[31.364773408057616,1.429314382475919],[31.36625950348682,1.42744830972428],[31.372416507633677,1.424621608722409],[31.373727035123412,1.431359676291527],[31.378875006571498,1.435171194989139],[31.377108305068223,1.437421191260487],[31.37689929885861,1.440549722810098],[31.375688757649137,1.441363308104046],[31.37473171830755,1.444645357826784],[31.376723481004,1.454983785674746],[31.378205153678916,1.457603516074282],[31.382515863963206,1.456317738547986],[31.383982304380744,1.45861971570053],[31.387961163458705,1.460980886291404],[31.389178475343233,1.46328285176145],[31.388192949490584,1.465248506387543],[31.38850298977329,1.4701907199757103],[31.388528858974833,1.470158182288589],[31.391789019854404,1.472894888318852],[31.39215593680969,1.4714076961710105],[31.392498272575022,1.46876857775992],[31.392967624794682,1.4681177528190414],[31.39304344272,1.467810446706385],[31.3933692562414,1.467560832554016],[31.393873633257055,1.466861440652487],[31.39850269339183,1.4636279737900653],[31.398503649336316,1.4636272414163074],[31.39855937291003,1.46137516094336],[31.398559741411233,1.461374365080029],[31.398559746079737,1.461374177046182],[31.398581946728175,1.4613264075773318],[31.401188154832568,1.455697700158731],[31.403501658048437,1.458841060749148],[31.403501716625605,1.4588412938013195],[31.403501726786267,1.458841307515528],[31.40488268002555,1.4634160954007953],[31.405443592199966,1.46403025423471],[31.408627093143835,1.4649996887672554],[31.412069704276174,1.465782398453292],[31.41713164453246,1.4637365398539697],[31.417134181167718,1.463735271807853],[31.417139552169523,1.4637352446988925],[31.421080468111118,1.4636897897551289],[31.429202175315492,1.461416156439582],[31.429206241412928,1.4614143341141492],[31.43357563675886,1.4593711354849974],[31.43428521635836,1.4586447102407283],[31.435233289248316,1.457219707529086],[31.43541551310065,1.4566316541638678],[31.43398823824419,1.451164334629693],[31.43398866996426,1.4511640997796182],[31.433988217369837,1.451162760971799],[31.43614979104014,1.4499880623384636],[31.4364563407742,1.448886014831418],[31.43419895969733,1.442806336395509],[31.434199042321097,1.4428016441799905],[31.43418163093404,1.4332226626498448],[31.43418140727663,1.4332192718726648],[31.433489766367074,1.43159596541385],[31.43061223079893,1.424842675979707],[31.430612289049876,1.4248424211257933],[31.430612286041345,1.424842414064661],[31.430973959030513,1.4232600776049653],[31.43281751234322,1.415194341448129],[31.434660129699687,1.400273155095044],[31.43473762293878,1.4002760166611208],[31.434737623676476,1.400276010929512],[31.434660131875756,1.400273142892255],[31.434550199669815,1.3985074588199047],[31.42685331580783,1.3923392366583969],[31.426849582027454,1.392336314129468],[31.41994315875426,1.3899905024172687],[31.418822810603167,1.389762450957834],[31.418532452051323,1.3895113466842173],[31.41828543461369,1.389427445600343],[31.417897046150145,1.388961842850931],[31.417232078429485,1.388386773732374],[31.411754247526655,1.3815978138010252],[31.41174870943356,1.381591174697105],[31.407413544040462,1.373684072806199],[31.407413531305533,1.3736840075049979],[31.40741350819661,1.373683965355888],[31.406679750000965,1.3699213791436047],[31.405549135761824,1.36412390082751],[31.40429196627427,1.3620062681924163],[31.40420922882375,1.361866924232167],[31.4016719342412,1.362067917593009],[31.4000500865783,1.364225948244679],[31.395190128141635,1.3620858236093976],[31.38920864104586,1.3622714559675422],[31.387853734226315,1.363692302240196],[31.386567530095622,1.362353421479791],[31.3754,1.3627],[31.37229068319798,1.3619672310721356],[31.370760951415747,1.361782899092308],[31.369909787151542,1.3614061281822103],[31.3597,1.359],[31.356071524217725,1.3641339072238587],[31.355990675061594,1.364407041907839],[31.354724200321765,1.3660402272043124],[31.353221606331974,1.3681662378494415],[31.3527728037064,1.370244686246913],[31.353357730457727,1.372108158729634],[31.35221417738058,1.372727502830537],[31.355586448505658,1.378803172636185],[31.35600707123347,1.381932762591905],[31.362266792304382,1.390284270400998],[31.36351869544623,1.390992325701623],[31.36480055890337,1.390472657794816],[31.367224716514816,1.385868034514247],[31.369448075402694,1.386142033314771],[31.370705009194747,1.38519409965735],[31.3731781793246,1.386065507456212],[31.372453341547992,1.389154431289785],[31.375189843324264,1.391444015845203],[31.37609404340354,1.394787282684837],[31.37959898005546,1.393722810178455],[31.378793276327947,1.396074451468086],[31.375777481316984,1.398107492530321],[31.375921900348267,1.399311612975358],[31.3742975945681,1.399535533255943],[31.371186066453543,1.397318199914976],[31.368035772310233,1.396880431493412],[31.366626871619637,1.398060619599299],[31.359914044163503,1.400317855049743],[31.357216629720295,1.391280399971048],[31.355802161228635,1.392865167641439],[31.353146170108413,1.400118202901183],[31.34632295609113,1.401642050169097],[31.346945357852537,1.403072135276265],[31.345536514041992,1.404850233381609],[31.340989017482702,1.40579708763189],[31.339146609100094,1.407459832228784],[31.336865400892467,1.41484508535652],[31.342370608141593,1.425871620687071],[31.34746981659314,1.429347654148882]]]}},{"type":"Feature","properties":{"n":"Hoima West Division","c":"438202","d":"Hoima City","od":"Hoima","dc":"438","k":"HOIMAWESTDIVISION","a":["HOIMAWEST","HOIMAWESTDIVISION","WEST","WESTDIVISION"],"lat":1.439526,"lon":31.327365},"geometry":{"type":"MultiPolygon","coordinates":[[[[31.271759248903077,1.418047284319798],[31.271742678189185,1.4304535214990706],[31.271795128018926,1.4307705515810818],[31.279318240734593,1.441806944873319],[31.28081368128717,1.4464167268812624],[31.28127767354138,1.4472206204379692],[31.282553060539623,1.44850238987421],[31.282594790542003,1.4495026022181217],[31.289,1.4606],[31.277223102706905,1.4731246368037665],[31.27720469606277,1.473165534759218],[31.277148526205217,1.4732039483214339],[31.2764,1.474],[31.27582280760713,1.4741105835892874],[31.27187114563315,1.476813054624562],[31.278036083160202,1.4796957807732496],[31.278213640628366,1.479777781438828],[31.283287702404856,1.477684767511426],[31.283289168283762,1.4776854248174986],[31.28328963711811,1.477685231447193],[31.287954436930345,1.479777272992321],[31.291009092362252,1.479121200972489],[31.296769854349282,1.484401918390126],[31.300008749309605,1.485451863507378],[31.30048290666226,1.485016824318864],[31.302775999056085,1.487161079437559],[31.302585542985838,1.48897445777159],[31.29871612213633,1.4884124784462116],[31.29839291674261,1.4883656175122548],[31.29575890339601,1.490429952799083],[31.295758512377258,1.49043012413488],[31.295758439728676,1.49043018107225],[31.29275453633121,1.4917464002194118],[31.289666655743282,1.493099441424626],[31.285530663987384,1.499282651007857],[31.289106948477418,1.502081133567175],[31.292522151116398,1.50339134298712],[31.292582484843948,1.5038894602317252],[31.292859445223844,1.506172835946044],[31.297105765457168,1.50620386600751],[31.299423671529436,1.507512815193252],[31.30358229025458,1.511995315988449],[31.30447136136262,1.514118288883127],[31.308359938131073,1.5144497049981094],[31.31125262052893,1.5146959608632307],[31.315256049665468,1.509287364628539],[31.315256264254682,1.5092873777563074],[31.315256303011676,1.509287325367777],[31.316666288437506,1.5093736377809825],[31.320713984528034,1.5096212607429853],[31.32244458415587,1.5081480092541015],[31.322064055769406,1.5076393820636922],[31.32194382369048,1.507480446747698],[31.321944434906936,1.5074794927483182],[31.32194395168831,1.50747884686186],[31.322592369451307,1.506467462896139],[31.32649154560372,1.50400029329348],[31.32943778647236,1.5060919227950758],[31.331651025568284,1.5056100431057564],[31.33159317021003,1.502855794580579],[31.33159348414749,1.502855188047511],[31.331593483650444,1.502855164597027],[31.335100699327857,1.496078606518325],[31.335101016193278,1.4960785702569737],[31.335101280137476,1.496078060311823],[31.344258837584842,1.495030570197142],[31.344431405082066,1.4950108219688594],[31.354120176698835,1.490471519452361],[31.358561205785442,1.4899920664881017],[31.35888470847453,1.4898699738601384],[31.365388624285927,1.48741483167457],[31.366491072466374,1.495748585151338],[31.3714437169639,1.499295120501606],[31.37382380554467,1.499638310229336],[31.37571423503554,1.502033694974648],[31.37910051868815,1.503371687878262],[31.383669629773948,1.503062511700584],[31.385882223259394,1.502134600597545],[31.388380653177713,1.502586697192168],[31.389298559191886,1.5034619504762476],[31.391333479344855,1.503751610633009],[31.391797725620858,1.5042140330676668],[31.392227503737654,1.504265783230883],[31.394626069315184,1.506792867330261],[31.3950474383361,1.5074509789375423],[31.395047476020242,1.507451016473639],[31.396696798075073,1.5065024338225859],[31.396697357292002,1.506501954540949],[31.396697449352697,1.5065018038397775],[31.398860176097262,1.5026553252775783],[31.398954825326804,1.502219566677459],[31.39876152081438,1.4970367791427992],[31.39876123643626,1.497035203719199],[31.397170915926136,1.4941174471375422],[31.396847775974425,1.4935247223042358],[31.39335345851244,1.493087853922362],[31.39181392690233,1.491648771494088],[31.391373589382116,1.489731181948323],[31.39137382198378,1.4897306069088627],[31.391373791542325,1.489730474286908],[31.392153865902014,1.4878021768882335],[31.392521809941673,1.486892543064535],[31.39170696390626,1.4833101957977475],[31.389895467917224,1.481381678254572],[31.389895450757493,1.4813814406867696],[31.38989528612177,1.481381265426449],[31.38964932261887,1.477978905343329],[31.38845536881926,1.47544605004521],[31.38595674807901,1.47339332425581],[31.38649739447439,1.4727133116459492],[31.38850164282542,1.470180671665177],[31.38819291469623,1.465249739695502],[31.388193014387383,1.4652495408784239],[31.388192949490584,1.465248506387543],[31.389178475343233,1.46328285176145],[31.38841481797851,1.461838757682621],[31.387961024412448,1.460980803777314],[31.384146034340365,1.4587168778160833],[31.383982442748447,1.4586198202451],[31.383982419806845,1.458619784197733],[31.383982304380744,1.45861971570053],[31.382515863963206,1.456317738547986],[31.378205153678916,1.457603516074282],[31.378198588348067,1.4575919079795234],[31.377296328356877,1.456367528936382],[31.377163991393676,1.455762647618199],[31.376723481004,1.454983785674746],[31.37473171830755,1.444645357826784],[31.374776152181845,1.4444929772730641],[31.37568804987384,1.441364725976547],[31.37568841597079,1.4413644798482723],[31.375688757649137,1.441363308104046],[31.37689929885861,1.440549722810098],[31.377108305068223,1.437421191260487],[31.377560107936947,1.4368457942462614],[31.378874920256088,1.4351711310818704],[31.373727035123412,1.431359676291527],[31.373726896567383,1.4313589639067132],[31.37372684566419,1.431358926220876],[31.373726648063556,1.4313576862260928],[31.372483793885994,1.4249675604999534],[31.371921607986646,1.4248488187899546],[31.370601351481977,1.4254549529252356],[31.369703587898478,1.426270181484881],[31.367120341425583,1.4270530961746526],[31.366649691362547,1.4272691731778477],[31.364774038804452,1.429314051648181],[31.364773772081463,1.4293139253754048],[31.364773408057616,1.429314382475919],[31.363018267868373,1.428486349920939],[31.35998165586316,1.4306529785700774],[31.359530398163315,1.4309750085209811],[31.3591926511123,1.4322120445366378],[31.359026640323698,1.432820538382633],[31.359026496831664,1.432820603008666],[31.359026460449346,1.432820736262935],[31.353366653653083,1.435370115853312],[31.352827634251607,1.4359768408909113],[31.350586601600664,1.438501071489128],[31.35058593167825,1.4385001212670543],[31.35058454103545,1.438501686586972],[31.349516053020192,1.436982685699511],[31.349516015447275,1.4369825455053467],[31.349516008262864,1.436982535314933],[31.348590264073263,1.434142248729462],[31.34753808121826,1.429902396442244],[31.34747050407357,1.4293502193142287],[31.34746981659314,1.429347654148882],[31.342370608141593,1.425871620687071],[31.338330438205507,1.4177794500337764],[31.336866248482103,1.414846796270169],[31.33686625101004,1.4148467880810511],[31.336865400892467,1.41484508535652],[31.3390730770164,1.4076978872424624],[31.339146533839465,1.407459927592508],[31.339146597348165,1.4074598702748364],[31.339146609100094,1.407459832228784],[31.339989581674498,1.4066990627345455],[31.340988947356163,1.405797118389472],[31.34098899420553,1.405797108639171],[31.340989017482702,1.40579708763189],[31.345536514041992,1.404850233381609],[31.34593621100357,1.404345776887018],[31.34694525195852,1.4030718919648462],[31.34632295609113,1.401642050169097],[31.346327784101625,1.4016409719161524],[31.346327551342004,1.401640433485307],[31.353146279172574,1.40011790506653],[31.355802161228635,1.392865167641439],[31.357216629720295,1.391280399971048],[31.359914044163503,1.400317855049743],[31.366626871619637,1.398060619599299],[31.368035772310233,1.396880431493412],[31.368035988158805,1.3968804614879728],[31.368036005267854,1.396880447156067],[31.3711852752158,1.397317866762604],[31.371185664413176,1.397318144046994],[31.371186066453543,1.397318199914976],[31.372567356868494,1.3983025333928898],[31.37429793422516,1.3995354864321827],[31.375921900348267,1.399311612975358],[31.375777481316984,1.398107492530321],[31.378793276327947,1.396074451468086],[31.37959898005546,1.393722810178455],[31.37609404340354,1.394787282684837],[31.375189843324264,1.391444015845203],[31.372453341547992,1.389154431289785],[31.37248892855134,1.3890027759175565],[31.372341893291516,1.38886989977525],[31.373174260022864,1.386082209710066],[31.3731781793246,1.386065507456212],[31.370705009194747,1.38519409965735],[31.369448075402694,1.386142033314771],[31.369447570197238,1.3861419710550567],[31.36944738792597,1.386142108727759],[31.369286557843118,1.3861221284681766],[31.367224716514816,1.385868034514247],[31.36480055890337,1.390472657794816],[31.36351869544623,1.390992325701623],[31.363317015540865,1.3908782589489717],[31.363205323866563,1.390908842684527],[31.363067733095168,1.3907372690024429],[31.362266792304382,1.390284270400998],[31.35600707123347,1.381932762591905],[31.355586448505658,1.378803172636185],[31.35221417738058,1.372727502830537],[31.353357730457727,1.372108158729634],[31.352780002430343,1.3702676200996555],[31.352772795903064,1.370244695813887],[31.350875033963256,1.3714863881158212],[31.3503,1.3723],[31.34984435228387,1.372140523299355],[31.347888314825322,1.372159977435572],[31.34706333827526,1.371167168396341],[31.34217483815089,1.3694561933528109],[31.34068461925983,1.371105166980752],[31.338937826859564,1.370860517773958],[31.3355567357979,1.369383932695053],[31.332529601471894,1.366083658316627],[31.33238522492057,1.3660298287222008],[31.325698633215215,1.3636895216253253],[31.32392297006354,1.363732819562675],[31.32212400069267,1.3625483662218612],[31.31880583356106,1.3634602289450517],[31.31788136758177,1.365247917900136],[31.31138985169425,1.366690275632948],[31.308532158434737,1.368506073987289],[31.30378940777168,1.369226037893704],[31.30168374662965,1.3681655352773476],[31.29630120576433,1.3696447068128559],[31.296170803289122,1.369726936995773],[31.28586722096404,1.382632745629845],[31.279268242805973,1.3839725426499059],[31.279024992227317,1.3841788077604626],[31.277370025815326,1.389771015752546],[31.27295183463484,1.3942285818875337],[31.271651560690035,1.3963845916763513],[31.2702177692217,1.402491724035828],[31.267552085312733,1.403654138040413],[31.269596223252478,1.412528826685396],[31.271759248903077,1.418047284319798]]],[[[31.34780178624354,1.430819335335716],[31.347801784824583,1.43081933574382],[31.347801786251775,1.430819335365523],[31.34780178624354,1.430819335335716]]]]}}]}
