{"type":"FeatureCollection","name":"Ibanda sub-counties","metadata":{"source":"Uganda Bureau of Statistics NPHC 2024 Map Explorer","retrieved":"2026-07-26","display_only":true,"clipped_to_dashboard_district":true,"positive_area_overlaps_removed":true,"source_gap_ratio":0.01352988},"features":[{"type":"Feature","properties":{"n":"Igorora Town Council","c":"417101","d":"Ibanda","od":"Ibanda","dc":"417","k":"IGORORATOWNCOUNCIL","a":["IGORORA","IGORORATOWNCOUNCIL"],"lat":-0.225439,"lon":30.552511},"geometry":{"type":"Polygon","coordinates":[[[30.537124592516673,-0.240553256478366],[30.5385622091089,-0.239487501838677],[30.538246521115212,-0.226896006983494],[30.539411031554984,-0.22366776099146],[30.538794013185676,-0.220199624826531],[30.5438078668636,-0.211254550986512],[30.54357059115776,-0.20783586044028],[30.54000819384672,-0.203195854347013],[30.538808555698928,-0.199724236450761],[30.54278286647982,-0.198562613094312],[30.547698799739347,-0.199503011744293],[30.549655125503108,-0.198943930863069],[30.550820863662818,-0.199987830419083],[30.551417785165896,-0.203971198001057],[30.555426275253527,-0.202370496807542],[30.55956373204305,-0.199515319111233],[30.561127134105522,-0.199513125848425],[30.562030898659813,-0.202681575534997],[30.565119825252605,-0.207532512820122],[30.56479548834448,-0.209640375965823],[30.56212954260568,-0.211350824372941],[30.560025008579046,-0.21424522948616],[30.560139209739162,-0.215595659935026],[30.562458179921176,-0.218652165005265],[30.564764591781607,-0.218910532844307],[30.5661120199347,-0.22123158630605],[30.566528566842692,-0.223981012864447],[30.565675541256727,-0.22845004099943],[30.567882755577376,-0.231995839706201],[30.56655267958641,-0.233731855389369],[30.569173455079515,-0.234260124088596],[30.569428499252812,-0.2368244676528376],[30.5524,-0.2451],[30.530460424728684,-0.24989295336696443],[30.529547026661316,-0.242585290027683],[30.530308164766005,-0.241373289371559],[30.537124592516673,-0.240553256478366]]]}},{"type":"Feature","properties":{"n":"Ishongororo","c":"417102","d":"Ibanda","od":"Ibanda","dc":"417","k":"ISHONGORORO","a":["ISHONGORORO"],"lat":-0.00208,"lon":30.558746},"geometry":{"type":"Polygon","coordinates":[[[30.518240912578285,0.02643332547269],[30.519225632760467,0.028465330096741],[30.519601704911786,0.03432975968217],[30.521099857781838,0.034272043892963],[30.522271084922902,0.036554270400871],[30.5239606305665,0.035997882018161],[30.52672679108162,0.033385293922084],[30.528390356952563,0.034751409453385],[30.525291928235596,0.038532442361473],[30.52630457401346,0.040902879308668],[30.53153356360156,0.043333582774566],[30.531695035997224,0.045549826867846],[30.534354017332067,0.050900043239536],[30.534693001351993,0.051374643781095],[30.535245131760533,0.050504009418402],[30.538161679589063,0.051945761689208],[30.537376094378576,0.05281352636705],[30.537778997770417,0.053397960130519],[30.54237135421086,0.053493138568093],[30.54332490198475,0.052873012390465],[30.54447945313915,0.053455364661563],[30.548220142867507,0.052240105567519],[30.548375300565837,0.050419442755549],[30.54921869237654,0.050103490743184],[30.549419705595923,0.046440315484862],[30.55290765465037,0.041266522546781],[30.548945945116238,0.040265079271426],[30.547020760935215,0.033701021469247],[30.5477264843541,0.031485758825637],[30.551666927374942,0.029903009725013],[30.552096744956195,0.028681080100717],[30.55835532843519,0.028139655939047],[30.563264760276503,0.024634971428518],[30.56324200162325,0.023925946995947],[30.56573430805031,0.024177267667981],[30.56706908862774,0.022771122289894],[30.570231369052774,0.02386321331602],[30.57092070477079,0.02328174198903],[30.572545838618833,0.02542923496782],[30.57375670651022,0.025552944118098],[30.57622406529068,0.028050211568834],[30.5762083953201,0.03524093146382],[30.578259826571315,0.03362398584606],[30.581255318354575,0.033458167635145],[30.5860077684849,0.030288175424415],[30.59065231295334,0.030573833992449],[30.592091536915312,0.029245708948523],[30.59127759062576,0.027302085348131],[30.59169253644515,0.025739538068488832],[30.583669077179888,0.018676972128405408],[30.583001278800413,0.018505349229534],[30.583021828186656,0.018107237984662256],[30.5829,0.018],[30.58280465121867,0.01613388813682697],[30.581689990739886,0.016056408397428],[30.582109108036402,0.015038958708553],[30.58274467549715,0.014960077587122988],[30.582404118367958,0.008294888058628476],[30.580980706790626,0.006087313492492],[30.57976181713587,0.005677549532263],[30.579215531678038,0.003315799092646],[30.580098246020995,0.002267472955001],[30.579436569299652,0.001715914900958],[30.5796301806167,0.000214206157736],[30.581397640779098,-0.002848730533933],[30.580430569979047,-0.004952194536042],[30.581523344668017,-0.004909681724398],[30.58169403349786,-0.005602487256087023],[30.58150866761015,-0.009230362486984073],[30.5801067602689,-0.012176260969696],[30.578025365386633,-0.013259521243092],[30.57773086947907,-0.015280551910957],[30.578611467597597,-0.015019527384395],[30.57829391936894,-0.01643344483055],[30.579117103081437,-0.01588802930638],[30.57957166645087,-0.0168288259679558],[30.577415748319808,-0.025134412210563225],[30.57739285244647,-0.025148317665397],[30.577404844517908,-0.025176418660510652],[30.5754,-0.0329],[30.571537538180394,-0.039148100002302504],[30.569925580751256,-0.038212383582566],[30.57055649048159,-0.040735088926839184],[30.569416558192238,-0.042579097041970396],[30.568371880159965,-0.043050924778923],[30.56866208476471,-0.043799568762966166],[30.5686,-0.0439],[30.56935887046184,-0.04583033068934151],[30.569226107156915,-0.046947037742653],[30.569646957706464,-0.048673232766374],[30.570596582497338,-0.049084037926739],[30.56995727963908,-0.051104730678667],[30.57165762115284,-0.053567984909806],[30.57170982036229,-0.05505321396104],[30.57096625144493,-0.054913445705678],[30.57151281166762,-0.05591115667964],[30.569456528929305,-0.055544636154082],[30.567041611070916,-0.056317888049366],[30.562841864706822,-0.055354205621428],[30.561925776284596,-0.053997921720481],[30.56250927316577,-0.052976178323251],[30.56134280824261,-0.051975374401508],[30.560502032715295,-0.049517032583267],[30.558173988539092,-0.048510726431969],[30.559222474251804,-0.044549554303016],[30.55588065235975,-0.044440561320561],[30.552359897459553,-0.041914348631801],[30.549756468547418,-0.042471518362211],[30.548911616768404,-0.036808588688215],[30.549639332964613,-0.034295138210686],[30.547906480002396,-0.030009768738039],[30.548895041687533,-0.029720705133932],[30.550160030720498,-0.026923294650678],[30.549778070878773,-0.022295003246839],[30.548511440682844,-0.016706558046689],[30.547411841846515,-0.01553748479436],[30.547444888775324,-0.008012531033273],[30.54554927144899,-0.00438633294718],[30.543694152149172,-0.00315891137357],[30.541226868957622,-0.003779023397594],[30.534414845598157,-0.001310512753401],[30.531180215366394,0.000566412937229],[30.528958826014755,0.003032772859704],[30.52387288259539,0.002170410345836],[30.518410449996555,0.007704981098908],[30.516868927550938,0.01081782959967],[30.51363686242262,0.012585929054211],[30.512597189548607,0.016306135291881],[30.513760261494063,0.021756946076715],[30.518240912578285,0.02643332547269]]]}},{"type":"Feature","properties":{"n":"Ishongororo Town Council","c":"417103","d":"Ibanda","od":"Ibanda","dc":"417","k":"ISHONGOROROTOWNCOUNCIL","a":["ISHONGORORO","ISHONGOROROTOWNCOUNCIL"],"lat":0.055804,"lon":30.505798},"geometry":{"type":"Polygon","coordinates":[[[30.453043338584664,0.08565403680134064],[30.453235785174584,0.0910746157508379],[30.45377667813702,0.092116651128311],[30.45328906510687,0.09257533384352291],[30.45339385517177,0.0955269206716184],[30.454923427157112,0.094407702586434],[30.457189707278904,0.096874766471439],[30.45737067273799,0.09754731833264778],[30.459224233176684,0.09840966998059716],[30.460315686591326,0.097703721697895],[30.461468313479433,0.09945370734069892],[30.4721,0.1044],[30.475226844575765,0.10130641972823262],[30.475653083710245,0.099694715889425],[30.47668296774019,0.09986578723577152],[30.480782205064042,0.09581015881961777],[30.481155974668628,0.095054203477041],[30.483289205826075,0.094887402117432],[30.483563462226837,0.09550338359321613],[30.49075804991981,0.09690984434522514],[30.490830605741035,0.095958511797983],[30.49172650632773,0.096307194875388],[30.491778507795964,0.094966587535927],[30.494929892634584,0.092740606287165],[30.495558698911132,0.090686046293892],[30.49840020166598,0.088569649729369],[30.502608654129023,0.08729633608545],[30.50730622635789,0.087766327600252],[30.50978457515008,0.086871998208212],[30.511514674522356,0.087244622028708],[30.512140263478898,0.089319477557226],[30.51429303390291,0.089363594421091],[30.514179767794705,0.088676664468201],[30.51616524033211,0.087445853723582],[30.516598291352103,0.085365425421908],[30.520415682610068,0.081645038289039],[30.522673101216284,0.081003317044536],[30.528265414841584,0.082301068977033],[30.529279062695394,0.080145286803449],[30.528464229506877,0.079682894590223],[30.528726334048507,0.075476101525004],[30.533088606122483,0.076326114308501],[30.534079997916,0.077696954319198],[30.536119061291046,0.077094473305685],[30.53365455131323,0.07201806326545],[30.53407851783793,0.071268208229697],[30.535943000957666,0.070980917049001],[30.538089269659483,0.068535429443648],[30.537591322920438,0.065826022806742],[30.538569723447935,0.065317183385902],[30.5416858129648,0.064664411067319],[30.545291701817536,0.06221699803043],[30.546664258735007,0.063867726509249],[30.547075040816445,0.067666297729371],[30.55012684890162,0.066521440900991],[30.551718609698998,0.065024238613891],[30.553755389491915,0.065196703869439],[30.554207021173163,0.063314850885201],[30.55053298058451,0.056379417145465],[30.548794115141195,0.05464359067278],[30.54909697381795,0.053093654218084],[30.54822014994845,0.052240117364214],[30.54447993552891,0.053455232041883],[30.54447990646169,0.05345521738809861],[30.54447945313915,0.053455364661563],[30.54332490198475,0.052873012390465],[30.54237135421086,0.053493138568093],[30.537778997770417,0.053397960130519],[30.537376094378576,0.05281352636705],[30.538161679589063,0.051945761689208],[30.535245131760533,0.050504009418402],[30.534693001351993,0.051374643781095],[30.534354017332067,0.050900043239536],[30.531695035997224,0.045549826867846],[30.531551786184778,0.043583691731330726],[30.52636465633504,0.04093080866382304],[30.52630457401346,0.040902879308668],[30.525291928235596,0.038532442361473],[30.528390356952563,0.034751409453385],[30.52672679108162,0.033385293922084],[30.5239606305665,0.035997882018161],[30.523345987166635,0.03620029173019818],[30.522274865941792,0.036553586978622],[30.52227461891547,0.03655310661318749],[30.522271084922902,0.036554270400871],[30.521099857781838,0.034272043892963],[30.51972872811229,0.034324866160012575],[30.519606077799818,0.034329736094715],[30.51960606843027,0.03432959157922262],[30.519601704911786,0.03432975968217],[30.519225632760467,0.028465330096741],[30.518240912578285,0.02643332547269],[30.515570175507587,0.02364592257638757],[30.513761003332743,0.021758017958949],[30.51376092158537,0.021757635002794446],[30.513760261494063,0.021756946076715],[30.512597189548607,0.016306135291881],[30.51363686242262,0.012585929054211],[30.515499519588115,0.01156696347413779],[30.51262804662278,0.009884305867176],[30.511375250864603,0.008074648385929],[30.508628877846743,0.007204602412108],[30.507395314645663,0.008384649120415],[30.504148933788596,0.008499147807524],[30.50154048122074,0.010555078785536],[30.49734366289232,0.011275546300771],[30.496771075618774,0.009210625316011],[30.493907405466686,0.010114998813127],[30.489748111418997,0.013703224867388],[30.489279700497654,0.018146551237702],[30.485486439235643,0.017978246042263],[30.486142898957876,0.015205139225128],[30.481325045450067,0.01279461410808],[30.479785564432646,0.016690620247922],[30.475727856155487,0.018309073498251],[30.472694649032174,0.023034340621059],[30.468348973734283,0.024863013896957],[30.465056083504575,0.024983360038949],[30.46495258005284,0.023712693610339],[30.461728416443474,0.022951267914845],[30.458718401662757,0.024355150122791],[30.455604748957292,0.027111149011435],[30.454430745250512,0.029486547151122],[30.45617279941003,0.030364668394792],[30.45718359308075,0.032607380009776],[30.456009035368325,0.034372708175018],[30.45297630294989,0.035122471088723],[30.454524976458504,0.037719461256418],[30.45396789682257,0.038665269774809],[30.457348511946577,0.043248145403094],[30.45732462946015,0.045812957324603],[30.456227179560408,0.047296930813174],[30.456821289536837,0.049230522223518],[30.457815124273633,0.048307566662762],[30.45934281120373,0.048299626570342],[30.45897702715209,0.049462830585526],[30.460283999486634,0.051285604100376],[30.45931689538207,0.05241824382635],[30.461728503895845,0.055228674603736],[30.461199257610655,0.058611738568586],[30.461947245371295,0.059376447839462],[30.45931050869476,0.060899515391344],[30.461044284530665,0.063725085990704],[30.46084708661652,0.065172474890152],[30.45950562910072,0.065944533447127],[30.458466339762932,0.06549041821639],[30.457505213499502,0.066896586534788],[30.455311161599912,0.065840857892472],[30.45520949742918,0.067133939496726],[30.456028919163668,0.067734711510765],[30.454087888703228,0.070807246436036],[30.454885782095076,0.070008244695763],[30.456037135529236,0.070996495718222],[30.45558143226364,0.072309376837393],[30.45646561742734,0.073658801039349],[30.453817325855052,0.073408508311816],[30.453804489544396,0.074987043670058],[30.452665008745612,0.07499774633474786],[30.452848698750685,0.08017168147768379],[30.453084171683226,0.080793183700703],[30.453043338584664,0.08565403680134064]]]}},{"type":"Feature","properties":{"n":"Kanyarugiri Town Council","c":"417104","d":"Ibanda","od":"Ibanda","dc":"417","k":"KANYARUGIRITOWNCOUNCIL","a":["KANYARUGIRI","KANYARUGIRITOWNCOUNCIL"],"lat":0.088686,"lon":30.602765},"geometry":{"type":"Polygon","coordinates":[[[30.579556492559792,0.088767184312576],[30.58087887936893,0.090945535183471],[30.58234825728876,0.091887026021929],[30.58476630256088,0.091874560925306],[30.58744706106582,0.093917609363322],[30.588028991852767,0.09342192022409],[30.587848254272128,0.094675131347847],[30.590939610486657,0.09855359628972],[30.59352053647804,0.099162995093981],[30.59442635133874,0.100203511853252],[30.597231648818457,0.100040902902019],[30.5992824091678,0.102347806220565],[30.601175813264202,0.103210967364533],[30.604705212458278,0.110477933705289],[30.602908449205366,0.112348260455818],[30.602183188910317,0.116237721231913],[30.602575134471707,0.118547334789039],[30.600064276181296,0.118576802267312],[30.597772857957313,0.120589823133997],[30.597367829082366,0.121985768870515],[30.597940339853846,0.122495595453115],[30.59958568189577,0.122496608832761],[30.602550541517893,0.124690974634364],[30.607265553070654,0.124669862880073],[30.607910469045013,0.126818090377908],[30.611898603393122,0.128700102201322],[30.612049662495174,0.13019972459947],[30.613805667375424,0.13146280116925],[30.61381491698663,0.132277756913799],[30.61647351479811,0.13358238947284],[30.617570954913326,0.136127844482305],[30.6180286169715,0.13627755810038175],[30.6182,0.1359],[30.620904222822496,0.13503464869680198],[30.62155780586184,0.134665951213104],[30.621687384303087,0.13478403702301256],[30.62417840088522,0.13398691171672975],[30.624939253512483,0.130852756740382],[30.626411230368657,0.13081925529732],[30.62653993927132,0.131652184601474],[30.628661512691487,0.1325523159387248],[30.62901417857029,0.1324394628575072],[30.62890373089529,0.131777369453196],[30.630110437988584,0.1320886598436533],[30.6307,0.1319],[30.630770513090077,0.13178178687839953],[30.63094909957432,0.131309596295061],[30.63105468218484,0.13130538574894496],[30.63691340946377,0.12148340178132867],[30.636912830866486,0.121307887285862],[30.637044317436647,0.12126393841503105],[30.6375,0.1205],[30.637538233494407,0.11897830692262415],[30.637364268842305,0.118181229844113],[30.635685544858763,0.117493314760493],[30.637518117975393,0.114225669058469],[30.636476744417664,0.112117680054973],[30.636947277404445,0.11111454605097],[30.637734295730123,0.11117502994112288],[30.638,0.1006],[30.634765056361182,0.09909537505171287],[30.63430397886444,0.099371604373249],[30.633856954783727,0.09867300222498883],[30.632877829315735,0.09821759503057453],[30.63138198380803,0.097906570221731],[30.6306136116045,0.0971644705137194],[30.6294,0.0966],[30.628884578933587,0.09364266601238332],[30.627585048199492,0.093233729052942],[30.626992883453624,0.093917114604352],[30.626607031897663,0.091014468833385],[30.625178618836877,0.090938328734455],[30.625504167160198,0.089540275565561],[30.62615995218772,0.089927690144069],[30.626481358649535,0.08956547754534],[30.6260860536264,0.08810376183074],[30.62648491831208,0.08860533914124],[30.627159206088816,0.087620643515675],[30.62550822263728,0.08651204688986],[30.626293462116475,0.084212600639616],[30.626995202635868,0.084184456054383],[30.625703912919594,0.083182389006014],[30.625806651646915,0.080945708390283],[30.624017370117944,0.080033750419605],[30.6234212536841,0.078417599808686],[30.621846773440204,0.0783065318446],[30.62223744019202,0.076197251185929],[30.625188654160254,0.07243654026375093],[30.62332080955955,0.06171939911217373],[30.619235904686583,0.060156969632173],[30.619535939735314,0.0591073300938],[30.61711841341654,0.058711769374317],[30.616697629410957,0.057596032107962],[30.615873360433632,0.058530050019382],[30.614904674179783,0.057796831915003],[30.61391495957789,0.055824708516279],[30.61402211771408,0.053462416095588834],[30.60802459485559,0.04820201895154943],[30.60788141419729,0.049703194953878],[30.60608693714046,0.04694049505463],[30.604656855297772,0.046918466734564],[30.604743978927434,0.047560135499552],[30.604084885311877,0.046760640232368],[30.605301751798933,0.04567640064584823],[30.604137232229757,0.043026114729796804],[30.603711859185566,0.043020614615522],[30.603421950569853,0.041985338384785],[30.600685728538487,0.042147655034634],[30.59794873280943,0.041186146651203],[30.595253050587488,0.042602900650167],[30.59307874228781,0.045977027515891],[30.593410933695086,0.051359971375553],[30.589890156870194,0.053419836976151],[30.58740287423433,0.053187744763562],[30.58585440234653,0.055232153684732],[30.581676971003834,0.057534094491881],[30.585715889412075,0.061446770019825],[30.58766979184342,0.065573636578467],[30.589785051702066,0.067293340333075],[30.58654452111891,0.06868677369109],[30.585809660513824,0.070367933949944],[30.58559582244851,0.071995315943623],[30.586504142902754,0.073179698545792],[30.58598225915809,0.077335490606079],[30.58440527105029,0.078679883417827],[30.581880667397815,0.079109872473506],[30.578581335956326,0.078280588836295],[30.577880821843614,0.078955930883549],[30.577833839017828,0.083868911323154],[30.576668006577773,0.085938810333119],[30.577025009228706,0.088009034458374],[30.579556492559792,0.088767184312576]]]}},{"type":"Feature","properties":{"n":"Keihangara","c":"417105","d":"Ibanda","od":"Ibanda","dc":"417","k":"KEIHANGARA","a":["KEIHANGARA"],"lat":-0.192473,"lon":30.589371},"geometry":{"type":"Polygon","coordinates":[[[30.561592555019054,-0.20114481492120684],[30.561127134105522,-0.199513125848425],[30.56069214955015,-0.19951373607881312],[30.560533559747626,-0.199226451649246],[30.56186779884976,-0.194132222012927],[30.564299487723705,-0.192045344144406],[30.566502056497267,-0.191911989548787],[30.565121188564312,-0.189129276473233],[30.571352641388252,-0.186029114481058],[30.573525538376405,-0.182243092019347],[30.580148131618827,-0.180295358851151],[30.579849440549744,-0.179329125733473],[30.583616988707252,-0.174836286997902],[30.58393551119209,-0.17275725284768],[30.58708366412068,-0.167511004354046],[30.587454657806276,-0.166465744007339],[30.58646273762377,-0.165334466458484],[30.58762878675096,-0.161952536260092],[30.58959758675481,-0.159828864059635],[30.590683884656393,-0.155616461855595],[30.588299647711192,-0.149982945565445],[30.58861172574184,-0.1472632945668705],[30.607293831506592,-0.15105661553433322],[30.6099783935207,-0.154388443613207],[30.61817939064087,-0.162004893766843],[30.620552455770625,-0.16223847498509],[30.6230945834987,-0.164163925154747],[30.623907659104344,-0.16281076267960856],[30.6254,-0.1639],[30.625640241680212,-0.18103723985520245],[30.624939017519626,-0.181066988237161],[30.62017112592044,-0.185538161714911],[30.618067166581017,-0.19038855561265558],[30.6143,-0.1929],[30.612415175892263,-0.19780054268011965],[30.611406055520582,-0.198580786348771],[30.60891198583616,-0.205504710239164],[30.60889993998186,-0.20694015604716165],[30.6083,-0.2085],[30.5984,-0.2218],[30.59829824002829,-0.2221334262902972],[30.59722136415562,-0.223411610370191],[30.593868098879145,-0.233415095934319],[30.593691464680365,-0.236994134072862],[30.59356829163555,-0.23718345372305916],[30.576302798126555,-0.2350144218751957],[30.575999701255444,-0.23480725198374],[30.575672277006195,-0.2349352106791704],[30.5738,-0.2347],[30.56929590964975,-0.23688890372161595],[30.56929590964975,-0.2368889037216155],[30.569428499252812,-0.2368244676528376],[30.569174184358754,-0.23426745663222995],[30.569173900522916,-0.234261344010679],[30.56917356980387,-0.23426127758549808],[30.569173455079515,-0.234260124088596],[30.56655267958641,-0.233731855389369],[30.567882755577376,-0.231995839706201],[30.565675541256727,-0.22845004099943],[30.566528566842692,-0.223981012864447],[30.5661120199347,-0.22123158630605],[30.564764591781607,-0.218910532844307],[30.562458179921176,-0.218652165005265],[30.56245472970416,-0.21864761746693176],[30.560059936372703,-0.21465825117539694],[30.560040438811313,-0.2144276922165382],[30.56212963664583,-0.2113507640375669],[30.56479548834448,-0.209640375965823],[30.565119825252605,-0.207532512820122],[30.565111819385518,-0.20751994018105788],[30.561592555019054,-0.20114481492120684]]]}},{"type":"Feature","properties":{"n":"Kicuzi","c":"417106","d":"Ibanda","od":"Ibanda","dc":"417","k":"KICUZI","a":["KICUZI"],"lat":-0.172153,"lon":30.336282},"geometry":{"type":"Polygon","coordinates":[[[30.251070051846767,-0.11893879231297218],[30.2513,-0.1187],[30.25297200159085,-0.11827836481622023],[30.254093375495454,-0.119094210215842],[30.255762166019146,-0.11757475813430246],[30.256857534239725,-0.11729853484389602],[30.260084152294958,-0.117138970199514],[30.261339009284395,-0.11616842374567443],[30.265233565964717,-0.11518631814802818],[30.265454780143088,-0.115214782680274],[30.265515915103123,-0.11511511706095148],[30.268052974012257,-0.11447533698821345],[30.269375454097883,-0.114472808021783],[30.270543245830464,-0.11384735539927483],[30.27319821709706,-0.11317784090595895],[30.274792643364528,-0.11305227158539928],[30.275895807338408,-0.11339324954096239],[30.276514892852894,-0.114510415224624],[30.279403327055732,-0.115395534314217],[30.28034295333752,-0.116781469197442],[30.283110070983806,-0.11562311284953951],[30.28409647264046,-0.11592800063432376],[30.28455485772684,-0.116394904881647],[30.284037749935532,-0.11771531994323],[30.284869805959236,-0.118145857520221],[30.28682009807731,-0.118426958488755],[30.287695750915386,-0.117620330929989],[30.289328442471657,-0.119117996704757],[30.290937858523794,-0.118108379342604],[30.301487075124793,-0.12640178862012205],[30.3015892466625,-0.127129714108942],[30.306316829683226,-0.13042810059479],[30.306630624319514,-0.13044545937068636],[30.3067,-0.1305],[30.312856321608564,-0.13170712188403205],[30.314509704246788,-0.132832856545916],[30.315685898323395,-0.13226194084772455],[30.316951398535057,-0.13251007814412916],[30.318276353762403,-0.133836281551425],[30.321969037088277,-0.13349392884083883],[30.321977482643973,-0.13349558483215201],[30.32437009736789,-0.135608307633529],[30.325971021338855,-0.13566391887450654],[30.32636169096068,-0.13587680550900846],[30.328668527645778,-0.138789734269661],[30.333166730440116,-0.140218370740115],[30.334426213666074,-0.1402713859977453],[30.336344321758876,-0.1413166159149812],[30.336323787892287,-0.141683755725785],[30.337143824043597,-0.142514463752727],[30.338275403804136,-0.14236891569616725],[30.3565,-0.1523],[30.356849865923728,-0.15216880027860208],[30.358695902827858,-0.153969858241102],[30.362827959104788,-0.151911082543818],[30.36901238632665,-0.15175147641929],[30.37418837025251,-0.150193379799441],[30.3753693068194,-0.147432933866937],[30.378556456535193,-0.14586280594963877],[30.3809,-0.1544],[30.39019359786671,-0.16641246958303146],[30.392558657355018,-0.173683240825301],[30.397405457463183,-0.176187540590686],[30.399104369984872,-0.178564874621022],[30.399577770928083,-0.17854201242300058],[30.3997,-0.1787],[30.405367548679674,-0.1793079377476466],[30.40345760252005,-0.186822433497741],[30.40111220638692,-0.189802875132191],[30.394357079182488,-0.191329229419912],[30.395748378141118,-0.195651090013228],[30.396047382807023,-0.204163681920514],[30.3973229982362,-0.20515951899405],[30.397786996217686,-0.208966537923507],[30.396308493226215,-0.21452193279206],[30.396361282518964,-0.218950573154741],[30.395016976236114,-0.222900270214152],[30.390049259869247,-0.224273518807226],[30.384730403016274,-0.231651713602295],[30.382331991203706,-0.231346475178628],[30.382449456544464,-0.233431326612085],[30.374964527241133,-0.226892274175206],[30.374029530055815,-0.228096202479125],[30.372111586895546,-0.22863822901725472],[30.369909614553485,-0.22575872672379077],[30.368433313802154,-0.22377112048479],[30.368359947147148,-0.22373223857704314],[30.3665,-0.2213],[30.3612,-0.2],[30.3545,-0.1927],[30.3483384735917,-0.19342598045294185],[30.347942876977392,-0.192602476889799],[30.342542650588694,-0.191932453019122],[30.340032196541994,-0.193161092873088],[30.334561758406636,-0.192563808095911],[30.3279474559438,-0.19401784661613],[30.32388010401269,-0.1963077823066619],[30.32143798236697,-0.19659552473621814],[30.31894572031692,-0.191513220719301],[30.31638889926557,-0.18926231678172722],[30.3158,-0.1884],[30.31560707580981,-0.1885740365072332],[30.315300941811376,-0.188304530660456],[30.314767392989456,-0.1893315126179045],[30.313892490874153,-0.19012075998066036],[30.31198376815284,-0.190427639178318],[30.309815900598146,-0.19379824351635733],[30.308664889605556,-0.19483656811806607],[30.30248626998943,-0.198975297409307],[30.30154315811414,-0.20126106715577832],[30.3015,-0.2013],[30.293766318962902,-0.20574464427419478],[30.28410510749765,-0.21124544263875716],[30.28411203848328,-0.21117140711041993],[30.28632047290483,-0.206997272469856],[30.285164265774217,-0.20434947863389],[30.285399089071053,-0.201078322453305],[30.28518167136589,-0.19974578313708102],[30.2863,-0.1878],[30.286225617287126,-0.18765293280970372],[30.28641331002171,-0.187459851554446],[30.283722200055102,-0.179949079394389],[30.28216097214531,-0.1796164426434664],[30.280709858406045,-0.17674734561560265],[30.281201207837068,-0.174201120627661],[30.27998285203398,-0.170622206322035],[30.281821895170363,-0.168253720334354],[30.281011548708644,-0.166528479009074],[30.278673906069063,-0.165760072156467],[30.27715574743907,-0.16423340799183],[30.276112390709716,-0.164386091477207],[30.275720536528244,-0.162090326720019],[30.27348206031382,-0.160861189210596],[30.271636608444318,-0.157782265921246],[30.27175840973262,-0.155440084137301],[30.27037437135033,-0.154471671502835],[30.26960773347167,-0.15479656891887422],[30.268403384332068,-0.15241536719536872],[30.26845715100216,-0.152410223126996],[30.2688971460181,-0.151420950285582],[30.268048779559184,-0.151021508370661],[30.26873349829304,-0.14994804095241],[30.267492022549433,-0.148617949890292],[30.26690689337939,-0.144773010364699],[30.265278377087768,-0.144460029441429],[30.263118656037346,-0.14206281320068],[30.262179372240055,-0.14202454610367157],[30.26015949695634,-0.13977288185297115],[30.260143926871443,-0.13968173168164],[30.260118458299463,-0.13972713384202418],[30.259243600795227,-0.13875188285369716],[30.25924739465942,-0.138744927418474],[30.2590500782425,-0.13853615279491702],[30.255922389858856,-0.13504954935085806],[30.25657143965088,-0.134455650162589],[30.25528013686078,-0.134004903536586],[30.255234984232064,-0.132521493331358],[30.254211727377385,-0.132341558287041],[30.253969337530716,-0.130716222784536],[30.254827568281186,-0.129383018134658],[30.25185512017392,-0.127831835031431],[30.251411157784503,-0.126570381622136],[30.248539026445375,-0.12681891472599488],[30.24822123668844,-0.12646465729203293],[30.248415114928076,-0.126035330105077],[30.248001906414466,-0.12622015797022612],[30.247874557467174,-0.12607819520930993],[30.248171816493333,-0.125700103730266],[30.24691260296441,-0.12500585248491697],[30.246136416340672,-0.12414059526501428],[30.24620579902613,-0.12399013178055865],[30.24981516871114,-0.1202419401845853],[30.249970524349326,-0.120272058032632],[30.251070051846767,-0.11893879231297218]]]}},{"type":"Feature","properties":{"n":"Kijongo","c":"417107","d":"Ibanda","od":"Ibanda","dc":"417","k":"KIJONGO","a":["KIJONGO"],"lat":0.010217,"lon":30.440264},"geometry":{"type":"Polygon","coordinates":[[[30.388764042278122,0.0016128611931122644],[30.38925392717752,0.001896665840542],[30.393613480346612,0.006713408530912],[30.396479736056488,0.008303947774636],[30.40039182550066,0.012814631539182],[30.40101773832691,0.012553071949492],[30.404995671756023,0.018664137180304637],[30.411724620165703,0.024120805428489663],[30.413636084830113,0.024483640389033],[30.415514226567073,0.025799156905465],[30.417683323186342,0.028952862920017485],[30.41924016604211,0.030215344731625328],[30.422967046146397,0.032393636031134],[30.42384796281746,0.03395191942760551],[30.4281,0.0374],[30.428115186644455,0.03742219586496906],[30.42841836279311,0.037317492745944],[30.429541788824178,0.039452321042734],[30.429521930240668,0.03947820573636221],[30.434485875224098,0.04673320225060628],[30.435791532678383,0.046700994636497],[30.436289067085116,0.048609469707509],[30.43786483302079,0.049132532341249],[30.43854917129181,0.05092908858421734],[30.439027690971972,0.05131366575048141],[30.43924889787791,0.050999933827313],[30.440154269496237,0.051543382602091],[30.443222652839694,0.054685076822084525],[30.444258473562556,0.05551754623739103],[30.44489290560535,0.055547064001072],[30.44496206143829,0.056083006431998164],[30.45115429667638,0.0610595881264123],[30.45238028575987,0.061193812759209],[30.452951329456543,0.064177568501339],[30.454246232580665,0.065447771803717],[30.45530499993367,0.06591922903552236],[30.455311161599912,0.065840857892472],[30.457505213499502,0.066896586534788],[30.458219289373826,0.06585186337029472],[30.458465016871617,0.065491569541763],[30.458465429932577,0.06549174933663032],[30.458466339762932,0.06549041821639],[30.459498443305318,0.06594139362935186],[30.45950564099698,0.06594452660038758],[30.460846470405784,0.06517282954228745],[30.460887794434623,0.06487368854497828],[30.461044284530665,0.063725085990704],[30.45931050869476,0.060899515391344],[30.45931103475464,0.06089921152150992],[30.45931093446883,0.060899048437064],[30.45950045485815,0.06078979611575604],[30.461947245371295,0.059376447839462],[30.461213849858332,0.058626657030715144],[30.46119967978765,0.058612289650125],[30.46119969590955,0.058612186665794826],[30.461199257610655,0.058611738568586],[30.461728503895845,0.055228674603736],[30.45931689538207,0.05241824382635],[30.460283999486634,0.051285604100376],[30.45897702715209,0.049462830585526],[30.459083849920667,0.04912313104761032],[30.459342620739093,0.048299627560274415],[30.45811015841118,0.04830603323449667],[30.45781465218294,0.048308005084477454],[30.456821289536837,0.049230522223518],[30.456227179560408,0.047296930813174],[30.45732462946015,0.045812957324603],[30.457348509692867,0.0432483874358996],[30.456634141375954,0.04227972061719401],[30.45396789682257,0.038665269774809],[30.453968196368148,0.03866476120701935],[30.45396721554898,0.038663431239045],[30.454524166245427,0.03771810259987816],[30.45297630294989,0.035122471088723],[30.456009035368325,0.034372708175018],[30.45718359308075,0.032607380009776],[30.45617279941003,0.030364668394792],[30.45444620479511,0.029494339879296488],[30.45443125219336,0.029486812773436],[30.45443125618558,0.029486804699334453],[30.454430745250512,0.029486547151122],[30.455604748957292,0.027111149011435],[30.456689544950628,0.026150959537897863],[30.455396485668615,0.024830950335976],[30.45533767921178,0.023297277691994],[30.45765056412128,0.020078506489908],[30.456336467717772,0.019749616154225],[30.455582958822006,0.018010715386409],[30.456139629725325,0.012519231119954],[30.455710956561237,0.010523617298614],[30.453543395489838,0.008599555893988],[30.454088018689117,0.006921060435546],[30.453557601256705,0.005036104156191],[30.452556125974873,0.004777071026068],[30.450808504632896,0.00604127742343],[30.450355236058396,0.004103577828256],[30.448593746354405,0.002621119110792],[30.447755167648108,0.004071071998075],[30.443296936317804,0.0042684350861],[30.441625796470472,0.000290192994565],[30.439444182966525,-0.001628027369049],[30.436598715384388,0.000178300466705],[30.43244933046654,0.000384865184605],[30.43006475603322,0.003592979921949],[30.42618732905975,0.005752303645086],[30.427350459653454,0.007338554393591],[30.425394449777134,0.00851332095549],[30.425396077666996,0.009910456831551],[30.424083780695394,0.011638315038606],[30.419032594150053,0.0107036377203],[30.415888841828277,0.012274822228546],[30.413871900548802,0.012229310533696],[30.412518501316345,0.010822982507232],[30.409430427138023,0.009778740112441],[30.41060920674586,4.7481021859e-05],[30.40792225902426,-0.000898416781588],[30.40646637945328,-0.002357664209033],[30.40887674651998,-0.004376133675438],[30.41141313554585,-0.004913841929356],[30.41314137678525,-0.014418592256562],[30.41480911922407,-0.013575943341677],[30.417172296747115,-0.013769021581944],[30.41883362184596,-0.012698196284653],[30.423199755531257,-0.012387972772545],[30.42842689977785,-0.013308057275605],[30.431726381947097,-0.010980796274161],[30.433345765963363,-0.010708367598651],[30.435333975812856,-0.010906482270557],[30.43525114303165,-0.012402851060833],[30.436414139082963,-0.01419522627499],[30.434940712299895,-0.017063292735007],[30.435731518635805,-0.019317394583294],[30.430829419177744,-0.028605352350433],[30.431167506731413,-0.030634796782171],[30.430426842748517,-0.033562774094426],[30.429181383007087,-0.033687823208439],[30.42444112182315,-0.04215033887696],[30.419324437462365,-0.044610659488939],[30.414568322416642,-0.044078626598597],[30.408405160623026,-0.04610358396263558],[30.404208043211693,-0.03998364921507951],[30.402648453900387,-0.036560704337831],[30.39604772974325,-0.025994884736937],[30.39438751174816,-0.021340340016341],[30.38919494033444,-0.01808268470009494],[30.3890564175595,-0.017608628981409333],[30.38840689044014,-0.014724777394795],[30.388078650886097,-0.014262494143533373],[30.384777856356926,-0.002966441754815869],[30.385281662842637,-0.0020827251465881393],[30.388764042278122,0.0016128611931122644]]]}},{"type":"Feature","properties":{"n":"Kikyenkye","c":"417108","d":"Ibanda","od":"Ibanda","dc":"417","k":"KIKYENKYE","a":["KIKYENKYE"],"lat":-0.158777,"lon":30.569206},"geometry":{"type":"Polygon","coordinates":[[[30.5311211831704,-0.172228550914406],[30.531886736793837,-0.169273626150796],[30.530284805784515,-0.165725761517095],[30.536229236400636,-0.167827092354485],[30.53890981179252,-0.16255072515978],[30.542963429857704,-0.162951637841329],[30.54495447937753,-0.161866674419836],[30.54976471092233,-0.157724632933724],[30.55049790642476,-0.154772631245615],[30.553170290575164,-0.153259190493803],[30.5534520817213,-0.148740936945509],[30.552530465398814,-0.145839334062135],[30.552280872565852,-0.137429731554088],[30.556652810316706,-0.127750933836769],[30.55418703356299,-0.121571389903999],[30.55442831045039,-0.120567784386695],[30.55646648112483,-0.119155602246539],[30.559776360832558,-0.11937976055958],[30.563374610962583,-0.117854188598563],[30.565146811134642,-0.114862728440466],[30.56877757820236,-0.113668667115537],[30.5696775619952,-0.112195584512923],[30.569891540051163,-0.11232590198778375],[30.572133410705874,-0.1156009825964054],[30.57342981894853,-0.11893831072369],[30.57540441550723,-0.12037949395838868],[30.57724650058076,-0.12307053997885113],[30.577309203613286,-0.123540532381738],[30.58111403362486,-0.128720851771189],[30.58435851888895,-0.130193769293499],[30.584666406030596,-0.13022845972739922],[30.5916,-0.1332],[30.591207722656122,-0.1348642069134251],[30.58826675031259,-0.147080087580592],[30.588299550546985,-0.149982266827907],[30.58829968826072,-0.14998259219049068],[30.588299647711192,-0.149982945565445],[30.590683884656393,-0.155616461855595],[30.58959758675481,-0.159828864059635],[30.58762878675096,-0.161952536260092],[30.58646273762377,-0.165334466458484],[30.586470988337364,-0.16534387633562672],[30.58741343848935,-0.16658187783703196],[30.587312416705668,-0.16686650280165774],[30.583937633888098,-0.1727537154748222],[30.58393551119209,-0.17275725284768],[30.583935476564832,-0.1727574788639206],[30.583935244276596,-0.172757884084145],[30.583858076987525,-0.17326267511251156],[30.58361702645237,-0.17483604063104094],[30.58182939243957,-0.17696801336721163],[30.579849440549744,-0.179329125733473],[30.580148131618827,-0.180295358851151],[30.573525538376405,-0.182243092019347],[30.572070173711282,-0.18477889714134874],[30.571352544279044,-0.18602916279310988],[30.565121188564312,-0.189129276473233],[30.566501772269355,-0.19191141677516801],[30.564361559785766,-0.19204158598945775],[30.564299487723705,-0.192045344144406],[30.56186779884976,-0.194132222012927],[30.560533559747626,-0.199226451649246],[30.560541316187983,-0.19924050239215627],[30.560012555098744,-0.19951468946711326],[30.55956373204305,-0.199515319111233],[30.558210614328466,-0.20044907907917722],[30.551420109493076,-0.20397026983279176],[30.551417785165896,-0.203971198001057],[30.550820863662818,-0.199987830419083],[30.55082077892954,-0.19998775454181356],[30.5508207365227,-0.199987468967621],[30.550630351699336,-0.19981723005532506],[30.549655125503108,-0.198943930863069],[30.547698799739347,-0.199503011744293],[30.54728202879124,-0.1994232851051669],[30.54278314349197,-0.198562632557604],[30.542783074232446,-0.1985626528365702],[30.54278286647982,-0.198562613094312],[30.538808555698928,-0.199724236450761],[30.538809228063315,-0.19972618219768332],[30.5387925691566,-0.199731059871922],[30.5374641397939,-0.195468733068785],[30.53329670284609,-0.191581127937596],[30.53323683261185,-0.187612294815941],[30.529930595300762,-0.179979411338278],[30.53170176055572,-0.176359122487204],[30.5311211831704,-0.172228550914406]]]}},{"type":"Feature","properties":{"n":"Nyabuhikye","c":"417109","d":"Ibanda","od":"Ibanda","dc":"417","k":"NYABUHIKYE","a":["NYABUHIKYE"],"lat":-0.236523,"lon":30.49978},"geometry":{"type":"Polygon","coordinates":[[[30.477441174402763,-0.237327719084374],[30.477745412576958,-0.235453263408503],[30.480463306471844,-0.236166807959108],[30.482994494704823,-0.235773620229938],[30.484338226195668,-0.234654126531074],[30.48626150494068,-0.23210628235666],[30.48719253204186,-0.229950410912577],[30.486627761760392,-0.229203988809251],[30.48797335492819,-0.227359855001541],[30.48644126339697,-0.225986201999339],[30.48710022847277,-0.224807293109236],[30.490347822492073,-0.221616176359501],[30.490780184816828,-0.219965932872085],[30.496156223981906,-0.215949743408775],[30.496796871056567,-0.216199487838205],[30.496283499460567,-0.214759983270352],[30.49732625104563,-0.214922554678122],[30.497389313367204,-0.213276139336006],[30.501061041843784,-0.213263766346513],[30.502142185405955,-0.21234299981666],[30.505935965061628,-0.21202414017868],[30.5103884358582,-0.21432635112536],[30.513737315995606,-0.217507519818672],[30.52249443000265,-0.227785548097188],[30.521192646415155,-0.232951300083834],[30.52119429636743,-0.233663711849883],[30.52207763732689,-0.233760866995619],[30.521975874961136,-0.236879261575408],[30.51971761041242,-0.237856425284479],[30.519940849071236,-0.239491426994723],[30.52131872203707,-0.242945920339016],[30.52981055853343,-0.24469368314716058],[30.530316623026696,-0.24874246437067546],[30.5303858679952,-0.24990924114566415],[30.5199,-0.2522],[30.51244035045152,-0.2570816824251073],[30.509641039521128,-0.257872551892515],[30.506496586652226,-0.26097135138199895],[30.5063,-0.2611],[30.496858904083386,-0.256136124827347],[30.49661506826427,-0.255958428429869],[30.496240994125394,-0.25601567089135197],[30.494671182613576,-0.25608419440972485],[30.490674579722906,-0.25338618342731],[30.49007944021207,-0.252599933024105],[30.49177648079938,-0.250807528894206],[30.490202321402368,-0.249118059132644],[30.483283675152837,-0.248249085566537],[30.482504639925917,-0.246575559163448],[30.486872346090845,-0.244356963356794],[30.486347308540083,-0.241800274682544],[30.4782757975629,-0.241304688473382],[30.476703579734668,-0.240649402778466],[30.47574963530507,-0.238960768938068],[30.47605357756944,-0.237214142282484],[30.477441174402763,-0.237327719084374]]]}},{"type":"Feature","properties":{"n":"Nyamarebe","c":"417110","d":"Ibanda","od":"Ibanda","dc":"417","k":"NYAMAREBE","a":["NYAMAREBE"],"lat":0.086407,"lon":30.546565},"geometry":{"type":"Polygon","coordinates":[[[30.493100654249613,0.09581021257014],[30.493090937851164,0.09736589762503907],[30.493453502750175,0.09743677497371825],[30.495125567095787,0.096873449591248],[30.494737705039356,0.097683118460707],[30.496327436638094,0.097837138163206],[30.497629454570816,0.099530067947229],[30.49711578427846,0.100024457373524],[30.497759964137202,0.100487676051672],[30.49659884585515,0.101214640682534],[30.49771563593223,0.102338462965448],[30.49715920841652,0.103145576007769],[30.498018603308235,0.104071314741287],[30.497601724608533,0.10449062066135902],[30.497680876217668,0.10468246269706123],[30.498219031816166,0.104941221347155],[30.498068207139088,0.10562124781168634],[30.498845175229572,0.10750440775981228],[30.49931897084358,0.107505720388016],[30.499047787837753,0.1079954857762513],[30.49952975860149,0.1091636522036165],[30.501149562622757,0.110383889516834],[30.501533573691518,0.109811156533417],[30.50159927665572,0.11102991106574],[30.50255138266815,0.11062449751135],[30.502637914032356,0.111361847330661],[30.503968359271,0.11148811493055],[30.503756260045922,0.113008435654388],[30.505002576083704,0.112660780410691],[30.504141736630793,0.114398042029369],[30.50468994405102,0.114276560644494],[30.5049379151108,0.11543527967315144],[30.513617671664303,0.12247114294000319],[30.514715628954324,0.12234882642244377],[30.515733915705667,0.12191039740450428],[30.515800768637874,0.121267415309527],[30.517867869067356,0.12099161192933326],[30.519446164003096,0.12031206827644568],[30.51949962856513,0.12018096908703],[30.51960128673363,0.12024527932302179],[30.5211,0.1196],[30.521647601411956,0.11994095936970739],[30.52171120107471,0.119879966986957],[30.521860151426417,0.12007330183154173],[30.52283418524472,0.1206797757184101],[30.523288377780904,0.120367430045767],[30.523078289648236,0.12083176525267596],[30.524068438673197,0.12144827313614168],[30.524509563488113,0.121507240469713],[30.524540375984568,0.12174212089605146],[30.527448657554658,0.12355293772271118],[30.52787967178797,0.122892716642395],[30.528796202514997,0.123034683872687],[30.530680881096014,0.1242386164198],[30.53134177985005,0.1259769572651247],[30.5423,0.1328],[30.544292182641744,0.1364435972000283],[30.545249443425043,0.137719772793582],[30.54504831393672,0.1378265215421593],[30.545812169617438,0.13922357337925836],[30.546349684221912,0.139587746335267],[30.546506286007997,0.14049307572514794],[30.54958900129994,0.1461311997459409],[30.549724986926257,0.145840452760094],[30.550861957677018,0.146761926556079],[30.552091908402467,0.146029296664064],[30.552434718436437,0.146957116360545],[30.553206924138916,0.145973155525229],[30.553416749771003,0.146505953993627],[30.5542245498051,0.146012766283218],[30.554072613661173,0.146955908060881],[30.554937370450205,0.146346535484487],[30.55832074415412,0.14806922669172662],[30.559948912694207,0.14833396954377343],[30.56096756480704,0.147766515553421],[30.56086616254655,0.1484831158612273],[30.5622,0.1487],[30.564125519687757,0.14992312885826084],[30.565005253404404,0.147740509878061],[30.569210508326854,0.144367367313421],[30.571109925006542,0.140861776311665],[30.574927045771332,0.14019026808347],[30.57487696532178,0.135757212813556],[30.57615331959064,0.130642212718332],[30.574534444827023,0.129080305081998],[30.574417839105504,0.125989549222886],[30.57310425267129,0.124268649041887],[30.57157048701213,0.119190041141399],[30.568013638265157,0.116977931601414],[30.565327067090575,0.117966634476011],[30.565412933542515,0.113678046721697],[30.571012283457883,0.110113582220077],[30.571018065907534,0.107443102814937],[30.572914364572004,0.103260526130918],[30.57293346791315,0.099690541798784],[30.568954573121236,0.097436150164369],[30.56785019131136,0.096231565374202],[30.568065857449852,0.094646242398257],[30.57445272586332,0.092827951816468],[30.575387789403134,0.090690035808357],[30.577619195908074,0.088645380320489],[30.57743905822843,0.08813303732456573],[30.577025009228706,0.088009034458374],[30.576668419997763,0.0859412077159836],[30.57666812500323,0.085940368700055],[30.57666824005529,0.0859401642468407],[30.576668006577773,0.085938810333119],[30.577786879203867,0.08395228700313072],[30.57783383974004,0.08386883580143067],[30.577859352608698,0.08120096253993384],[30.57788074270037,0.078956429629453],[30.577880817764157,0.07895635747120694],[30.577880821843614,0.078955930883549],[30.578581335956326,0.078280588836295],[30.581707762627264,0.07906641303344769],[30.58188095012417,0.07910982431971468],[30.58440527105029,0.078679883417827],[30.585854516544604,0.07744439203055697],[30.585982268256366,0.07733541815594541],[30.586467801575534,0.07346908674895102],[30.586504108509267,0.0731796536992315],[30.58559582244851,0.071995315943623],[30.585595915897237,0.07199460476635114],[30.585595857705695,0.071994528889285],[30.585809350809527,0.070369224579407],[30.58580955110254,0.07036876660785177],[30.585809660513824,0.070367933949944],[30.58654452111891,0.06868677369109],[30.589785051702066,0.067293340333075],[30.58766979184342,0.065573636578467],[30.585715889412075,0.061446770019825],[30.581676971003834,0.057534094491881],[30.58585440234653,0.055232153684732],[30.58740287423433,0.053187744763562],[30.589890156870194,0.053419836976151],[30.593410933695086,0.051359971375553],[30.593111012425318,0.04649994392716662],[30.593078755423015,0.045977572129973],[30.59307877431472,0.04597754649094964],[30.59307874228781,0.045977027515891],[30.595253050587488,0.042602900650167],[30.595762686036398,0.042335054516678995],[30.596337520275153,0.041554913693015],[30.597946398273013,0.04118737359990703],[30.59794873280943,0.041186146651203],[30.597950183957902,0.04118665644060692],[30.60251710916039,0.042039014886379],[30.603421950569853,0.041985338384785],[30.60343610548947,0.042035886216188485],[30.603582968953155,0.04176468796235608],[30.601874633916207,0.03787675305068408],[30.60131449368079,0.037820844273108],[30.601455184860313,0.03708422431008],[30.599691631587586,0.035550664746033],[30.6004431700936,0.0346189388337148],[30.599933626284276,0.03345928740560006],[30.598639248346995,0.032587703639046],[30.597407550121197,0.032746933153162],[30.597363170480403,0.03167003584218],[30.596092725170507,0.031116269462815],[30.596480478072046,0.03072822365436],[30.59331561016982,0.031538215295571],[30.59220838943378,0.028706108437727],[30.591988345201205,0.028999297295224425],[30.592091536915312,0.029245708948523],[30.591154273778653,0.030110621343977094],[30.590846040499365,0.030521314057619],[30.590716036966256,0.030515029067229835],[30.59065231295334,0.030573833992449],[30.5860077684849,0.030288175424415],[30.581255318354575,0.033458167635145],[30.578259826571315,0.03362398584606],[30.5762083953201,0.03524093146382],[30.5762089133702,0.035003205864880135],[30.57596423052758,0.035167763367784],[30.576224042118206,0.028060845077974184],[30.576224065267656,0.02805022213445422],[30.576176248386627,0.028001815040920593],[30.57375670651022,0.025552944118098],[30.572545838618833,0.02542923496782],[30.57254578876587,0.02542916909085074],[30.5725457659151,0.025429166761603],[30.57092043161199,0.02328197240507398],[30.570231369052774,0.02386321331602],[30.56706908862774,0.022771122289894],[30.566951847711113,0.02289463155862586],[30.56573567462376,0.02417680479588],[30.56573482835537,0.02417671954451545],[30.56573430805031,0.024177267667981],[30.56324200162325,0.023925946995947],[30.563264760276503,0.024634971428518],[30.55835532843519,0.028139655939047],[30.552096744956195,0.028681080100717],[30.551666927374942,0.029903009725013],[30.54964335429622,0.03071581388268106],[30.547726420269196,0.03148595998786561],[30.54702502899277,0.033687624055741494],[30.54702076306443,0.03370102872896932],[30.548945945116238,0.040265079271426],[30.55290765465037,0.041266522546781],[30.549419705595923,0.046440315484862],[30.54921869237654,0.050103490743184],[30.548375300565837,0.050419442755549],[30.548225283028266,0.052179789517190586],[30.548220156567442,0.052240107254088],[30.549096792917375,0.053093171388215],[30.549096756128378,0.053093442309993716],[30.54909697381795,0.053093654218084],[30.54909616589248,0.05309778892920487],[30.54887525902952,0.054724592748007735],[30.55053298058451,0.056379417145465],[30.551844975871134,0.05885605183625301],[30.55333808158729,0.060903433834722],[30.554206079047947,0.06331307244894221],[30.554207021173163,0.063314850885201],[30.55420690061972,0.06331535320569792],[30.554206987914785,0.063315595544602],[30.553756984918667,0.065193721397327],[30.55375612247838,0.06519364967102491],[30.553755389491915,0.065196703869439],[30.551718609698998,0.065024238613891],[30.55012684890162,0.066521440900991],[30.547075040816445,0.067666297729371],[30.546664265810865,0.06386779194091553],[30.54529016541894,0.06221804082517654],[30.5416858129648,0.064664411067319],[30.538569723447935,0.065317183385902],[30.53759165227341,0.06582585151924715],[30.537629980116137,0.06603636269729389],[30.538089269659483,0.068535429443648],[30.535943000957666,0.070980917049001],[30.534378051737313,0.0712220541794394],[30.534078491253748,0.07126825524822433],[30.53365455131323,0.07201806326545],[30.536119061291046,0.077094473305685],[30.534202823834296,0.07766066300788041],[30.534080439471712,0.077697015155229],[30.534080325537605,0.0776968575170096],[30.534079997916,0.077696954319198],[30.533088606122483,0.076326114308501],[30.528726334048507,0.075476101525004],[30.528464229506877,0.079682894590223],[30.529279062695394,0.080145286803449],[30.52927818620922,0.08014715087612762],[30.529278636748543,0.080147406636817],[30.528985306097937,0.08077003555992088],[30.528265414841584,0.082301068977033],[30.522673101216284,0.081003317044536],[30.52096096197642,0.08149003055028195],[30.52041544392044,0.08164527091329853],[30.516598291352103,0.085365425421908],[30.51616524033211,0.087445853723582],[30.514179767794705,0.088676664468201],[30.51429303390291,0.089363594421091],[30.514288367260107,0.0893634987872775],[30.514288489001167,0.089364252969197],[30.5121479427911,0.089323364445138],[30.512146796504677,0.08931961143894683],[30.512140263478898,0.089319477557226],[30.511641156074088,0.08766411624151774],[30.51151291346756,0.08724424273779736],[30.50978457515008,0.086871998208212],[30.50730622635789,0.087766327600252],[30.502608654129023,0.08729633608545],[30.49840020166598,0.088569649729369],[30.49640636439466,0.09005469152425742],[30.495558617569607,0.09068631206897697],[30.494969908745787,0.09260985774945335],[30.494930212093713,0.092739838535775],[30.494930096587986,0.09273993989034954],[30.494929892634584,0.092740606287165],[30.494927044412716,0.09274261812919465],[30.491756870577436,0.09552439897761411],[30.49172650849784,0.09630713892949098],[30.491726519922317,0.096307189138454],[30.493100654249613,0.09581021257014]],[[30.566138686650174,0.122968792417107],[30.568604206778016,0.124453831674553],[30.56981123812856,0.126951321310607],[30.569306818780657,0.129939916996456],[30.571048865221314,0.130465166468126],[30.570750662512346,0.132522298249908],[30.568481188543792,0.134479011353551],[30.56764005222997,0.133567032162939],[30.56551337917995,0.133566541522738],[30.564235718778622,0.131046200844273],[30.560704817737136,0.130365004878415],[30.560424834112435,0.12612034583795],[30.559230116654195,0.123288834391047],[30.559749791509077,0.121463481124846],[30.566138686650174,0.122968792417107]]]}},{"type":"Feature","properties":{"n":"Rukiri","c":"417111","d":"Ibanda","od":"Ibanda","dc":"417","k":"RUKIRI","a":["RUKIRI"],"lat":-0.225301,"lon":30.426581},"geometry":{"type":"Polygon","coordinates":[[[30.38056475139108,-0.236111138902051],[30.381643037845688,-0.235699207063164],[30.382684198092306,-0.232931040479095],[30.38233466028495,-0.2313468148643096],[30.384730403016274,-0.231651713602295],[30.388567619124274,-0.22632881646514624],[30.390049305496884,-0.22427350619416955],[30.39004978621015,-0.224273373308399],[30.3929470114344,-0.223883247253429],[30.39413829825674,-0.22314316719333338],[30.395016976236114,-0.222900270214152],[30.39514774723338,-0.2225160528449762],[30.395314310751992,-0.222412576220748],[30.39544595992283,-0.22163987618967598],[30.396361282518964,-0.218950573154741],[30.396331391526367,-0.21644293477947862],[30.397281721204937,-0.21086508140244045],[30.397786996217686,-0.208966537923507],[30.397711175846602,-0.208344445588033],[30.39776321309922,-0.208039018774787],[30.397323356531636,-0.20516245874286737],[30.3973229982362,-0.20515951899405],[30.396047382807023,-0.204163681920514],[30.39581740119541,-0.19761615999496437],[30.395748479969278,-0.195651936843171],[30.39574839905724,-0.19565168549023715],[30.395748378141118,-0.195651090013228],[30.394357079182488,-0.191329229419912],[30.40111220638692,-0.189802875132191],[30.40345760252005,-0.186822433497741],[30.40489736063637,-0.18115784646646566],[30.405367556836318,-0.17930793862258093],[30.411131447832602,-0.17992621066716488],[30.415107641664147,-0.182697504782716],[30.416904202256983,-0.182208120417523],[30.42071952313536,-0.183093338799217],[30.428571295132336,-0.18179692093115035],[30.4286,-0.1818],[30.42860791705887,-0.1817908742298532],[30.42863422163718,-0.181786531041418],[30.431937054330902,-0.180376978782217],[30.434746126151232,-0.177710966344423],[30.441678253396944,-0.166748709378449],[30.44299155372816,-0.1661073006863927],[30.451842692671654,-0.16204547665067937],[30.450917514063732,-0.170599903932579],[30.452103635995936,-0.17630578446202],[30.452846375105185,-0.177306420903519],[30.453379561073515,-0.176733307298594],[30.45420270495483,-0.178173815540462],[30.45328050942738,-0.179998826497802],[30.454420951273327,-0.183250212327882],[30.454201008485978,-0.185943848036996],[30.457307948756434,-0.189644750187953],[30.46304141270462,-0.186801573528097],[30.464412798940767,-0.187952921188913],[30.46339978370054,-0.191508150258413],[30.46402176211898,-0.192495952699241],[30.461608594383588,-0.198315036822248],[30.460956779341373,-0.20309026215729],[30.461728360693062,-0.209753945753405],[30.464380557362578,-0.216427033743815],[30.461419983562752,-0.218933962171035],[30.461299862621207,-0.219960024123447],[30.463769726853812,-0.223929133204094],[30.46396519600178,-0.227123118810632],[30.46722006317855,-0.229702189616415],[30.472158689351172,-0.236696520311411],[30.475917831073225,-0.2379942195421635],[30.47574963530507,-0.238960768938068],[30.47585004484602,-0.23913850984569535],[30.475807357846925,-0.239658682649466],[30.476703326210572,-0.2406489540003662],[30.476703579734668,-0.240649402778466],[30.4782757975629,-0.241304688473382],[30.478869047331134,-0.24134111367363964],[30.48007174522865,-0.241725353450517],[30.486323333587475,-0.2417988026340129],[30.486347308540083,-0.241800274682544],[30.486872346090845,-0.244356963356794],[30.48416831598838,-0.24573048749506188],[30.482507650395753,-0.246572960446239],[30.48250805135078,-0.24657382631498878],[30.482504639925917,-0.246575559163448],[30.483283675152837,-0.248249085566537],[30.490202321402368,-0.249118059132644],[30.49177648079938,-0.250807528894206],[30.49007944021207,-0.252599933024105],[30.490674579722906,-0.25338618342731],[30.494671182613576,-0.25608419440972485],[30.4946919079952,-0.25608328973036826],[30.4946919079952,-0.25608328973036837],[30.480775246545416,-0.2566907630476206],[30.47985525868192,-0.256230659993894],[30.47414682909974,-0.256097470665158],[30.472503238805334,-0.2570518427505608],[30.4714,-0.2571],[30.4703179778259,-0.25832074296564944],[30.468521594119824,-0.25936383653318],[30.465214870074934,-0.262684894567497],[30.465095695280233,-0.2642125489146064],[30.464299774641926,-0.26511051066039115],[30.46310713064118,-0.265836887633323],[30.458972832505673,-0.265129361214944],[30.451965559124826,-0.265719852838807],[30.44982230190459,-0.263197088519577],[30.445356536421567,-0.265158141519258],[30.44393347162793,-0.266889570006001],[30.442429351547375,-0.266930855726866],[30.444199624012146,-0.270828393172466],[30.445815150906775,-0.272053471870258],[30.445760053303083,-0.275013079375545],[30.44794798739245,-0.279010652234781],[30.449461691501256,-0.281191671738441],[30.452366228898853,-0.283257943239408],[30.452929391240662,-0.28505279654000953],[30.425825989082853,-0.2875605846400208],[30.42442135112853,-0.287008107811757],[30.422233692099777,-0.284733875955729],[30.421114211628634,-0.285907125949914],[30.420351684607013,-0.28606633456415537],[30.416770374973748,-0.2849783417641765],[30.412905077705485,-0.282528290403145],[30.411823283959183,-0.281065497820633],[30.40955502929792,-0.28121478275168904],[30.409232628566283,-0.26985015696149134],[30.409380773790012,-0.26939855039811],[30.40921303776681,-0.2691595812801685],[30.4092,-0.2687],[30.40595599652647,-0.2644827954844099],[30.404475532656587,-0.260892387745011],[30.401233837041033,-0.258309313060612],[30.401209906729868,-0.25831287874882836],[30.4012,-0.2583],[30.392192280413003,-0.25699543371498673],[30.38866406076191,-0.253598328919466],[30.387234608964743,-0.25627742612592797],[30.38683618086184,-0.2562197227455077],[30.38506052196761,-0.252419556537071],[30.379058455237384,-0.2385794967826713],[30.38076873007127,-0.237268697988326],[30.38056475139108,-0.236111138902051]]]}},{"type":"Feature","properties":{"n":"Rushango Town Council","c":"417112","d":"Ibanda","od":"Ibanda","dc":"417","k":"RUSHANGOTOWNCOUNCIL","a":["RUSHANGO","RUSHANGOTOWNCOUNCIL"],"lat":0.12534,"lon":30.590695},"geometry":{"type":"MultiPolygon","coordinates":[[[[30.570629193544224,0.153988074235072],[30.572066729261433,0.154238398382522],[30.571520350578016,0.1546204742665389],[30.572331647183976,0.15513582619862654],[30.57300260533372,0.155163888716501],[30.572658027145323,0.15534314931872648],[30.573465274606473,0.15585592915254004],[30.575792767458374,0.15511027836568],[30.576646639834564,0.155936825726066],[30.57765172025322,0.155722946916359],[30.578199834753274,0.15882384113511036],[30.58070383072235,0.15942181032175484],[30.581592919250976,0.159387432704952],[30.581665420212715,0.15965144363288708],[30.582961356694316,0.159960921001628],[30.583083538895025,0.158940556886256],[30.58525304317949,0.158097165567605],[30.58989982207911,0.160836445795859],[30.5928146435108,0.159891874700242],[30.595367562077705,0.160348089967272],[30.595270799346075,0.160985455307203],[30.59664719689844,0.160999833404445],[30.597890653664003,0.162233153043718],[30.59870741717473,0.161047573898655],[30.600362650627122,0.161520045037098],[30.60152540738063,0.16070679614756],[30.60375301070918,0.161096467578028],[30.60438063796373,0.162310860019094],[30.60475746963215,0.160503011289678],[30.602809480660188,0.155821410446117],[30.603836664273903,0.154127646962059],[30.60592577982602,0.154315511544304],[30.60701773303962,0.156277502412466],[30.607674077251975,0.15594900101011],[30.60861052800906,0.15702567889733476],[30.612197488587707,0.14912357777295004],[30.611478122273894,0.148530931104367],[30.61290385235458,0.14756745308351996],[30.613824331049596,0.1455396315975107],[30.61469827272077,0.142355060743162],[30.615291075711028,0.1423083820802199],[30.617980651224716,0.1363832270011897],[30.61757641439197,0.13612963042519868],[30.617570954913326,0.136127844482305],[30.61647351479811,0.13358238947284],[30.61381491698663,0.132277756913799],[30.613805667375424,0.13146280116925],[30.612049662495174,0.13019972459947],[30.611898603393122,0.128700102201322],[30.607910469045013,0.126818090377908],[30.607265553070654,0.124669862880073],[30.602550541517893,0.124690974634364],[30.59958568189577,0.122496608832761],[30.597940339853846,0.122495595453115],[30.597367829082366,0.121985768870515],[30.597772857957313,0.120589823133997],[30.597773405717756,0.12058934192406794],[30.597773421903078,0.120589285946345],[30.597965343997565,0.12042072331122429],[30.600064276181296,0.118576802267312],[30.602575134471707,0.118547334789039],[30.602183188910317,0.116237721231913],[30.602908449205366,0.112348260455818],[30.604705212458278,0.110477933705289],[30.601175813264202,0.103210967364533],[30.5992824091678,0.102347806220565],[30.5979408071349,0.10083863613013633],[30.59723146960628,0.10004091329004534],[30.59443574494501,0.10020296735325702],[30.594427515489603,0.100203446633274],[30.594427513615297,0.10020344448193984],[30.59442635133874,0.100203511853252],[30.59352053647804,0.099162995093981],[30.590939610486657,0.09855359628972],[30.590939564038596,0.09855353801523893],[30.59093951085491,0.098553525476866],[30.58784840513008,0.09467532402002],[30.587848405561054,0.0946753211573515],[30.587848254272128,0.094675131347847],[30.588028991852767,0.09342192022409],[30.58744706106582,0.093917609363322],[30.58476630256088,0.091874560925306],[30.58234825728876,0.091887026021929],[30.58087887936893,0.090945535183471],[30.579556492559792,0.088767184312576],[30.57955389627451,0.08876640675529066],[30.57761920689334,0.088645384567486],[30.577496564558434,0.08875774839931003],[30.57538786095733,0.0906899702426796],[30.57536709687945,0.09073734690086015],[30.57445272586332,0.092827951816468],[30.574447542707258,0.0928294274197276],[30.568016437991922,0.09500951594069354],[30.56785019131136,0.096231565374202],[30.568954573121236,0.097436150164369],[30.57293346791315,0.099690541798784],[30.572914364572004,0.103260526130918],[30.571018065907534,0.107443102814937],[30.571013575003832,0.10951711410297697],[30.571012322610386,0.110113527285407],[30.571012283522965,0.11011355216312228],[30.571012283457883,0.110113582220077],[30.565412933542515,0.113678046721697],[30.56536327516901,0.11615822713802565],[30.565328434686553,0.11796613117794567],[30.568013638265157,0.116977931601414],[30.57157048701213,0.119190041141399],[30.572880445550194,0.12352757845747997],[30.57310431625794,0.12426873234533274],[30.574417839105504,0.125989549222886],[30.574534420470084,0.1290796594760243],[30.57476788981696,0.12930553529785027],[30.57615331959064,0.130642212718332],[30.57487696532178,0.135757212813556],[30.574897116898757,0.13754100380006185],[30.574927242778145,0.140189754650103],[30.574927040372913,0.14018979022243946],[30.574927045771332,0.14019026808347],[30.571109925006542,0.140861776311665],[30.570997930061505,0.14106847580828527],[30.569210993590655,0.1443666829463],[30.569210791141334,0.1443668453469117],[30.569210508326854,0.144367367313421],[30.565005253404404,0.147740509878061],[30.56500422276839,0.147743066885576],[30.56426716011344,0.1500131017072812],[30.568890843988616,0.15295015876006463],[30.570077488467124,0.152906961993842],[30.570629193544224,0.153988074235072]]],[[[30.560705206802865,0.13036507993857735],[30.564235718778622,0.131046200844273],[30.56423584528867,0.13104645040074522],[30.564236305113646,0.131046539107493],[30.56470656862256,0.1319750094806612],[30.56551337917995,0.133566541522738],[30.5668592998686,0.13356685203722785],[30.567639022402446,0.133566731796203],[30.56763929941931,0.13356703198925965],[30.56764005222997,0.133567032162939],[30.568481188543792,0.134479011353551],[30.57065661630438,0.13260338375695746],[30.5707506831833,0.13252215565269143],[30.570870352468503,0.13169662495665968],[30.57104834305894,0.1304650090294357],[30.569306818780657,0.129939916996456],[30.569307108713797,0.12993819919372535],[30.569306549109474,0.129938030423204],[30.569797873060494,0.12703050698204896],[30.56981123812856,0.126951321310607],[30.568604210443045,0.12445383925792594],[30.5685459482546,0.12441874123121054],[30.566138813671834,0.1229688689251626],[30.565980026011253,0.1229314097952091],[30.559749791509077,0.121463481124846],[30.559662276197663,0.12177087787115333],[30.559244758985102,0.12332353709609353],[30.560424834112435,0.12612034583795],[30.56042490574678,0.126121431842013],[30.560424996850596,0.12612163908443],[30.560705206802865,0.13036507993857735]]]]}},{"type":"Feature","properties":{"n":"Rwenkobwa Town Council","c":"417113","d":"Ibanda","od":"Ibanda","dc":"417","k":"RWENKOBWATOWNCOUNCIL","a":["RWENKOBWA","RWENKOBWATOWNCOUNCIL"],"lat":-0.001253,"lon":30.423211},"geometry":{"type":"Polygon","coordinates":[[[30.41251870559758,0.010823141715788],[30.412535604969925,0.010840755051212186],[30.413871900548802,0.012229310533696],[30.41560278637778,0.012268367470291176],[30.41901032456842,0.01071476761161652],[30.419032594150053,0.0107036377203],[30.4190341176417,0.010703919628931998],[30.419034698266966,0.01070365490429],[30.419934506740805,0.010870528654559234],[30.424083780695394,0.011638315038606],[30.42539566610993,0.00991099871518574],[30.425395771124926,0.009647367213235511],[30.425394449777134,0.00851332095549],[30.427350459653454,0.007338554393591],[30.42618732905975,0.005752303645086],[30.43006475603322,0.003592979921949],[30.43244933046654,0.000384865184605],[30.436598715384388,0.000178300466705],[30.439410416052684,-0.0016065918352958714],[30.43944416637463,-0.001628028803303],[30.43819542123493,-0.002441907407056],[30.435376738749,-0.002468153039427],[30.433628888412347,-0.004728115378979],[30.435959411605737,-0.008320630004601],[30.43599142302593,-0.010351906003444],[30.43533397790805,-0.010906471319769],[30.43533388514145,-0.010906473235627288],[30.433345765963363,-0.010708367598651],[30.431726381947097,-0.010980796274161],[30.42912325193893,-0.012816891345735508],[30.42842686515321,-0.013308051180958541],[30.423199755531257,-0.012387972772545],[30.41883362184596,-0.012698196284653],[30.4177872458586,-0.013372649393512471],[30.41717195438746,-0.013768993610198612],[30.41480911922407,-0.013575943341677],[30.41314137678525,-0.014418592256562],[30.41141313554585,-0.004913841929356],[30.4089105588931,-0.004383301815626976],[30.408876703832426,-0.004376097928383278],[30.40646637945328,-0.002357664209033],[30.40792225902426,-0.000898416781588],[30.41060920674586,4.7481021859e-05],[30.409430427138023,0.009778740112441],[30.412518501316345,0.010822982507232],[30.412518630033066,0.010823116257812617],[30.41251870559758,0.010823141715788]]]}},{"type":"Feature","properties":{"n":"Bisheshe Division","c":"417201","d":"Ibanda","od":"Ibanda","dc":"417","k":"BISHESHEDIVISION","a":["BISHESHE","BISHESHEDIVISION"],"lat":-0.050076,"lon":30.516205},"geometry":{"type":"Polygon","coordinates":[[[30.438198039391484,-0.002440411352986],[30.439680808311167,-0.001619252583541],[30.441623190150874,0.00028790134422749066],[30.441625796470472,0.000290192994565],[30.443296936317804,0.0042684350861],[30.447755167648108,0.004071071998075],[30.448548282600782,0.0026997286680551158],[30.44859321131123,0.002621265706612],[30.448593514174103,0.002621520564464206],[30.448593746354405,0.002621119110792],[30.450355236058396,0.004103577828256],[30.45080805061889,0.006039336537154606],[30.451941589857597,0.0052216184072481015],[30.452556125974873,0.004777071026068],[30.453557601256705,0.005036104156191],[30.45355781994141,0.005036881300904129],[30.453558075118064,0.005036947440341],[30.45366126304578,0.005404489371891888],[30.454088018689117,0.006921060435546],[30.453543395489838,0.008599555893988],[30.45552555352457,0.01035904208462769],[30.455710657495057,0.010523288042431],[30.455710674376455,0.010523366813931546],[30.455710956561237,0.010523617298614],[30.456139629725325,0.012519231119954],[30.45558299459182,0.01801036252196577],[30.456336639111374,0.01974965905039222],[30.45765056412128,0.020078506489908],[30.45764922788243,0.02008036609265394],[30.457650131047654,0.020080592926902],[30.456337310030175,0.021906122050072144],[30.45533767921178,0.023297277691994],[30.455396460029117,0.024830281657808317],[30.456689620352908,0.0261508927968011],[30.458718401662757,0.024355150122791],[30.460343768696642,0.023597072828663114],[30.46172774293646,0.022951486532621],[30.461727888524003,0.02295151413847067],[30.461728416443474,0.022951267914845],[30.46173585705097,0.02295302510536767],[30.464489353184625,0.023475134339095],[30.464541700971537,0.023615659486717875],[30.46495258005284,0.023712693610339],[30.46505608304163,0.02498335435559726],[30.465056274644294,0.02498335305331439],[30.46834895356675,0.024863014634025214],[30.472748989122863,0.022949687172238987],[30.475727856155487,0.018309073498251],[30.47572800423857,0.018309014433989343],[30.475728037862154,0.018308955431333],[30.47978575254834,0.01669014417845964],[30.481325045450067,0.01279461410808],[30.486142898957876,0.015205139225128],[30.485486439235643,0.017978246042263],[30.489279700497654,0.018146551237702],[30.489748111418997,0.013703224867388],[30.49370789113792,0.010287119972263547],[30.493906175546694,0.010115998883639],[30.493906287064963,0.01011596365912061],[30.493907405466686,0.010114998813127],[30.496771075618774,0.009210625316011],[30.49734366289232,0.011275546300771],[30.50151337278251,0.010559732489271537],[30.50154050420576,0.010555060669195114],[30.504148933788596,0.008499147807524],[30.50414942461157,0.008499130496373951],[30.50414970941774,0.008498906013189],[30.50579155586729,0.008441213116645911],[30.507394875357107,0.008384664613964645],[30.507479852444746,0.00830377888089592],[30.508628877846743,0.007204602412108],[30.511375250864603,0.008074648385929],[30.512628014745687,0.009884259820866203],[30.51549962306482,0.011566906867263473],[30.515715236932458,0.011448955419310049],[30.517641231037206,0.009258291004433502],[30.518410449996555,0.007704981098908],[30.52387187542407,0.00217143081809421],[30.523872152077164,0.002171116147305],[30.523872181132376,0.0021711210725362117],[30.52387288259539,0.002170410345836],[30.528958826014755,0.003032772859704],[30.531180215366394,0.000566412937229],[30.534414845598157,-0.001310512753401],[30.541226868957622,-0.003779023397594],[30.543694152149172,-0.00315891137357],[30.54554927144899,-0.00438633294718],[30.547444888775324,-0.008012531033273],[30.547411841846515,-0.01553748479436],[30.547412146318955,-0.015537808503856918],[30.547412145567176,-0.015537979885594],[30.548363697599267,-0.016549480318413717],[30.548511440682844,-0.016706558046689],[30.549778070878773,-0.022295003246839],[30.550160020376918,-0.02692316931522887],[30.54889486430496,-0.02972075700206239],[30.547906480002396,-0.030009768738039],[30.547908829946582,-0.030015580182690817],[30.54790799569701,-0.030015829118657],[30.549489365178015,-0.03392426578897123],[30.549639332964613,-0.034295138210686],[30.548911616768404,-0.036808588688215],[30.54891429408962,-0.036826534418036676],[30.549754114162457,-0.042466452859898],[30.54975566383216,-0.04246612446230268],[30.549756468547418,-0.042471518362211],[30.552359897459553,-0.041914348631801],[30.55588065235975,-0.044440561320561],[30.559222474251804,-0.044549554303016],[30.558173988539092,-0.048510726431969],[30.560502029017968,-0.04951703098508354],[30.560502037007666,-0.049517045133721904],[30.56134280824261,-0.051975374401508],[30.562404766599336,-0.052886513748296865],[30.562482185182173,-0.05302361125610432],[30.561925776284596,-0.053997921720481],[30.56192659243279,-0.0539991300412389],[30.56192656073609,-0.053999164027222],[30.562389645321446,-0.054973249587687],[30.562631831796864,-0.055043248461032486],[30.562841864706822,-0.055354205621428],[30.567041611070916,-0.056317888049366],[30.569100541516118,-0.05565862261576969],[30.569456557609744,-0.055544641266204536],[30.571304888487475,-0.05587409557328391],[30.571512799779356,-0.055911166163791],[30.571939877852827,-0.059115959784978],[30.57418988960288,-0.059553539183461],[30.573738642247825,-0.062247114168876],[30.574953574619457,-0.061609435238011],[30.57531897737488,-0.062900166941807],[30.57606875547415,-0.06289819353618832],[30.576491168930325,-0.06397268213344781],[30.576245727366565,-0.065077326315518],[30.572637688941146,-0.065816702990839],[30.568840547946657,-0.064383119462008],[30.561903302370148,-0.069957400857437],[30.549733755509656,-0.072443991426996],[30.545147975066502,-0.074935634429545],[30.542288144611707,-0.075202215375936],[30.539249288034817,-0.078335522667603],[30.529197341279005,-0.084919751385428],[30.52670912428381,-0.090234915447891],[30.520631452071324,-0.092743948145151],[30.5166767964991,-0.092489079607813],[30.512742200954445,-0.098623745954015],[30.51062718914668,-0.106544991163058],[30.51099651955456,-0.107556842917333],[30.51549617140835,-0.108449041995125],[30.51553233565418,-0.115461963627433],[30.516622656328728,-0.119386350631668],[30.51248711987105,-0.118620737121192],[30.508807248525592,-0.115387417209563],[30.507138760729365,-0.11958796670536],[30.509056754455944,-0.122528756313194],[30.506307681432244,-0.123855792376286],[30.50196529501331,-0.125550018435075],[30.501770311956008,-0.124091654825927],[30.499229204013247,-0.123461260020148],[30.491805090295728,-0.116266894253174],[30.4831969324014,-0.112562939378506],[30.479908638616067,-0.11524861672078],[30.478763337794945,-0.117300807495047],[30.473546659899252,-0.119458883952193],[30.464844142772197,-0.115859886522978],[30.462244456642924,-0.115597533800233],[30.45721847528978,-0.116719330709606],[30.45563159626206,-0.116765896423098],[30.455557214196816,-0.116159175484522],[30.45354212994782,-0.117701143525696],[30.446730796367493,-0.11973067564624],[30.44515787670811,-0.117370674090944],[30.44358896499012,-0.11732163369166],[30.444352757490538,-0.112354120153272],[30.44599089602498,-0.110174271168058],[30.448329008203967,-0.109558259013133],[30.449545788155923,-0.10802768895185],[30.455740555259954,-0.105883277449737],[30.457913113934605,-0.106629165819532],[30.464208477377834,-0.104208643275148],[30.467991262080567,-0.102016062016815],[30.477024154852252,-0.094554418331788],[30.48547152079176,-0.093758881859033],[30.487333795166464,-0.094779377966441],[30.492194213368695,-0.094741034389435],[30.494172519565396,-0.093652601287226],[30.495273022941195,-0.093973044559043],[30.49930432443612,-0.090749397429997],[30.500860041888032,-0.083310668975692],[30.496822950903145,-0.078881340717963],[30.493504428068476,-0.078564742316309],[30.489770096768947,-0.076010878734719],[30.484333087194884,-0.075178229100014],[30.48285632930463,-0.07563579521074],[30.48230564010501,-0.074555552996051],[30.475624982500502,-0.074771126124577],[30.472917035607896,-0.074029631665873],[30.472204462637553,-0.073096937806542],[30.472251588253776,-0.070274607781286],[30.47013799852991,-0.070083622924251],[30.468071460387815,-0.068600830301411],[30.46564795573952,-0.065084970966673],[30.46351332892843,-0.063995876818122],[30.47448222596083,-0.051547294790578],[30.471783766378614,-0.050635054405562],[30.471528272827204,-0.048529489234145],[30.470469791696672,-0.047218361569035],[30.460183755680028,-0.047159200790261],[30.459717842127926,-0.046587442177304],[30.458551525395283,-0.047338203152782],[30.452578687369655,-0.041346157245931],[30.449672951555172,-0.036811654484132],[30.445005651591764,-0.033739922443424],[30.443262080420062,-0.029790348846841],[30.43817725786138,-0.024232305597521],[30.435601631036665,-0.01956349129055709],[30.435731518635805,-0.019317394583294],[30.43498999573609,-0.017203769460558162],[30.434980807376927,-0.016985246545697115],[30.43506862590275,-0.016814305328001062],[30.43646533407059,-0.014711310936395],[30.436305277582278,-0.01440712823204121],[30.436414139082963,-0.01419522627499],[30.43525114303165,-0.012402851060833],[30.435251665530412,-0.012393412154789181],[30.435540330557977,-0.010732409608046743],[30.43599142302593,-0.010351906003444],[30.435959411605737,-0.008320630004601],[30.433628888412347,-0.004728115378979],[30.433744077165436,-0.0045791768580669195],[30.435377984451446,-0.002468141440302741],[30.43819542123493,-0.002441907407056],[30.43819771197007,-0.0024404144039947943],[30.438198039391484,-0.002440411352986]]]}},{"type":"Feature","properties":{"n":"Bufunda Division","c":"417202","d":"Ibanda","od":"Ibanda","dc":"417","k":"BUFUNDADIVISION","a":["BUFUNDA","BUFUNDADIVISION"],"lat":-0.153805,"lon":30.528495},"geometry":{"type":"Polygon","coordinates":[[[30.4630597555,-0.186333559],[30.4638177807,-0.1862382194],[30.465043158,-0.1841225596],[30.4673684062,-0.1823186866],[30.4708656847,-0.1810337335],[30.4782486152,-0.1804045333],[30.4848301351,-0.175443889],[30.4858308078,-0.1740769882],[30.4858441057,-0.1713920736],[30.4872696984,-0.1694007068],[30.4868090619,-0.1656509463],[30.4896971735,-0.163566132],[30.4909620686,-0.1592930619],[30.4937932308,-0.1557743736],[30.497124302,-0.1543499963],[30.5011858567,-0.1554299215],[30.5068303398,-0.1528791593],[30.5064406361,-0.1487366621],[30.5027190788,-0.1474557859],[30.4990365378,-0.1482205522],[30.4908312253,-0.146592639],[30.4870829018,-0.1500938033],[30.4807937771,-0.1511734292],[30.4802329977,-0.1505393866],[30.4865971602,-0.1425869944],[30.4913820035,-0.1350295399],[30.4988775634,-0.1322488107],[30.4991251769,-0.1313558726],[30.5015974604,-0.1303463601],[30.5023800489,-0.1292328107],[30.5019652973,-0.1255500304],[30.50196565898089,-0.1255498764294358],[30.506307681432244,-0.123855792376286],[30.509014978446654,-0.12254892248208794],[30.5090442017,-0.1225364819],[30.50904338102697,-0.122535211952016],[30.509056754455944,-0.122528756313194],[30.5071425424292,-0.11959376504735701],[30.50713877392434,-0.11958793348597482],[30.50856891858029,-0.11598743162611064],[30.508807349845405,-0.11538750623424182],[30.51248711987105,-0.118620737121192],[30.516622656328728,-0.119386350631668],[30.51553233565418,-0.115461963627433],[30.51550975736583,-0.11108361249229096],[30.515496269,-0.1084508343],[30.515496180560316,-0.1084508167315314],[30.51549617140835,-0.108449041995125],[30.51099651955456,-0.107556842917333],[30.510627244869564,-0.10654514382662979],[30.512589159709872,-0.09919692347524797],[30.512742200954445,-0.098623745954015],[30.5166767964991,-0.092489079607813],[30.51992990343097,-0.09269873493439901],[30.520630874,-0.0927440693],[30.520631205878892,-0.09274393227860987],[30.520631452071324,-0.092743948145151],[30.52670912428381,-0.090234915447891],[30.526709325538192,-0.09023448554162723],[30.526709944,-0.0902342302],[30.527513127085403,-0.08851745800531084],[30.5291971988219,-0.0849200556928444],[30.5313208779338,-0.08352879186629096],[30.539249288034817,-0.078335522667603],[30.54152222658776,-0.07599193890139128],[30.542288415360293,-0.07520219013793145],[30.545147975066502,-0.074935634429545],[30.549733755509656,-0.072443991426996],[30.561903302370148,-0.069957400857437],[30.561906383395055,-0.06995492516306719],[30.5619066121,-0.0699548784],[30.568840577271935,-0.06438313053355793],[30.572637688941146,-0.065816702990839],[30.572639980489065,-0.0658162333957622],[30.5749885743,-0.0656918633],[30.576240506003504,-0.06507839630247615],[30.576245727366565,-0.065077326315518],[30.576246098522354,-0.06507565587683035],[30.5762463301,-0.0650755424],[30.576246424536116,-0.06507418860618021],[30.576491168930325,-0.06397268213344844],[30.578398296625604,-0.06882382248454384],[30.5784385619,-0.0690226792],[30.578488061342714,-0.0690521560368064],[30.5789,-0.0701],[30.57875468210593,-0.07058018086736026],[30.5785628864,-0.0707870774],[30.578671991729205,-0.07085341863393371],[30.578034679192985,-0.07295932092753504],[30.5759937105,-0.074387173],[30.5759258435,-0.0775829288],[30.5746629801,-0.0799758089],[30.575667239775797,-0.08078216421911355],[30.5743,-0.0853],[30.574549317828428,-0.08805911730124509],[30.5743242235,-0.0879621536],[30.5737580673,-0.0888594061],[30.57461721349758,-0.08881049603986174],[30.57470989282837,-0.08983614730061297],[30.5744128003,-0.0919674246],[30.57501705995432,-0.0932354634944571],[30.575133702032417,-0.09452630249207512],[30.5744640016,-0.0957658169],[30.575342992456093,-0.09684244984741926],[30.5758,-0.1019],[30.57560407632665,-0.10221600592476504],[30.5726748756,-0.1031017073],[30.571479653,-0.1026022805],[30.5715909619,-0.1018006694],[30.5699776495,-0.1024975871],[30.5709510149,-0.1040818347],[30.5704611603,-0.1053978855],[30.5713492541,-0.1064127835],[30.5700993021,-0.1081632003],[30.570289138945782,-0.11078848557132387],[30.5696,-0.1119],[30.56984111055489,-0.11225223107148988],[30.5698193995223,-0.11228196677436017],[30.5696775619952,-0.112195584512923],[30.56879618302218,-0.11363821497115531],[30.565233468182466,-0.11483422927557631],[30.565146811134642,-0.114862728440466],[30.563374610962583,-0.117854188598563],[30.560312232118058,-0.11915256395613957],[30.559774995508025,-0.11937966809433315],[30.55646648112483,-0.119155602246539],[30.55442831045039,-0.120567784386695],[30.55418703356299,-0.121571389903999],[30.55665270714443,-0.12775067527418463],[30.5522809484,-0.1374294838],[30.5522809506252,-0.1374295587426998],[30.552280872565852,-0.137429731554088],[30.552530465398814,-0.145839334062135],[30.552802607711293,-0.14669614280055882],[30.553452035039747,-0.14874168543988042],[30.55331394188356,-0.15095587811945932],[30.553170101181557,-0.15325929775233535],[30.55049790642476,-0.154772631245615],[30.54976471092233,-0.157724632933724],[30.544954491703805,-0.16186666380580556],[30.54296335160211,-0.16295163010166075],[30.53890981179252,-0.16255072515978],[30.536229236400636,-0.167827092354485],[30.530284805784515,-0.165725761517095],[30.531886670531506,-0.16927347939680037],[30.531655225136504,-0.17016722721070446],[30.5311211831704,-0.172228550914406],[30.53170176055572,-0.176359122487204],[30.529930595300762,-0.179979411338278],[30.53323683261185,-0.187612294815941],[30.53326723439803,-0.18962764714385616],[30.5332963387,-0.1915799334],[30.533296689767447,-0.191580260946478],[30.53329670284609,-0.191581127937596],[30.5374641397939,-0.195468733068785],[30.5387925691566,-0.199731059871922],[30.538809228063315,-0.1997261821976835],[30.54000708624362,-0.20319264906819715],[30.5400079182,-0.2031951761],[30.5400079932584,-0.2031952738669692],[30.54000819384672,-0.203195854347013],[30.54357059115776,-0.20783586044028],[30.54380786131952,-0.21125447110692866],[30.543807861306608,-0.211254560900585],[30.538794013185676,-0.220199624826531],[30.5394110128815,-0.22366765603157848],[30.53928967899924,-0.2240041735201266],[30.538246521115212,-0.226896006983494],[30.538246552701278,-0.22689726682170666],[30.5382464899,-0.226897441],[30.538246565523323,-0.2268977782403415],[30.5385030111221,-0.2371263377743849],[30.53840450016164,-0.23960441690711076],[30.537790110266844,-0.24005988527363925],[30.532082627241177,-0.24115981720540342],[30.530308164766005,-0.241373289371559],[30.53021635670891,-0.24151948022017175],[30.5299473522,-0.2415713221],[30.52996205008755,-0.24192442616893758],[30.529547026661316,-0.242585290027683],[30.52981055663401,-0.24469366795079872],[30.52131866958054,-0.24294578882419038],[30.5213158614319,-0.24293874845760666],[30.51971897246344,-0.23786640095696582],[30.51971761041242,-0.237856425284479],[30.521975874961136,-0.236879261575408],[30.52207763732689,-0.233760866995619],[30.52119429636743,-0.233663711849883],[30.521192646415155,-0.232951300083834],[30.52249443000265,-0.227785548097188],[30.513737315995606,-0.217507519818672],[30.5103884358582,-0.21432635112536],[30.510388248882258,-0.21432625444688985],[30.5103882362,-0.2143262424],[30.5102986651154,-0.21427993393449862],[30.505935965061628,-0.21202414017868],[30.502142185405955,-0.21234299981666],[30.501061041843784,-0.213263766346513],[30.497389313367204,-0.213276139336006],[30.497389290060312,-0.2132767478265327],[30.4973890397,-0.2132767487],[30.497325654122953,-0.21492246161419218],[30.496283499460567,-0.214759983270352],[30.496284844111145,-0.21476375369836517],[30.4962842237,-0.2147636567],[30.496337090964666,-0.21491025495571683],[30.496796871056567,-0.216199487838205],[30.496156223981906,-0.215949743408775],[30.490780184816828,-0.219965932872085],[30.490347822492073,-0.221616176359501],[30.48710022847277,-0.224807293109236],[30.48644126339697,-0.225986201999339],[30.48797335492819,-0.227359855001541],[30.486627761760392,-0.229203988809251],[30.486628056102766,-0.22920437782344263],[30.4866277249,-0.2292048298],[30.486663534546004,-0.22925126749716207],[30.48719253204186,-0.229950410912577],[30.48626150494068,-0.23210628235666],[30.48625481612573,-0.23211514329699012],[30.48299490899946,-0.23577327507152046],[30.482994494704823,-0.235773620229938],[30.480463306471844,-0.236166807959108],[30.477745412576958,-0.235453263408503],[30.47774534939383,-0.2354536526889397],[30.4777450682,-0.2354535789],[30.477669548018188,-0.2359206759978755],[30.477441174402763,-0.237327719084374],[30.47605357756944,-0.237214142282484],[30.475917832614144,-0.2379942106871618],[30.47583593117309,-0.2379659467487271],[30.472158843947813,-0.2366965736799605],[30.4672206512,-0.2297029413],[30.467220533978296,-0.2297028563866836],[30.46722006317855,-0.229702189616415],[30.46409864007017,-0.2272288563668193],[30.463871923750727,-0.22559904081440518],[30.463769726853812,-0.223929133204094],[30.46360217510933,-0.22365987502312748],[30.4635702697,-0.2234305138],[30.4632096454544,-0.22302907394619503],[30.461495647968682,-0.22027465413033492],[30.46141926494368,-0.21894010054858723],[30.461419983562752,-0.218933962171035],[30.464380557362578,-0.216427033743815],[30.461728360693062,-0.209753945753405],[30.461128039022174,-0.20456932891172716],[30.460956797616404,-0.20309012827360856],[30.461608594383588,-0.198315036822248],[30.46402176211898,-0.192495952699241],[30.46339978370054,-0.191508150258413],[30.464412798940767,-0.187952921188913],[30.464404812805604,-0.18794621642712073],[30.4630597555,-0.186333559]]]}},{"type":"Feature","properties":{"n":"Kagongo Division","c":"417203","d":"Ibanda","od":"Ibanda","dc":"417","k":"KAGONGODIVISION","a":["KAGONGO","KAGONGODIVISION"],"lat":-0.105046,"lon":30.44031},"geometry":{"type":"Polygon","coordinates":[[[30.41932158906509,-0.044610923343133],[30.419322572076293,-0.04461045082141647],[30.419324437462365,-0.044610659488939],[30.42444112182315,-0.04215033887696],[30.42444136223882,-0.042149909676694707],[30.424441562691044,-0.04214981332171],[30.425817158746394,-0.039693779296895375],[30.429181383007087,-0.033687823208439],[30.430426842748517,-0.033562774094426],[30.430427511201454,-0.03356013158030697],[30.430427758936208,-0.03356010655029],[30.4304282521829,-0.033557202348003475],[30.431167506731413,-0.030634796782171],[30.431047221128313,-0.02991275616049929],[30.431477966736985,-0.027376555914998966],[30.433032666925328,-0.024430881349757547],[30.434182106815296,-0.023159178629709],[30.435547723959726,-0.019665628478560217],[30.435601631036665,-0.01956349129055709],[30.43817725786138,-0.024232305597521],[30.442575089789408,-0.029039423206272508],[30.443262110304214,-0.029790416541039567],[30.445005651591764,-0.033739922443424],[30.44952945505191,-0.0367172138417358],[30.449672961969426,-0.036811670735939564],[30.452578687369655,-0.041346157245931],[30.45260628479693,-0.041373843422992565],[30.458184677514218,-0.047058258264457],[30.458273631499974,-0.047059415586337756],[30.458551525395283,-0.047338203152782],[30.45897053970565,-0.04706848260124968],[30.46012203943739,-0.04708346400791663],[30.460183755680028,-0.047159200790261],[30.470469791696672,-0.047218361569035],[30.471528199693562,-0.048529398644396544],[30.471548296999295,-0.04869451179189484],[30.471783766378614,-0.050635054405562],[30.471784528054656,-0.05063531189752181],[30.471784584504583,-0.050635775672374],[30.4723368793524,-0.05082203960092622],[30.47448222596083,-0.051547294790578],[30.46811609116599,-0.058772210017506106],[30.463514306603727,-0.063992102257246],[30.463515924605495,-0.06399293098876475],[30.46351332892843,-0.063995876818122],[30.46564795573952,-0.065084970966673],[30.468071460387815,-0.068600830301411],[30.47013799852991,-0.070083622924251],[30.47013858943113,-0.07008367631833402],[30.470138902655563,-0.070083901025061],[30.47225158160369,-0.070275006051656],[30.472205330685245,-0.07304495085626748],[30.472204457589335,-0.07309664990759],[30.472204467233816,-0.07309666253851584],[30.472204462637553,-0.073096937806542],[30.472582996704848,-0.07359240481807428],[30.47291611471486,-0.074028673838805],[30.472916353901613,-0.07402873937372953],[30.472917035607896,-0.074029631665873],[30.475624982500502,-0.074771126124577],[30.475625792114542,-0.07477109999974886],[30.475625810208317,-0.074771104957273],[30.47571058354074,-0.07476836392882603],[30.48230564010501,-0.074555552996051],[30.48285632930463,-0.07563579521074],[30.484142393836123,-0.07523731449179397],[30.484333413440048,-0.07517827906275773],[30.489770096768947,-0.076010878734719],[30.493408210551564,-0.07849894033125648],[30.493504406265526,-0.078564733270097],[30.493504416224166,-0.07856473421612915],[30.493504428068476,-0.078564742316309],[30.496822950903145,-0.078881340717963],[30.500711216082834,-0.0831473834944112],[30.499317607974188,-0.09068588163382106],[30.49930432443612,-0.090749397429997],[30.495273022941195,-0.093973044559043],[30.494172519565396,-0.093652601287226],[30.492194213368695,-0.094741034389435],[30.487333795166464,-0.094779377966441],[30.48547152079176,-0.093758881859033],[30.485471060415584,-0.09375892521527451],[30.485470981210685,-0.093758881819708],[30.48524461656512,-0.09378025071997802],[30.477024154852252,-0.094554418331788],[30.47702163070661,-0.09455650340861525],[30.477020276065172,-0.094556631287232],[30.46821087023505,-0.10183465415108274],[30.467991262080567,-0.102016062016815],[30.464208477377834,-0.104208643275148],[30.457913113934605,-0.106629165819532],[30.457463311586498,-0.10647473853336767],[30.4557412147207,-0.105883186112814],[30.45574075387757,-0.10588334563964184],[30.455740555259954,-0.105883277449737],[30.449545788155923,-0.10802768895185],[30.449545651670583,-0.10802786063480375],[30.44954534881499,-0.108027965472196],[30.448506692025784,-0.10933475308043512],[30.448329008203967,-0.109558259013133],[30.44599089602498,-0.110174271168058],[30.445661687392107,-0.11061234468211553],[30.44515651795341,-0.110811821941451],[30.444352898208496,-0.112353907611035],[30.444352893321614,-0.11235393940468197],[30.444352757490538,-0.112354120153272],[30.44358896499012,-0.11732163369166],[30.44515787670811,-0.117370674090944],[30.446730796367493,-0.11973067564624],[30.446930611584314,-0.11967113790727452],[30.44704533185708,-0.11982023781349],[30.453541520760638,-0.1177013250415383],[30.45354212994782,-0.117701143525696],[30.455557214196816,-0.116159175484522],[30.45563159626206,-0.116765896423098],[30.45721847528978,-0.116719330709606],[30.462244403915175,-0.1155975455690439],[30.462398341471435,-0.11561306340717072],[30.464844142772197,-0.115859886522978],[30.473546659899252,-0.119458883952193],[30.478763337794945,-0.117300807495047],[30.479908638616067,-0.11524861672078],[30.4831969324014,-0.112562939378506],[30.491805090295728,-0.116266894253174],[30.499229204013247,-0.123461260020148],[30.501770311956008,-0.124091654825927],[30.50177406919338,-0.12411975684839152],[30.50229442824443,-0.1293546407928786],[30.502097599411947,-0.12963470960083232],[30.49912942335779,-0.13135413863534084],[30.4991251769,-0.1313558726],[30.4988775634,-0.1322488107],[30.4913820035,-0.1350295399],[30.491379849570194,-0.13503294193962473],[30.491379680932564,-0.135033004484801],[30.487368136054307,-0.14136927114884812],[30.4865971602,-0.1425869944],[30.4802329977,-0.1505393866],[30.4807937771,-0.1511734292],[30.486956957458755,-0.15011542360159272],[30.487082457491503,-0.150093901716489],[30.487082486537442,-0.15009387458626566],[30.4870829018,-0.1500938033],[30.4908312253,-0.146592639],[30.4990365378,-0.1482205522],[30.499038046187362,-0.1482202389478672],[30.50367153996296,-0.14778360157948922],[30.506440625812353,-0.14873665855922344],[30.50644064078581,-0.14873671190953508],[30.506830279791576,-0.15287852141863598],[30.50683024382118,-0.1528792026731741],[30.5011858567,-0.1554299215],[30.497124302,-0.1543499963],[30.497123833496318,-0.15435019663375812],[30.497123815628527,-0.154350191878499],[30.494050484123616,-0.155594591524632],[30.493922248491895,-0.15571920519902613],[30.4937932308,-0.1557743736],[30.493534253904453,-0.15609624105511724],[30.4923922832111,-0.157205957303571],[30.491528990995185,-0.15858846673446916],[30.4909620686,-0.1592930619],[30.490847649144932,-0.15967959383637106],[30.490539669068223,-0.160172805002565],[30.489696596185244,-0.1635665487408438],[30.4868090619,-0.1656509463],[30.48680909745264,-0.16565123571231438],[30.486808931274286,-0.165651355650419],[30.487142053638774,-0.16836162873371568],[30.4872696984,-0.1694007068],[30.4858441057,-0.1713920736],[30.485830809439424,-0.17407665719148901],[30.48410205643657,-0.17599265878670392],[30.478248811060745,-0.1804043856752107],[30.472517699976873,-0.180673840460155],[30.471582716439332,-0.18097262544625442],[30.4708656847,-0.1810337335],[30.4673684062,-0.1823186866],[30.465043158,-0.1841225596],[30.464181577560318,-0.18561011049612297],[30.463539515772094,-0.18627321779704625],[30.4630597555,-0.186333559],[30.46325473648142,-0.18656733158836797],[30.46301547456921,-0.18681443603178813],[30.457358379099666,-0.18961974220392638],[30.4542183556716,-0.18573139733921598],[30.454420951273327,-0.183250212327882],[30.45442068699354,-0.18324945886942035],[30.45442072825086,-0.183249257941378],[30.454372870504457,-0.1831131346407062],[30.45328050942738,-0.179998826497802],[30.45420270495483,-0.178173815540462],[30.454202022594778,-0.17817262140502],[30.454202165205665,-0.178172340094262],[30.453383657600835,-0.176738434293104],[30.453382931068788,-0.1767392048167293],[30.453379561073515,-0.176733307298594],[30.452846375105185,-0.177306420903519],[30.45210392419044,-0.17630617272476035],[30.452102591640656,-0.17630076055487356],[30.451130105720395,-0.1716225834409385],[30.45185206702242,-0.16204117472258844],[30.4563,-0.16],[30.456409269566567,-0.15926386818311164],[30.46214721014886,-0.154296402213052],[30.46577871692807,-0.152557304833372],[30.463083093832335,-0.149890586105028],[30.458159076099655,-0.1474756978549663],[30.4582,-0.1472],[30.449922940030643,-0.14489681809548352],[30.447645266729577,-0.143100569654514],[30.44280936831866,-0.14284924278784],[30.434407086660727,-0.14012369156356227],[30.429003701772878,-0.135514922100397],[30.427460953165575,-0.133298128699376],[30.426124937163628,-0.1330595052278005],[30.42569117783473,-0.13268953403550282],[30.425430757590817,-0.131418576056527],[30.422348556269714,-0.12983847446534424],[30.421712946479545,-0.12929633670313917],[30.421679856403017,-0.1287607897834052],[30.422055682733127,-0.1266937449677975],[30.423044652407622,-0.125829666647319],[30.423457590358172,-0.124140552087533],[30.422941047168425,-0.12182424057365716],[30.424,-0.116],[30.423695472624026,-0.1154304942579187],[30.423706314263537,-0.115387094161989],[30.422180911457747,-0.110098028268503],[30.417157305397335,-0.103032974463524],[30.416653537153145,-0.09986652750716485],[30.419257555797895,-0.08709843608774347],[30.41962774776912,-0.086237411341475],[30.4173065185727,-0.080693059409338],[30.415816934867962,-0.072350134186407],[30.412330487296572,-0.068517138716831],[30.40991311237197,-0.06398366501112],[30.410006228465633,-0.061292397523676],[30.411293832389696,-0.060016731031321],[30.411816265006095,-0.057625624338424],[30.410146148123655,-0.054510044612749],[30.41005286671162,-0.04924049212133],[30.409513226672765,-0.048255520256018314],[30.4095,-0.0477],[30.408405228582893,-0.04610368305682987],[30.4113255241924,-0.04514407455601937],[30.41456818086449,-0.044078673106717724],[30.41932158906509,-0.044610923343133]]]}}]}
