{"type":"FeatureCollection","name":"Jinja sub-counties","metadata":{"source":"Uganda Bureau of Statistics NPHC 2024 Map Explorer","retrieved":"2026-07-26","display_only":true,"clipped_to_dashboard_district":true,"positive_area_overlaps_removed":true,"source_gap_ratio":0.01521266},"features":[{"type":"Feature","properties":{"n":"Busedde","c":"204101","d":"Jinja","od":"Jinja","dc":"204","k":"BUSEDDE","a":["BUSEDDE"],"lat":0.585354,"lon":33.313315},"geometry":{"type":"Polygon","coordinates":[[[33.269395069349265,0.600325463675734],[33.27606839451939,0.60858188946815],[33.281232140171554,0.617550562017224],[33.289519680178486,0.627749444279397],[33.29732783926775,0.6442087493424182],[33.298,0.6436],[33.29987115364958,0.6453603616571723],[33.300620792803294,0.645042427930651],[33.30171729148472,0.645546789532549],[33.30437502990318,0.648409589083076],[33.31387369317554,0.654481860609663],[33.3151323226328,0.654660600894045],[33.323475900546335,0.644923842676598],[33.327164624389624,0.64342643822389],[33.33325484574901,0.637598384271451],[33.335671041292976,0.634064255105904],[33.34186326441983,0.6306349436006532],[33.3419,0.6306],[33.3517,0.6245],[33.35189449278264,0.6244649562553796],[33.35223240627759,0.624184164534965],[33.36262671897896,0.622120397438128],[33.366496193624585,0.619867630096335],[33.369767717314275,0.620998030136626],[33.37160709803236,0.620913135489665],[33.373784974069174,0.6205207253929411],[33.37391116424964,0.6203863873419128],[33.3756,0.6032],[33.36556510464457,0.6056817483137082],[33.36544748682075,0.60678118237685],[33.36260719100848,0.607041354988981],[33.35891185024657,0.608822446531255],[33.35737152337749,0.608549895838438],[33.35730385636944,0.6077248527258372],[33.357,0.6078],[33.35526805318134,0.5965879232265748],[33.354039653616475,0.595209910152163],[33.35432259184694,0.593108759250304],[33.35258934369565,0.587443238453347],[33.35372275621341,0.578958353832976],[33.36168166480985,0.5834811601594426],[33.36438450508667,0.5835707570746962],[33.37127756607784,0.5837687660310328],[33.36922142822343,0.5809060768635665],[33.36784325539314,0.580074585275914],[33.36456974168943,0.574921268171363],[33.35793397606393,0.567046234206271],[33.355754345178575,0.5621563258839825],[33.3532,0.5586],[33.3569,0.5413],[33.3408,0.5337],[33.340730027065845,0.5333641299160469],[33.33956576387488,0.532988074397731],[33.34014867198595,0.53057362553257],[33.337462643336266,0.5176806880140788],[33.33585246404356,0.5168066105834557],[33.32830109243315,0.516319425318268],[33.32471226229486,0.517923173742872],[33.33352816581727,0.533182201002095],[33.325431104741355,0.554335394394769],[33.274627275850754,0.584581453290414],[33.27289540774165,0.58612685705709],[33.27196500100488,0.589598267829117],[33.27030450551951,0.589196007382258],[33.2695106799471,0.590298071919147],[33.26915228018436,0.592433144447025],[33.26995891633348,0.596192081310205],[33.269395069349265,0.600325463675734]]]}},{"type":"Feature","properties":{"n":"Kakira Town Council","c":"204102","d":"Jinja","od":"Jinja","dc":"204","k":"KAKIRATOWNCOUNCIL","a":["KAKIRA","KAKIRATOWNCOUNCIL"],"lat":0.519805,"lon":33.281768},"geometry":{"type":"Polygon","coordinates":[[[33.237562659780146,0.568252370177648],[33.23813909014866,0.569635577426295],[33.23816732386628,0.573688461336658],[33.237140423523755,0.577767875949974],[33.23484095982026,0.580161314579442],[33.235265881849884,0.580457007519033],[33.27157873825883,0.5895046944191327],[33.27196500100488,0.589598267829117],[33.2728400249604,0.5863334939781313],[33.272895152431566,0.586127542162126],[33.272895246661356,0.5861274580586116],[33.27289540774165,0.58612685705709],[33.274627275850754,0.584581453290414],[33.27464370713219,0.5845716709272148],[33.325651356948235,0.5537599958046424],[33.333525167469475,0.533190034045488],[33.33352814166448,0.5331821591971837],[33.32538037783433,0.5190795830891345],[33.324714157573105,0.517926730288047],[33.32471425897449,0.5179266297004818],[33.32471226229486,0.517923173742872],[33.32472223586216,0.5179187168328953],[33.32645118835631,0.51620364038854],[33.32641253802271,0.5161975830982392],[33.3249,0.5161],[33.32495478541466,0.5159691237316383],[33.32436450136115,0.515876614261763],[33.32847079320716,0.505922467897887],[33.33101134392364,0.5015006784046199],[33.3321,0.4989],[33.3229,0.4885],[33.31953645481058,0.48721271727318577],[33.30723661186024,0.482621800639017],[33.30696657392529,0.48240202211955335],[33.3067,0.4823],[33.30666129938006,0.4821535652218605],[33.30451392338407,0.480405858488706],[33.305801869184826,0.4789016671858251],[33.30302118614042,0.4683801637745581],[33.30274405860943,0.46836529117106457],[33.29649115303276,0.4699604201447039],[33.293664376227234,0.471136985575137],[33.29212889139193,0.474058634792167],[33.29102713197957,0.480084538962611],[33.28878850250975,0.482387043899569],[33.28070334901188,0.472740133973838],[33.28161859967368,0.4501131486430558],[33.281628758907466,0.44904352645727896],[33.25809363025544,0.44963165047189],[33.259794816284135,0.460813989756709],[33.26155122165018,0.465433052231748],[33.26303700270907,0.466017307274057],[33.26253773545002,0.474268340045845],[33.259455061241646,0.484626750487689],[33.252747852620026,0.495161786877798],[33.253550804231786,0.49881723029612],[33.252251324488284,0.502714589339432],[33.249388435559034,0.506599648585209],[33.247821174077174,0.506916922809134],[33.24569411607687,0.509818498951452],[33.244983952381446,0.515268532721358],[33.24193633407716,0.517023509921062],[33.242079741371874,0.517665994251999],[33.23863841535188,0.518400998677323],[33.23727022448737,0.520530614364182],[33.236746520752256,0.532987040848283],[33.23586571087172,0.536127630626458],[33.234010362888775,0.537995856922362],[33.235452262634425,0.542774995315304],[33.23438165876658,0.54396549135521],[33.2349049414803,0.547910124001022],[33.23402479425581,0.552168482872014],[33.23139569282145,0.558056275375576],[33.23135544099389,0.561689947745366],[33.23295378675963,0.56492655450194],[33.237562659780146,0.568252370177648]]]}},{"type":"Feature","properties":{"n":"Butagaya","c":"204201","d":"Jinja","od":"Jinja","dc":"204","k":"BUTAGAYA","a":["BUTAGAYA"],"lat":0.611117,"lon":33.079036},"geometry":{"type":"Polygon","coordinates":[[[33.06089727432397,0.656426639992237],[33.06808833644783,0.654967583909136],[33.06877818431959,0.654643777354126],[33.06912487918926,0.6547572708891343],[33.0699,0.6546],[33.070933628010444,0.6553493803075724],[33.074162159737654,0.656406267820656],[33.07841716519159,0.655353508020706],[33.079532793199476,0.659033239120201],[33.08574174801866,0.658370270607823],[33.08523737662456,0.660927683140497],[33.08712176715299,0.665358498112157],[33.08614409005563,0.672887935410583],[33.086632481246845,0.676999014190333],[33.08831316500768,0.678062798877759],[33.09662901463068,0.678632645689118],[33.102257660205815,0.675909209546214],[33.10634358992428,0.675900138609202],[33.10656260366958,0.667911390732722],[33.10904571798764,0.663740475245091],[33.10937337833531,0.661821619769193],[33.113923137130044,0.655172548149496],[33.11539506905729,0.648188725434881],[33.12338935293316,0.643058217701458],[33.12315903532208,0.639413173770474],[33.12460016355222,0.633970217989272],[33.11914866424328,0.629895840965401],[33.11430943986788,0.627625611695961],[33.11177041253352,0.627385165650149],[33.10663710237536,0.628632400220196],[33.10737952559782,0.626212497058303],[33.1069910174081,0.617101238262105],[33.10282517775612,0.612215310890257],[33.106065435314235,0.610019579201718],[33.11024675590406,0.608816824622814],[33.11287693844834,0.60619971659068],[33.119783294606606,0.602924784135315],[33.11936723926406,0.599304085229422],[33.12035897728146,0.594634191918562],[33.129688047790296,0.588897272167064],[33.12809825261079,0.585744759535682],[33.12315625018098,0.581220052937976],[33.12244987734918,0.57578208958567],[33.11949823030047,0.574600389166318],[33.11738979527133,0.572386737951243],[33.11581598893109,0.567589522343203],[33.114470867664366,0.566568295550099],[33.1117234285175,0.566464481492656],[33.10877925068933,0.563942302853425],[33.10683045511683,0.560649949836982],[33.107046389257135,0.558916491490179],[33.104566298840936,0.555559358942096],[33.103541683214786,0.555624380619955],[33.10186629260408,0.554105732555495],[33.09904021452209,0.549889168847347],[33.092475677792315,0.544252132358666],[33.07839803849982,0.5573370871339358],[33.07806373003354,0.5579278908889993],[33.07952290944161,0.562988937055894],[33.0748116467268,0.56693923856851],[33.074385580715195,0.568254741146155],[33.07452600759735,0.579598051613258],[33.07338379992236,0.583262352511167],[33.061486328372155,0.593351421810411],[33.05492144154803,0.5945443078595201],[33.05024523207566,0.5982640199398148],[33.05024236241165,0.598283825076804],[33.05173899270856,0.604182548766407],[33.05148641726904,0.6059586702529076],[33.05154492128315,0.6063069732206413],[33.05476495377176,0.613749716022422],[33.05349213520443,0.6178996886589398],[33.053966208832,0.6207220804882214],[33.05567392655527,0.622475408681828],[33.05592871942517,0.62440190631432],[33.05207465931488,0.629129156202611],[33.049711099707686,0.63487406157761],[33.04614838589643,0.638836618562241],[33.04533415184666,0.6446495369481577],[33.0492,0.6588],[33.058746411703105,0.6568630469008192],[33.05958221422618,0.656402240660584],[33.06089727432397,0.656426639992237]]]}},{"type":"Feature","properties":{"n":"Namagera Town Council","c":"204202","d":"Jinja","od":"Jinja","dc":"204","k":"NAMAGERATOWNCOUNCIL","a":["NAMAGERA","NAMAGERATOWNCOUNCIL"],"lat":0.604379,"lon":33.132317},"geometry":{"type":"MultiPolygon","coordinates":[[[[33.10982895880313,0.627640796539756],[33.110730971912616,0.6276377173635574],[33.11177041253352,0.627385165650149],[33.11430831825629,0.6276255054792736],[33.11430907358964,0.627625502900814],[33.114309271518195,0.6276255957532353],[33.11430943986788,0.627625611695961],[33.11914866424328,0.629895840965401],[33.12460016355222,0.633970217989272],[33.12457900800502,0.6340501197673006],[33.12468906203615,0.634134312090405],[33.123159668327204,0.6394107829916384],[33.1231590491124,0.6394131216861978],[33.12316020102128,0.6394316223153537],[33.12338935293316,0.643058217701458],[33.11660513950868,0.6474121360736288],[33.12203144312198,0.651649968440407],[33.1272726981066,0.649350130798089],[33.133387839856184,0.651741625282403],[33.13580075962091,0.653461206026275],[33.1383039410241,0.652518942379613],[33.13836448856825,0.648968300046305],[33.14547399703903,0.637653680866507],[33.14667775176798,0.633611939147562],[33.1467374255738,0.626284285690743],[33.15116032168047,0.619219786433461],[33.14999776374415,0.615861510809865],[33.151705474541025,0.611047670947581],[33.1513336123819,0.609545958955209],[33.14807015626472,0.605510589999003],[33.14751221400755,0.601375429251978],[33.14986255831539,0.59716893317161],[33.15708532586127,0.590719769505138],[33.1564425008287,0.584867579146218],[33.157593838621196,0.583837925231487],[33.1564560490579,0.582355074078399],[33.15817086176406,0.582315066335443],[33.15804681144212,0.579361573260537],[33.15892700733881,0.578348335322705],[33.16622812699063,0.575291100239821],[33.1649531459942,0.57259533407083],[33.16421758774456,0.56794605623106],[33.16166423223799,0.562445369175848],[33.16034506361301,0.561594960240718],[33.14720262417911,0.562852903636366],[33.14120316219162,0.565576407250465],[33.13915730937264,0.565693957603768],[33.137871083261444,0.567331656449379],[33.13415230007271,0.567774900669693],[33.128420385301,0.567349849663756],[33.118121570088576,0.561206919904332],[33.116041316602505,0.559216043515255],[33.11421536462635,0.55464770847419],[33.10456630948478,0.555559356608302],[33.10478066113573,0.5558495268457474],[33.107046389257135,0.558916491490179],[33.10683045511683,0.560649949836982],[33.10877925068933,0.563942302853425],[33.1117234285175,0.566464481492656],[33.114470867664366,0.566568295550099],[33.11490853146743,0.5669005733997743],[33.11516670028787,0.566935877308203],[33.115276417074845,0.5671798750868328],[33.11581598893109,0.567589522343203],[33.11677477187769,0.5705120474331933],[33.11782161322562,0.5728401047024086],[33.1182697145502,0.5733105674048051],[33.122448511354435,0.5757815427057286],[33.12244987734918,0.57578208958567],[33.12244991405181,0.5757823721383956],[33.122450102112936,0.57578248334131],[33.12315656913141,0.5812203449566709],[33.12809825261079,0.585744759535682],[33.128098352502434,0.5857449576175993],[33.128098581119346,0.585745166916021],[33.12809976308743,0.5857477547621928],[33.129688047790296,0.588897272167064],[33.12957111182766,0.5889691820355838],[33.129756404935684,0.589374869861612],[33.12224727887813,0.5934729792643728],[33.12046394866357,0.5945696396788932],[33.120236538830845,0.5952107297657617],[33.11959362925924,0.598238060628567],[33.11978327703715,0.6029246312381129],[33.119783294606606,0.602924784135315],[33.11910435751046,0.6032467300472207],[33.11287661023174,0.6062000431757287],[33.11156568793484,0.6075044489403314],[33.11024885532882,0.608815355555433],[33.11024797871044,0.6088156078949412],[33.11024675590406,0.608816824622814],[33.106065435314235,0.610019579201718],[33.10282517775612,0.612215310890257],[33.1069910174081,0.617101238262105],[33.10737952559782,0.626212497058303],[33.10663710237536,0.628632400220196],[33.106755578186,0.6286036142863265],[33.10982895880313,0.627640796539756]]],[[[33.1296918914109,0.567380077702707],[33.12969189126784,0.567380083723947],[33.129691891410914,0.567380077702707],[33.1296918914109,0.567380077702707]]],[[[33.15835539112186,0.579019400153676],[33.15835539108849,0.579019400125276],[33.158355391121034,0.579019400154624],[33.15835539112186,0.579019400153676]]]]}},{"type":"Feature","properties":{"n":"Buwenge","c":"204301","d":"Jinja","od":"Jinja","dc":"204","k":"BUWENGE","a":["BUWENGE"],"lat":0.621326,"lon":33.177418},"geometry":{"type":"Polygon","coordinates":[[[33.11065311305832,0.678469481924582],[33.11080160052391,0.6784462689537049],[33.113660540877255,0.6769343293437586],[33.11736843045163,0.672936272755242],[33.12242924913567,0.672235589840626],[33.12652833158085,0.66931301112346],[33.13034120245295,0.6681128256258463],[33.1315,0.6675],[33.13163781073338,0.6677046894716308],[33.132243458110956,0.667514048554689],[33.135896255901,0.668796283234576],[33.13834153157895,0.67179268655572],[33.137284468868884,0.6760916375846596],[33.1451,0.6877],[33.148041023184575,0.6892802512633533],[33.15018634170183,0.688859194931439],[33.152290026927595,0.689635460978009],[33.15573394440515,0.6934137611729191],[33.158022019223324,0.6946431745080563],[33.15971729835425,0.6948264101750573],[33.164991307949904,0.6945075783607108],[33.16620270938397,0.694116137603693],[33.16712003577913,0.6943788895246872],[33.1764347806969,0.6938157815195827],[33.17797291615222,0.692910036068842],[33.18034211958443,0.6935795695969108],[33.19792073708928,0.6925168823925877],[33.19819554718742,0.692471859590672],[33.19841006489383,0.6923112976377486],[33.2003114187754,0.6906033017780296],[33.20167114384716,0.686039098891998],[33.19847388073682,0.681388676361125],[33.197950153750604,0.67799599123486],[33.2019347721819,0.670251569828033],[33.2030379698251,0.664470939558404],[33.20982904149672,0.657331715613195],[33.212709505147274,0.644828360420629],[33.21160544949117,0.637355248123224],[33.21003370012242,0.633510331855198],[33.20621163121618,0.630063537765386],[33.20469634527276,0.627013984482932],[33.20442896615042,0.623431783002476],[33.206471011288905,0.615823528516964],[33.206551351844226,0.610759807666619],[33.208540653749296,0.609873614965299],[33.208597495948005,0.606895088741233],[33.20988296932758,0.606374430453199],[33.21161528119761,0.603043092857618],[33.212548030418105,0.600939650202964],[33.2122149742139,0.599931075284797],[33.2143591069148,0.595581047048593],[33.21927334072455,0.593021497626672],[33.22149718840629,0.593286109256899],[33.22442755448853,0.591979738894705],[33.22514846841639,0.592343842236939],[33.22634724747377,0.591181509493],[33.22775237090326,0.591719858513049],[33.22777746288125,0.587997319010325],[33.23355351106898,0.582500828756583],[33.23515901110202,0.5803826387563192],[33.23484095982026,0.580161314579442],[33.23714040914527,0.5777678909160797],[33.23745558893149,0.5765158651007474],[33.23816732386628,0.573688461336658],[33.2381566006838,0.572149173655194],[33.238139051679255,0.5696354851147827],[33.237562659780146,0.568252370177648],[33.233798275980455,0.5655359476173689],[33.2329539960892,0.564926738923155],[33.23295397049125,0.5649266870847852],[33.23295378675963,0.56492655450194],[33.23135544099389,0.561689947745366],[33.23139569282145,0.558056275375576],[33.23324534646773,0.5539140324288226],[33.2253376236295,0.551810407291228],[33.21966052486911,0.551333394825867],[33.2173683417137,0.555940750044111],[33.21702379169064,0.554371576892509],[33.20359732259057,0.564353029701001],[33.20205579305916,0.566651200820979],[33.19985524181834,0.577994354663569],[33.19135098628717,0.575354950256953],[33.180075090622125,0.573373975734104],[33.17253861438744,0.577454551507599],[33.166831597408866,0.576567932612968],[33.16622813313442,0.575291110375132],[33.16570674958271,0.5755094192619614],[33.15892700733881,0.578348335322705],[33.15804681144212,0.579361573260537],[33.15814622291124,0.5817284440676727],[33.15817168010101,0.582312922378264],[33.15817077255112,0.5823129422795582],[33.15817086176406,0.582315066335443],[33.1564560490579,0.582355074078399],[33.15742707965892,0.583620592670646],[33.157593363240366,0.583835765306182],[33.15759266250634,0.5838363924319847],[33.157593838621196,0.583837925231487],[33.156442586798775,0.5848675022622458],[33.15650555468141,0.5854416127170876],[33.15708532586127,0.590719769505138],[33.150115804261794,0.596942811460529],[33.14986255123567,0.5971689458424457],[33.14853454916897,0.5995457190963213],[33.14751224180496,0.6013756352710926],[33.14807015626472,0.605510589999003],[33.1513336123819,0.609545958955209],[33.15170517379443,0.6110464564255915],[33.151705182115286,0.611046490009259],[33.15170518211253,0.611046490017038],[33.151705474541025,0.611047670947581],[33.14999783471675,0.6158613107462948],[33.15057874917879,0.6175398006927733],[33.15116032168047,0.619219786433461],[33.15116023129216,0.6192199308067764],[33.15116025478116,0.619219998675727],[33.14673742190412,0.6262847363089873],[33.14667775176798,0.633611939147562],[33.14547399703903,0.637653680866507],[33.143382720702014,0.6409818990478774],[33.13836448708209,0.6489683871979288],[33.1383039410241,0.652518942379613],[33.13580075962091,0.653461206026275],[33.135792546425776,0.653455352846896],[33.12727871710416,0.6493524846927422],[33.127273250617975,0.649350346872868],[33.126393242871735,0.6497360315527392],[33.12203144312198,0.651649968440407],[33.11676354293024,0.6475358459127242],[33.11660513159135,0.6474121411547492],[33.11539516370539,0.6481886646923842],[33.114701079046554,0.6514814749914097],[33.113923137130044,0.655172548149496],[33.11392300454136,0.6551727419161691],[33.11392299804417,0.655172772739555],[33.109373360442774,0.6618217245520638],[33.10904571798764,0.663740475245091],[33.10656260366958,0.667911390732722],[33.106350199615804,0.6756590434254905],[33.10750946506932,0.67729340124297],[33.11065311305832,0.678469481924582]],[[33.15958185576428,0.647782118817916],[33.162403354205054,0.64477584119436],[33.16341351764417,0.64270397593091],[33.164164458816664,0.636934784874926],[33.16836633064174,0.636966323401125],[33.17200778045371,0.639074286796808],[33.1737120007829,0.638503603166181],[33.17740110237226,0.640259524812173],[33.18099890820773,0.644203390914441],[33.18356090371735,0.643155283707168],[33.18397447657329,0.643971438640618],[33.18123227174626,0.659448137532995],[33.182339810802006,0.662240973846847],[33.181444859289925,0.662672342483482],[33.17993944850946,0.666547296903491],[33.17732844701744,0.664809871387811],[33.17478826202618,0.666029812880029],[33.171987472906146,0.663563336657543],[33.16957840848175,0.656929265342289],[33.16703009015704,0.657388001854691],[33.162821141728564,0.656725235722071],[33.1588978281707,0.65758836685335],[33.15599587398567,0.656918383423461],[33.15541645379905,0.648029338999111],[33.15958185576428,0.647782118817916]],[[33.15835539108849,0.579019400125276],[33.15835539112186,0.579019400153676],[33.158355391121034,0.579019400154624],[33.15835539108849,0.579019400125276]]]}},{"type":"Feature","properties":{"n":"Buwenge Town Council","c":"204302","d":"Jinja","od":"Jinja","dc":"204","k":"BUWENGETOWNCOUNCIL","a":["BUWENGE","BUWENGETOWNCOUNCIL"],"lat":0.65238,"lon":33.169092},"geometry":{"type":"Polygon","coordinates":[[[33.16087514120357,0.6571533569032708],[33.162821141728564,0.656725235722071],[33.164886507901294,0.6570504606028237],[33.169572950862495,0.6569302477977375],[33.16957840848175,0.656929265342289],[33.171987472433635,0.6635633353563539],[33.171992492185296,0.6635677568163443],[33.17478826202618,0.666029812880029],[33.17732844701744,0.664809871387811],[33.177328808566905,0.664810111971843],[33.17732912068036,0.664809961783396],[33.177508736910234,0.6649298407792169],[33.17993944850946,0.666547296903491],[33.181444859289925,0.662672342483482],[33.182339810802006,0.662240973846847],[33.18123227174626,0.659448137532995],[33.183900152803645,0.6443909137257903],[33.18356747253333,0.6431682467715827],[33.18356090371735,0.643155283707168],[33.18099890820773,0.644203390914441],[33.18092524959756,0.6441226473420918],[33.177255505219485,0.6401902241475121],[33.1737120007829,0.638503603166181],[33.17200778045371,0.639074286796808],[33.1716384948581,0.6388605146570578],[33.171198882895844,0.63893627657592],[33.16836696020945,0.6369666878454416],[33.16836633064174,0.636966323401125],[33.164164458816664,0.636934784874926],[33.16341351764417,0.64270397593091],[33.162403354205054,0.64477584119436],[33.161331826316264,0.6459175431597199],[33.16116897475148,0.646168940136941],[33.15960808739907,0.6477541692803389],[33.15958185576428,0.647782118817916],[33.155416533683386,0.648029334257907],[33.15541674367864,0.6480337861216855],[33.15599587398567,0.656918383423461],[33.157399765734446,0.6572425043947329],[33.16087514120357,0.6571533569032708]]]}},{"type":"Feature","properties":{"n":"Buyengo Town Council","c":"204303","d":"Jinja","od":"Jinja","dc":"204","k":"BUYENGOTOWNCOUNCIL","a":["BUYENGO","BUYENGOTOWNCOUNCIL"],"lat":0.632059,"lon":33.249994},"geometry":{"type":"Polygon","coordinates":[[[33.20920019222041,0.6826184713952268],[33.21,0.6819],[33.21058613005512,0.6819888075841088],[33.211071696511794,0.681768203442997],[33.21716881623204,0.682210065450154],[33.21944541942382,0.6833311241551249],[33.22316712253774,0.6838950185663243],[33.223295555026276,0.6838293337247512],[33.2447,0.668],[33.25030548102515,0.6665012082820458],[33.25315519539558,0.663952721204185],[33.25954325438447,0.6640312154052226],[33.25987349044693,0.663942916992801],[33.26502368955743,0.660960210765247],[33.266710973757924,0.6621147128989517],[33.2821,0.658],[33.2931232279693,0.648016699197614],[33.29342745913496,0.647674593376127],[33.29362463974517,0.6475625904194718],[33.29732783616884,0.6442087521489761],[33.295953366201296,0.6413114119235673],[33.289519680178486,0.627749444279397],[33.281232140171554,0.617550562017224],[33.27606840014088,0.6085818992318482],[33.269396096219765,0.600327056165152],[33.269396133732876,0.6003267805611069],[33.269395069349265,0.600325463675734],[33.26995891633348,0.596192081310205],[33.26915228018436,0.592433144447025],[33.2695106799471,0.590298071919147],[33.270304479852,0.589196043016348],[33.2703044936859,0.589196004152451],[33.269477049959114,0.5889810391747401],[33.235265881849884,0.580457007519033],[33.23521405704675,0.5804209438948505],[33.23521404883082,0.580420944929066],[33.234844981796,0.5807969481441192],[33.23355351106898,0.582500828756583],[33.22777746288125,0.587997319010325],[33.22775237090326,0.591719858513049],[33.22634724747377,0.591181509493],[33.22514846841639,0.592343842236939],[33.225061891904176,0.5923001160773531],[33.224424853578874,0.5919809429723609],[33.22149718840629,0.593286109256899],[33.21927334072455,0.593021497626672],[33.2143591069148,0.595581047048593],[33.21221500287945,0.5999310171279801],[33.21254804214003,0.600939389925342],[33.212547986155556,0.6009395161652261],[33.212548030418105,0.600939650202964],[33.21161528119761,0.603043092857618],[33.20988296932758,0.606374430453199],[33.20988267951656,0.6063745478360342],[33.20988231566029,0.606375247514155],[33.2094397779996,0.6065539372728396],[33.20859794898491,0.6068949052466376],[33.2085410880323,0.60987269815509],[33.20854066767587,0.6098728852138823],[33.208540653749296,0.609873614965299],[33.20655165358029,0.610759673249466],[33.20653296041047,0.6119189866913274],[33.206471011288905,0.615823528516964],[33.206469937736436,0.6158275283601842],[33.20646993266826,0.615827842678116],[33.205631537170895,0.6189512422993215],[33.20442896615042,0.623431783002476],[33.20469634527276,0.627013984482932],[33.2062115951375,0.6300634651560887],[33.206813909537736,0.6306066806050592],[33.21003370012242,0.633510331855198],[33.21160544949117,0.637355248123224],[33.212420920319325,0.6428749925675957],[33.21270946751567,0.644828040754783],[33.2127094633654,0.6448280776082274],[33.212709505147274,0.644828360420629],[33.212709361101766,0.6448289856853048],[33.21233548295912,0.648148935801087],[33.20983019107813,0.6573267255746218],[33.20982904149672,0.657331715613195],[33.20982874338114,0.6573320290120211],[33.20982864131173,0.657332402929155],[33.20296456131138,0.664855591827244],[33.2019347721819,0.670251569828033],[33.19834319657302,0.677232081389992],[33.19805718070836,0.6786893081294192],[33.19836071951681,0.6806556219299107],[33.20167115071104,0.686039090164784],[33.20920019222041,0.6826184713952268]]]}},{"type":"Feature","properties":{"n":"Jinja North Division","c":"238101","d":"Jinja City","od":"Jinja","dc":"238","k":"JINJANORTHDIVISION","a":["JINJANORTH","JINJANORTHDIVISION","NORTH","NORTHDIVISION"],"lat":0.513377,"lon":33.185874},"geometry":{"type":"Polygon","coordinates":[[[33.10354003836752,0.555622889657724],[33.103541683214786,0.555624380619955],[33.103563966641914,0.5556229665230163],[33.11421446047234,0.554647738263062],[33.114214481911375,0.554647791873595],[33.11421536462635,0.55464770847419],[33.11599343796797,0.5590962563320703],[33.11604135656368,0.559216081759512],[33.118121570088576,0.561206919904332],[33.128420385301,0.567349849663756],[33.128420447837264,0.567349854301142],[33.13787117318761,0.5673315419500875],[33.138844883989385,0.5660917560041017],[33.139156460664395,0.565694630038147],[33.13915679650231,0.565694610620477],[33.13915730937264,0.565693957603768],[33.14088550776057,0.56559465899871],[33.14120345142906,0.565576275948826],[33.14120406055169,0.5655759994327468],[33.14546512174218,0.563196614579732],[33.146750126175284,0.5630583187138105],[33.14720262417911,0.562852903636366],[33.16034506361301,0.561594960240718],[33.16166423223799,0.562445369175848],[33.16203886870729,0.563252447536781],[33.16261121244554,0.563812214219416],[33.16303208008996,0.56539212020738],[33.16421758774456,0.56794605623106],[33.1649531459942,0.57259533407083],[33.16622812699063,0.575291100239821],[33.16622648378805,0.5752917883064225],[33.16622648878844,0.5752917988804357],[33.16622813313442,0.575291110375132],[33.166831597408866,0.576567932612968],[33.17174472552376,0.5773312161698176],[33.17253870250578,0.577454503796501],[33.180075090622125,0.573373975734104],[33.19135098628717,0.575354950256953],[33.19985524181834,0.577994354663569],[33.202030886886746,0.5667795843550844],[33.202055609165186,0.566651962610308],[33.20205565997019,0.5666518868529922],[33.20205579305916,0.566651200820979],[33.20359732259057,0.564353029701001],[33.21702379169064,0.554371576892509],[33.2173683417137,0.555940750044111],[33.21966052486911,0.551333394825867],[33.22529362900338,0.55180671068739],[33.225337468541454,0.551810387634514],[33.22533750495013,0.5518103973193146],[33.2253376236295,0.551810407291228],[33.22646963172489,0.5521115459039668],[33.23324539806318,0.5539139168823803],[33.23339020845142,0.5535896184330613],[33.234904924849324,0.5479102044655867],[33.2349049414803,0.547910124001022],[33.23438165876658,0.54396549135521],[33.23545219619212,0.54277506919819],[33.23517867730944,0.541868204025335],[33.234010362888775,0.537995856922362],[33.23586571087172,0.536127630626458],[33.236746520752256,0.532987040848283],[33.23727022448737,0.520530614364182],[33.23863841535188,0.518400998677323],[33.23863957949901,0.5184007500367455],[33.23863991146372,0.518400233661607],[33.24007783804299,0.5180935642634564],[33.242079741371874,0.517665994251999],[33.24193633407716,0.517023509921062],[33.24193885132053,0.517022060361346],[33.24193881407449,0.517021895031887],[33.242841604818324,0.5165022079233442],[33.24498336124037,0.5152688731311494],[33.24539526823902,0.5121119572327413],[33.24569411607687,0.509818498951452],[33.24569459931992,0.5098178397468086],[33.245694620012095,0.50981768115894],[33.2478203669104,0.506917844117534],[33.247820521597525,0.5069178128739055],[33.247821174077174,0.506916922809134],[33.249388435559034,0.506599648585209],[33.252251324488284,0.502714589339432],[33.253550804231786,0.49881723029612],[33.252747852620026,0.495161786877798],[33.259455061241646,0.484626750487689],[33.26253746704875,0.4742692419285303],[33.263036988678806,0.4660173017569238],[33.26155122165018,0.465433052231748],[33.259794816284135,0.460813989756709],[33.25824757844335,0.45064359204704657],[33.25809361910433,0.449631652167928],[33.236918192974294,0.457127576939644],[33.22838825626324,0.462731449340885],[33.225733228145316,0.460464681328826],[33.220604997359594,0.46744920645536],[33.20948254617914,0.465631343004044],[33.206049933675,0.462020188926772],[33.205033152638414,0.462076007454069],[33.202864424359184,0.460059820173367],[33.20241560973406,0.458505627644867],[33.20058468320848,0.458093953945102],[33.19649487233235,0.459257437728576],[33.19647146083395,0.460799497267121],[33.19526850547765,0.461286500652638],[33.18482217308905,0.464299538316391],[33.17370617136382,0.461428018211267],[33.16894311127724,0.467049461109178],[33.164612032625655,0.473950424440627],[33.16037700605739,0.477804685707868],[33.15906850970955,0.480316523618196],[33.156902975408286,0.481659442295893],[33.151335300302854,0.489320914826339],[33.149887793231876,0.4900312316958812],[33.138350981797345,0.5021005113504768],[33.13843812338153,0.502313628548508],[33.13710583117863,0.504407063747265],[33.13120477593532,0.509784648341751],[33.12730261446015,0.512116426922924],[33.125732758585684,0.514638199223027],[33.1209255225058,0.516923053633449],[33.119687654280284,0.519398175033618],[33.11597718728499,0.522918307867697],[33.11373955165747,0.523204832602944],[33.11316719595247,0.524252281664627],[33.10999596165588,0.5255207918022228],[33.1069515139853,0.528009598833307],[33.10593454721157,0.530153245417814],[33.09247568606101,0.544252124019143],[33.09546403763939,0.5468182682784843],[33.09904021452209,0.549889168847347],[33.09904024369775,0.5498892123779963],[33.09904029213362,0.54988925397064],[33.10354003836752,0.555622889657724]]]}},{"type":"Feature","properties":{"n":"Jinja South Division","c":"238201","d":"Jinja City","od":"Jinja","dc":"238","k":"JINJASOUTHDIVISION","a":["JINJASOUTH","JINJASOUTHDIVISION","SOUTH","SOUTHDIVISION"],"lat":0.426178,"lon":33.238344},"geometry":{"type":"Polygon","coordinates":[[[33.193163462307844,0.46189365865972654],[33.19526850547566,0.46128650065321236],[33.195268505706885,0.4612865005598356],[33.19647146083395,0.460799497267121],[33.19649487233235,0.459257437728576],[33.20058468320848,0.458093953945102],[33.200669658697045,0.45811306021358306],[33.20241443998418,0.458504915344418],[33.20241457892268,0.4585053958726302],[33.20241560973406,0.458505627644867],[33.20286441596787,0.4600597911152316],[33.202895059515654,0.46008830055673794],[33.205033152638414,0.462076007454069],[33.206049933675,0.462020188926772],[33.209482429413974,0.46563122016553854],[33.22060523691716,0.4674488801838048],[33.225733228145316,0.460464681328826],[33.228388255157206,0.4627314483965952],[33.228497050922236,0.4626599750254671],[33.236918192974294,0.457127576939644],[33.25661587773376,0.45015476032536617],[33.25809297733915,0.449631860472558],[33.258093034710775,0.4496318590383873],[33.25809361910433,0.449631652167928],[33.25809364824475,0.44963184370131964],[33.258093659608505,0.44963184341724954],[33.25809363025544,0.44963165047189],[33.28032533984741,0.4490760978556195],[33.28162875901534,0.4490435150994024],[33.281968014448765,0.41332476446565874],[33.28217726718705,0.38890895342633114],[33.28197786684606,0.388987488197501],[33.27255810150353,0.394551621158515],[33.246373672807486,0.403047652729613],[33.24453515519177,0.403237676299088],[33.2056,0.4082],[33.19633647429557,0.4145332267571078],[33.19579036014416,0.41602875944067],[33.19576167966591,0.422239724186737],[33.19392098179676,0.430116089383741],[33.191606078181465,0.433100605550442],[33.19194529424658,0.435863746125089],[33.18848392155025,0.43946747338741],[33.187002324175126,0.444821556702168],[33.18495091733515,0.4456540872997948],[33.18383602363038,0.44780352200989637],[33.182933928767525,0.451964201901152],[33.17560562802395,0.457817148313554],[33.173706178561964,0.461428008464004],[33.17584208781985,0.46197977478687474],[33.184822135710725,0.4642995286607043],[33.193163462307844,0.46189365865972654]]]}}]}
