{"type":"FeatureCollection","name":"Kabarole sub-counties","metadata":{"source":"Uganda Bureau of Statistics NPHC 2024 Map Explorer","retrieved":"2026-07-26","display_only":true,"clipped_to_dashboard_district":true,"positive_area_overlaps_removed":true,"source_gap_ratio":0.04861603},"features":[{"type":"Feature","properties":{"n":"Busoro","c":"405101","d":"Kabarole","od":"Kabarole","dc":"405","k":"BUSORO","a":["BUSORO"],"lat":0.647299,"lon":30.359996},"geometry":{"type":"MultiPolygon","coordinates":[[[[30.308005477696202,0.660776490027617],[30.3104083663362,0.6608043309978],[30.309820472808987,0.664564946432915],[30.308766903826076,0.666027974077055],[30.311846066822426,0.667458607890278],[30.317471315043747,0.665441438652707],[30.31993761570098,0.665887584886629],[30.323314380080134,0.668293528314576],[30.324977326378566,0.671033744255339],[30.3277232333715,0.671186165671696],[30.330355719894914,0.675447680144188],[30.33219983306632,0.680420917506768],[30.335129675093096,0.680560508321779],[30.338199746894713,0.682075476547903],[30.339639004772682,0.682974704038174],[30.344857197600316,0.68731247561381],[30.34654208192564,0.688360492188671],[30.345906238521497,0.695704270070547],[30.344710525213124,0.699441490442935],[30.345248830531446,0.700762467227246],[30.35241065261413,0.693111704632922],[30.355094910332415,0.688784318969558],[30.36194768520486,0.685173031743083],[30.362686095912558,0.683835420961833],[30.368443227442935,0.682700281648932],[30.37352686600155,0.684185231919153],[30.377981139310563,0.682642371051442],[30.38585434810026,0.683351521170906],[30.395248788347164,0.678611797872551],[30.40749338677776,0.675427999713375],[30.40616323390564,0.673040444770127],[30.40593816178218,0.668277884777665],[30.40989664250548,0.6641862057785307],[30.405223197703968,0.6597305910313275],[30.4045066958432,0.659654547739138],[30.404329152733744,0.6588782176486971],[30.40098906561575,0.6556938125573888],[30.400000476295318,0.655250889316851],[30.397345910921715,0.652448237574329],[30.39722395586007,0.6521041952055749],[30.3968,0.6517],[30.396828666862817,0.6509890618021543],[30.39664046846543,0.650458143105071],[30.396866599719694,0.6500483269516124],[30.397197022423747,0.6418538438910707],[30.397008922029922,0.641149740656184],[30.39724376402242,0.6406946522439774],[30.3973,0.6393],[30.40505080528355,0.6327143484518859],[30.405013726035193,0.632649489962423],[30.40477728276671,0.628970348676843],[30.407618090737706,0.628231510284662],[30.40862791366143,0.626975790643448],[30.41106926422401,0.627211942761583],[30.41259219910469,0.626299863969143],[30.412708857237398,0.622712183684899],[30.412805203453928,0.6226063378293377],[30.4134,0.6119],[30.41378112033536,0.6116750765233926],[30.41395932085243,0.610682878300407],[30.412919330730222,0.611277960615328],[30.40719688188529,0.609721444443146],[30.404167692934628,0.611048240666188],[30.399965075653533,0.608805307759571],[30.397636609734302,0.606146782316703],[30.390452731367276,0.601905479418495],[30.38921683355293,0.599346279639569],[30.3871389460177,0.598116555917157],[30.38794601191751,0.595676192341883],[30.387138487462312,0.593768817923012],[30.385048403475626,0.592141002877613],[30.383456976145247,0.593785049732093],[30.378985450425134,0.594768106857411],[30.377875612746863,0.596511458452304],[30.375476360531334,0.598083288930949],[30.372650744470803,0.602861372772449],[30.37161660394555,0.603377548711264],[30.371117989583542,0.605979714758958],[30.36898012093638,0.60736190502078],[30.368682471382023,0.609838619049556],[30.363029642814404,0.614616510019336],[30.3577690546148,0.61732487750013],[30.355631596614423,0.617251577534473],[30.348095157358255,0.614489341492713],[30.34061785562479,0.609724732252031],[30.336738889962454,0.60937936498974],[30.330892269586098,0.61084954533984],[30.32859718060044,0.613966400922401],[30.323818249232264,0.618096677455779],[30.32063123557005,0.623022170402704],[30.31995213336242,0.633883854677788],[30.321415651250437,0.635141626559193],[30.32230019590131,0.637892157531295],[30.32381957032565,0.639578987193237],[30.32526544181302,0.644436201681726],[30.323400717132962,0.645055337439037],[30.323919620627894,0.64574619496901],[30.322111047041354,0.648850817294084],[30.313240315676943,0.649927304896499],[30.31050155084061,0.651422475780886],[30.308276158665922,0.651072413429504],[30.30651010621137,0.651999794903979],[30.307794266759227,0.65581428421542],[30.308005477696202,0.660776490027617]]],[[[30.340803744005814,0.683946547955734],[30.340803744697098,0.683946547095502],[30.340803743986356,0.683946547939745],[30.340803744005814,0.683946547955734]]]]}},{"type":"Feature","properties":{"n":"Hakibale","c":"405102","d":"Kabarole","od":"Kabarole","dc":"405","k":"HAKIBALE","a":["HAKIBALE"],"lat":0.730578,"lon":30.363762},"geometry":{"type":"Polygon","coordinates":[[[30.33151785959243,0.729357391748738],[30.332325993239866,0.731338105938909],[30.33167230736695,0.735458549562665],[30.33340555044386,0.738378751418664],[30.333203460982332,0.74149650612189],[30.338783745122974,0.743651413543809],[30.34083877215703,0.746625430857451],[30.34252461831293,0.746816349073451],[30.344101646159416,0.748950076981559],[30.345424383168005,0.749070823185408],[30.34625070805979,0.750009823809438],[30.346547572336235,0.75393782770303],[30.350186540939188,0.755850461457612],[30.34972617095883,0.758997674095442],[30.350931084607613,0.763519272205761],[30.34787998689193,0.764523009335268],[30.34690034468131,0.765604496962015],[30.349200343276912,0.771229026116199],[30.35214415080501,0.774942349416215],[30.353407524766865,0.77807953958454],[30.353791466848488,0.78174117165495],[30.35315662723649,0.785586780173114],[30.355183868631585,0.787015999094084],[30.35354944669958,0.79335763644683],[30.35501599077523,0.794059304627503],[30.35751042848256,0.792990917795558],[30.359145573431526,0.793622960443607],[30.362035196948067,0.793240694607567],[30.371617366617972,0.790462306831982],[30.375583275514433,0.791301274664082],[30.375085943422693,0.788076724645617],[30.377659826884656,0.78434838055977],[30.376529116627747,0.782841740896861],[30.37881373520153,0.780928793130324],[30.37948740265875,0.778069608399882],[30.383079553979176,0.773395934838473],[30.386055503884165,0.773223104233957],[30.387323239462592,0.771948517790676],[30.38640724716508,0.769381885671891],[30.387615418731457,0.765011405336922],[30.386407162022742,0.763096228285593],[30.386302845341266,0.760805880174749],[30.382232781087485,0.758855915484876],[30.37995308515052,0.758795085593286],[30.38186772361283,0.754442545064054],[30.381213026199895,0.751499003577769],[30.38390604740096,0.746369550753873],[30.38211826835054,0.744942705360915],[30.38356370935721,0.739415982240815],[30.387293015524484,0.739663124992992],[30.389109567312175,0.739016439856992],[30.389547362920894,0.735944609638448],[30.39230796410291,0.735714568951885],[30.393811781252197,0.734001360648961],[30.393945029005586,0.732802115769099],[30.39281669942957,0.731383261897923],[30.39465173703334,0.731179305813256],[30.39910593453962,0.728051756930275],[30.40133451816284,0.728536559004615],[30.402695174161863,0.730894156465831],[30.404134432776143,0.731706612339706],[30.409107058550322,0.729506661011696],[30.41122750093148,0.730260865896706],[30.410950203542633,0.731336555767157],[30.41636300609203,0.731018072221635],[30.42484822434123,0.723639129230802],[30.43401133009584,0.719491482416107],[30.434637368971956,0.7187622165097957],[30.435106635479162,0.7157077181537996],[30.431789027246694,0.7056737307020121],[30.4204,0.6742],[30.420203532146697,0.674012689546639],[30.414447434672663,0.670081220826998],[30.41181888335176,0.670107182546542],[30.41127232313545,0.666997548810586],[30.408469968217513,0.66721294265378],[30.40757027076736,0.6665908572219573],[30.40605407446589,0.6681580717668626],[30.405967506368878,0.6688988206468074],[30.406163014149918,0.6730357947060055],[30.406163341156965,0.6730406372806536],[30.40749338677776,0.675427999713375],[30.395248788347164,0.678611797872551],[30.390610359210203,0.6809519980409934],[30.385854575000987,0.683351428377118],[30.3858545385337,0.6833514250926097],[30.38585434810026,0.683351521170906],[30.377981139310563,0.682642371051442],[30.37352686600155,0.684185231919153],[30.373525537179745,0.6841848437652197],[30.373525207308045,0.68418495798516],[30.371195983527585,0.6835043722318134],[30.368443432561858,0.6827003415649542],[30.363486940548203,0.6836775176336476],[30.362686095912558,0.683835420961833],[30.36194768520486,0.685173031743083],[30.36194733630475,0.6851732156070703],[30.361947317988598,0.685173248848448],[30.361946757316236,0.6851735207234455],[30.35523745413165,0.6887092009902039],[30.355012391798315,0.6889173499818174],[30.35241065261413,0.693111704632922],[30.345248830531446,0.700762467227246],[30.345172807386426,0.7005759098847423],[30.34015608898067,0.707816082023876],[30.338150823826517,0.707736966275864],[30.33492642185772,0.713237483476539],[30.33391566794807,0.718399748194624],[30.33179739416943,0.719840588345975],[30.329464728766922,0.724012375944106],[30.329523770551724,0.728236323747172],[30.33151785959243,0.729357391748738]]]}},{"type":"Feature","properties":{"n":"Harugongo","c":"405103","d":"Kabarole","od":"Kabarole","dc":"405","k":"HARUGONGO","a":["HARUGONGO"],"lat":0.742574,"lon":30.294692},"geometry":{"type":"MultiPolygon","coordinates":[[[[30.269833015174186,0.7611184678630601],[30.27472069111281,0.7638525115912289],[30.295862848716304,0.773519326511902],[30.301935764900314,0.779059249742365],[30.30143594426566,0.7795894235698854],[30.300795920257674,0.7806256529161448],[30.300103167829057,0.784590695937928],[30.297911239699232,0.7852960881060043],[30.29723201655625,0.7863957827184471],[30.29646416543465,0.789072691040817],[30.295096334612136,0.7898535534851091],[30.29343586474656,0.79254193326747],[30.29344091742511,0.7929212017871272],[30.29381907230992,0.7958897176328775],[30.29611487085737,0.798807366583795],[30.296312273891164,0.80120513387329],[30.29533647563788,0.802922023726794],[30.352975278082035,0.794052138316626],[30.353550346869483,0.7933541437434168],[30.355183868631585,0.787015999094084],[30.353752586817105,0.7860069357159173],[30.353160181909818,0.785589748725162],[30.353160249908917,0.7855893341817243],[30.35315662723649,0.785586780173114],[30.353791466848488,0.78174117165495],[30.353407524766865,0.77807953958454],[30.35214415080501,0.774942349416215],[30.349200343276912,0.771229026116199],[30.34748981532434,0.7670460173279845],[30.34690088260603,0.765605823526033],[30.346900885730136,0.7656058200693034],[30.34690034468131,0.765604496962015],[30.347666752526827,0.7647584119393575],[30.347878668590557,0.764523933311941],[30.347879354001197,0.7645237080224901],[30.34787998689193,0.764523009335268],[30.350931084607613,0.763519272205761],[30.34972617095883,0.758997674095442],[30.349726247384684,0.7589971516278253],[30.349726168959954,0.758996857620523],[30.34984496985182,0.7581855330060421],[30.350186540939188,0.755850461457612],[30.346547572336235,0.75393782770303],[30.34625070805979,0.750009823809438],[30.345424383168005,0.749070823185408],[30.344101646159416,0.748950076981559],[30.34410074168147,0.7489488532176033],[30.344100418016243,0.748948823455626],[30.343608199757522,0.748282441111195],[30.34252461831293,0.746816349073451],[30.34083877215703,0.746625430857451],[30.338783745122974,0.743651413543809],[30.333203460982332,0.74149650612189],[30.333203483761107,0.7414961547001461],[30.33320322267871,0.741496053908025],[30.33331408817935,0.7397897943458356],[30.33340555044386,0.738378751418664],[30.332004059676485,0.7360174923462518],[30.33167256510583,0.735459084617858],[30.331672577720965,0.735459005060398],[30.33167230736695,0.735458549562665],[30.332325993239866,0.731338105938909],[30.33151798836075,0.7293577073564828],[30.3295247444465,0.728236935703527],[30.329524698066187,0.7282368451916827],[30.329523770551724,0.728236323747172],[30.329523752034547,0.7282349989973885],[30.327171132295835,0.72364382788208],[30.31889469673259,0.717918311697172],[30.311745993658853,0.715356504345218],[30.304893829428504,0.715506073023927],[30.300498819826068,0.718864795715962],[30.295658429460666,0.714637188846508],[30.29509262395621,0.709996973917597],[30.295667588896784,0.706291670077435],[30.29433054416571,0.701367471719645],[30.296786791369513,0.697751170374506],[30.295092982900783,0.695931337670521],[30.2938430315904,0.692896751393217],[30.296383882073314,0.690138721311237],[30.29673078339186,0.687665643200054],[30.29607915317662,0.685926246909185],[30.29407022095846,0.684119934147635],[30.29356854081478,0.682531459877227],[30.29339421250543,0.680272671211096],[30.289836955116833,0.681982742413772],[30.288825867266898,0.681222484056232],[30.28560563126964,0.681117351809721],[30.28509504409008,0.683231323513458],[30.2826720933283,0.683447300503856],[30.278420726699366,0.68537874764822],[30.276529948737526,0.691257425882599],[30.273384611955123,0.694530363657582],[30.273693246616972,0.696699104988608],[30.271437247290574,0.698920536699035],[30.267088992003913,0.699075212059354],[30.26211387771101,0.705310330344895],[30.262624063486964,0.706809200348235],[30.26176060741132,0.715762417544158],[30.263997122541404,0.71952967016954],[30.26393059365744,0.725437606980186],[30.26606698940086,0.727443697936959],[30.257463117452247,0.729768080598662],[30.255274525146042,0.728588329384515],[30.251015183671342,0.729388074651963],[30.2502438484465,0.731672433069655],[30.24771011428918,0.734787065564908],[30.24773100164143,0.7373379967171403],[30.2481,0.7366],[30.25941542994966,0.749375485427033],[30.259893345493587,0.748882993735191],[30.269833015174186,0.7611184678630601]]],[[[30.29376835124272,0.683110896864489],[30.293768345532783,0.683110898848952],[30.293768351242722,0.683110896864498],[30.29376835124272,0.683110896864489]]]]}},{"type":"Feature","properties":{"n":"Kabende","c":"405104","d":"Kabarole","od":"Kabarole","dc":"405","k":"KABENDE","a":["KABENDE"],"lat":0.888104,"lon":30.463393},"geometry":{"type":"Polygon","coordinates":[[[30.41374842138688,0.844144348448665],[30.414346769214575,0.845735758051978],[30.423398973465545,0.855624448084407],[30.420688654820275,0.857177762304186],[30.418150842139102,0.864537925252037],[30.422487978278557,0.867374176933691],[30.425749748018234,0.879247106515686],[30.42632384044406,0.879228837205195],[30.429790176941093,0.89360883654951],[30.480464744923847,0.89772391056436],[30.511955855598742,0.915709039739708],[30.55047714510909,0.9558798464239234],[30.56107415146025,0.9408209426617474],[30.546712744502976,0.927064369936953],[30.546158005311867,0.9265534259451402],[30.5378015512543,0.928333515869259],[30.5309150839526,0.927524248307359],[30.530653291207685,0.9269950868202665],[30.5305,0.927],[30.527857075099586,0.9232399625128151],[30.524763347127447,0.921003280702943],[30.520206738911376,0.9123559790697933],[30.51719294115174,0.908068308030312],[30.515586026037642,0.906913826361778],[30.511019325439836,0.89964370635821],[30.51067752455388,0.8994728405941586],[30.505970987791088,0.9002843124498119],[30.50590935471058,0.900362499556901],[30.504873619836882,0.900433996786078],[30.50432147722309,0.8986754747100016],[30.495199459936234,0.8825990482044539],[30.494705268283763,0.881853176459828],[30.494597941056703,0.8815389456246892],[30.487977574107706,0.8698713682294247],[30.48727899220045,0.869186508048836],[30.48734953381488,0.8687645249410757],[30.4851,0.8648],[30.484814095386323,0.8637329631382406],[30.483301888333216,0.861210621178007],[30.48164185849019,0.855243288083171],[30.481889687424935,0.8528186548537812],[30.479998159393837,0.8457592020234269],[30.478978767154786,0.84440417827969],[30.47958055649842,0.8442006483601635],[30.4795,0.8439],[30.484910795708593,0.8410913426856153],[30.46535754500555,0.835747606296355],[30.455221107854626,0.835509104659569],[30.446696033480574,0.837280772758917],[30.443742014406098,0.834380876384296],[30.441518198265012,0.8293548125524],[30.438199278252707,0.826009533949388],[30.435263824351022,0.823186151501044],[30.43165972651009,0.822961758113315],[30.430598272466202,0.821764770096814],[30.429792799381925,0.824155787506703],[30.42658164492858,0.825502255705009],[30.42417534244073,0.827786925116769],[30.424298847871164,0.833963808116724],[30.422928320998,0.836419288178118],[30.416560386368705,0.837940959080042],[30.413481270480727,0.837281409745504],[30.414644880880726,0.842718579921314],[30.41374842138688,0.844144348448665]]]}},{"type":"Feature","properties":{"n":"Karangura","c":"405106","d":"Kabarole","od":"Kabarole","dc":"405","k":"KARANGURA","a":["KARANGURA"],"lat":0.667076,"lon":30.157849},"geometry":{"type":"Polygon","coordinates":[[[30.136132910235848,0.62559342823609],[30.139154079104756,0.632179030625123],[30.14195872277445,0.64791783550557],[30.14143329883865,0.650039198973208],[30.142247672436504,0.651435098372567],[30.141622968320167,0.651959621115934],[30.14262986699887,0.653524165575423],[30.142030100626855,0.654840327425877],[30.142634156360838,0.656150980773374],[30.140802919981237,0.658975654412355],[30.144773971507966,0.671154194197876],[30.154873903657258,0.674545243129257],[30.155676423066875,0.675718047959557],[30.153566181260956,0.676507276644334],[30.153881673488897,0.677887243829652],[30.155822582539106,0.681622697976013],[30.158117700428477,0.683580735537458],[30.158468807660835,0.687492485201947],[30.160056366222143,0.690872142429758],[30.159702157085775,0.692827964559566],[30.16252536808732,0.697808560719218],[30.16386295490788,0.703649787301323],[30.16635772624989,0.703252322388339],[30.167019728365737,0.703861020664073],[30.17033319215537,0.714515500194556],[30.17475502807816,0.719547887535666],[30.17467264253013,0.720823659560858],[30.172545980701162,0.722331248300324],[30.17280325956532,0.72423707159133],[30.17109832556222,0.727597616479764],[30.171107026057342,0.7285221281571359],[30.177878803427642,0.7244048875159939],[30.18033891792348,0.722322028156596],[30.183777127699898,0.7208187063584621],[30.186108080042157,0.7194014873343674],[30.185814471507392,0.718163168206849],[30.18730529196092,0.714304043872686],[30.189029229485566,0.713361640046335],[30.189061554236748,0.711804275531407],[30.18754683515513,0.711091674105078],[30.186374163153435,0.706763745562465],[30.18709814764584,0.703292245633176],[30.18307022452983,0.697856124746293],[30.183483483379188,0.691039163514026],[30.182133253111513,0.689485499947706],[30.18242355987386,0.687430669081153],[30.17909473391631,0.6854259227439],[30.177705443846914,0.68241391184078],[30.177435734316436,0.679015943825155],[30.17652855104999,0.678382886406076],[30.176086578245943,0.675846502398125],[30.173382399964066,0.670975330764015],[30.171124034043604,0.663175855812538],[30.1704030157282,0.653444423372407],[30.16689241181732,0.650664914088258],[30.16559236064131,0.646166868382613],[30.163200979543618,0.643156737436532],[30.161391939396484,0.637325418777967],[30.1618972193982,0.636106033900439],[30.159681831930808,0.632402238888408],[30.15760543418365,0.631442286840493],[30.156467933251,0.628859825019839],[30.155126857809464,0.629178658788932],[30.15553503306281,0.628275600963328],[30.154696391980494,0.627330451346712],[30.155677708325815,0.627164843455569],[30.153274899517328,0.624005506018567],[30.153631650685053,0.621963278814109],[30.15264863789361,0.620203370732504],[30.149874087896034,0.618033402363802],[30.152596508383766,0.617678794998888],[30.151761896398664,0.614539922550532],[30.156071720498417,0.610556305590031],[30.155858419295587,0.608793768695496],[30.149729508833364,0.610959457638764],[30.14910450818318,0.611947596740127],[30.145416469407884,0.613529540485222],[30.1452336383325,0.614378566206556],[30.142294479636124,0.614255320009988],[30.141560311205524,0.615685934503234],[30.139231717773118,0.616117551501492],[30.137172086788404,0.617559036016719],[30.13458349134227,0.617797339661378],[30.136870740772668,0.621176472273951],[30.136132910235848,0.62559342823609]]]}},{"type":"Feature","properties":{"n":"Kasenda","c":"405107","d":"Kabarole","od":"Kabarole","dc":"405","k":"KASENDA","a":["KASENDA"],"lat":0.388016,"lon":30.339687},"geometry":{"type":"Polygon","coordinates":[[[30.267278807558334,0.420481362360246],[30.268516072875023,0.420698169599012],[30.267820165386475,0.421707169494511],[30.271247377637348,0.423082395835419],[30.27369127474391,0.426919580267047],[30.273192719936603,0.430057647245379],[30.274964659376717,0.431958540504034],[30.275748252162483,0.436211704536736],[30.278322597841736,0.437474625970788],[30.278976666232733,0.439272033043074],[30.280938130990062,0.439999512982921],[30.282844221558843,0.44592678394722],[30.285147063855447,0.447547044847976],[30.28908252058433,0.453405564859766],[30.29765348408418,0.45541204052563],[30.29939691552071,0.457154994488453],[30.30212005657261,0.46253324442067],[30.31089225286292,0.471068741982389],[30.31100954945796,0.47213123898641],[30.309156624167866,0.474067091232538],[30.307341436627457,0.478718072404303],[30.30434348774906,0.480856042493675],[30.304355773570734,0.48369640647804],[30.300620451734996,0.496557711200087],[30.301245053300438,0.501825700210946],[30.30259510877869,0.503249247212074],[30.30426676589262,0.502426878329559],[30.305870708088534,0.503008617882394],[30.30751085852007,0.508468180796609],[30.30963630985039,0.509621366844474],[30.313125926712114,0.507043735766952],[30.315145865073426,0.504419666806742],[30.316122277285423,0.501486818202845],[30.319540862776705,0.500013221714582],[30.32308842537164,0.496982974401191],[30.32559776598384,0.497405466222978],[30.325693256280665,0.49926867216502],[30.3288180749221,0.501730022845939],[30.33095661224929,0.498901442387642],[30.33090638210054,0.496887166315878],[30.34511663593657,0.496611406731928],[30.35704252781838,0.491377041196387],[30.361540738425035,0.493171005525284],[30.366132728631065,0.493644578496435],[30.37034239050155,0.490856356305937],[30.369828212532006,0.48851170534592],[30.37151908296605,0.4855636220771603],[30.370994946966107,0.48299960542878684],[30.370172696423136,0.481378026578965],[30.370267651248962,0.479588364118441],[30.3703139996532,0.47957830053754],[30.374673882543643,0.47282048205735056],[30.374618950802073,0.472597128236882],[30.375279224620694,0.47188220183792134],[30.378142900527124,0.4674435041829555],[30.37825207196454,0.467165226070624],[30.376448941337806,0.465191433425041],[30.378382216701144,0.46290417736524025],[30.378518761651044,0.4557697037329352],[30.377183368835244,0.455284471805197],[30.378644104657937,0.4492205316226312],[30.37868276012632,0.4472007833995961],[30.37863433673701,0.44628052417596],[30.367756021054948,0.435284374432094],[30.36678122432409,0.433370142278992],[30.367149618952258,0.431232259272017],[30.36696224242993,0.4308616686147398],[30.3584,0.4196],[30.358496782943632,0.41945211566213175],[30.358405443127182,0.419371977098614],[30.361181778942864,0.41381429028582],[30.36287983044312,0.41275481908291206],[30.366084616110427,0.40785790658326443],[30.365841700860837,0.404822016803803],[30.368787526243853,0.401072431374908],[30.37083413147834,0.40060064710109566],[30.3709,0.4005],[30.3852,0.3922],[30.387510789892154,0.3857914093657578],[30.387600106772513,0.383477564273353],[30.39233776013167,0.3724046119015031],[30.3927,0.3714],[30.387146796876184,0.36569671030526857],[30.38576606426482,0.364800320268065],[30.385504425499597,0.3640099505130988],[30.378236538769194,0.35654563441160253],[30.377948018224874,0.356306617909717],[30.377943680386284,0.3562448609372661],[30.3779,0.3562],[30.377935973450604,0.3561351387784543],[30.377796265921763,0.354146149600014],[30.379519977530304,0.3532791314226329],[30.3845,0.3443],[30.381743239116545,0.3346307640655],[30.380719580856553,0.334386162657256],[30.378793577978637,0.335016457687292],[30.37837557350672,0.334328829870162],[30.3795252231724,0.330378222595793],[30.378075441317904,0.32815750331387],[30.37889951620701,0.326510657540725],[30.378053312239246,0.324803381873114],[30.378694367034267,0.32393695900078856],[30.3778,0.3208],[30.377708155952416,0.32064621461799997],[30.37755539261453,0.320633444209352],[30.376763758001097,0.31906489711811487],[30.372536087304447,0.3119860066493061],[30.369400455533412,0.310044007347631],[30.369010183428383,0.308211441737867],[30.36934861732366,0.30664884761170724],[30.3692,0.3064],[30.36943065369516,0.30627007481728274],[30.369521408630714,0.305851047257703],[30.372127297677174,0.303859665730118],[30.37232004127557,0.302351258033735],[30.374696810897113,0.300116796170412],[30.37777185799117,0.30157154834674543],[30.380160707887242,0.30022593036731327],[30.381531766221734,0.298219069427542],[30.382285833633066,0.2990288658649197],[30.38497368759205,0.29751482154625053],[30.384965552829836,0.29747049628344],[30.385002038470756,0.2973914514322561],[30.38539518562566,0.27645636543363367],[30.38474942641041,0.2763743805497876],[30.38419299510776,0.27652352708451766],[30.3827665494075,0.277812702386756],[30.37720665248002,0.278697049264363],[30.37310832741558,0.280819831841567],[30.37004601667045,0.28031550068627104],[30.366011158971073,0.2813970089355885],[30.365991332191133,0.281405818357467],[30.365945404499065,0.2813830002033021],[30.354680735668868,0.2778754386513847],[30.353919297541825,0.277769854507214],[30.34938807907585,0.2762274258200258],[30.3493,0.2762],[30.349127518534125,0.27619683520246097],[30.34138714271456,0.280695236838204],[30.337052120333695,0.2759752682630036],[30.328326387365667,0.2758151630709297],[30.32807686071588,0.275974448301268],[30.327675022926776,0.2758032114298491],[30.3166,0.2756],[30.315026438016634,0.2749649301412419],[30.31416597969555,0.274724291531432],[30.31262312966812,0.275871948726881],[30.31157579795443,0.274316906557933],[30.30922338927875,0.273232004738719],[30.306822936244917,0.273736419228896],[30.306142856714754,0.27137962827052825],[30.294430085468974,0.26665250086191844],[30.294306041625592,0.26663405279879715],[30.297570823317084,0.28503554960537836],[30.29761649399432,0.285213910449148],[30.297576454390228,0.2853470164902729],[30.293527008493644,0.31063136160066057],[30.29354533610901,0.310791592636575],[30.292202680139155,0.314246133982523],[30.29091985442668,0.3143506590458576],[30.29056160480979,0.3148436631057958],[30.288994968913176,0.318759907730803],[30.286560302057314,0.320801190224631],[30.28627678072201,0.321946840452443],[30.285631486090285,0.3216282301509842],[30.284872978721495,0.3226720476309679],[30.284872912898543,0.323022828615553],[30.282655379860525,0.3257237891827625],[30.2826293222183,0.3257596483234403],[30.284505761415684,0.331876681441223],[30.282831016681246,0.332555979313367],[30.282751445052845,0.33271599074664976],[30.282894228221828,0.3392364221300677],[30.28322058015472,0.339773299415143],[30.2828066312453,0.34018370023602873],[30.279843899162117,0.36187854484516],[30.281085503127063,0.363256391709933],[30.28068689329845,0.3639797791191878],[30.28436282888317,0.3713564876912262],[30.285898279152363,0.373491897844693],[30.285657727740404,0.37395503472229336],[30.28980791306925,0.3822834471727544],[30.290068394132525,0.382137684530524],[30.292128268206636,0.383565681933791],[30.292298056318206,0.38570274598373],[30.293510853149563,0.385930004434949],[30.292549934885596,0.38778601797987916],[30.29282275864597,0.38833350890441276],[30.29414412260524,0.388245876995509],[30.29493927621177,0.392644018543676],[30.29436657306342,0.39389190985878725],[30.294292727392023,0.3945220595880557],[30.29523973260703,0.397260335482278],[30.294190667048344,0.398604121645555],[30.294689756826934,0.401034240219816],[30.293355516706775,0.4025195907688313],[30.293350228676584,0.40256471529314436],[30.293562085098593,0.404274976796985],[30.291988442091895,0.40613300210289],[30.290965146166865,0.4058109953621421],[30.283452383161812,0.4097206985586488],[30.283440466315728,0.40973902655412],[30.283422711238764,0.4097361400696234],[30.2833,0.4098],[30.280166414526942,0.4093709972269026],[30.27827664136718,0.409818311092351],[30.277969680311568,0.40907025385217866],[30.27382468292674,0.40850278397211304],[30.27366817329808,0.4098032326822],[30.272643778467394,0.410440317072055],[30.271033837749822,0.410124315981929],[30.26789383679205,0.413976449944269],[30.266816802625225,0.418260160173982],[30.26768339302946,0.419111637831886],[30.267278807558334,0.420481362360246]]]}},{"type":"Feature","properties":{"n":"Kasenda Town Council","c":"405108","d":"Kabarole","od":"Kabarole","dc":"405","k":"KASENDATOWNCOUNCIL","a":["KASENDA","KASENDATOWNCOUNCIL"],"lat":0.449255,"lon":30.27207},"geometry":{"type":"Polygon","coordinates":[[[30.256319649769406,0.428988620591111],[30.257301419841173,0.429016707027765],[30.256905593578157,0.43030624546117],[30.258127437442216,0.43030328052846],[30.25780094312106,0.431742946807412],[30.260004866781927,0.433282838366206],[30.259192476662175,0.439920130742513],[30.257850366901316,0.442155818935115],[30.257210020888703,0.4420328791677015],[30.2598,0.4715],[30.259863107525895,0.4715563939593131],[30.263399448625087,0.472603925796165],[30.26575261786517,0.472036008478811],[30.268039884273097,0.474016973883779],[30.268176092177274,0.475482938835614],[30.26935993252172,0.476648982959105],[30.27158174263854,0.476973210262657],[30.27301075601333,0.47807619132365],[30.272475200191792,0.480663438702756],[30.27354501597423,0.482991523846632],[30.275304328620194,0.483648494119781],[30.27384777444272,0.48405333035307074],[30.2739,0.4841],[30.27343030573152,0.4860248255316252],[30.280539744353167,0.486165992185861],[30.283522794791534,0.487492378286152],[30.285193649592227,0.487333387255392],[30.285793491273868,0.488212443784105],[30.28738186442005,0.487157170724427],[30.290319281679963,0.48725791925911],[30.291420125238112,0.484995026501239],[30.291591690429883,0.480811765067548],[30.301473328189292,0.481997005552909],[30.304355769575587,0.483695482838475],[30.30434348774906,0.480856042493675],[30.30434355395016,0.4808559952827377],[30.304343553711682,0.480855940987748],[30.3073416229757,0.4787175949317816],[30.309156624167866,0.474067091232538],[30.309156737907344,0.47406697240269496],[30.309156821352353,0.47406675854937],[30.311009535890477,0.47213111608931513],[30.311007158030158,0.4721095769349837],[30.310651583487594,0.47083456654920225],[30.30212005657261,0.46253324442067],[30.299635015012548,0.45762524503788804],[30.299396875953992,0.45715495493257025],[30.298061400460547,0.4558198451859061],[30.297653432703743,0.45541202849739165],[30.28908252058433,0.453405564859766],[30.2874415371317,0.450962713862142],[30.285146930762213,0.4475469512046715],[30.282844221558843,0.44592678394722],[30.282844069656598,0.44592631158468987],[30.28284402556576,0.445926280560248],[30.282696363417372,0.4454669971547497],[30.280938177741973,0.4399996583649134],[30.27980113098656,0.4395778155289826],[30.278976666232733,0.439272033043074],[30.278322597841736,0.437474625970788],[30.275748252162483,0.436211704536736],[30.2757481717052,0.43621126783282943],[30.27574804509484,0.436211205711133],[30.274964621289435,0.43195849964493127],[30.273192719936603,0.430057647245379],[30.273192969742993,0.43005607488226144],[30.27319220783054,0.430055256982984],[30.273194941229125,0.43004366570391644],[30.27367594278542,0.42701608462714274],[30.27323742107935,0.42620698061986717],[30.27124762801059,0.4230827889486607],[30.27124728483465,0.42308235859678117],[30.267820165386475,0.421707169494511],[30.268482582086488,0.42074672806789903],[30.26851594739111,0.42069814761034013],[30.267278807558334,0.420481362360246],[30.267331853471845,0.4203017753655348],[30.267174545253322,0.420249157308854],[30.267543160948716,0.41958639368539624],[30.267649868249936,0.4192251360074303],[30.266833349310502,0.41827641829633805],[30.266816802625225,0.418260160173982],[30.26681965981162,0.4182487962275332],[30.267222794475643,0.415205929908448],[30.267767250819663,0.41447992294592056],[30.26789383679205,0.413976449944269],[30.271031650585186,0.41012699918212076],[30.271033123404983,0.410125035246099],[30.271033233807433,0.41012505689475603],[30.271033837749822,0.410124315981929],[30.272643778467394,0.410440317072055],[30.27366817329808,0.4098032326822],[30.27382468292674,0.40850278397211326],[30.26697066539373,0.407564436333665],[30.26637288323664,0.408508985526023],[30.264041058187004,0.40876130279444],[30.263601854019726,0.40985848386446],[30.260452832519665,0.410191357515629],[30.258609175197126,0.411728478209127],[30.255863786389728,0.4107794991965002],[30.2545,0.4112],[30.254569820881752,0.4119943772018258],[30.254812383597326,0.412600182812493],[30.254619878163332,0.41256389683940264],[30.25590686849208,0.42720644718349],[30.256135312605547,0.427219387327328],[30.256319649769406,0.428988620591111]]]}},{"type":"Feature","properties":{"n":"Kibasi Town Council","c":"405109","d":"Kabarole","od":"Kabarole","dc":"405","k":"KIBASITOWNCOUNCIL","a":["KIBASI","KIBASITOWNCOUNCIL"],"lat":0.755752,"lon":30.403632},"geometry":{"type":"Polygon","coordinates":[[[30.37842118266589,0.791518567250894],[30.388434774730662,0.788242915020069],[30.391645849892445,0.788213165796646],[30.39611521380354,0.786085917828041],[30.406137296249796,0.783323225298363],[30.40965752132014,0.783973868878848],[30.424272084195014,0.781010324223948],[30.424422468550574,0.78046610479772],[30.422896919746893,0.780162427372925],[30.42189931906295,0.778952070779197],[30.420187655808203,0.774497001060952],[30.441112212771767,0.7660187433042744],[30.431,0.7642],[30.430999758950627,0.7641975338794853],[30.430967565568782,0.764195628084789],[30.425197228419663,0.766072026234088],[30.42439165197099,0.764878768255024],[30.42581120800769,0.760550130939263],[30.42498639408463,0.757060944893889],[30.42966069465094,0.750854480112722],[30.429767868960628,0.7504582347653616],[30.430175217244514,0.7478067677538829],[30.429543070200936,0.743334658377212],[30.43134302286038,0.7402054148360784],[30.432362738744327,0.733567991446],[30.431207621516844,0.728142436139011],[30.433704859874403,0.7248320029993243],[30.434637368971956,0.7187622165097957],[30.43401133009584,0.719491482416107],[30.432980263536006,0.7199581909805566],[30.432417658390307,0.720418024676747],[30.42488934025962,0.7236205182584386],[30.42484822434123,0.723639129230802],[30.41636300609203,0.731018072221635],[30.41581202344098,0.7310504914548558],[30.41095705818746,0.731336522290554],[30.410957153256984,0.7313361468533556],[30.410950203542633,0.731336555767157],[30.41122750093148,0.730260865896706],[30.40910722597622,0.7295067205622091],[30.407324178079573,0.7302954294486201],[30.404134432776143,0.731706612339706],[30.402695174161863,0.730894156465831],[30.40213496478672,0.7299234862879609],[30.401333999334753,0.7285364461396859],[30.399106391960743,0.7280518564368439],[30.396218837191174,0.7300789544387958],[30.39465173703334,0.731179305813256],[30.39281669942957,0.731383261897923],[30.393945029005586,0.732802115769099],[30.393811781252197,0.734001360648961],[30.39279087508707,0.7351644175534716],[30.392308388092307,0.735714311884131],[30.392308174197318,0.7357143296039771],[30.39230796410291,0.735714568951885],[30.389547569906604,0.7359445923903444],[30.38947852112807,0.7364276439478042],[30.389109567312175,0.739016439856992],[30.38742247470642,0.739617038044498],[30.38729378685595,0.739662935841604],[30.387293584609974,0.7396629224008453],[30.387293015524484,0.739663124992992],[30.383563964269626,0.7394159991339723],[30.382726969973564,0.7426153012553892],[30.38211826835054,0.744942705360915],[30.38390604740096,0.746369550753873],[30.381213026199895,0.751499003577769],[30.38186772361283,0.754442545064054],[30.37995308515052,0.758795085593286],[30.382232781087485,0.758855915484876],[30.384248729846956,0.7598217550029894],[30.38630228965808,0.760805323358105],[30.386302303258773,0.7608056204634385],[30.386302845341266,0.760805880174749],[30.386407162022742,0.763096228285593],[30.387615418731457,0.765011405336922],[30.38640724716508,0.769381885671891],[30.387323239462592,0.771948517790676],[30.386055503884165,0.773223104233957],[30.383079553979176,0.773395934838473],[30.37948740265875,0.778069608399882],[30.37881373520153,0.780928793130324],[30.376529166457626,0.7828416991735053],[30.376560791793974,0.7828839471663052],[30.377659826884656,0.78434838055977],[30.377658477459295,0.7843503352411446],[30.377658660444503,0.784350579689382],[30.377016532895365,0.7852802103709772],[30.375085943422693,0.788076724645617],[30.37557295735718,0.7912343748707233],[30.3755832879403,0.79130127385757],[30.37842118266589,0.791518567250894]]]}},{"type":"Feature","properties":{"n":"Kicwamba","c":"405110","d":"Kabarole","od":"Kabarole","dc":"405","k":"KICWAMBA","a":["KICWAMBA"],"lat":0.715559,"lon":30.224423},"geometry":{"type":"Polygon","coordinates":[[[30.186374249669647,0.706764064864011],[30.186655014678482,0.7078002718287542],[30.187546925848302,0.7110917167717911],[30.189061554236748,0.711804275531407],[30.189029229485566,0.713361640046335],[30.188973770714952,0.7133919570136745],[30.18896133498831,0.713618450864516],[30.1878967266832,0.7139807314919621],[30.18738063789765,0.7142628554316558],[30.186852059820527,0.716438167770161],[30.189060505616073,0.7176064125854269],[30.1894,0.7174],[30.189577798122833,0.7178800549316487],[30.1902077604595,0.718213298443946],[30.190078596578847,0.7192322107628893],[30.1944,0.7309],[30.2185,0.7528],[30.219015640412643,0.752716263522733],[30.22660170376167,0.749986943898295],[30.24101816808349,0.749038561616996],[30.24212591759688,0.7485481648062396],[30.24773189699347,0.7373362060130585],[30.24773189699347,0.7373362060130575],[30.24773100164143,0.7373379967171403],[30.24771011428918,0.734787065564908],[30.247711836871524,0.7347849480535154],[30.247711832124757,0.734784344356924],[30.249266099843766,0.7328743458912796],[30.2502438484465,0.731672433069655],[30.251015183671342,0.729388074651963],[30.253722705513823,0.7288797031600553],[30.255273309285474,0.728588310896122],[30.255273648794002,0.7285884939307015],[30.255274525146042,0.728588329384515],[30.257463044477902,0.7297680412621574],[30.25765929498221,0.7297150821751626],[30.26606698940086,0.727443697936959],[30.26393059365744,0.725437606980186],[30.26393060029126,0.7254370178799241],[30.263930444732935,0.725436872241405],[30.26397434823319,0.721552087589088],[30.263997122541404,0.71952967016954],[30.26176060741132,0.715762417544158],[30.26179986768127,0.7153553259341294],[30.261721637857274,0.715206719948156],[30.262621080267017,0.7068401334980196],[30.262623894112817,0.7068109565968426],[30.262469438871626,0.7063549301419105],[30.26211387771101,0.705310330344895],[30.26694189749008,0.6992595599233237],[30.257249137926596,0.700436704168976],[30.252538520219087,0.702627949468847],[30.250236147664953,0.702536314626901],[30.250658438404905,0.699197854171548],[30.244711079798975,0.695338288890181],[30.24086455513173,0.688660883663082],[30.241393572322643,0.684139094752898],[30.240627011393705,0.681714590471656],[30.236091909248678,0.678196553956026],[30.232577274305882,0.678975292192681],[30.22979339873802,0.686130074348598],[30.227837537660026,0.686801911661103],[30.224468122759607,0.686691815058495],[30.219063681530244,0.680801331890119],[30.214043399589016,0.680400464217866],[30.21022909230859,0.684855770107192],[30.207135040215693,0.69146833521609],[30.19985331891914,0.692760857959525],[30.197229490277213,0.69693451855131],[30.19487429581464,0.697428135302212],[30.189556340946496,0.696839229535963],[30.18640329419696,0.697660223788698],[30.184147645211464,0.6993102212875371],[30.18709814764584,0.703292245633176],[30.187003782724293,0.7037447246875203],[30.186374249669647,0.706764064864011]]]}},{"type":"Feature","properties":{"n":"Kijura Town Council","c":"405111","d":"Kabarole","od":"Kabarole","dc":"405","k":"KIJURATOWNCOUNCIL","a":["KIJURA","KIJURATOWNCOUNCIL"],"lat":0.878234,"lon":30.394918},"geometry":{"type":"Polygon","coordinates":[[[30.29543385357912,0.808302470661906],[30.29546824956295,0.8083360723496482],[30.306690329597153,0.8142673454198349],[30.308536575380696,0.813434550835085],[30.3103744595604,0.814045815457654],[30.31200977044741,0.816003119709542],[30.31535276923006,0.818035294408968],[30.315531093574556,0.8189400072738964],[30.321424440165845,0.8220548529908803],[30.323828572064553,0.82282792469718],[30.325239765604262,0.8240713897610628],[30.326016544886368,0.8244819455602899],[30.32677982939314,0.824466250882444],[30.32689345084701,0.8249454219116958],[30.32813072263909,0.8255993645710336],[30.328534835780875,0.825612713573888],[30.331237887060716,0.827238083030063],[30.334429897359115,0.827565479929806],[30.335691823011317,0.8295956781672718],[30.3357,0.8296],[30.34175497828549,0.8382357887022557],[30.341809564933342,0.838284997571999],[30.34198010422192,0.842257790388953],[30.34105625582635,0.8428482816773349],[30.340928853087345,0.8436273984273936],[30.341832734353616,0.84498007549997],[30.340926029606095,0.847887107962487],[30.341529208836537,0.848783500375238],[30.340435321114548,0.850236818911853],[30.341358276814027,0.851289444712631],[30.339576340604715,0.8518985324557949],[30.339567854574028,0.8519504277972871],[30.339907524461825,0.853051837544675],[30.339374969403927,0.8531299947990675],[30.339251201008853,0.8538868861381684],[30.339818792329677,0.856594972974065],[30.341644756466952,0.856883784447328],[30.342023076442988,0.858267631531714],[30.34306668026703,0.858221931227736],[30.344251767577788,0.859511936757208],[30.343121162829856,0.861382653983702],[30.34337751861069,0.864055028204551],[30.341566117931624,0.866622119141014],[30.34170133396899,0.8673320033372071],[30.343497585280986,0.869627310078288],[30.34234309346434,0.8707012406877875],[30.344352943247443,0.8812529520490834],[30.3450417563047,0.881584014658254],[30.344673914841895,0.8829380529199452],[30.344820412460397,0.8837071654170828],[30.34554926376349,0.883838567989584],[30.346021405633035,0.885102253299971],[30.345568659613516,0.886248118275104],[30.346302366207308,0.88708159492579],[30.345708956511285,0.887417445488704],[30.346466730806565,0.888134639801673],[30.345759258525675,0.8886361072597903],[30.34754574267187,0.8980151490273225],[30.359973708219037,0.880620716587379],[30.361759553309124,0.87615785171188],[30.36294658726145,0.877161626802561],[30.362955706890876,0.8772393581294223],[30.3813,0.8902],[30.38678942806769,0.8925073346612467],[30.389454283699514,0.892869862825744],[30.396820198045397,0.895134724219133],[30.399594916586324,0.896302506807337],[30.40275701678173,0.8992188846519044],[30.40898693585622,0.9018374649557322],[30.414926694554147,0.903806135944931],[30.42436177921412,0.908299870247043],[30.4246,0.9084],[30.42601125608715,0.9086161750653726],[30.439162964210983,0.910385215008106],[30.439584699257438,0.9106953441059078],[30.4592,0.9137],[30.4809,0.9199],[30.481160370520968,0.9202031711545529],[30.485662173853427,0.92415683360621],[30.48852660315166,0.928497380324027],[30.496981696665635,0.937994079816397],[30.50103632872941,0.9409880064457662],[30.505391907182307,0.943387377916562],[30.50963282490245,0.9473356302022304],[30.515699212595973,0.9518150303978686],[30.519244401752406,0.954379103359218],[30.52066148226566,0.9556930810169411],[30.533750866197238,0.967274223178626],[30.535900994748623,0.967959693026534],[30.537537269759344,0.970355314806562],[30.54011271604846,0.971477839170793],[30.54350143768869,0.9758772023650881],[30.543502393809938,0.9758620410138716],[30.542733136687705,0.973612877182092],[30.543869704689243,0.9700375399277174],[30.544109347801573,0.9662374848607629],[30.543835893842793,0.96498549508982],[30.545126641079126,0.963445212531369],[30.54515291938082,0.9634458514062052],[30.55047474271699,0.9558832603495409],[30.510488787098147,0.9148711710228908],[30.480464744923847,0.89772391056436],[30.429790176941093,0.89360883654951],[30.42978964099036,0.8936066131729942],[30.429789480785416,0.893606600158007],[30.42883932256312,0.8896642439389916],[30.42632384044406,0.879228837205195],[30.425749748018234,0.879247106515686],[30.42274930073054,0.8683253976875246],[30.422487969334775,0.8673741710849421],[30.418150842139102,0.864537925252037],[30.420688654820275,0.857177762304186],[30.423398973465545,0.855624448084407],[30.4144294769701,0.8458261085715846],[30.414346807135882,0.845735824994285],[30.41434679085513,0.8457357816922718],[30.414346769214575,0.845735758051978],[30.41374842138688,0.844144348448665],[30.414644880880726,0.842718579921314],[30.413481270480727,0.837281409745504],[30.41348163390554,0.8372814875914191],[30.413481524578653,0.83728097663801],[30.41648906447314,0.8379256818672088],[30.416560386368705,0.837940959080042],[30.41682479684237,0.8378777759999128],[30.422928497862813,0.8364189713014273],[30.424298847871164,0.833963808116724],[30.42417534244073,0.827786925116769],[30.426432693868513,0.8256436776303487],[30.426581367610105,0.825502448749689],[30.42658150014656,0.8255023931686272],[30.42658164492858,0.825502255705009],[30.427986495284223,0.8249131883291679],[30.429792838093125,0.8241556725939176],[30.430598272466202,0.821764770096814],[30.43165972651009,0.822961758113315],[30.435263824351022,0.823186151501044],[30.438199278252707,0.826009533949388],[30.441518198265012,0.8293548125524],[30.44152508740407,0.8293703827481629],[30.441526255290015,0.829371536212239],[30.442480966672253,0.824048579873151],[30.44091129389527,0.820758820158333],[30.440643887234984,0.816631284803721],[30.438924648848257,0.812034857781064],[30.437426369098944,0.803613115658427],[30.433754655034505,0.795272463639968],[30.43013251341538,0.789315361460396],[30.422068222310997,0.78994220501117],[30.421759122487206,0.788477687133059],[30.41978009214156,0.788663839502237],[30.41935206802228,0.786152711155578],[30.420665521357456,0.786100558828462],[30.419902504755726,0.783985326468507],[30.42062573472273,0.783702533672741],[30.420792597750506,0.784690009464356],[30.4222083709154,0.785320564873663],[30.42368363075881,0.784761395705946],[30.42427208168666,0.781010336543723],[30.421239842430133,0.7816252029549517],[30.40965752132014,0.783973868878848],[30.409657404925603,0.7839738473656336],[30.409657076072065,0.783973914049354],[30.409113196656406,0.7838732612923787],[30.406137296249796,0.783323225298363],[30.39611521380354,0.786085917828041],[30.391645849892445,0.788213165796646],[30.388434774730662,0.788242915020069],[30.37842118266589,0.791518567250894],[30.3755832879403,0.79130127385757],[30.37557295735718,0.7912343748707233],[30.375583275514433,0.791301274664082],[30.371617366617972,0.790462306831982],[30.362035196948067,0.793240694607567],[30.359145573431526,0.793622960443607],[30.35914530655544,0.7936228572863501],[30.359144915229983,0.793622909051351],[30.358254407388852,0.7932784925444039],[30.357510477237295,0.7929909366410263],[30.355016804584746,0.794059154359714],[30.35501658581035,0.7940590497693892],[30.35501599077523,0.794059304627503],[30.353582487745634,0.7933734449390921],[30.353549439445338,0.793357645409845],[30.353214051946846,0.7937623245317366],[30.352975278082035,0.794052138316626],[30.352973654814903,0.7940523881169835],[30.352973654814754,0.794052388117162],[30.29533648039681,0.802922034014273],[30.29628196697234,0.805094266429752],[30.29543385357912,0.808302470661906]]]}},{"type":"Feature","properties":{"n":"Kiko Town Council","c":"405112","d":"Kabarole","od":"Kabarole","dc":"405","k":"KIKOTOWNCOUNCIL","a":["KIKO","KIKOTOWNCOUNCIL"],"lat":0.581265,"lon":30.32173},"geometry":{"type":"Polygon","coordinates":[[[30.269946977966605,0.5534355767436201],[30.2708,0.5562],[30.271546935294918,0.5565754648006529],[30.27279987728509,0.556884305736412],[30.272879187006726,0.5572451528269093],[30.2895,0.5656],[30.289467443300996,0.5657272670961094],[30.289484145955868,0.565724828072556],[30.291173137221293,0.566705648189812],[30.292673310598836,0.57102116432952],[30.29056157671027,0.575583832128815],[30.29755487891525,0.582853729336726],[30.299126183133726,0.587418017174139],[30.30345777246201,0.589471654434016],[30.30684106597488,0.594127751813464],[30.306388241935824,0.597886336276269],[30.301673756290135,0.601978378815247],[30.30027549028685,0.608352525126628],[30.301096289554888,0.610330639082364],[30.300275458239227,0.612671233431487],[30.295410904709733,0.616608316879811],[30.298798259968777,0.618287159970674],[30.30137748412993,0.618496504273809],[30.303680299385444,0.617135699283908],[30.307620185982575,0.616830736281545],[30.311412524307023,0.61955168368215],[30.320345026714886,0.623135064516167],[30.320918576133415,0.6225780888680087],[30.323818249232264,0.618096677455779],[30.32859718060044,0.613966400922401],[30.32873511295813,0.6137790812839158],[30.330891429814315,0.610850256416961],[30.330891817856426,0.6108501588132876],[30.330892269586098,0.61084954533984],[30.336738889962454,0.60937936498974],[30.34061785562479,0.609724732252031],[30.34061856262044,0.6097251827565213],[30.34061876807252,0.609725201068893],[30.342292019664196,0.6107915258276968],[30.348095157358255,0.614489341492713],[30.355631534956448,0.6172515549357531],[30.356639451085943,0.6172861399437165],[30.3577690546148,0.61732487750013],[30.360070487054088,0.6161400052878784],[30.363029748498082,0.614616420693243],[30.36707242738317,0.6111994624912134],[30.36868247525012,0.6098385868634786],[30.368895294456987,0.6080677382009559],[30.36897979471499,0.607362876984964],[30.368980021774505,0.6073627301374466],[30.36898012093638,0.60736190502078],[30.371117839069452,0.6059798120704132],[30.371176756580436,0.6056730218602095],[30.37161660394555,0.603377548711264],[30.372650744470803,0.602861372772449],[30.375476360531334,0.598083288930949],[30.37548108371102,0.5980801946177541],[30.378316062435317,0.5958195927120519],[30.378905594110325,0.5948935464928711],[30.371616906776808,0.590381248845607],[30.363220951847154,0.59086523577405],[30.35254573094527,0.589531792720013],[30.350774518747336,0.588183182402458],[30.34666671405949,0.579676833006743],[30.34777077927286,0.575267782687175],[30.351427799738836,0.568610082925436],[30.355347358665988,0.565998901259097],[30.356843595997443,0.563685954890479],[30.354753513560574,0.554936562682923],[30.345181512660616,0.539378583009276],[30.34373318863124,0.544447014940654],[30.342586429074313,0.545567844987037],[30.33124686946649,0.552675542724393],[30.327240661928887,0.562994470946339],[30.32619807008602,0.568869527848163],[30.320676115898724,0.568919807903349],[30.317228420819763,0.56770226199591],[30.318446873636766,0.566982939575171],[30.318109919392082,0.564372946542243],[30.316183971646158,0.563178299563634],[30.314429542251418,0.56046749540818],[30.311540916540856,0.547322439927289],[30.30772443490571,0.54921385226802],[30.30417856215222,0.555330239498339],[30.300053965916486,0.55647487865435],[30.300140237849636,0.557402910521825],[30.299453372538334,0.557470984957595],[30.29540342237988,0.555252809497421],[30.28573500203896,0.555148912184589],[30.28291769274398,0.555933517641182],[30.279294828026078,0.555245372124454],[30.27547202940301,0.552080573070324],[30.270019463056812,0.549913281387095],[30.269232677064487,0.550877369447166],[30.270356080722326,0.552531304730618],[30.269946977966605,0.5534355767436201]]]}},{"type":"Feature","properties":{"n":"Mugusu","c":"405113","d":"Kabarole","od":"Kabarole","dc":"405","k":"MUGUSU","a":["MUGUSU"],"lat":0.617856,"lon":30.173639},"geometry":{"type":"Polygon","coordinates":[[[30.15363171631297,0.621963559834848],[30.153597231462992,0.6221603121471687],[30.153274899517328,0.624005506018567],[30.154059759580896,0.6250374806696007],[30.155675329844623,0.627160029130915],[30.15567419569769,0.6271602248702259],[30.155677708325815,0.627164843455569],[30.154696391980494,0.627330451346712],[30.15553503306281,0.628275600963328],[30.155534995458126,0.6282756841609379],[30.155535067160404,0.6282757646292],[30.155503418431667,0.6283455460171362],[30.155126857809464,0.629178658788932],[30.156467933251,0.628859825019839],[30.15646895820702,0.6288621519715942],[30.15646919118967,0.628862096221662],[30.156593524711887,0.6291449545906626],[30.15760543418365,0.631442286840493],[30.159681831930808,0.632402238888408],[30.1618972193982,0.636106033900439],[30.161897204519317,0.6361060698074246],[30.161897375011325,0.636106354743407],[30.161391984609626,0.6373255645194773],[30.163200979543618,0.643156737436532],[30.16559236064131,0.646166868382613],[30.165592380305558,0.64616693641893],[30.165592409599135,0.646166973292128],[30.165592478932403,0.646167277657841],[30.166365334235,0.6488412789118605],[30.17600028469614,0.641509528652149],[30.183706737621442,0.638480376233589],[30.185818959256867,0.641913937078659],[30.197534339997937,0.646102022812179],[30.206409725512415,0.644483991034009],[30.20841639842845,0.643477159607706],[30.204897129715068,0.639585341198395],[30.20559494141008,0.634730981181966],[30.204997182806135,0.631383639351933],[30.201725685137163,0.622002183553653],[30.193707258370345,0.616153552963798],[30.200921177838346,0.61198865138272],[30.19877845815775,0.610345128632479],[30.19741947633294,0.606703898294863],[30.198848694568145,0.602532335297311],[30.203314818873647,0.600126999880735],[30.206537239782307,0.5960160203025],[30.208464032724592,0.596130919156679],[30.210821593438318,0.593199290144114],[30.20017897994172,0.589546130681052],[30.199820116097058,0.5891665948072476],[30.1931,0.587],[30.1777,0.5953],[30.1753,0.6027],[30.17479237228934,0.6028244506645489],[30.174651289421483,0.603812023174347],[30.170814892527304,0.604299947688441],[30.170014943228473,0.6039956913375356],[30.168682906643507,0.6043222551454629],[30.16763428103255,0.605305662142572],[30.163503348911487,0.6066478309287],[30.162970563285015,0.607618432164673],[30.161028702524828,0.606723974988359],[30.158891651533477,0.606979260561225],[30.155858430541823,0.608793765661476],[30.155860253091248,0.608808921598837],[30.156071720498417,0.610556305590031],[30.15508000879148,0.6114729554310111],[30.151761960739126,0.6145401645270454],[30.152596508383766,0.617678794998888],[30.149876259525,0.6180331194994798],[30.152472967464952,0.6200659793451324],[30.15264863789361,0.620203370732504],[30.153631650685053,0.621963278814109],[30.15363162892411,0.621963403384947],[30.15363171631297,0.621963559834848]]]}},{"type":"Feature","properties":{"n":"Mugusu Town Council","c":"405114","d":"Kabarole","od":"Kabarole","dc":"405","k":"MUGUSUTOWNCOUNCIL","a":["MUGUSU","MUGUSUTOWNCOUNCIL"],"lat":0.617079,"lon":30.21859},"geometry":{"type":"MultiPolygon","coordinates":[[[[30.204897492330986,0.6395857422008239],[30.208367578793347,0.6434231719272795],[30.20841641107255,0.643477161017706],[30.210681530390527,0.643796048708251],[30.214832697253023,0.641208107556721],[30.216403362406663,0.638571577675301],[30.21935724966708,0.637698240963272],[30.21990984715249,0.631254290234475],[30.225384095344516,0.624509516151294],[30.234535763603272,0.621203653411827],[30.239961203256456,0.617848505099307],[30.244446702821847,0.616308800086205],[30.248907707559827,0.611899962663081],[30.25104922251958,0.607236221540527],[30.254238425042583,0.595980929048612],[30.25421879425381,0.595987497735509],[30.2542,0.596],[30.25416650203842,0.5960049953100601],[30.251732973482735,0.596819281853633],[30.24956187346128,0.5966916504487568],[30.243170640317388,0.5976447290754769],[30.243079609465337,0.597759959630501],[30.242914071443096,0.5976829893462047],[30.2428,0.5977],[30.24206752722027,0.597289371320455],[30.227638358285,0.590580234530715],[30.214014782500904,0.5925264596427283],[30.213726861910786,0.592712299543587],[30.21372642594999,0.592712482639607],[30.213234078285094,0.592892378061952],[30.21323310588187,0.592892626139326],[30.210821541960218,0.5931993541571812],[30.208464032724592,0.596130919156679],[30.206662320966338,0.5960234791655721],[30.206537128351513,0.5960161624595064],[30.203565437442542,0.5998072750999394],[30.203315176969983,0.60012659375431],[30.203315108171875,0.6001266308106662],[30.203314818873647,0.600126999880735],[30.19915873786817,0.6023653542463576],[30.198848687884443,0.6025323548055206],[30.1974195415304,0.6067037079983011],[30.19803036852693,0.6083407113479579],[30.19877838220767,0.6103449251332639],[30.19961223964378,0.6109846611170267],[30.200921177838346,0.61198865138272],[30.193707258370345,0.616153552963798],[30.201725685137163,0.622002183553653],[30.204997182806135,0.631383639351933],[30.20559494141008,0.634730981181966],[30.205560392540157,0.6349713220274413],[30.204897492330986,0.6395857422008239]]],[[[30.213557270572647,0.592774282317484],[30.213557272650064,0.592774288003056],[30.213557270572664,0.592774282317478],[30.213557270572647,0.592774282317484]]]]}},{"type":"Feature","properties":{"n":"Ruteete","c":"405115","d":"Kabarole","od":"Kabarole","dc":"405","k":"RUTEETE","a":["RUTEETE"],"lat":0.546445,"lon":30.388679},"geometry":{"type":"Polygon","coordinates":[[[30.265982588329805,0.5405880177354816],[30.268485466558303,0.5486991971796805],[30.269006625490487,0.549806616035921],[30.269861206930123,0.5501072005006292],[30.270019463056812,0.549913281387095],[30.27547202940301,0.552080573070324],[30.275472320623045,0.5520808141640856],[30.2754726419272,0.552080927177348],[30.27629233684426,0.5527596850168717],[30.279294828026078,0.555245372124454],[30.28291769274398,0.555933517641182],[30.28551101748738,0.5552112906751849],[30.28573456174814,0.555149002550062],[30.285734673249323,0.5551490037507313],[30.28573500203896,0.555148912184589],[30.29540342237988,0.555252809497421],[30.295408239607585,0.5552554479141583],[30.30013838077798,0.5574030945740738],[30.300140237849636,0.557402910521825],[30.300053965916486,0.55647487865435],[30.300057255953718,0.5564739656182071],[30.300057236195666,0.556473747272404],[30.30151623192735,0.5560690772529812],[30.30417856215222,0.555330239498339],[30.30772443490571,0.54921385226802],[30.311540916540856,0.547322439927289],[30.314429507156163,0.5604673357028044],[30.31618427086639,0.563178485167085],[30.318109919392082,0.564372946542243],[30.318446873636766,0.566982939575171],[30.317228420819763,0.56770226199591],[30.320676115898724,0.568919807903349],[30.32619807008602,0.568869527848163],[30.327240661928887,0.562994470946339],[30.33124686946649,0.552675542724393],[30.34258642903389,0.5455678450123744],[30.34258646034887,0.5455678144196323],[30.343733052081046,0.5444471484032983],[30.343748114812048,0.5443947805442865],[30.345181512660616,0.539378583009276],[30.354753513560574,0.554936562682923],[30.356843595997443,0.563685954890479],[30.355347358665988,0.565998901259097],[30.351427837257063,0.5686100579310671],[30.348839123381627,0.5733228347754638],[30.34777077927286,0.575267782687175],[30.34666671405949,0.579676833006743],[30.350489970327843,0.5875939459464581],[30.350774617485268,0.5881832575820395],[30.352545651079257,0.5895317319096095],[30.358262589472666,0.5902458861672901],[30.363220935615136,0.5908652337465068],[30.36395353908231,0.5908230055990753],[30.371616906776808,0.590381248845607],[30.37870470486927,0.5947691795104116],[30.378905599586663,0.5948935378905497],[30.378985450425134,0.594768106857411],[30.383456976145247,0.593785049732093],[30.385048403475626,0.592141002877613],[30.385259873406795,0.5923057014915434],[30.38542717187402,0.592168417844252],[30.385863160979035,0.5927755584891817],[30.387138487462312,0.593768817923012],[30.38794601191751,0.595676192341883],[30.387139002937708,0.5981163838054224],[30.388106372817173,0.598689093008237],[30.38921683355293,0.599346279639569],[30.389216993314776,0.5993466104618099],[30.38921725232976,0.599346763805705],[30.390727579511307,0.6020677475096686],[30.397636609734302,0.606146782316703],[30.399965075653533,0.608805307759571],[30.402908218156448,0.6103760601567374],[30.404167774421637,0.6110482049745699],[30.40719688188529,0.609721444443146],[30.40719711244356,0.6097215071554013],[30.40719713166052,0.609721498735452],[30.41344321872562,0.6109781919209878],[30.41395932085243,0.610682878300407],[30.413890132643996,0.6110681096038327],[30.414575827186297,0.611206069201528],[30.4317,0.6011],[30.43186909880735,0.6011455266019787],[30.435099416865707,0.601754281450089],[30.435265230109042,0.6020598696447425],[30.436131231161752,0.6022930237743179],[30.436563710467865,0.602091691728316],[30.436745829388418,0.6024584925276508],[30.4447,0.6046],[30.446380098537276,0.5935011672385992],[30.445316600129058,0.593137844855967],[30.446507719929482,0.5926580925870734],[30.446631128615564,0.5918428473274892],[30.446603285853865,0.591582228819093],[30.44668166020645,0.5915090325755632],[30.447016397250934,0.5892977393726321],[30.446734192512785,0.588610448346288],[30.447182943791056,0.5881975228348398],[30.447580719349247,0.5855697933898293],[30.445570410154524,0.584639455952288],[30.4475409531508,0.584017852992477],[30.447879649246865,0.5835950443692093],[30.448,0.5828],[30.453111540596613,0.5795700080892568],[30.453870645424246,0.57805592046575],[30.45444901444479,0.5787248559029846],[30.46420745640054,0.5725584784708251],[30.46417364552428,0.5724204565138913],[30.46197356142627,0.5710354453546982],[30.454575010429394,0.566559840557926],[30.45451751587928,0.566341667378043],[30.450016504348103,0.5635081615116191],[30.449526271753623,0.563339137463358],[30.449242596221122,0.5630209658662214],[30.44364787462759,0.5594989405733576],[30.442031118289236,0.558906561943969],[30.42889680237564,0.550631472660047],[30.428810227000714,0.5501582487525387],[30.4284,0.5499],[30.426333158119355,0.5374050013579033],[30.42572977112764,0.5361647583949259],[30.425448719338913,0.535904618197624],[30.424216878972143,0.535174066632211],[30.421366427782786,0.536745400240147],[30.419299947639217,0.536247306916133],[30.41731675012942,0.534203271653257],[30.417435348089683,0.529567555103638],[30.415522924267805,0.528020543473807],[30.41523917279684,0.5264547105351688],[30.41002600293451,0.5216294253352147],[30.402423346476546,0.518137043036501],[30.398921699311988,0.515859188380137],[30.398777407618166,0.514330692639855],[30.395262880960345,0.512937468427372],[30.394181876156843,0.510677644199567],[30.39432371504051,0.508797636825494],[30.39261349297842,0.505543288907755],[30.392526586030996,0.5054692134968692],[30.38259395901712,0.501303918297503],[30.379039063134012,0.500819768882807],[30.37782691702327,0.49930483617104937],[30.374096255970443,0.49774036540695976],[30.37398694634858,0.497710073046861],[30.37351840249818,0.49534407708569783],[30.37317399796032,0.49365928731940467],[30.37201409441844,0.491689019224295],[30.370341808288167,0.4908537014135672],[30.37034239050155,0.490856356305937],[30.366132728631065,0.493644578496435],[30.361540738425035,0.493171005525284],[30.35704252781838,0.491377041196387],[30.34511663593657,0.496611406731928],[30.33090638210054,0.496887166315878],[30.33095661224929,0.498901442387642],[30.3288180749221,0.501730022845939],[30.32881586145382,0.5017282793458243],[30.328815163894664,0.501729200489412],[30.32580818496968,0.49935919895694647],[30.325693256280665,0.49926867216502],[30.32559776598384,0.497405466222978],[30.32311430758176,0.49698733212849705],[30.323088388474783,0.49698300591764694],[30.319540862776705,0.500013221714582],[30.316658949993247,0.5012554830440157],[30.316122253233846,0.50148689044655],[30.315145865073426,0.504419666806742],[30.313153251444323,0.507008238653273],[30.31312628767373,0.507043268966853],[30.3131262838944,0.507043271757276],[30.313125926712114,0.507043735766952],[30.30963630985039,0.509621366844474],[30.30751085852007,0.508468180796609],[30.307497369916266,0.5084232813290502],[30.307272996895882,0.508297654779687],[30.305886966707924,0.503062737890986],[30.30587094464211,0.5030094052974415],[30.30488726923621,0.5026519309147157],[30.30426678152303,0.5024268839986088],[30.304255325043886,0.5024325066356936],[30.30259510877869,0.503249247212074],[30.301245053300438,0.501825700210946],[30.301212570697665,0.5015517367694321],[30.300809358942956,0.501056862453326],[30.30092200126179,0.49910102790189903],[30.300620451734996,0.496557711200087],[30.30117929874162,0.49463351243990905],[30.30124861693704,0.493429924631579],[30.304355633146198,0.4836968899819561],[30.304355773570734,0.48369640647804],[30.304355769575587,0.483695482838475],[30.30255352319747,0.482633509973814],[30.298793474236128,0.4816755738755416],[30.291591690429883,0.480811765067548],[30.29158919015008,0.48087272920577184],[30.291670565135576,0.483480102408597],[30.291453023186804,0.48419287824147816],[30.291420125238112,0.484995026501239],[30.290851398494194,0.4861641005449545],[30.290557607845933,0.487126705114734],[30.29035999802617,0.4871742227844592],[30.290319281679963,0.48725791925911],[30.290050299214396,0.48724869360716355],[30.288237534715687,0.487684594742251],[30.28738474272952,0.48715726944566273],[30.28738186442005,0.487157170724427],[30.287359641806578,0.4871719348403814],[30.285796473811036,0.488212023560953],[30.285795737580862,0.48821095139721776],[30.285793491273868,0.488212443784105],[30.28527525900049,0.48745298428462763],[30.2851931660658,0.4873334332655929],[30.283522794791534,0.487492378286152],[30.280788838346723,0.48627674955237093],[30.280539552371707,0.4861659883738328],[30.27343030573152,0.4860248255316252],[30.273430306805768,0.48602482112931306],[30.27178437057719,0.4927699323405301],[30.272782851747436,0.494266000541493],[30.272646888574393,0.495347671788217],[30.273437748754933,0.49504101036849],[30.27274200462324,0.497039400878446],[30.27069596029448,0.49723028036183453],[30.26898205038066,0.5042539504008231],[30.26887981771545,0.504760648352911],[30.26885809903796,0.5047619078640456],[30.2688,0.505],[30.266733151750167,0.5077456660573769],[30.267659484028528,0.508607640069525],[30.266179188207232,0.509390613135425],[30.26614644814551,0.510705570835619],[30.26380443108968,0.513498068574274],[30.262853482271364,0.5128995407081388],[30.25738463734067,0.5201645258856764],[30.25719973066613,0.520901856929514],[30.256540952593266,0.5212853031726725],[30.255043789903038,0.5232741810601778],[30.255307036118573,0.524108390769509],[30.254103426152593,0.525045699818133],[30.254064911432106,0.526632822742195],[30.252952397925963,0.5260524517748245],[30.24955618772987,0.5305640839470874],[30.24962179169262,0.531227036123619],[30.248527505443384,0.5319306177688367],[30.2484,0.5321],[30.2654,0.5387],[30.265748420052407,0.5398291390587239],[30.266145262802713,0.540151941525944],[30.265982588329805,0.5405880177354816]]]}},{"type":"Feature","properties":{"n":"Rwengaju","c":"405116","d":"Kabarole","od":"Kabarole","dc":"405","k":"RWENGAJU","a":["RWENGAJU"],"lat":0.69666,"lon":30.320686},"geometry":{"type":"Polygon","coordinates":[[[30.296730722978673,0.687666192622736],[30.296706557417775,0.6878383514690372],[30.296383882073314,0.690138721311237],[30.2938430315904,0.692896751393217],[30.295092982900783,0.695931337670521],[30.296786791369513,0.697751170374506],[30.294330920711737,0.7013669173357446],[30.29527052217429,0.7048293141387092],[30.295667588896784,0.706291670077435],[30.29509262395621,0.709996973917597],[30.295658429460666,0.714637188846508],[30.300498819826068,0.718864795715962],[30.304893829428504,0.715506073023927],[30.304894748048607,0.7155060529723359],[30.304894899677517,0.715505937028521],[30.308424367927277,0.7154290086161514],[30.311745993658853,0.715356504345218],[30.311748531687865,0.7153574138726269],[30.316092285863206,0.716723727498005],[30.316807042652474,0.7171701805304967],[30.31889469673259,0.717918311697172],[30.327171132295835,0.72364382788208],[30.327172305233592,0.723646116886911],[30.329509567943926,0.7272202454864347],[30.329464728766922,0.724012375944106],[30.33179739416943,0.719840588345975],[30.333915381103967,0.718399943304672],[30.333917085026684,0.7183925106911452],[30.33492642185772,0.713237483476539],[30.335209627673866,0.7127543618068085],[30.33529522299475,0.712380989861221],[30.33813753098047,0.707759642582674],[30.338150823826517,0.707736966275864],[30.34015608898067,0.707816082023876],[30.34507413497102,0.7007183147827509],[30.344711186187435,0.6994431124438542],[30.344710525213124,0.699441490442935],[30.3447106306963,0.6994411607536329],[30.344710597418846,0.699441043834958],[30.34536763584988,0.697387681021067],[30.345906215818466,0.6957043410292165],[30.34599419193571,0.6946884376600437],[30.34654207836812,0.688360533276847],[30.34654174878394,0.6883602849708716],[30.344857197600316,0.68731247561381],[30.342015671586438,0.6849503760936168],[30.338199694365965,0.6820754506268852],[30.335129675093096,0.680560508321779],[30.33219983306632,0.680420917506768],[30.33219974174546,0.6804206712310432],[30.332199547077202,0.680420661941124],[30.330504911116847,0.6758500216981631],[30.33035574072447,0.6754477363177057],[30.32772308799554,0.6711861576020819],[30.324977326378566,0.671033744255339],[30.324977207133735,0.6710335477627708],[30.32497711815483,0.671033542837159],[30.323314183214197,0.6682933880476656],[30.323312355085765,0.6682920855068033],[30.31951874006318,0.6658118115668852],[30.318416163520148,0.6656123588477517],[30.312308201432383,0.667441765090528],[30.312111749266677,0.667363336280489],[30.311846066822426,0.667458607890278],[30.308767102263303,0.6660280662745146],[30.3087669006619,0.666027985789996],[30.308595646227037,0.66675331893584],[30.30617085934479,0.667432384861813],[30.301208661771653,0.666971070123674],[30.29726550099447,0.668069586946414],[30.29548328661118,0.669844540794735],[30.29556449322984,0.673378121095882],[30.292702278249312,0.677190212585161],[30.293317962457014,0.6803093267009165],[30.29339421250543,0.680272671211096],[30.29344781094629,0.6809671513628742],[30.29407000783482,0.6841192593323636],[30.29407022095846,0.684119934147635],[30.29607915317662,0.685926246909185],[30.29673078339186,0.687665643200054],[30.296730710861205,0.6876661602749919],[30.296730722978673,0.687666192622736]]]}},{"type":"Feature","properties":{"n":"Fort Portal Central Division","c":"436101","d":"Fort Portal City","od":"Kabarole","dc":"436","k":"FORTPORTALCENTRALDIVISION","a":["FORTPORTAL","FORTPORTALCENTRAL","FORTPORTALCENTRALDIVISION"],"lat":0.656509,"lon":30.280641},"geometry":{"type":"Polygon","coordinates":[[[30.253291652486737,0.692281436284754],[30.25670887043237,0.694381518390609],[30.26035274546692,0.7000597842904904],[30.262295606338515,0.6998238321367082],[30.268182601455116,0.698702514760382],[30.271430341172344,0.698920782362239],[30.271437247290574,0.698920536699035],[30.271438309462518,0.6989194908022536],[30.273673631724783,0.6965612733298557],[30.273384611955123,0.694530363657582],[30.276529891645314,0.6912574852909443],[30.27842023066526,0.685379187884394],[30.27842064576774,0.6853789992753312],[30.278420726699366,0.68537874764822],[30.282298402295496,0.6836170728479485],[30.282671927937105,0.683447354946747],[30.28267198459051,0.6834473499047461],[30.2826720933283,0.683447300503856],[30.28509478942114,0.6832313462141386],[30.28513837447684,0.683051923765106],[30.28560563126964,0.681117351809721],[30.288825867266898,0.681222484056232],[30.288827567041526,0.6812237621527566],[30.28882804321037,0.681223777762076],[30.28898817805587,0.6813445289743312],[30.289836955116833,0.681982742413772],[30.293317962457014,0.6803093267009165],[30.292702278249312,0.677190212585161],[30.29556449322984,0.673378121095882],[30.29548328661118,0.669844540794735],[30.29726550099447,0.668069586946414],[30.301208661771653,0.666971070123674],[30.301208902836642,0.666971092534477],[30.301208920865054,0.666971087510675],[30.301209110432897,0.6669711118338317],[30.305707602601224,0.6673893178214141],[30.308595672101045,0.6667532093487465],[30.3087669006619,0.666027985789996],[30.308767102263303,0.6660280662745146],[30.308766903826076,0.666027974077055],[30.30982045447022,0.6645649718988533],[30.3104078013794,0.6608043244519514],[30.308005477696202,0.660776490027617],[30.308005383799976,0.6607742840225687],[30.30800498564184,0.66077427990102],[30.307902169849573,0.6583493676241078],[30.307794266759227,0.65581428421542],[30.30651010621137,0.651999794903979],[30.306511828193656,0.6519988906644321],[30.306511539870197,0.651998033166047],[30.30827606261379,0.651072428797863],[30.308276114011797,0.6510724368780761],[30.308276158665922,0.651072413429504],[30.308596929049266,0.651122871787327],[30.31050180813274,0.6514223353176746],[30.312315403581227,0.6504322411428628],[30.31324004341914,0.649927370083795],[30.313240239962273,0.6499273462313259],[30.313240315676943,0.649927304896499],[30.31768858760448,0.6493874948869913],[30.322111067075507,0.6488507829031809],[30.323919620627894,0.64574619496901],[30.323400717132962,0.645055337439037],[30.32526544181302,0.644436201681726],[30.324217515569067,0.6409158317322141],[30.323819435155713,0.6395788371257767],[30.32230019590131,0.637892157531295],[30.32229995649974,0.6378914131014625],[30.322299844142634,0.637891288342034],[30.32226876490381,0.6377944214452496],[30.321415673763592,0.6351416965648536],[30.321370660946112,0.6351029611351621],[30.31995213336242,0.633883854677788],[30.32062678550802,0.6230933455045929],[30.320631225600767,0.623022176364475],[30.320506282220542,0.6229784687863463],[30.320345026714886,0.623135064516167],[30.316196337177367,0.6214707677831542],[30.313606095555773,0.620564651846115],[30.312844803457008,0.6201262596991125],[30.311412524307023,0.61955168368215],[30.309645941151675,0.618284186050541],[30.30718098181507,0.6168647324431783],[30.30368042426755,0.6171356896175327],[30.303480532224608,0.6172537478979395],[30.30137748412993,0.618496504273809],[30.301376479761963,0.61849642275367],[30.301376352372905,0.618496497990947],[30.29912072262749,0.618410423586673],[30.298880753712922,0.6182938556257632],[30.298798259968777,0.618287159970674],[30.29541246050602,0.6166090879645222],[30.295410893101206,0.616608326577641],[30.292329980365896,0.618963477731577],[30.286072476496663,0.62179836587703],[30.282039360832076,0.621946863829336],[30.28108862449882,0.619480914689694],[30.27877649393128,0.617341029716888],[30.26761638819432,0.623984956759349],[30.26549436196428,0.62276249263761],[30.263660625837797,0.613986056891678],[30.259087107731542,0.61437712314585],[30.255715475106648,0.618624026737531],[30.252860797223203,0.618672510882774],[30.25346342718562,0.620709384685198],[30.252199372271924,0.623077881856519],[30.251136334738653,0.623169333584021],[30.252963464831474,0.626766931973591],[30.2522520045021,0.62759171974835],[30.25373074056533,0.629151828024991],[30.25526116957201,0.629194864009817],[30.25926196456687,0.631482196056145],[30.26026533798143,0.633276723229761],[30.26291407221855,0.635219439164801],[30.26393720256336,0.641280584193988],[30.262846964782998,0.644005594543031],[30.262794590264093,0.648328308203586],[30.266237431135345,0.653713608043685],[30.259106307088075,0.654711243330153],[30.25127736367297,0.657202784899433],[30.25341118366797,0.660386220691604],[30.2577938904432,0.660978682530476],[30.26309702465964,0.663606007895268],[30.26513405906837,0.662688463468059],[30.267804032140017,0.663511065812773],[30.26388754725937,0.668670067061885],[30.263019337415365,0.673243337775305],[30.258341286433726,0.675390407140944],[30.256372201233773,0.677658682625428],[30.256160404714745,0.679400344415937],[30.253656899367908,0.680850008137601],[30.250941520217438,0.685803831790138],[30.248675697410803,0.687170683853634],[30.25351742698061,0.690941696678359],[30.253291652486737,0.692281436284754]]]}},{"type":"Feature","properties":{"n":"Fort Portal North Division","c":"436202","d":"Fort Portal City","od":"Kabarole","dc":"436","k":"FORTPORTALNORTHDIVISION","a":["FORTPORTALNORTH","FORTPORTALNORTHDIVISION"],"lat":0.639218,"lon":30.239804},"geometry":{"type":"Polygon","coordinates":[[[30.171967855378902,0.6660900706032257],[30.17260812307777,0.6683012941406965],[30.173642853364623,0.6714444985053987],[30.176086578245943,0.675846502398125],[30.176296927373134,0.6770536494384131],[30.177435414916324,0.679015720938977],[30.177435734316436,0.679015943825155],[30.177435764437078,0.6790163233036789],[30.177435836933967,0.67901644824495],[30.177705497743055,0.6824140286887769],[30.179027659175937,0.685280503256797],[30.182400392705112,0.6874167169258624],[30.18242355987386,0.687430669081153],[30.182225347672464,0.6888336420820796],[30.18213339754669,0.6894856661443004],[30.183483483379188,0.691039163514026],[30.18308214901809,0.6976594229107774],[30.183642873002587,0.6986289762218408],[30.184147635725825,0.6993102084856323],[30.186402451236354,0.697660648175031],[30.186402859332595,0.6976605418901036],[30.18640329419696,0.697660223788698],[30.189556340946496,0.696839229535963],[30.18955638663629,0.6968392345956118],[30.18955648296632,0.696839209507338],[30.19277926043301,0.6971961328788504],[30.19487429581464,0.697428135302212],[30.197229490277213,0.69693451855131],[30.19985331891914,0.692760857959525],[30.207134649513584,0.6914684045666378],[30.20972704033355,0.6859287486070146],[30.21022909230859,0.684855770107192],[30.21022924535673,0.684855591339142],[30.210229312151768,0.684855448605444],[30.211128766520215,0.6838049046370469],[30.214043399589016,0.680400464217866],[30.21760655034261,0.6806849804990631],[30.219063148944123,0.680801147549885],[30.219063289359372,0.6808013005754187],[30.219063681530244,0.680801331890119],[30.222189566056368,0.6842083390914169],[30.224468395868715,0.6866918239824138],[30.227837537660026,0.686801911661103],[30.22979339873802,0.686130074348598],[30.23196646919945,0.6805451100131016],[30.23257696470842,0.67897566116725],[30.232577153435226,0.6789756028399028],[30.232577274305882,0.678975292192681],[30.232580398103533,0.6789746000523266],[30.23519408205391,0.678166822632552],[30.23587386540243,0.6782448659665495],[30.236091909248678,0.678196553956026],[30.23620288158749,0.6782826390601056],[30.236336212758815,0.678297946303448],[30.240626928864575,0.681714459536023],[30.240626956897664,0.6817145481971794],[30.240627011393705,0.681714590471656],[30.241393572322643,0.684139094752898],[30.24086456399251,0.6886608079253119],[30.24342513955952,0.6931059506577523],[30.244711079798975,0.695338288890181],[30.24485767951573,0.6954334254397869],[30.25065706551035,0.699195880640158],[30.250656938917086,0.6991968810721427],[30.250658438404905,0.699197854171548],[30.25023625713482,0.7025354492022413],[30.252017607166046,0.7026072170356022],[30.25253830506293,0.7026279409055932],[30.25724861731543,0.70043687122455],[30.25724881283748,0.7004368553911814],[30.257249137926596,0.700436704168976],[30.260352733384348,0.7000597857578673],[30.25670880044948,0.694381475381994],[30.254941488883656,0.6932953581211372],[30.25329295552216,0.692282459689648],[30.25329298984219,0.6922822581686087],[30.253291652486737,0.692281436284754],[30.25351742698061,0.690941696678359],[30.248675697410803,0.687170683853634],[30.248678890107417,0.6871687578672148],[30.248677611098948,0.687167761126002],[30.2506989550446,0.6859501586370795],[30.250941520217438,0.685803831790138],[30.253656899367908,0.680850008137601],[30.256160404714745,0.679400344415937],[30.256372201233773,0.677658682625428],[30.258341286433726,0.675390407140944],[30.260315208663982,0.6744844426768166],[30.26301946097855,0.6732426869097337],[30.26388754725937,0.668670067061885],[30.267804032140017,0.663511065812773],[30.26513441363024,0.6626885727063986],[30.26462073489098,0.6629196808379273],[30.26309702465964,0.663606007895268],[30.26309618076855,0.6636055898073264],[30.26309600267005,0.663605669935251],[30.25964458503973,0.6618955699139553],[30.257793895147937,0.6609786848613377],[30.253411445324286,0.660386282368568],[30.25341142593593,0.6603862534418034],[30.25341118366797,0.660386220691604],[30.25127736367297,0.657202784899433],[30.251277628590575,0.6572027005900708],[30.251277114522484,0.657201933618016],[30.259105964908468,0.654711339015921],[30.259106038754275,0.6547113287267101],[30.259106307088075,0.654711243330153],[30.266237431135345,0.653713608043685],[30.263171633844255,0.6489180806641466],[30.262795074802526,0.648329221112359],[30.26279507662759,0.6483290689745204],[30.262794590264093,0.648328308203586],[30.26284462265019,0.6441989017027536],[30.262846939719545,0.644005750294839],[30.262846963619612,0.644005690562605],[30.262846964782998,0.644005594543031],[30.26393719382656,0.6412806060313014],[30.263698100712762,0.6398641165849808],[30.26291407221855,0.635219439164801],[30.26026533798143,0.633276723229761],[30.25986237667238,0.6325560294097811],[30.259261219264467,0.631481769952314],[30.255385597593822,0.629266001921687],[30.255261104081743,0.629194862168217],[30.25373074056533,0.629151828024991],[30.253730485981595,0.629151559431967],[30.253730385359095,0.629151556594631],[30.25354244195847,0.6289531676809652],[30.2522520045021,0.62759171974835],[30.2529634543163,0.626766944163709],[30.2529547028106,0.6267496796540666],[30.251136334738653,0.623169333584021],[30.252199372271924,0.623077881856519],[30.25346342718562,0.620709384685198],[30.252860797223203,0.618672510882774],[30.255715475106648,0.618624026737531],[30.259087107731542,0.61437712314585],[30.259087298642942,0.614377106821654],[30.259087324837036,0.614377073815992],[30.26365782753473,0.613986038195227],[30.263657880562214,0.6139862916310217],[30.263660625837797,0.613986056891678],[30.26549436196428,0.62276249263761],[30.266292180177196,0.6232221024799165],[30.267616647222923,0.6239848025522847],[30.27877649393128,0.617341029716888],[30.28108862449882,0.619480914689694],[30.282039360832076,0.621946863829336],[30.28607193918145,0.6217983856607942],[30.291856224315147,0.6191781073091486],[30.292329947679953,0.6189634925395572],[30.30026996780653,0.6126756770647156],[30.300275458239227,0.612671233431487],[30.30028712359025,0.6126379697704164],[30.301096197281037,0.6103304167037646],[30.30027549028685,0.608352525126628],[30.300467805544407,0.6074758352931532],[30.3016734460512,0.601979368830718],[30.30167356100555,0.6019792690410777],[30.301673756290135,0.601978378815247],[30.306388048990627,0.597886503747339],[30.306833318411833,0.5941920590665584],[30.30684106597488,0.594127751813464],[30.30345777246201,0.589471654434016],[30.299126183133726,0.587418017174139],[30.29755487891525,0.582853729336726],[30.290781253736977,0.575812197692933],[30.28840221150889,0.578558166551945],[30.28822934271104,0.580610802961219],[30.286258172663437,0.582183940514568],[30.28527750479795,0.5821061176080112],[30.2851,0.5828],[30.279818672813416,0.5813961028997688],[30.278942689849067,0.581686553612777],[30.278526734801872,0.5810526763397379],[30.27747503961608,0.5807731117966793],[30.2761550653309,0.582013714567126],[30.275348186378974,0.5819318586261614],[30.27087040230144,0.5849105584690426],[30.269806965695402,0.586521457948171],[30.26737020328381,0.587238951728595],[30.264595775695756,0.5890845492110844],[30.263524215425708,0.591158166494127],[30.260056585746383,0.5921040973078422],[30.256611231331608,0.5943960069837573],[30.25656507298353,0.594527525595777],[30.254238438085146,0.59598092688473],[30.252656634717628,0.601563363102222],[30.25104922251958,0.607236221540527],[30.248907707559827,0.611899962663081],[30.244446702821847,0.616308800086205],[30.240239094680035,0.6177531153190287],[30.239961162759297,0.6178485301431726],[30.234535763603272,0.621203653411827],[30.22538411638318,0.6245095085514853],[30.224724400586886,0.6253223203844951],[30.21990995933546,0.6312541520148045],[30.21985047888871,0.6319465955322149],[30.21935724966708,0.637698240963272],[30.216486201967705,0.6385470855997792],[30.21640333830327,0.6385716181354332],[30.214832697253023,0.641208107556721],[30.21482981096034,0.641209906943703],[30.21189488265197,0.643191804314069],[30.21110787209734,0.6435302566347878],[30.210681530390527,0.643796048708251],[30.21053710088877,0.6437757156556404],[30.21012509274726,0.643952898935877],[30.208400422627967,0.6434851753325699],[30.206409725512415,0.644483991034009],[30.20551505857946,0.6446470937551285],[30.197534822666892,0.646102093743782],[30.197534528250163,0.6461019884927587],[30.197534339997937,0.646102022812179],[30.185818959256867,0.641913937078659],[30.183706889054694,0.6384806223987022],[30.176000056953495,0.6415097019537347],[30.167158886265327,0.6482374226359092],[30.166365336917714,0.6488412881937776],[30.166752037944466,0.6501792346722313],[30.16699384287084,0.6507452217965958],[30.1704030157282,0.653444423372407],[30.17040584757354,0.6534826441929134],[30.171967855378902,0.6660900706032257]]]}}]}
