{"type":"FeatureCollection","name":"Kaberamaido sub-counties","metadata":{"source":"Uganda Bureau of Statistics NPHC 2024 Map Explorer","retrieved":"2026-07-26","display_only":true,"clipped_to_dashboard_district":true,"positive_area_overlaps_removed":true,"source_gap_ratio":0.00928226},"features":[{"type":"Feature","properties":{"n":"Alwa","c":"213101","d":"Kaberamaido","od":"Kaberamaido","dc":"213","k":"ALWA","a":["ALWA"],"lat":1.836708,"lon":33.151218},"geometry":{"type":"Polygon","coordinates":[[[33.1148,1.8213],[33.11474667682427,1.8217905732167383],[33.115199322262065,1.822699061636731],[33.11464575968858,1.825883253533628],[33.114218915998556,1.8266459728133215],[33.113339668851935,1.8347350465622145],[33.11367630528712,1.839309460460104],[33.1118376448765,1.848863597859585],[33.111937608361906,1.8491030287306767],[33.11771173979255,1.8576222390381811],[33.118432782742566,1.8578799370515353],[33.12016234700079,1.8578148070167066],[33.13236018305684,1.853856351838344],[33.14163434365832,1.8570062381049168],[33.1418,1.857],[33.14192117529052,1.857300918638118],[33.14418266276271,1.860599733443434],[33.14416649242971,1.8628767895337748],[33.14779352043753,1.8718839090865431],[33.147813240664945,1.871898651401307],[33.1478264141293,1.8719031879121566],[33.15878103835375,1.8732252977323491],[33.16018311727918,1.872530963785516],[33.16492378728133,1.87396666398223],[33.1652,1.874],[33.183719218962246,1.8917826591171556],[33.18999897714112,1.882734072680125],[33.19282065909044,1.881445001663413],[33.19448122683764,1.881707137704948],[33.19668651912718,1.880108133755998],[33.197668455091794,1.876569487772964],[33.200026641877734,1.873241336562316],[33.20330944741063,1.870701593951216],[33.20938281372609,1.867895885576965],[33.2099392636259,1.863484890419423],[33.21127926969373,1.861427204172534],[33.21308088292116,1.860330780270699],[33.21806603833164,1.860821376737031],[33.22097712796809,1.859817204475301],[33.22305798213537,1.850261942949385],[33.22782107189769,1.849901053734144],[33.22853862426227,1.84866023139716],[33.229279830902136,1.844762500278072],[33.23127264929319,1.842335882248819],[33.22916759940968,1.841090923117755],[33.20815616784986,1.842172703603071],[33.202002559634884,1.838680294472616],[33.192951309546174,1.841345783344776],[33.18519213996543,1.84253551383451],[33.186384184503765,1.839556689059042],[33.192632741071776,1.832620914455825],[33.19257054751862,1.83115367653256],[33.191455439511714,1.831570104763117],[33.18161726526761,1.829930292163264],[33.1766809413534,1.824968496557549],[33.170350174365275,1.821091090243873],[33.16806910537441,1.816521237450591],[33.1695789795822,1.805317662490832],[33.16887188657694,1.803099703408623],[33.16929649294362,1.799110766798762],[33.16804209648931,1.797344218182953],[33.164070200377225,1.795033788931193],[33.16205374234333,1.794241785778366],[33.15713891001135,1.794108438681231],[33.15192208247878,1.796082464220151],[33.148979064519295,1.795692865327537],[33.14657875938219,1.796591160281392],[33.13893445953781,1.801416626400102],[33.13404496157552,1.800807486914306],[33.12849405604748,1.792822293941244],[33.125981894804745,1.790742242158829],[33.11859257370747,1.792316567866731],[33.115580140409364,1.79145036307119],[33.110743593177965,1.788339328544444],[33.10676731795035,1.787696040578401],[33.102319447365474,1.7850563967747333],[33.101975276055605,1.7866448797433596],[33.101576863955586,1.789722361684992],[33.1148,1.8213]]]}},{"type":"Feature","properties":{"n":"Aperikira","c":"213102","d":"Kaberamaido","od":"Kaberamaido","dc":"213","k":"APERIKIRA","a":["APERIKIRA"],"lat":1.710502,"lon":33.229918},"geometry":{"type":"Polygon","coordinates":[[[33.20024734794492,1.715734676378949],[33.20503855780337,1.722943265589094],[33.21289794254907,1.73189587731516],[33.21430913265025,1.744032207618879],[33.21919131758355,1.749046603914931],[33.22275232467821,1.749461964826236],[33.22796847784413,1.752597603889632],[33.23015508554122,1.756783958055618],[33.22782022885947,1.76955974321616],[33.22832357198098,1.769899444507998],[33.22772394140234,1.774877076613196],[33.22448503891712,1.784426018925994],[33.22241862943617,1.801967454257999],[33.22220198985991,1.807391650974646],[33.22343832934679,1.807492489167061],[33.224508314850155,1.821452230773529],[33.231952867364704,1.819217049389558],[33.230149745922155,1.815181827934433],[33.23240338342745,1.814713185705831],[33.23232346163476,1.813223830417516],[33.23424623655457,1.812018650424932],[33.234628739385656,1.805796557300639],[33.23796659278722,1.797784714345489],[33.239072457619564,1.797294892814526],[33.23939792308562,1.79864614746795],[33.2442474823822,1.802020217146042],[33.24928341451817,1.802766780314005],[33.25442557495508,1.800692015480392],[33.25493674325174,1.795226860570048],[33.27138525809055,1.807461588766733],[33.30277351712559,1.810918249416659],[33.302790748865796,1.8109063749802994],[33.29969252822474,1.807793893680369],[33.29654002637323,1.799407075669731],[33.29595755431029,1.783294948728952],[33.290791063955915,1.7709715915863433],[33.2907,1.7708],[33.29070505396508,1.770766436488355],[33.29069994934782,1.770754260713851],[33.29059339814477,1.765929120942493],[33.29251993684888,1.7587137527215115],[33.29454971347163,1.745233954124322],[33.29454982430509,1.744880357870232],[33.28589783789177,1.732407067224572],[33.28588400571626,1.7323932331876495],[33.2651,1.7236],[33.265099599951974,1.7235988655354653],[33.26502659656427,1.723578416837731],[33.26360427525991,1.72125248208383],[33.262929938427355,1.7174460940477332],[33.258635897742074,1.70526896374617],[33.25657216682694,1.7027091380968367],[33.25602275264447,1.7021407785977263],[33.2463283530018,1.694592773747871],[33.243260402630185,1.690575813382398],[33.24187384586527,1.6875039784813148],[33.241,1.6866],[33.20852861910077,1.6136295912570076],[33.204956258627846,1.605715236895428],[33.1970894351836,1.641388249335737],[33.191309612344966,1.675872316983875],[33.196022425669355,1.690961345691332],[33.20024734794492,1.715734676378949]]]}},{"type":"Feature","properties":{"n":"Kaberamaido","c":"213103","d":"Kaberamaido","od":"Kaberamaido","dc":"213","k":"KABERAMAIDO","a":["KABERAMAIDO"],"lat":1.759959,"lon":33.197877},"geometry":{"type":"Polygon","coordinates":[[[33.11074397317612,1.788339483535065],[33.113063487594424,1.7898315649028853],[33.115580140409364,1.79145036307119],[33.11859257370747,1.792316567866731],[33.125981894804745,1.790742242158829],[33.12598219627014,1.7907424917700432],[33.12598226715554,1.790742476666123],[33.12694486239841,1.791539572531394],[33.12849405604748,1.792822293941244],[33.12849425059883,1.7928225738109025],[33.12849427181628,1.792822591380432],[33.128536767512905,1.7928837360414305],[33.13404493104928,1.8008074430011287],[33.13438182395976,1.8008494536317687],[33.13893425132159,1.801416600460277],[33.14558249002289,1.7972200555545048],[33.14657875938219,1.796591160281392],[33.14657885115258,1.7965911259370573],[33.14657885246703,1.796591125107343],[33.14658386601842,1.7965892491637248],[33.148979064519295,1.795692865327537],[33.148979383100055,1.7956929075014936],[33.148979629030265,1.795692815480654],[33.15089496615711,1.7959464938023633],[33.15192208247878,1.796082464220151],[33.15689479705441,1.7942008099947098],[33.157138687855316,1.794108511824474],[33.15713871478312,1.794108512554767],[33.15713891001135,1.794108438681231],[33.16205374234333,1.794241785778366],[33.164070200377225,1.795033788931193],[33.16804209648931,1.797344218182953],[33.16929649294362,1.799110766798762],[33.1692964170851,1.7991114794466472],[33.1692964507895,1.799111526896617],[33.16916910441467,1.800307509963004],[33.16887188657694,1.803099703408623],[33.1695789795822,1.805317662490832],[33.16957891405829,1.8053181486915844],[33.169578924771365,1.805318182296816],[33.16806917970838,1.8165213863699403],[33.170350134830116,1.8210910110398493],[33.17301026358629,1.822720315701049],[33.1766809413534,1.824968496557549],[33.17671160472952,1.8249993181582993],[33.18161857682238,1.8299305107713086],[33.191455439511714,1.831570104763117],[33.19257054751862,1.83115367653256],[33.192632741071776,1.832620914455825],[33.186384184503765,1.839556689059042],[33.18519213996543,1.84253551383451],[33.1929512808287,1.8413457877480885],[33.1937561238732,1.84110877479769],[33.202002559634884,1.838680294472616],[33.2020026078167,1.8386803218176497],[33.202002704030505,1.838680293484278],[33.20200716279213,1.8386829069412383],[33.20805972842359,1.84211797052273],[33.21213207541381,1.8419680026905294],[33.213940636926175,1.8418748883044391],[33.21402276366625,1.837801029944533],[33.215710778457584,1.835505048964108],[33.2159809760658,1.832612798441643],[33.219913965304286,1.83050975344927],[33.21775774724426,1.827997307860356],[33.21896202928365,1.82708016589494],[33.216757123995194,1.823414349054491],[33.224503285757024,1.822239976358925],[33.22343957402976,1.807508728127862],[33.22343832934679,1.807492489167061],[33.22220198985991,1.807391650974646],[33.22220215819491,1.8073874362223956],[33.22220210522212,1.807387431885888],[33.222418624056786,1.801967542570105],[33.22241862685915,1.8019675187811182],[33.22241862943617,1.801967454257999],[33.22326203439498,1.7948079180286267],[33.224484980320675,1.784426454503639],[33.22448499161143,1.784426420496762],[33.22448503891712,1.784426018925994],[33.22448910515169,1.784414030840681],[33.22776291016207,1.7745535905261498],[33.22832357198098,1.769899444507998],[33.22782022885947,1.76955974321616],[33.22782104629425,1.7695552704058124],[33.22782093660669,1.769555195504442],[33.22842322055673,1.7662603148452711],[33.23015502071405,1.7567843127746143],[33.22818327581397,1.7530088438103018],[33.22796847784413,1.752597603889632],[33.225843127647885,1.751319970567381],[33.22275223504006,1.7494619543707157],[33.21919131758355,1.749046603914931],[33.21430913265025,1.744032207618879],[33.21289797076457,1.731896119970408],[33.20518293380003,1.7231077240400443],[33.20503855780337,1.722943265589094],[33.205038547022625,1.7229432493689794],[33.20503853403804,1.722943234577907],[33.20460232996039,1.7222869413171487],[33.20024734794492,1.715734676378949],[33.200247337077585,1.7157346126570807],[33.200247286584926,1.715734536688067],[33.19688622649361,1.696026343831362],[33.196022434127435,1.6909613952862959],[33.191309606671666,1.675872339836176],[33.18949146955108,1.691668773496157],[33.18061035449029,1.708411075435818],[33.176810422979116,1.720261905833224],[33.172061037759306,1.728070465932642],[33.16953768049319,1.729960853798757],[33.165397917286136,1.731540045086405],[33.14534001219067,1.73386544005313],[33.14414990689291,1.735037540121349],[33.14385105238757,1.73683526636179],[33.1457185025516,1.740276633197352],[33.14523506949906,1.742750050442629],[33.144059387607136,1.744692553859939],[33.139515134229576,1.748688362920819],[33.13664012864895,1.746933444472097],[33.135798117028024,1.747235303431261],[33.135284110442115,1.746165785599546],[33.13192473574849,1.745323807039815],[33.127577722569676,1.746855269341612],[33.121931772794206,1.746920828181066],[33.122507534119165,1.747959677798325],[33.1218936624884,1.748925774410509],[33.110140872206934,1.751577978033489],[33.10955774330094,1.757246242723172],[33.11064551482463,1.759155289417387],[33.112417455801356,1.760762808912914],[33.11642361004817,1.761409908102935],[33.11981083249725,1.766058045924132],[33.11772875931773,1.76968762608786],[33.114781381922015,1.771356230184437],[33.113847427599985,1.772794795236993],[33.113985570671325,1.774230834843218],[33.10882263315069,1.777207996207621],[33.10407091449696,1.77833776111963],[33.10286506467704,1.782538163029035],[33.102319447365474,1.7850563967747344],[33.10676731795035,1.787696040578401],[33.110743593177965,1.788339328544444],[33.110743787422734,1.7883394534893988],[33.11074397317612,1.788339483535065]],[[33.14229031942956,1.76528878465724],[33.142023078365185,1.763190885682242],[33.144134304125885,1.76174714649922],[33.14450638864501,1.75734781749117],[33.14535681535642,1.757093849001486],[33.1458036614165,1.755543303039733],[33.14712700868557,1.755102594060335],[33.147375877618536,1.753298476649464],[33.150218428435196,1.75344938850501],[33.15058752528859,1.752293482413952],[33.15338477051418,1.752889501705147],[33.156240551096786,1.751965822735727],[33.15611359317288,1.750424496186722],[33.16033473818494,1.749720239478702],[33.161672303021575,1.750835380449855],[33.16080037319402,1.75352873112676],[33.16327587888531,1.754292835093728],[33.16532345381557,1.758590216856269],[33.16583344843005,1.758419137447073],[33.16783679456435,1.767318259459107],[33.1686461205205,1.767542101110607],[33.170064439514995,1.772982343320421],[33.16878706322665,1.780013122207625],[33.17132837243263,1.784344302197162],[33.16413082092647,1.782754726980044],[33.160555526632166,1.779877560799689],[33.15665029961635,1.778040660870043],[33.15571088263996,1.779037820402101],[33.152564732267564,1.778938685633511],[33.15210744485497,1.779809165880586],[33.150361066300825,1.778957753773154],[33.14834743284804,1.779591035205719],[33.14656650790448,1.775856066820714],[33.14432850347604,1.776828522257811],[33.142605033690124,1.767979472964825],[33.14047992216919,1.769038366909618],[33.14002901802158,1.766719032267894],[33.1407474908658,1.764615689228428],[33.14229031942956,1.76528878465724]]]}},{"type":"Feature","properties":{"n":"Kaberamaido Town Council","c":"213104","d":"Kaberamaido","od":"Kaberamaido","dc":"213","k":"KABERAMAIDOTOWNCOUNCIL","a":["KABERAMAIDO","KABERAMAIDOTOWNCOUNCIL","TOWNCOUNCIL"],"lat":1.767019,"lon":33.153928},"geometry":{"type":"Polygon","coordinates":[[[33.14260658817671,1.767984689049428],[33.14299612574436,1.7699875109904084],[33.14432850347604,1.776828522257811],[33.14656650790448,1.775856066820714],[33.1465676332581,1.7758584269202866],[33.14656803949536,1.775858250129964],[33.14746335307403,1.7777369368521132],[33.14834743284804,1.779591035205719],[33.150361066300825,1.778957753773154],[33.15036173577457,1.7789580801617537],[33.150362085856784,1.778957970153376],[33.15210748287838,1.7798090935002242],[33.152564732267564,1.778938685633511],[33.15256607431027,1.7789387279210935],[33.152566159110336,1.778938566120732],[33.15312501081386,1.778956339933992],[33.15571088263996,1.779037820402101],[33.15665029961635,1.778040660870043],[33.15665232810915,1.778041615011319],[33.156652600727,1.778041325676937],[33.160390972901475,1.7798001597330906],[33.160555526632166,1.779877560799689],[33.16413082092647,1.782754726980044],[33.17132837243263,1.784344302197162],[33.16878706322665,1.780013122207625],[33.17006437183031,1.7729827158622313],[33.169152407592236,1.76948406501903],[33.1686461205205,1.767542101110607],[33.167843243544965,1.767320043104449],[33.167836807590966,1.767318305567907],[33.16783679738825,1.7673182602401343],[33.16783679456435,1.767318259459107],[33.16583344843005,1.758419137447073],[33.16532345381557,1.758590216856269],[33.16327587888531,1.754292835093728],[33.16080037319402,1.75352873112676],[33.161672303021575,1.750835380449855],[33.16033473818494,1.749720239478702],[33.15611359317288,1.750424496186722],[33.156240551096786,1.751965822735727],[33.15338477051418,1.752889501705147],[33.15058836225052,1.7522936607484962],[33.15049755423296,1.7525752461035304],[33.150218428435196,1.75344938850501],[33.147375877618536,1.753298476649464],[33.14712700868557,1.755102594060335],[33.1458036614165,1.755543303039733],[33.14535681535642,1.757093849001486],[33.144506754697325,1.7573477081745754],[33.144185782523245,1.7611384933702572],[33.144134304125885,1.76174714649922],[33.142023078365185,1.763190885682242],[33.14229031942956,1.76528878465724],[33.1407474908658,1.764615689228428],[33.14074512221207,1.7646226235076838],[33.140542279154076,1.766673315322647],[33.14004457139906,1.7666734994568414],[33.14002901802158,1.766719032267894],[33.14047992216919,1.769038366909618],[33.142605033690124,1.767979472964825],[33.1426060970735,1.7679849328411654],[33.14260658817671,1.767984689049428]]]}},{"type":"Feature","properties":{"n":"Oriamo","c":"213105","d":"Kaberamaido","od":"Kaberamaido","dc":"213","k":"ORIAMO","a":["ORIAMO"],"lat":1.851962,"lon":33.240802},"geometry":{"type":"Polygon","coordinates":[[[33.19840993361427,1.9058890839818814],[33.19925277900588,1.9066984071136028],[33.20084918644895,1.9078466976011281],[33.2206,1.9099],[33.22069337617534,1.909836306317482],[33.229236886313515,1.901376378689136],[33.235760250539045,1.899155351021856],[33.23911122429337,1.8744251647149548],[33.238522091795964,1.871036193081201],[33.23692278842827,1.86688805501978],[33.240677817478534,1.862863707008402],[33.2407,1.8627],[33.240927945246234,1.8625956395258205],[33.24373788011153,1.85958416993773],[33.249835297041244,1.856587875135254],[33.254529844980766,1.855638308069853],[33.25752540125315,1.853628944233295],[33.260387853560815,1.8501983023894755],[33.264616104510374,1.8434863236094083],[33.26447997984865,1.84093776801718],[33.26532110232293,1.838995868154366],[33.27154278409547,1.832429700680785],[33.271599168275245,1.83240132029035],[33.2716,1.8324],[33.28019325095909,1.8264783687301167],[33.28089107622363,1.825679324732077],[33.284186361878334,1.8237267057569162],[33.290157403973346,1.8196120453388802],[33.29417632049266,1.815321016287391],[33.3026233280899,1.811021745066253],[33.30274292328256,1.81093933171234],[33.27138540964538,1.807461633807853],[33.271385364928925,1.8074616005324067],[33.27138525809055,1.807461588766733],[33.25493674325174,1.795226860570048],[33.25442557495508,1.800692015480392],[33.25441491746609,1.8006963155763593],[33.250789392021126,1.802569267522546],[33.24974382342334,1.8025810139970544],[33.24928341451817,1.802766780314005],[33.24815103552364,1.8025989082246554],[33.24572447795944,1.802626169464742],[33.24476576076968,1.8020970504997091],[33.2442474823822,1.802020217146042],[33.24279309299129,1.8010083290869654],[33.24115936429653,1.800106669196694],[33.23939892745742,1.7986468462573117],[33.23939792308562,1.79864614746795],[33.239072457619564,1.797294892814526],[33.23796659278722,1.797784714345489],[33.234628739385656,1.805796557300639],[33.23424623655457,1.812018650424932],[33.23232346163476,1.813223830417516],[33.23240338342745,1.814713185705831],[33.230149745922155,1.815181827934433],[33.230161270265846,1.815207618365312],[33.23198894123205,1.818770999176596],[33.231872116531385,1.8190363363840716],[33.231952867364704,1.819217049389558],[33.23176812966706,1.8192725157539753],[33.231524606892634,1.819825614991989],[33.22703862349999,1.8206925210691818],[33.22548874341362,1.8211578630907057],[33.22446972554037,1.821775203930838],[33.224503285757024,1.822239976358925],[33.223435274706816,1.8224018943583797],[33.22295907057474,1.822690388080313],[33.22234387757374,1.8225673578527535],[33.216757123995194,1.823414349054491],[33.21896202928365,1.82708016589494],[33.21775781601535,1.8279972554865327],[33.21785053237786,1.828105421971801],[33.219913965304286,1.83050975344927],[33.2159809760658,1.832612798441643],[33.215710778457584,1.835505048964108],[33.21402276366625,1.837801029944533],[33.21395986333361,1.8409211713957718],[33.2139407112859,1.8418748844760042],[33.22916759940968,1.841090923117755],[33.23127264929319,1.842335882248819],[33.23127065562478,1.842338309901892],[33.23127156057407,1.842338846543245],[33.22946842643074,1.8445328509974297],[33.229279834844924,1.8447624954770105],[33.229279820825866,1.8447625532654337],[33.22853862426227,1.84866023139716],[33.228186595119936,1.8492689752946556],[33.22816247012943,1.849368421720111],[33.228125329134016,1.8493749190662698],[33.22782107189769,1.849901053734144],[33.22305798213537,1.850261942949385],[33.22305097077723,1.850294139035851],[33.220977940169405,1.859816168058456],[33.22097730600002,1.8598163869544608],[33.22097712796809,1.859817204475301],[33.21806603833164,1.860821376737031],[33.21308088292116,1.860330780270699],[33.21148841559008,1.8612999223807267],[33.2112792306186,1.8614272641755207],[33.2099392636259,1.863484890419423],[33.20938281372609,1.867895885576965],[33.20938175346591,1.8678963753845454],[33.20938169333401,1.867896851433933],[33.203666030584806,1.8705368634959916],[33.20330944741063,1.870701593951216],[33.20002667532348,1.8732413106870156],[33.197668441524144,1.876569536667291],[33.197519584829074,1.8771059781105792],[33.1966867944321,1.880107816066467],[33.1966865601424,1.8801079859476135],[33.19668651912718,1.880108133755998],[33.19448122683764,1.881707137704948],[33.192820810527785,1.8814450255692052],[33.191868625295164,1.881879933450363],[33.189999178486694,1.882733980696428],[33.18371930874129,1.8917827453254437],[33.19244842117475,1.9001646771507588],[33.19468508161216,1.900950728834427],[33.19840993361427,1.9058890839818814]]]}},{"type":"Feature","properties":{"n":"Kobulubulu","c":"213201","d":"Kaberamaido","od":"Kaberamaido","dc":"213","k":"KOBULUBULU","a":["KOBULUBULU"],"lat":1.726917,"lon":33.125255},"geometry":{"type":"Polygon","coordinates":[[[33.08381950562726,1.731875477494917],[33.08651752755237,1.73575607420581],[33.08670722996895,1.738081149085866],[33.08394701100487,1.748069791614825],[33.089747379830165,1.755361666963188],[33.091241178295725,1.7587647963301063],[33.104,1.7773],[33.103854969911296,1.7779693696401742],[33.10407091451184,1.778337748459154],[33.10474749401137,1.7781768981032624],[33.10882263315069,1.777207996207621],[33.113985570671325,1.774230834843218],[33.113847427599985,1.772794795236993],[33.114781381922015,1.771356230184437],[33.11758861190083,1.769766967998504],[33.11772886723828,1.769687437955042],[33.11981083249725,1.766058045924132],[33.11642361004817,1.761409908102935],[33.112417455801356,1.760762808912914],[33.11064551482463,1.759155289417387],[33.10955774330094,1.757246242723172],[33.10955781223234,1.7572455726802028],[33.109557749871016,1.757245463192696],[33.10959591008587,1.7568752450978706],[33.110140872206934,1.751577978033489],[33.11014195075775,1.7515777346413821],[33.11014199193553,1.75157733514789],[33.11660489208776,1.7501192693748329],[33.1218936624884,1.748925774410509],[33.122507534119165,1.747959677798325],[33.121931772794206,1.746920828181066],[33.12193757994686,1.7469207607503938],[33.12193706105812,1.746919816071062],[33.12757789235979,1.7468552095241818],[33.129987674933716,1.7460062378243753],[33.13192398153617,1.745323968410574],[33.131924154609806,1.745324011776252],[33.13192473574849,1.745323807039815],[33.135284110442115,1.746165785599546],[33.135798117028024,1.747235303431261],[33.13660343875083,1.7469465977044056],[33.13663957265529,1.746933432868345],[33.136639790121414,1.74693356583333],[33.13664012864895,1.746933444472097],[33.139515134229576,1.748688362920819],[33.14405910223877,1.7446928047872965],[33.145235089726185,1.7427499469533785],[33.1457185025516,1.740276633197352],[33.14385105238757,1.73683526636179],[33.14414990689291,1.735037540121349],[33.14534001219067,1.73386544005313],[33.16539791427693,1.731540045435274],[33.16953775849188,1.7299607953655862],[33.172061037759306,1.728070465932642],[33.173464280390746,1.7257633663998504],[33.1768104561233,1.720261802466608],[33.18061035449029,1.708411075435818],[33.18061039345734,1.7084110019767813],[33.18061040592023,1.708410963108449],[33.18140196675462,1.7069187615250279],[33.18949145461757,1.691668801648187],[33.191198638022094,1.676662694983926],[33.18192920382636,1.683707861555838],[33.168971822413944,1.690539069173253],[33.16421200704292,1.694318626354968],[33.15301901621638,1.692014350566669],[33.15049647892281,1.692899929536602],[33.14761687061639,1.695268007505161],[33.14706758257342,1.698305871629171],[33.13219400561706,1.708616174471921],[33.127732810787556,1.717015030845588],[33.12469462050968,1.716139300570164],[33.12432734142713,1.715387337667749],[33.12759040360571,1.705298443809193],[33.130289556980664,1.703864847616984],[33.13041478414688,1.701138509106996],[33.12463496385798,1.697914235263451],[33.117273378286896,1.695969852665326],[33.11633042080027,1.693793097453406],[33.111526160128534,1.694752814597406],[33.108854016322496,1.692470290653517],[33.107148880152195,1.693724180022898],[33.104912017385956,1.692768456078146],[33.09755046525194,1.687377318327872],[33.091261480281894,1.680289139707474],[33.088034547673146,1.67384682571634],[33.08250187903772,1.689211058397832],[33.0817394577558,1.690861506849103],[33.07887383765624,1.693130690878883],[33.07552223643978,1.701816159478501],[33.07419059288732,1.702831555088307],[33.07089536518851,1.702732174363478],[33.069514045614376,1.70559727380024],[33.067064750957165,1.706845103163102],[33.0641937049925,1.711007018340755],[33.064047499355844,1.717611611440572],[33.07293870521188,1.72299124269875],[33.08381950562726,1.731875477494917]]]}},{"type":"Feature","properties":{"n":"Ochero","c":"213202","d":"Kaberamaido","od":"Kaberamaido","dc":"213","k":"OCHERO","a":["OCHERO"],"lat":1.587963,"lon":33.033829},"geometry":{"type":"Polygon","coordinates":[[[32.98767101352967,1.649147855174283],[32.989322359761395,1.647427332101369],[32.994441526851595,1.644944943689624],[32.9993547957462,1.655042900998446],[33.004515899617076,1.653883925174995],[33.007621903197375,1.649714550150018],[33.011321688707866,1.648792468147112],[33.011421931539516,1.64713306653902],[33.01561181985164,1.647748887793089],[33.02054200186738,1.64461944171437],[33.023557608434636,1.649944363092776],[33.022617336804146,1.658326540616185],[33.023451119281965,1.660261169286031],[33.023047140208895,1.664793932786752],[33.02467962314725,1.666513346898488],[33.02781648228806,1.660772054261664],[33.02850463812128,1.656009249689146],[33.035358496417956,1.650941973537673],[33.03948579021766,1.651222684532536],[33.048209812224165,1.648395689380482],[33.0529599239613,1.649179933927509],[33.06037805247227,1.655147304610882],[33.06184770382503,1.660482609419466],[33.04905991481586,1.666450943892176],[33.04695367618985,1.668653917163186],[33.04630269790694,1.670836834246099],[33.037890655809555,1.675667124060893],[33.034013022334214,1.675114575214503],[33.03194105982871,1.67607009229323],[33.030784782067975,1.677645184964846],[33.03022659245757,1.680434509366582],[33.05294060961118,1.683118145744631],[33.052667016485884,1.686545475208626],[33.05340921332996,1.688785993008779],[33.051814840313405,1.692057330091076],[33.046119951655896,1.698832790545561],[33.042849191464576,1.70730971894771],[33.04879639178944,1.708769588266409],[33.0640474882029,1.71761160469502],[33.06405298322325,1.7173638869775927],[33.0641937049925,1.711007018340755],[33.067064750957165,1.706845103163102],[33.06880850371745,1.705956722547301],[33.0695145367869,1.7055962550221573],[33.07089536518851,1.702732174363478],[33.07393337060062,1.7028237975250577],[33.07419079386967,1.702831401836637],[33.07552217025326,1.7018162099465894],[33.07587918194752,1.7008911571291667],[33.07887383765624,1.693130690878883],[33.081495073933816,1.691055025824654],[33.08173952627342,1.6908613585258707],[33.08174058264098,1.6908590717583698],[33.08664746213906,1.676870188401596],[33.08770367140692,1.6747656698181674],[33.088034547673146,1.67384682571634],[33.08809961917459,1.6739767357873043],[33.09477948012513,1.660666976128036],[33.095912053917964,1.655297823362368],[33.09267520123887,1.632210237272673],[33.09260751062073,1.624150990343279],[33.105399681735946,1.561652898002359],[33.06232815000651,1.535545758135738],[33.04872557507657,1.525221587645361],[33.0373000965834,1.51404109661911],[33.03094052431842,1.506023776518489],[33.02598998461224,1.49769954956533],[33.025030006147276,1.4943355504723614],[33.0245,1.4933],[33.01591857013834,1.46240685249802],[33.0154897076421,1.460904013527125],[32.97370391912689,1.4771984717280313],[32.97381361619866,1.4886042259407497],[32.9745,1.5575],[32.97446375117516,1.557625360519246],[32.973307934588675,1.563637012194129],[32.97115518131925,1.5690674979376127],[32.96742905364765,1.5819536894685557],[32.96732204435132,1.582390298853039],[32.96796346087662,1.593535231994327],[32.967228941768035,1.608190106139204],[32.967109789742594,1.608458805265215],[32.9671,1.6098],[32.9628,1.6229],[32.9451,1.6421],[32.98158464890481,1.6630396331263],[32.991474018567956,1.651847829117581],[32.98767101352967,1.649147855174283]]]}},{"type":"Feature","properties":{"n":"Ochero Town Council","c":"213203","d":"Kaberamaido","od":"Kaberamaido","dc":"213","k":"OCHEROTOWNCOUNCIL","a":["OCHERO","OCHEROTOWNCOUNCIL"],"lat":1.676858,"lon":33.013556},"geometry":{"type":"Polygon","coordinates":[[[32.99499173443262,1.692074560851629],[33.000519594936875,1.688856795448162],[33.00180204683148,1.692791431859814],[33.004057773344314,1.695465946630661],[33.00613111439602,1.696589015382381],[33.00417199186878,1.699920299539312],[33.00619731731821,1.701816581159197],[33.00990241422834,1.7100233310898174],[33.011108376001964,1.7097488397905969],[33.0160074457608,1.707603697691693],[33.021358206362294,1.707415856014552],[33.02395116718333,1.706825667170959],[33.02599327923334,1.706065115648233],[33.04284917995031,1.707309717951212],[33.04429634534138,1.7035590863476482],[33.046119951655896,1.698832790545561],[33.051814840313405,1.692057330091076],[33.05340921332996,1.688785993008779],[33.052667016485884,1.686545475208626],[33.05294060961118,1.683118145744631],[33.03022659245757,1.680434509366582],[33.030784782067975,1.677645184964846],[33.03194105982871,1.67607009229323],[33.034013022334214,1.675114575214503],[33.037890655809555,1.675667124060893],[33.0463025057533,1.6708369445828921],[33.046432709773825,1.6704008671291364],[33.04695367618985,1.668653917163186],[33.04695460385602,1.6686529468914615],[33.04695469990731,1.66865262519786],[33.04828133122236,1.6672652860206174],[33.04905991481586,1.666450943892176],[33.06184770382503,1.660482609419466],[33.06037805247227,1.655147304610882],[33.0529599239613,1.649179933927509],[33.048209812224165,1.648395689380482],[33.03948579021766,1.651222684532536],[33.03948563906439,1.6512226742520983],[33.039485397726864,1.651222752457371],[33.038774669362155,1.6511743188351795],[33.035358496417956,1.650941973537673],[33.02850463812128,1.656009249689146],[33.02781648228806,1.660772054261664],[33.02467962314725,1.666513346898488],[33.023047140208895,1.664793932786752],[33.023451119281965,1.660261169286031],[33.022617336804146,1.658326540616185],[33.023557600650896,1.649944432481999],[33.020541931297835,1.6446194865085764],[33.01561181985164,1.647748887793089],[33.01561174894774,1.6477488773717774],[33.01561167693443,1.647748923119605],[33.011421901306626,1.6471335670088367],[33.011321688707866,1.648792468147112],[33.0083695501731,1.6495282172345314],[33.00762153409966,1.6497150456120289],[33.004515899617076,1.653883925174995],[32.9993547957462,1.655042900998446],[32.994441526851595,1.644944943689624],[32.98940678987509,1.6473863902191939],[32.98932231400849,1.6474273797709207],[32.98767101352967,1.649147855174283],[32.991474018567956,1.651847829117581],[32.98158464890481,1.6630396331263],[32.98158448754689,1.6630395405181573],[32.98158448754689,1.6630395405181584],[32.9965,1.6716],[32.99432573309028,1.686819868368083],[32.99482140350574,1.6913726799632978],[32.99499173443262,1.692074560851629]]]}},{"type":"Feature","properties":{"n":"Okile","c":"213204","d":"Kaberamaido","od":"Kaberamaido","dc":"213","k":"OKILE","a":["OKILE"],"lat":1.636799,"lon":33.14571},"geometry":{"type":"Polygon","coordinates":[[[33.09755046525313,1.6873773183287388],[33.104912017385956,1.692768456078146],[33.107148880152195,1.693724180022898],[33.108854016322496,1.692470290653517],[33.11152613643841,1.6947527943614886],[33.111822429153634,1.6946936307849416],[33.11633042080027,1.693793097453406],[33.117273378286896,1.695969852665326],[33.12463496385798,1.697914235263451],[33.12463520529415,1.697914369948663],[33.1246353654982,1.697914412257881],[33.124696396129465,1.6979485052677437],[33.13041478414688,1.701138509106996],[33.130289556980664,1.703864847616984],[33.12759040360571,1.705298443809193],[33.12432734142713,1.715387337667749],[33.124694610155075,1.7161392793702672],[33.12773307433113,1.7170145346859864],[33.13219400561706,1.708616174471921],[33.1404455382896,1.7028962457002261],[33.1470675972619,1.6983057903938006],[33.14761687061639,1.695268007505161],[33.14761741719751,1.6952675580180872],[33.14761749783681,1.69526711198621],[33.15049610807484,1.692900172075594],[33.15049624050784,1.6929001255998073],[33.15049647892281,1.692899929536602],[33.15301901621638,1.692014350566669],[33.15301980088783,1.6920145121052108],[33.15301996940543,1.692014452965965],[33.156082159592735,1.6926449529880954],[33.16421200704292,1.694318626354968],[33.168971822413944,1.690539069173253],[33.16897222444374,1.6905388572207818],[33.1689722896493,1.690538805444437],[33.17537048184618,1.687165658322441],[33.18192918552007,1.6837078712070195],[33.19119863846039,1.676662678713296],[33.1912629970757,1.6762772957563286],[33.191309606671666,1.675872339836176],[33.19132330182254,1.6759161875884865],[33.191323306279976,1.675916160897114],[33.191309612344966,1.675872316983875],[33.1970894351836,1.641388249335737],[33.19708944341909,1.6413882119909755],[33.19708944493231,1.641388202929713],[33.204956250343045,1.605715223693554],[33.15835610645517,1.589343161442441],[33.153349997305874,1.586865224581464],[33.1518,1.5863],[33.145552665874504,1.5830056812924944],[33.13271585505288,1.576651683454326],[33.11364583308757,1.566180700582993],[33.1097,1.5641],[33.10815456124434,1.5631655486593716],[33.10539969220843,1.561652902971796],[33.092607510876896,1.624151020842401],[33.09267520123887,1.632210237272673],[33.095912053917964,1.655297823362368],[33.09591195212097,1.6552983059477873],[33.09591197822206,1.655298492129423],[33.09534086104542,1.6580056573337765],[33.09477948012513,1.660666976128036],[33.094779369252166,1.6606671970446905],[33.09477935303675,1.660667273907753],[33.094778195511324,1.6606695357473449],[33.08809962429339,1.6739767255879983],[33.088442164036664,1.6746605993274146],[33.091261480281894,1.680289139707474],[33.09755034125395,1.6873771785724232],[33.09755046525313,1.6873773183287388]]]}}]}
