{"type":"FeatureCollection","name":"Kalaki sub-counties","metadata":{"source":"Uganda Bureau of Statistics NPHC 2024 Map Explorer","retrieved":"2026-07-26","display_only":true,"clipped_to_dashboard_district":true,"positive_area_overlaps_removed":true,"source_gap_ratio":0.00685114},"features":[{"type":"Feature","properties":{"n":"Anyara","c":"237101","d":"Kalaki","od":"Kalaki","dc":"237","k":"ANYARA","a":["ANYARA"],"lat":2.00173,"lon":33.347006},"geometry":{"type":"Polygon","coordinates":[[[33.323389252369076,2.021534148384752],[33.3264927263452,2.022264941225272],[33.33177284974049,2.027452935044994],[33.32322955658741,2.033729655504582],[33.31972056853874,2.034737891041773],[33.31728890545188,2.039991709066898],[33.31246741484707,2.041702972630727],[33.314435045414456,2.04370376670966],[33.313537027507294,2.045299292054557],[33.31404065502667,2.0485662727537504],[33.323166417692406,2.0521196670660693],[33.32485814842197,2.0522032891058797],[33.33006501188112,2.047694664041634],[33.331247781819215,2.046045838426969],[33.33252197404084,2.0455671795661674],[33.33935712503209,2.0396486197040105],[33.33964743449877,2.038579117036404],[33.34247359593071,2.0369500663588442],[33.34593627273305,2.0339517331890016],[33.347199566344244,2.031954677160051],[33.35046112340327,2.030018450407008],[33.35048545097015,2.030012598010518],[33.3505,2.03],[33.35060702159616,2.0299833521961514],[33.358629490656575,2.028053415264887],[33.36401897980306,2.0278625795928167],[33.38064768355525,1.9950775784450412],[33.3809002281226,1.994338624795771],[33.38121086233967,1.9939672202734844],[33.3816,1.9932],[33.38204280849983,1.9929725179863602],[33.384539940172566,1.989986864941647],[33.38838371404025,1.987696772452272],[33.39438248976176,1.9866333091812112],[33.4071,1.9801],[33.40780397000772,1.9664899131840725],[33.40795528859139,1.962686473118257],[33.408086281563946,1.9623018722120824],[33.40960773288652,1.9552814611093325],[33.398153739618316,1.952956574464398],[33.39198120578162,1.949482583600022],[33.38633951814748,1.948142204091132],[33.37460552704191,1.952636777464518],[33.370156123274334,1.953426059634799],[33.3620113369842,1.959937033432296],[33.35855444928899,1.960211202654537],[33.352046037527884,1.957879450187743],[33.34563717641781,1.960162942569396],[33.34347035087133,1.959931648841825],[33.341406542819314,1.95866543990805],[33.33835972854813,1.951935434929963],[33.332071839969586,1.949491575722568],[33.32926448488548,1.94935252085352],[33.32730713961452,1.951222190674933],[33.32669735794532,1.950861467420417],[33.32586902353472,1.952096011983441],[33.32793181924259,1.957390882851434],[33.32700275654359,1.958903198244574],[33.32568026212013,1.96645409616391],[33.32274606601416,1.967482307311314],[33.319013746119744,1.970300867264759],[33.32212297518483,1.985355914002022],[33.319768582126784,1.989940743464803],[33.32151952784382,1.990691770120481],[33.31864084810011,1.992125848901278],[33.31649039377856,1.998320882809769],[33.317089913597634,2.006600232875617],[33.315720823373546,2.005138169017739],[33.313765117016594,2.010534786158675],[33.311682826240194,2.01353373008158],[33.31003735048656,2.019004525257102],[33.315393887530945,2.022390622288671],[33.323389252369076,2.021534148384752]]]}},{"type":"Feature","properties":{"n":"Apapai","c":"237102","d":"Kalaki","od":"Kalaki","dc":"237","k":"APAPAI","a":["APAPAI"],"lat":1.898735,"lon":33.412906},"geometry":{"type":"MultiPolygon","coordinates":[[[[33.33144607767933,1.9494605802514857],[33.332071839969586,1.949491575722568],[33.33211161172586,1.9495070334666964],[33.33249175206257,1.949533566656041],[33.33711316496172,1.9514509438547492],[33.33835972854813,1.951935434929963],[33.338377953691236,1.9519756918320603],[33.33849269578586,1.952023297159862],[33.338691335957336,1.9526679113187748],[33.3412163148081,1.958245251688979],[33.341640939824,1.9588092495908835],[33.343470277138415,1.9599316036044447],[33.34347039147847,1.9599316531763578],[33.34347143570114,1.9599317646399477],[33.34657107822394,1.9598301911455664],[33.352046037527884,1.957879450187743],[33.35204636823177,1.957879568668199],[33.35204660270629,1.957879459179839],[33.35668394124563,1.9595410603979688],[33.35855444928899,1.960211202654537],[33.36134989236215,1.9599894932671453],[33.362011360088886,1.9599370149623234],[33.36867598798121,1.9546092855374786],[33.37015590390918,1.953426203517472],[33.370155954517976,1.9534261945392857],[33.370156123274334,1.953426059634799],[33.37460545911501,1.952636789514108],[33.38633929742759,1.94814224884493],[33.386339361543236,1.9481422640766273],[33.38633951814748,1.948142204091132],[33.39149413384647,1.9493668626874936],[33.39198114111917,1.94948255905477],[33.39198116934976,1.949482574944365],[33.39198120578162,1.949482583600022],[33.39815362632838,1.952956510703192],[33.40960773570235,1.955281448116304],[33.415,1.9304],[33.415572706195114,1.9296145743609898],[33.41590903246726,1.928459460732247],[33.42979862514294,1.909004633129091],[33.4318168075831,1.9073369496003247],[33.43919783154956,1.89721440244632],[33.44039742173654,1.892654542434898],[33.44409760980086,1.888165728896986],[33.44744241010763,1.881525922378641],[33.45269461508362,1.8793176709369435],[33.45265700603186,1.876647428262199],[33.451484091520264,1.873887577405831],[33.45095239219634,1.869854367189971],[33.45168640616037,1.864388178524892],[33.45121863569862,1.861222766737029],[33.452400918183926,1.8584651910587204],[33.452400027263494,1.8584019357084602],[33.44968771249018,1.854680713197995],[33.44933036954547,1.8532926574139637],[33.44382186234445,1.8441274390496996],[33.44336725762278,1.843934720573911],[33.43829970360185,1.838220584577635],[33.4232065859977,1.852616097836597],[33.41456340646084,1.866541688778282],[33.40783005497663,1.86922666941812],[33.40441281507813,1.871906496924922],[33.401877339979706,1.881670354950013],[33.39246215594007,1.884729845137238],[33.391091961040715,1.886290618316369],[33.38829309123532,1.897968453254932],[33.388292401920495,1.897969731001038],[33.387152355317035,1.899499574391604],[33.387152103604954,1.899499885379316],[33.383954947881854,1.903141766204848],[33.38232359555214,1.912827574441693],[33.37977778094659,1.914654944714758],[33.37276256790342,1.915312121803048],[33.37231943109706,1.912986548499346],[33.37070225156007,1.911040059630509],[33.36219243891979,1.908586023109107],[33.35491070235679,1.901768341638064],[33.352094821494475,1.900207269523244],[33.35043729723126,1.900194511751574],[33.34977635596734,1.902977634502341],[33.34713700993454,1.90519587945838],[33.346236418424255,1.907208680607335],[33.346667408327434,1.909810434429254],[33.3455868545143,1.911993652029259],[33.34522248696216,1.916255711554091],[33.34646518305278,1.916554630591184],[33.346822548576114,1.920825969757583],[33.347715049468476,1.921193515900089],[33.346603375416294,1.926249549162995],[33.34256252443489,1.924739875556645],[33.34256245378753,1.925953235448322],[33.34408778721864,1.928107897532986],[33.343627437367566,1.932677272037895],[33.33768422221898,1.931302291726291],[33.33656922390767,1.935867929864508],[33.33497346977436,1.93578472288002],[33.33566872473529,1.940294716167094],[33.33161842141019,1.939259692494992],[33.3303011047468,1.939981751433039],[33.32879519337598,1.938963449731535],[33.32636073267497,1.943552795042328],[33.32955683716442,1.949328714276061],[33.33144607767933,1.9494605802514857]]],[[[33.38751275553657,1.899015937404492],[33.38751276040563,1.899015941032928],[33.38751275553658,1.899015937404485],[33.38751275553657,1.899015937404492]]]]}},{"type":"Feature","properties":{"n":"Bululu","c":"237103","d":"Kalaki","od":"Kalaki","dc":"237","k":"BULULU","a":["BULULU"],"lat":1.694822,"lon":33.293618},"geometry":{"type":"Polygon","coordinates":[[[33.25602274741529,1.7021407731882239],[33.25626758197441,1.702331400542783],[33.25657188193589,1.7027088433819564],[33.2584,1.7046],[33.25863590486419,1.705268983943219],[33.259900388229795,1.706837404094443],[33.261836059685464,1.71127165149038],[33.262929911715716,1.7174460182982938],[33.26509980904894,1.7235994584969991],[33.277224205047716,1.726995123158685],[33.283455687066535,1.72996462968406],[33.285883984604645,1.7323932242558124],[33.2859,1.7324],[33.2946,1.7449],[33.29454923507438,1.745237131172741],[33.294547843760775,1.751118636922131],[33.29251993760557,1.758713747696385],[33.29070502393844,1.7707666358960068],[33.2907905325112,1.7709705901863964],[33.29970501229868,1.7877681223479247],[33.30135212201171,1.789734209840829],[33.30474104631527,1.792121855602966],[33.308049357757135,1.792864927902132],[33.313611564684734,1.791051180022208],[33.321168656222795,1.784731421617369],[33.3244084892559,1.779143532574695],[33.32868349568951,1.776078160951364],[33.33210696887102,1.775572629625224],[33.33846990019838,1.771727664414355],[33.3374187784893,1.76609402528577],[33.33401678401739,1.757451965947521],[33.333531945356924,1.748291662355721],[33.33435022192752,1.725522626082579],[33.33555553617617,1.722504176739818],[33.33892693634611,1.718197444553262],[33.339280029180976,1.714492714348203],[33.33731615405254,1.675545942617823],[33.337405298143516,1.654874672514516],[33.31465653687387,1.6464038974157582],[33.28705741917374,1.6394011362082623],[33.283893174952105,1.638628579746504],[33.28366864918334,1.6385035305213154],[33.26026887040258,1.6287462083174231],[33.25594723039805,1.627531180660321],[33.24888814416493,1.6240006329914607],[33.20551691233486,1.6059155439267028],[33.205016325645595,1.6057366873535819],[33.20852773635935,1.6136276075408742],[33.241873875492736,1.6875040091304185],[33.25602274741529,1.7021407731882239]]]}},{"type":"Feature","properties":{"n":"Kakure","c":"237104","d":"Kalaki","od":"Kalaki","dc":"237","k":"KAKURE","a":["KAKURE"],"lat":1.847652,"lon":33.38792},"geometry":{"type":"Polygon","coordinates":[[[33.3356783322294,1.870891881684876],[33.336977515611075,1.871712796715644],[33.339758097712064,1.87224473021288],[33.34040522289046,1.877300456074573],[33.34253282885063,1.878659643845768],[33.34178312508634,1.880052441053971],[33.34304146500082,1.887585181290208],[33.34376360013935,1.888395649861813],[33.34285147922759,1.888699036467904],[33.34303231603854,1.890412241135216],[33.34475636309619,1.892350508338587],[33.344349880468066,1.897196334184131],[33.34590321914371,1.896614239516108],[33.35272174269335,1.900313950644544],[33.35347670275352,1.9009733588590372],[33.35491070235679,1.901768341638064],[33.36219181840249,1.908585442136529],[33.3621925055651,1.908586042328098],[33.36866853240271,1.9104535812557903],[33.37070179498686,1.911039868536029],[33.37070185993719,1.9110399466953742],[33.37070225156007,1.911040059630509],[33.372075272169816,1.912692671027345],[33.37231917446511,1.912986175955055],[33.37231919014975,1.9129862584874795],[33.37231943109706,1.912986548499346],[33.37276256790342,1.915312121803048],[33.37910229952172,1.9147182230376345],[33.38075123362345,1.9139562062912856],[33.38157483220608,1.9133650322271747],[33.38256582300304,1.9113894003597085],[33.383954947881854,1.903141766204848],[33.383961637186964,1.903134146415845],[33.38829254833146,1.897969459606851],[33.38829309123532,1.897968453254932],[33.391091961040715,1.886290618316369],[33.3910922577365,1.8862902803536277],[33.39109227576114,1.886290205154252],[33.39123984875725,1.8861221611271048],[33.39246215594007,1.884729845137238],[33.401877339979706,1.881670354950013],[33.40441281507813,1.871906496924922],[33.40441296839301,1.871906376694136],[33.404412976988816,1.871906343593784],[33.40669403186205,1.8701175480456758],[33.40783005497663,1.86922666941812],[33.41456320939556,1.8665417673597242],[33.4232063469441,1.852616381763326],[33.42320650093121,1.852616234892773],[33.4232065859977,1.852616097836597],[33.43495346995346,1.8414121552071276],[33.43829969583735,1.838220576053545],[33.43646172163079,1.834926936115475],[33.43660930815466,1.8321269765466945],[33.433819970714936,1.8274859938278347],[33.430981365540866,1.826059304660882],[33.42898339676163,1.8194387580161617],[33.4289,1.8193],[33.43084313513341,1.813141249661905],[33.430856665978844,1.812374367628693],[33.43110016652849,1.8123265908334278],[33.4348,1.8006],[33.429806794697505,1.794964811158617],[33.42879725277186,1.795319599957019],[33.42795991749893,1.794225537923487],[33.4281233057824,1.7930648736687067],[33.4278,1.7927],[33.42764306487238,1.7888158555913534],[33.41986455373133,1.797732080882428],[33.419126183824964,1.805214511345053],[33.417418637004964,1.811075942819868],[33.41576548568756,1.813530545865514],[33.41150275875703,1.816373082608389],[33.40183255959723,1.820037749637343],[33.39890369613904,1.819967703086005],[33.39437952516817,1.816370213899789],[33.39203590803285,1.815535133992572],[33.38718435909751,1.815505248387071],[33.38345776980907,1.8165330575269],[33.38193072488301,1.818310501634134],[33.38003381650752,1.823872664034736],[33.368873630658186,1.830780127247702],[33.3646168964808,1.832113229889962],[33.36099601801187,1.837080045079143],[33.35776196063837,1.839342644812687],[33.35089493897516,1.840833630934469],[33.348464059153095,1.842687994870634],[33.34552622710516,1.856775306495946],[33.34397478961538,1.856104646303633],[33.33784423194161,1.859368432339656],[33.337620980457814,1.861560065778439],[33.33505189527476,1.861455149024212],[33.33468853893471,1.863485812729465],[33.33522821161506,1.864052639794259],[33.33396246252291,1.869254148838118],[33.335925769217596,1.869810743723834],[33.3356783322294,1.870891881684876]]]}},{"type":"Feature","properties":{"n":"Kalaki","c":"237105","d":"Kalaki","od":"Kalaki","dc":"237","k":"KALAKI","a":["KALAKI"],"lat":1.786225,"lon":33.373606},"geometry":{"type":"MultiPolygon","coordinates":[[[[33.30796122511108,1.802765257661979],[33.31726940977688,1.80331912046967],[33.31948560902989,1.802711633034771],[33.327764691640425,1.796084723964396],[33.33674491617913,1.795414397860846],[33.3409033594215,1.796664580901353],[33.347709807585666,1.800401785920024],[33.34914753674575,1.803537457726043],[33.35049708239909,1.802791566053231],[33.357277502154076,1.810699163422128],[33.35748699515049,1.812309060123058],[33.358811220281055,1.813078075731677],[33.362948408337886,1.813802357706322],[33.370077300535996,1.812827260627672],[33.38030796288525,1.81535728687905],[33.38257115713577,1.817199568220801],[33.383102032430855,1.8169471274051627],[33.38345776980907,1.8165330575269],[33.38468407582804,1.816194837122941],[33.385693157060025,1.815715000725189],[33.386507578619884,1.8156919073147726],[33.38718435909751,1.815505248387071],[33.39203590803285,1.815535133992572],[33.39437952516817,1.816370213899789],[33.39890369613904,1.819967703086005],[33.40183255542448,1.8200377495375475],[33.41183670501876,1.8161503954565794],[33.41576548568756,1.813530545865514],[33.417418637004964,1.811075942819868],[33.41845740440162,1.807510205211698],[33.41912618863573,1.805214462594111],[33.41986455373133,1.797732080882428],[33.42764306487238,1.788815855591355],[33.4270498335384,1.77413338007537],[33.426178782213086,1.7716889111425353],[33.42177511345228,1.7651946117579007],[33.41681941691987,1.758279848914205],[33.40343614918379,1.75660471988516],[33.3984064842921,1.76082388836392],[33.3908101634077,1.769798928971066],[33.375282181061486,1.773491428636603],[33.37224762305161,1.772628345409302],[33.366329220040484,1.767096746988613],[33.359889165702214,1.767044483811036],[33.35863923640466,1.764907325882275],[33.355365443545274,1.762920093229196],[33.35565864159937,1.762191856813997],[33.35340987233156,1.761127370480905],[33.35030476285045,1.75737285271929],[33.346164506704305,1.754503222158503],[33.33477546208524,1.7593792297732203],[33.3374187784893,1.76609402528577],[33.33846990019838,1.771727664414355],[33.338467886300634,1.7717288813639613],[33.33846792026104,1.771729063767353],[33.332651401224865,1.7752436423467934],[33.33210696887102,1.775572629625224],[33.332106927269976,1.775572635768292],[33.33210687246702,1.775572668882478],[33.32868340877198,1.776078223275137],[33.3244084892559,1.779143532574695],[33.321168656222795,1.784731421617369],[33.32116842563129,1.784731614453803],[33.32116839624852,1.784731665133728],[33.31818075819402,1.787719213466146],[33.313614713250935,1.7910485469751412],[33.313611564684734,1.791051180022208],[33.308049357757135,1.792864927902132],[33.30795414917744,1.7928435433198584],[33.3079329486484,1.792850260395038],[33.30484207941067,1.797946491297398],[33.30505623100035,1.799588314624217],[33.30796122511108,1.802765257661979]]],[[[33.302770156707304,1.829328801536724],[33.30657345073127,1.84108486359097],[33.306493944465245,1.842523431502863],[33.30453860955979,1.844705515884803],[33.304690400290156,1.846459710952119],[33.30281442484817,1.85023727908924],[33.30308439707689,1.852622870030123],[33.31174894705404,1.860439998664939],[33.317536027228684,1.863973521696205],[33.31881219569871,1.866640958723273],[33.322273006527666,1.867156315489906],[33.32690713701563,1.877147372709299],[33.328456814621944,1.877716323942871],[33.326103656032615,1.881910796229203],[33.331379634268416,1.883442399535344],[33.33271186752161,1.889638870776738],[33.33935920681483,1.887594988404127],[33.343759884282306,1.8883968858177498],[33.34376360013935,1.888395649861813],[33.34304146500082,1.887585181290208],[33.341834959767645,1.8803627365353637],[33.34181164604289,1.880318628863872],[33.341823171752885,1.8802921705046083],[33.34178312508634,1.880052441053971],[33.34253282885063,1.878659643845768],[33.34040522289046,1.877300456074573],[33.339758097712064,1.87224473021288],[33.336977515611075,1.871712796715644],[33.3356783322294,1.870891881684876],[33.335925769217596,1.869810743723834],[33.33396246252291,1.869254148838118],[33.33396347501144,1.869249988086003],[33.33391488658186,1.868183396865892],[33.335227834568585,1.8640541892408864],[33.33522821161506,1.864052639794259],[33.33468853893471,1.863485812729465],[33.33505189527476,1.861455149024212],[33.33740106710773,1.8615510849182269],[33.33762100457671,1.861559829006063],[33.33784423194161,1.859368432339656],[33.34397478961538,1.856104646303633],[33.34552622710516,1.856775306495946],[33.34554899700633,1.8566661216656803],[33.348085848675474,1.84395419948563],[33.341898764655504,1.840918731847638],[33.341768046140665,1.837855161751496],[33.33722367183864,1.834448620537953],[33.335101139966575,1.834456919953815],[33.33063744200494,1.841560125418911],[33.32850865456606,1.841457318206365],[33.32796133975338,1.84376361222244],[33.32910289471791,1.844243811170373],[33.327212224456325,1.847804988010128],[33.32501395687224,1.846620857834545],[33.32367047472245,1.84502421040178],[33.324343435624414,1.838958425810896],[33.323571446900466,1.836715580628634],[33.31928504927148,1.83395640361843],[33.318212261985,1.83149722419392],[33.317607009158664,1.819180354590452],[33.310540745092325,1.81425885810629],[33.30194975262782,1.81277421599689],[33.30318841783921,1.820899441726842],[33.302770156707304,1.829328801536724]]]]}},{"type":"Feature","properties":{"n":"Kalaki Town Council","c":"237106","d":"Kalaki","od":"Kalaki","dc":"237","k":"KALAKITOWNCOUNCIL","a":["KALAKI","KALAKITOWNCOUNCIL","TOWNCOUNCIL"],"lat":1.818028,"lon":33.349063},"geometry":{"type":"Polygon","coordinates":[[[33.3019497533815,1.812774204413879],[33.31054042269922,1.814258732501246],[33.31054055612184,1.814258825449581],[33.310540745092325,1.81425885810629],[33.317607009158664,1.819180354590452],[33.31760707464929,1.819181687321867],[33.317607316485365,1.819181855796004],[33.31865140693776,1.8325038880925373],[33.31890966460845,1.833095899163131],[33.323570771024706,1.8367151455638009],[33.323571446900466,1.836715580628634],[33.324343435624414,1.838958425810896],[33.32434338117884,1.83895891656025],[33.324343434842646,1.838959072497903],[33.324227964705784,1.8399992317728566],[33.32367047472245,1.84502421040178],[33.323678365449105,1.8450335880540714],[33.32719236434672,1.8477942900608695],[33.32721219183194,1.8478049704365065],[33.32910277367266,1.8442437602522783],[33.32796133975338,1.84376361222244],[33.32796184556096,1.8437614808330565],[33.32796108668197,1.843761163069274],[33.328425325638214,1.8418084525137017],[33.32850865456606,1.841457318206365],[33.33063744200494,1.841560125418911],[33.335101139966575,1.834456919953815],[33.33722367183864,1.834448620537953],[33.341768046140665,1.837855161751496],[33.34189874476995,1.840918265801949],[33.348085853156206,1.843954188871644],[33.348462460826056,1.842695659070201],[33.348464059153095,1.842687994870634],[33.34846495991334,1.8426873077378074],[33.34846505647783,1.84268698504316],[33.35021887254014,1.841349359109992],[33.35089493897516,1.840833630934469],[33.35396030557814,1.8401680703337646],[33.357762430727135,1.839342315930855],[33.36099585057473,1.8370801622209185],[33.36193388533185,1.8357935579213185],[33.3646168964808,1.832113229889962],[33.368873630658186,1.830780127247702],[33.380033731034,1.8238727169375493],[33.380033820568976,1.8238726521256283],[33.38193072488301,1.818310501634134],[33.38241681207509,1.8177447076614566],[33.38257114949532,1.817199578035003],[33.38249586079642,1.8171382756291214],[33.38030796288525,1.81535728687905],[33.370077300535996,1.812827260627672],[33.362948408337886,1.813802357706322],[33.358811220281055,1.813078075731677],[33.35748699515049,1.812309060123058],[33.357277502154076,1.810699163422128],[33.35049708239909,1.802791566053231],[33.34914753674575,1.803537457726043],[33.347709807585666,1.800401785920024],[33.3413716705674,1.7969217157127135],[33.34090328644134,1.796664558960795],[33.33674496780372,1.7954144133811227],[33.335678042877895,1.7954940342908614],[33.32776471851011,1.7960847219587166],[33.32776443037352,1.7960849330928834],[33.31948560902989,1.802711633034771],[33.31826389313562,1.8030465203666635],[33.3180154478095,1.803228570473647],[33.31765959672392,1.8032121654351585],[33.31726940977688,1.80331912046967],[33.30796122511108,1.802765257661979],[33.30534640764629,1.7999056559474382],[33.305056761501724,1.799588957631586],[33.3050567519186,1.7995888843078505],[33.30505623100035,1.799588314624217],[33.30484207941067,1.797946491297398],[33.30789252735939,1.7929169070909359],[33.307932936850406,1.792850258676434],[33.30784309869179,1.7928186005231637],[33.30474104631527,1.792121855602966],[33.303615426645145,1.7913288071916078],[33.30311875947881,1.791153786181404],[33.30267357165035,1.7906652290513405],[33.30135212201171,1.789734209840829],[33.29970501229868,1.7877681223479247],[33.3028,1.7936],[33.3028,1.8109],[33.30279051907337,1.8109065333308514],[33.302804913657255,1.810920994239635],[33.3019497533815,1.812774204413879]]]}},{"type":"Feature","properties":{"n":"Ocelakur","c":"237107","d":"Kalaki","od":"Kalaki","dc":"237","k":"OCELAKUR","a":["OCELAKUR"],"lat":1.701573,"lon":33.373231},"geometry":{"type":"Polygon","coordinates":[[[33.34699199906569,1.754574651089021],[33.34852313949521,1.756138001384601],[33.35030476285045,1.75737285271929],[33.35340987233156,1.761127370480905],[33.35565864159937,1.762191856813997],[33.355365443545274,1.762920093229196],[33.35853036131835,1.7648412373617348],[33.358639046762804,1.764907199476436],[33.35863905699631,1.7649072169791933],[33.35863923640466,1.764907325882275],[33.35988911310306,1.7670443938757905],[33.36632900291281,1.767096687896258],[33.36632906478907,1.7670967457286961],[33.366329220040484,1.767096746988613],[33.37224762305161,1.772628345409302],[33.375282181061486,1.773491428636603],[33.39081001763252,1.7697989636358917],[33.397203784131996,1.7622448766211873],[33.3984064842921,1.76082388836392],[33.3984065598198,1.7608238250070047],[33.398406597246236,1.76082378078853],[33.39867440627797,1.7605991401904553],[33.40343614918379,1.75660471988516],[33.40357652782008,1.7566222905064266],[33.41709635168407,1.7582596713185497],[33.41343984166435,1.7178404119113257],[33.413381505762906,1.717428534416561],[33.41330178366508,1.7171207574791243],[33.40328932645391,1.6886539673689576],[33.403184030298895,1.688407752987874],[33.402966384514464,1.6881156772772914],[33.3903,1.6727],[33.35271474769206,1.6595013380098322],[33.33740530962277,1.654874676788393],[33.337340078506266,1.6699981958221295],[33.33731615405254,1.675545942617823],[33.339280029180976,1.714492714348203],[33.3392800223549,1.714492785968963],[33.339280023911456,1.714492816838146],[33.33927253375033,1.7145713581085993],[33.33892693634611,1.718197444553262],[33.33892669984054,1.718197746672889],[33.338926678141945,1.718197974202734],[33.33673388602527,1.7209989157306385],[33.33555553617617,1.722504176739818],[33.33435022192752,1.725522626082579],[33.334350030029334,1.7255279657646996],[33.333592216228695,1.7494303906135498],[33.33401678401739,1.757451965947521],[33.33477546208524,1.7593792297732203],[33.346164506704305,1.754503222158503],[33.34652982268882,1.7547564243461244],[33.34699199906569,1.754574651089021]]]}},{"type":"Feature","properties":{"n":"Ogwolo","c":"237108","d":"Kalaki","od":"Kalaki","dc":"237","k":"OGWOLO","a":["OGWOLO"],"lat":1.995223,"lon":33.297554},"geometry":{"type":"Polygon","coordinates":[[[33.274600721869014,1.986208973236472],[33.27926490180457,2.0005003649846853],[33.279373047315296,2.000736008360695],[33.28293363927676,2.006247584535852],[33.28329604037034,2.0092840037543107],[33.2839,2.0106],[33.28360698319423,2.0118892739453957],[33.28377040743419,2.013258542724579],[33.282277296523525,2.0202774337756404],[33.2905,2.0394],[33.29574287566184,2.041441473709033],[33.30620673942536,2.038223041039616],[33.309991164097255,2.039127374736178],[33.312545853287205,2.0416751329322596],[33.31728890545188,2.039991709066898],[33.31972056853874,2.034737891041773],[33.32322955658741,2.033729655504582],[33.33177284974049,2.027452935044994],[33.32715077406493,2.022911507081311],[33.32649251941905,2.022264892499183],[33.323389252369076,2.021534148384752],[33.32260608231465,2.0216180425818933],[33.315394143660654,2.022390619066808],[33.315394110925645,2.022390598358339],[33.315393887530945,2.022390622288671],[33.31003735048656,2.019004525257102],[33.311676960364686,2.0135532326499654],[33.31168277269712,2.013533890710948],[33.31168278192314,2.0135338774246883],[33.311682826240194,2.01353373008158],[33.313765117016594,2.010534786158675],[33.315720823373546,2.005138169017739],[33.31708859177149,2.0065988212854973],[33.31649507975971,1.9983855960638717],[33.31649039377856,1.998320882809769],[33.31864084810011,1.992125848901278],[33.31938079873791,1.9917572259202652],[33.32151755642856,1.9906909245286406],[33.319768582126784,1.989940743464803],[33.32212297518483,1.985355914002022],[33.319013746119744,1.970300867264759],[33.32274606601416,1.967482307311314],[33.32274643519094,1.9674821779431104],[33.32274666982086,1.967482000697036],[33.32302935122092,1.9673830375294177],[33.32568026212013,1.96645409616391],[33.326959157078605,1.9591521332144444],[33.32700268490633,1.958903501649846],[33.327002710770444,1.9589034595903687],[33.32700275654359,1.958903198244574],[33.32793181924259,1.957390882851434],[33.325900282505856,1.9521762488265657],[33.3258690161966,1.952096021229384],[33.322846196927365,1.954225105741361],[33.32115935950571,1.952663991966121],[33.31140061093276,1.947704785353443],[33.296435035543524,1.944391215738563],[33.2925325263414,1.942590079249738],[33.29026861874765,1.944744014653604],[33.285315998802055,1.94605901303523],[33.28357599686683,1.94960039118661],[33.28027831293871,1.95322770840094],[33.276614600081665,1.954022851132203],[33.274206144807124,1.956283300522362],[33.271452128805,1.957131852383157],[33.27124686383548,1.959782692584212],[33.2720186307874,1.961990573814266],[33.271462188352224,1.9645420468297383],[33.27228248721714,1.9716225212426988],[33.274778010536096,1.974212443470095],[33.274600721869014,1.986208973236472]]]}},{"type":"Feature","properties":{"n":"Otuboi","c":"237109","d":"Kalaki","od":"Kalaki","dc":"237","k":"OTUBOI","a":["OTUBOI"],"lat":1.883923,"lon":33.266213},"geometry":{"type":"Polygon","coordinates":[[[33.236489247005814,1.9214578494011632],[33.237105326950775,1.921364706225618],[33.237834983658324,1.9217269967316646],[33.2392,1.922],[33.239581871708516,1.9225943648366481],[33.24213337033736,1.92386123968322],[33.24341101529456,1.9285542415471806],[33.25107283994213,1.9404795008776718],[33.251166737279306,1.940580482267377],[33.25119405190912,1.940668161439186],[33.2516,1.9413],[33.251534656124484,1.9417614911208774],[33.25189170894181,1.942907620339225],[33.251474302934454,1.944589787313274],[33.25105606315774,1.9451415539484778],[33.25003851597353,1.9523279809369711],[33.25721056811579,1.953841298309385],[33.25788327231426,1.9543220740492315],[33.26048421828683,1.9548902418587726],[33.26436067749887,1.954057040151162],[33.27122792032291,1.957385184690397],[33.27143854608512,1.9573072628293606],[33.271452128805,1.957131852383157],[33.274205997685954,1.9562833458525064],[33.274500276628594,1.9560072438716523],[33.276614600081665,1.954022851132203],[33.279591228152874,1.9533768277491363],[33.28027856964667,1.9532274260327016],[33.28357599686683,1.94960039118661],[33.285315998802055,1.94605901303523],[33.28531647873015,1.9460588856067818],[33.285316594664636,1.946058649682564],[33.28728373618237,1.945536547855386],[33.29026861874765,1.944744014653604],[33.2925325263414,1.942590079249738],[33.29254673708087,1.9425966379739008],[33.29450915582106,1.943266118860847],[33.297238613910416,1.934348523809752],[33.295012790643696,1.933475540871851],[33.294096263019135,1.934581531875349],[33.29081303873718,1.932458321729503],[33.28404645012431,1.931603502083241],[33.28264780463367,1.934952658953386],[33.280076824936906,1.934658529270571],[33.27700559454993,1.932882314034431],[33.2743157872162,1.933577968562785],[33.273813924903905,1.931536454940834],[33.274941482335215,1.927910366705776],[33.27282513869946,1.924758988228899],[33.27475252160577,1.921446328967235],[33.275885875878544,1.916599328790593],[33.27805616451928,1.915342533307859],[33.27963476643882,1.909735051060319],[33.27484484453561,1.903762639350467],[33.274480639634966,1.901322829497327],[33.27791483550271,1.89871214259384],[33.28087868616137,1.894688047179618],[33.2806343391775,1.887616455771846],[33.28153272631822,1.886105800603264],[33.28937522514435,1.885596418497404],[33.29120882836294,1.884404545175715],[33.293151102198394,1.884507655357256],[33.294394504502435,1.880252283674767],[33.29637124692849,1.877715071936364],[33.29992099852579,1.879481930141527],[33.3051378923664,1.885030725493372],[33.306601101175715,1.890818436242527],[33.31013909094757,1.893169565209187],[33.308159262267544,1.899407460513874],[33.31422713195549,1.901843546164502],[33.314124986910635,1.90289203064934],[33.31848615468896,1.905594779518009],[33.32110688591981,1.909119962081977],[33.32304286914673,1.908574535511361],[33.33028894108543,1.910256721553181],[33.32955110865367,1.91378469880981],[33.32786621941118,1.914776796753642],[33.33274946006442,1.916285784818062],[33.33178479207599,1.918834126482731],[33.3324886222856,1.920610505150186],[33.327053188625875,1.924575832706985],[33.32784114567447,1.926511793050944],[33.33150542999336,1.929771536380553],[33.33765076494688,1.931439290855302],[33.33768422221898,1.931302291726291],[33.343627437367566,1.932677272037895],[33.34386515954877,1.9303176716784816],[33.34408765124361,1.9281077054567946],[33.34256245378753,1.925953235448322],[33.34256245379174,1.9259531630810764],[33.34256239338428,1.92595307778815],[33.34256245444208,1.9259419936371547],[33.34256252443489,1.924739875556645],[33.342569062935176,1.9247423183592518],[33.3425690649482,1.924741952924471],[33.344571547485316,1.9254904523751744],[33.346603375416294,1.926249549162995],[33.34750085397593,1.922167703912251],[33.34771471849735,1.9211933796008862],[33.346822548576114,1.920825969757583],[33.34657324564043,1.917846226822225],[33.346464728548796,1.9165545212644601],[33.34522248696216,1.916255711554091],[33.345222759407875,1.9162525247174795],[33.34522240951634,1.9162524402357],[33.345574553660796,1.9121375368772413],[33.3455868545143,1.911993652029259],[33.34666676744594,1.9098117293057761],[33.34623641897649,1.907208818596496],[33.34623643525735,1.9072087822235861],[33.346236418424255,1.907208680607335],[33.34713700993454,1.90519587945838],[33.348796853456406,1.9038008598306277],[33.34977647334616,1.9029771402380582],[33.349994271382776,1.902060025958964],[33.35043646488167,1.900195347021948],[33.35043707813604,1.9001954343280945],[33.35043729723126,1.900194511751574],[33.352094821494475,1.900207269523244],[33.352638901985905,1.900508897654871],[33.353004534849525,1.9005609510894894],[33.352909356884105,1.9004778193643206],[33.34590417571872,1.8966147585509407],[33.34590321914371,1.896614239516108],[33.344349880468066,1.897196334184131],[33.34475636309619,1.892350508338587],[33.34352921219643,1.8909708787443475],[33.34303265091197,1.890412691222525],[33.34303264207996,1.890412607688667],[33.34303231603854,1.890412241135216],[33.342859035244096,1.8887706203599341],[33.342851466772316,1.888699037148913],[33.341823420179765,1.888137416415552],[33.33935891609418,1.8875950777930963],[33.33271186752161,1.889638870776738],[33.33271114744526,1.8896355215641527],[33.332710008241946,1.889635871271945],[33.33183830283619,1.8855757546236676],[33.331379634268416,1.883442399535344],[33.326103656032615,1.881910796229203],[33.32845619470461,1.8777174289368574],[33.32774178940704,1.8774538083871206],[33.32690713701563,1.877147372709299],[33.32389666276379,1.8706568734482536],[33.32227278472922,1.8671562824614238],[33.31883264660305,1.866644004111321],[33.31881316874092,1.866641110978384],[33.31881316494837,1.8666411030563188],[33.31881219569871,1.866640958723273],[33.317536027228684,1.863973521696205],[33.3125287905929,1.860916161949734],[33.31174908999271,1.860440099793283],[33.31174904248928,1.8604400569365735],[33.31174894705404,1.860439998664939],[33.3099286865743,1.8587977656168844],[33.3030847201586,1.852623266144421],[33.3030847069589,1.8526231496046595],[33.30308439707689,1.852622870030123],[33.30281442484817,1.85023727908924],[33.30427906386722,1.8472880007741266],[33.30469039082599,1.8464596015778867],[33.30453860955979,1.844705515884803],[33.306493944465245,1.842523431502863],[33.30657345073127,1.84108486359097],[33.30344070824526,1.8314014904850817],[33.302770184743444,1.829328973073624],[33.302770188394746,1.829328899483275],[33.302770156707304,1.829328801536724],[33.30318841783921,1.820899441726842],[33.303188307866186,1.820898720340947],[33.30190265310996,1.81327078275137],[33.30199059891276,1.8130421538402464],[33.30194975262782,1.81277421599689],[33.30208469514355,1.8127975359266923],[33.30208469969803,1.812797524086626],[33.3019497533815,1.812774204413879],[33.302804031710046,1.8109229054995382],[33.30266081709871,1.810995911294153],[33.29015704533559,1.819612292477076],[33.28894384430135,1.820907635992122],[33.28418620220089,1.8237268157910502],[33.28019292996012,1.826478589931325],[33.277703866787505,1.829328595207587],[33.271599347363164,1.8324010360039298],[33.264615920009135,1.8434866164889947],[33.26469835181363,1.845032275549076],[33.260387921574385,1.8501981944238775],[33.2573,1.8551],[33.24092771535344,1.8625957447779402],[33.24067783942796,1.8628635450216118],[33.2391111919086,1.8744254037145116],[33.24000152863574,1.879546759750961],[33.23599513924102,1.89907517303411],[33.235760278112025,1.8991551475332507],[33.2357,1.8996],[33.22097338317933,1.9096453081624427],[33.22785956723827,1.9197319134476525],[33.236489247005814,1.9214578494011632]]]}},{"type":"Feature","properties":{"n":"Otuboi Town Council","c":"237110","d":"Kalaki","od":"Kalaki","dc":"237","k":"OTUBOITOWNCOUNCIL","a":["OTUBOI","OTUBOITOWNCOUNCIL"],"lat":1.915814,"lon":33.304232},"geometry":{"type":"Polygon","coordinates":[[[33.2743429187592,1.9298352747243288],[33.273813924903905,1.931536454940834],[33.2743157872162,1.933577968562785],[33.27700559454993,1.932882314034431],[33.27700638682119,1.9328827722365578],[33.27700675708685,1.932882675901921],[33.27816088514554,1.933550464742626],[33.280076824936906,1.934658529270571],[33.28264780463367,1.934952658953386],[33.28404645012431,1.931603502083241],[33.29081303873718,1.932458321729503],[33.294096263019135,1.934581531875349],[33.295012790643696,1.933475540871851],[33.29528905416901,1.9335838932947806],[33.29541798869662,1.933475966319176],[33.297195050567446,1.9343314379720298],[33.297238613910416,1.934348523809752],[33.29677207714615,1.935872777271047],[33.29452563341686,1.943214916236075],[33.2952971220947,1.943866031215569],[33.29543809580256,1.9439310952233735],[33.31139938554799,1.9477045140375995],[33.31140061093276,1.947704785353443],[33.32115935950571,1.952663991966121],[33.32115969523472,1.9526643026725214],[33.32115976238293,1.952664336796767],[33.32121108155412,1.9527118590582426],[33.322846196927365,1.954225105741361],[33.322901026893085,1.9541864869486343],[33.32596860378485,1.9519475981848464],[33.32669735794532,1.950861467420417],[33.3271167904697,1.9511095874818887],[33.32842331142994,1.9501560155908728],[33.32926448488548,1.94935252085352],[33.32950770056976,1.949364567895706],[33.32955682550907,1.94932871377419],[33.32954120243386,1.9493004595862446],[33.32636073267497,1.943552795042328],[33.32879519337598,1.938963449731535],[33.3303011047468,1.939981751433039],[33.33161842141019,1.939259692494992],[33.33566800811835,1.9402945330411792],[33.335035020271334,1.9361839898306554],[33.33497346977436,1.93578472288002],[33.336568471689006,1.93586789064177],[33.33765073276472,1.9314392821215325],[33.33150542999336,1.929771536380553],[33.33150521767364,1.929771347501153],[33.331505043157485,1.929771304262103],[33.32865008514479,1.927534836574163],[33.32823131563359,1.92685888782061],[33.32784114567447,1.926511793050944],[33.327505729581816,1.9256876970481747],[33.32729367873291,1.925345419248149],[33.32706605150873,1.924607435991902],[33.327053188625875,1.924575832706985],[33.3324886222856,1.920610505150186],[33.33178479207599,1.918834126482731],[33.33274946006442,1.916285784818062],[33.32786621941118,1.914776796753642],[33.32955110865367,1.91378469880981],[33.33028894108543,1.910256721553181],[33.32304318309524,1.9085746083949586],[33.32288921401593,1.9086178249313759],[33.32110688591981,1.909119962081977],[33.3184862450046,1.9055949010028523],[33.31412608808814,1.902892790223987],[33.31412609527438,1.9028927175362071],[33.314124986910635,1.90289203064934],[33.31422708425589,1.9018440357848312],[33.31207857043954,1.9009809567966232],[33.308159262267544,1.899407460513874],[33.31013909094757,1.893169565209187],[33.3101323011804,1.8931650531502804],[33.30799319424028,1.892335441018105],[33.306775913801864,1.890934605891275],[33.306601101175715,1.890818436242527],[33.306570793807325,1.8906985556891278],[33.30629814825905,1.890384797701123],[33.30623996918371,1.8893899815348194],[33.30530287974187,1.8856833317382182],[33.30473432740018,1.8846014855131943],[33.29992099852579,1.879481930141527],[33.29637124692849,1.877715071936364],[33.294394504502435,1.880252283674767],[33.293151102198394,1.884507655357256],[33.29120882836294,1.884404545175715],[33.28937522514435,1.885596418497404],[33.28937477781572,1.8855964475520715],[33.289374763772294,1.885596456680287],[33.28937466206854,1.8855964550700255],[33.282185450810104,1.8860634051648208],[33.281241420817246,1.8865956363775513],[33.2808197505248,1.8873046830433449],[33.28100979052789,1.894399704028894],[33.28087520235954,1.8945872232500631],[33.28087868616137,1.894688047179618],[33.27791483550271,1.89871214259384],[33.27791437013381,1.8987124963688002],[33.27791406199878,1.898712925687673],[33.27749809500659,1.8990289500786968],[33.274480639634966,1.901322829497327],[33.274844814028725,1.90376243498475],[33.275237318964834,1.904252004088405],[33.27963476643882,1.909735051060319],[33.27963356221833,1.9097393286713684],[33.27940772455423,1.912163110766581],[33.27805707519135,1.915339298434389],[33.27805616451928,1.915342533307859],[33.27602928069207,1.9165162842966672],[33.2758367398729,1.9168094680504553],[33.27475269370944,1.9214455929339016],[33.274752641287925,1.921445866012803],[33.27475262065114,1.9214459053812851],[33.27475252160577,1.921446328967235],[33.27475127980854,1.92144846328682],[33.2729322839381,1.9249185347189985],[33.274941482335215,1.927910366705776],[33.274941333161166,1.9279108464314545],[33.274941521157984,1.927911082069218],[33.2743429187592,1.9298352747243288]]]}}]}
