{"type":"FeatureCollection","name":"Kalangala sub-counties","metadata":{"source":"Uganda Bureau of Statistics NPHC 2024 Map Explorer","retrieved":"2026-07-26","display_only":true,"clipped_to_dashboard_district":true,"positive_area_overlaps_removed":true,"source_gap_ratio":0.00041375},"features":[{"type":"Feature","properties":{"n":"Bujumba","c":"101101","d":"Kalangala","od":"Kalangala","dc":"101","k":"BUJUMBA","a":["BUJUMBA"],"lat":-0.655737,"lon":32.070144},"geometry":{"type":"Polygon","coordinates":[[[32.16472828274915,-0.385972041499407],[32.19837843872433,-0.374070178002107],[32.21016536201292,-0.375211023814133],[32.238242696905054,-0.375888353900753],[32.24475000810452,-0.373821885503373],[32.248640506666234,-0.370734377889362],[32.25111016017879,-0.367118558317965],[32.25417800289929,-0.357629529251604],[32.2529067735326,-0.351679034530724],[32.25290730251865,-0.344900377239827],[32.25848758114074,-0.337532514898319],[32.2619138709416,-0.330584811160698],[32.267430286247325,-0.310519696047915],[32.272735651055754,-0.314623762548897],[32.27670046254362,-0.321101440589314],[32.27935060802543,-0.323919486871385],[32.28039886446452,-0.323825648250795],[32.281921717504794,-0.325101039535516],[32.28370512131283,-0.327757703844884],[32.284838855826926,-0.333261336892588],[32.28776592813034,-0.338967232953784],[32.28774798934025,-0.341750227516082],[32.29428676281276,-0.354915579441383],[32.297605804076554,-0.353406973892468],[32.30697553112268,-0.351182208973465],[32.34236578537997,-0.347267547456063],[32.33892704875537,-0.408223991695547],[32.339734435007,-0.415063614202826],[32.34241654727066,-0.421188773965463],[32.34780345566025,-0.427946612695237],[32.35269155939334,-0.431131871913661],[32.36768621289867,-0.437492836409505],[32.37532488987131,-0.442577766681971],[32.38588999202797,-0.452539197230986],[32.39197525480353,-0.460881025960244],[32.39540560804435,-0.46737697200746],[32.397026039638654,-0.472470214801224],[32.40106300519477,-0.495096793708922],[32.40130219583254,-0.526525608058064],[32.38056503499563,-0.518263918628459],[32.37170374300113,-0.513359659845023],[32.357718476196524,-0.508165454518867],[32.35073138699205,-0.502836497754905],[32.34443676208928,-0.502817423668501],[32.33872734446624,-0.497026809873932],[32.327192193477416,-0.48881135643974],[32.32333353471151,-0.484966221365633],[32.320356368126355,-0.475177695192353],[32.309591084075656,-0.474769128733555],[32.30801398601573,-0.473783605527673],[32.292756125318135,-0.480683944457045],[32.2814220959058,-0.491683369482444],[32.26466876940357,-0.499624440374022],[32.260853873212966,-0.502762815877561],[32.254928440949456,-0.509900344573621],[32.245055837802845,-0.527503832304554],[32.23483479170765,-0.533138551520854],[32.18350716340172,-0.553165373773537],[32.17425089903962,-0.561093440636892],[32.15826139135693,-0.577185298981546],[32.14531722487798,-0.592510907580496],[32.1403675515438,-0.600940244047993],[32.126279499598425,-0.62776094546413],[32.12589749716502,-0.634657939652497],[32.13274694849562,-0.647688404784649],[32.1468282834491,-0.663784899345142],[32.16851894141913,-0.701724601061268],[32.176891466038605,-0.713605371885531],[32.18107716168681,-0.72241961628212],[32.18027289715946,-0.999962760237759],[32.05782002552,-0.9999286874816841],[31.9999,-0.9999],[32.0005,-0.8187],[32.0005,-0.6142],[32.000645433919786,-0.4478235957644479],[32.05188602981557,-0.4299242284023],[32.16472828274915,-0.385972041499407]]]}},{"type":"Feature","properties":{"n":"Kalangala Town Council","c":"101102","d":"Kalangala","od":"Kalangala","dc":"101","k":"KALANGALATOWNCOUNCIL","a":["KALANGALA","KALANGALATOWNCOUNCIL","TOWNCOUNCIL"],"lat":-0.312577,"lon":32.306487},"geometry":{"type":"Polygon","coordinates":[[[32.271107800674564,-0.279765779185555],[32.27038327013028,-0.270945101950828],[32.281004372466846,-0.268711227026014],[32.28939405038071,-0.268069402398582],[32.30111541646712,-0.268793781938113],[32.31198881312589,-0.271399908903427],[32.32035277315893,-0.27599610952752],[32.32958413980036,-0.283785718552388],[32.335581890188884,-0.291874035602507],[32.340179411013054,-0.300929848511461],[32.34323933616658,-0.314111182324462],[32.34361743240542,-0.321484343278205],[32.34236578571823,-0.347267536421011],[32.30697563606403,-0.351182196053433],[32.30697562571887,-0.3511821985097915],[32.30697553112268,-0.351182208973465],[32.298592894206735,-0.3531725974284891],[32.29760593789145,-0.35340694070668],[32.29760593140349,-0.35340694365973124],[32.297605804076554,-0.353406973892468],[32.29428676281276,-0.354915579441383],[32.28774798934025,-0.341750227516082],[32.28776592813034,-0.338967232953784],[32.28776568200309,-0.33896675316497865],[32.287765682101366,-0.338966738041729],[32.28766063101483,-0.33876197174586653],[32.284838855826926,-0.333261336892588],[32.28370512131283,-0.327757703844884],[32.281921717504794,-0.325101039535516],[32.28039886446452,-0.323825648250795],[32.27935065371967,-0.32391948278089355],[32.2776210626868,-0.322080365644015],[32.27670046254362,-0.321101440589314],[32.272735651055754,-0.314623762548897],[32.268107204367226,-0.31104333901689024],[32.26743028865194,-0.310519683655932],[32.270723912825176,-0.289191994164743],[32.271107800674564,-0.279765779185555]]]}},{"type":"Feature","properties":{"n":"Mugoye","c":"101103","d":"Kalangala","od":"Kalangala","dc":"101","k":"MUGOYE","a":["MUGOYE"],"lat":-0.300275,"lon":32.165021},"geometry":{"type":"Polygon","coordinates":[[[32.000519578912844,-0.15367722306422066],[32.00430243077512,-0.1529566798523593],[32.16157079921883,-0.1529],[32.2501,-0.1529],[32.25014700564903,-0.15289992506074288],[32.250091939713336,-0.154885450546279],[32.2455700807915,-0.168880243331919],[32.243585696361905,-0.180323873714464],[32.24353482385293,-0.187986839868746],[32.24539828192205,-0.20651384173945],[32.24778850042046,-0.216872756466625],[32.25312362507119,-0.231763238226417],[32.259012138762834,-0.243885780534085],[32.26523219517914,-0.252118817540361],[32.26704125131844,-0.257040381539263],[32.27025245063635,-0.270094673729558],[32.27110768355716,-0.27976435335912975],[32.27110779689252,-0.27976573314169156],[32.27010018579585,-0.2932309056218901],[32.26764245221564,-0.30914582969749177],[32.267269557211264,-0.3111043232798647],[32.26191387094173,-0.33058481116021626],[32.26191385273439,-0.3305848480805998],[32.25848758114074,-0.337532514898319],[32.25290730251865,-0.344900377239827],[32.2529067735326,-0.351679034530724],[32.25417800289929,-0.357629529251604],[32.251873199382665,-0.36475843042225087],[32.25111011221156,-0.3671186285467796],[32.248640506666234,-0.370734377889362],[32.24475000810452,-0.373821885503373],[32.238242696905054,-0.375888353900753],[32.21016536201292,-0.375211023814133],[32.19837843872433,-0.374070178002107],[32.19837804047708,-0.3740703188598337],[32.19837803033249,-0.374070317878102],[32.17391158656716,-0.3827239606115566],[32.16472828274915,-0.385972041499407],[32.05188603652037,-0.42992422579077066],[32.000645434740846,-0.44782265647655445],[32.00069450228926,-0.39168938109185486],[32.00274035690539,-0.3836205106441579],[32.0445,-0.3472],[32.0462024838217,-0.3449036264730574],[32.04808896608003,-0.343226332243368],[32.057432703741085,-0.329830412853538],[32.06009172432993,-0.31991708494191],[32.06085561316477,-0.3024352795330865],[32.0611,-0.3005],[32.06095979732374,-0.3000509964924686],[32.060972673779865,-0.299756315263867],[32.05794570439674,-0.284427421811399],[32.05363960262771,-0.275773841330702],[32.053246668477264,-0.2753494572753088],[32.0532,-0.2752],[32.048132577654606,-0.2698260417093266],[32.00030142729,-0.21816655234478702],[32.0003530736807,-0.18438981282230799],[32.00042341849308,-0.153735603158143],[32.000519578912844,-0.15367722306422066]]]}},{"type":"Feature","properties":{"n":"Bubeke","c":"101201","d":"Kalangala","od":"Kalangala","dc":"101","k":"BUBEKE","a":["BUBEKE"],"lat":-0.327127,"lon":32.711034},"geometry":{"type":"Polygon","coordinates":[[[32.501,-0.1525],[32.73548613394592,-0.15184942412301963],[32.826800363332374,-0.15236788360190578],[32.8439,-0.1525],[32.876183206508735,-0.14970145578252433],[32.87596247009692,-0.34679043707668794],[32.8758,-0.4816],[32.87577234546737,-0.5001561913950469],[32.75079098024982,-0.44232853108587],[32.70218969228432,-0.410860385966201],[32.659224058493784,-0.387526088700771],[32.63237496668237,-0.370842177127722],[32.61853144914793,-0.363476959684175],[32.596712912247,-0.355605734797687],[32.59068304024628,-0.362399258979321],[32.58739210643596,-0.364787548275431],[32.58346147220578,-0.366262040000452],[32.56972569154727,-0.369337398005979],[32.56349243652664,-0.366342523483245],[32.55582541410191,-0.359846342039753],[32.554981883414804,-0.357846903629175],[32.553904414608155,-0.349939596558075],[32.553310699389286,-0.33187195763225],[32.53885554286114,-0.322381539095359],[32.52701715941346,-0.316672387749388],[32.502853487422705,-0.311731670564748],[32.49523361679842,-0.282210900988191],[32.49012478475764,-0.269192137901515],[32.50010572751967,-0.263438935411135],[32.500617586155094,-0.261565702308037],[32.49938086407446,-0.257712410805654],[32.49605010326836,-0.253776709286528],[32.48082407445758,-0.25382998126231],[32.481848050592376,-0.236242436228565],[32.47707286153701,-0.205039668642032],[32.46947075333826,-0.171963729051875],[32.46450003370452,-0.157144874488071],[32.462045360809455,-0.152602950886525],[32.49074515838585,-0.15251634889057655],[32.501,-0.1525]]]}},{"type":"Feature","properties":{"n":"Bufumira","c":"101202","d":"Kalangala","od":"Kalangala","dc":"101","k":"BUFUMIRA","a":["BUFUMIRA"],"lat":-0.31109,"lon":32.422613},"geometry":{"type":"MultiPolygon","coordinates":[[[[32.47005157802494,-0.17449083360592102],[32.47707285994271,-0.2050396617054109],[32.48184804903333,-0.236242463006245],[32.48082407445758,-0.25382998126231],[32.49605010326836,-0.253776709286528],[32.49938086407446,-0.257712410805654],[32.500617586155094,-0.261565702308037],[32.50010572751967,-0.263438935411135],[32.49012478475764,-0.269192137901515],[32.49485933359239,-0.28125712048654306],[32.500000647933874,-0.3006792496850272],[32.502853487422705,-0.311731670564748],[32.50293055243054,-0.31174742795496097],[32.50462919214635,-0.318164308509415],[32.50796526865936,-0.32764570970744],[32.50922808242564,-0.340166820123261],[32.50813937524963,-0.350263013986326],[32.50240733954909,-0.36122769075317],[32.49483669788288,-0.372592958074123],[32.46142234191869,-0.392844481672551],[32.44590357726982,-0.40546396093897],[32.43253537587345,-0.418436347136649],[32.42064011065363,-0.431870077092843],[32.41043679215865,-0.445349126138975],[32.39599713951422,-0.468923916381855],[32.39574095156447,-0.4684310035218291],[32.39540560804435,-0.46737697200746],[32.39197525480353,-0.460881025960244],[32.39142451627848,-0.46012605996780087],[32.39105972764721,-0.459424196325446],[32.389735013614946,-0.45781004792746927],[32.38588999202797,-0.452539197230986],[32.38376487915771,-0.4505355096232356],[32.381778119326505,-0.448114666240741],[32.37532503544966,-0.4425779039422331],[32.37532488987131,-0.442577766681971],[32.375324825636525,-0.4425777239220273],[32.3753248086075,-0.442577709311083],[32.37099330405683,-0.43951973790066],[32.36768649875695,-0.437493000295529],[32.367686389404305,-0.43749295390614135],[32.36768621289867,-0.437492836409505],[32.35269155939334,-0.431131871913661],[32.34780371960009,-0.4279467846876617],[32.34241652566679,-0.4211887246285483],[32.339734446264,-0.415063639910527],[32.339509215390635,-0.41315570809956415],[32.33892704875537,-0.408223991695547],[32.34236578537997,-0.347267547456063],[32.34222237671454,-0.3472834104781177],[32.34222237731068,-0.3472833994537894],[32.34236578571823,-0.347267536421011],[32.34361730046762,-0.3214870611201392],[32.343617437622044,-0.321484524720999],[32.34361742785634,-0.3214844369867779],[32.34361743240542,-0.321484343278205],[32.34323933616658,-0.314111182324462],[32.34238895899771,-0.31044798640709836],[32.34195884410639,-0.306583874013549],[32.340179465040904,-0.30093008124890824],[32.340179411013054,-0.300929848511461],[32.340179360445404,-0.30092974890752017],[32.34017934830733,-0.300929710340054],[32.3395352963994,-0.29966112528947103],[32.335581890188884,-0.291874035602507],[32.33558174532308,-0.29187384024250507],[32.335581689224306,-0.291873729745091],[32.33558139889515,-0.29187337306418315],[32.32958413980036,-0.283785718552388],[32.32771321222183,-0.2822069930053826],[32.32659009435793,-0.280827198069903],[32.3203531320519,-0.2759964123684787],[32.32035277315893,-0.27599610952752],[32.32035266266289,-0.27599604880724327],[32.32035254785449,-0.275995959883381],[32.318480957137716,-0.27496750083846583],[32.31198881312589,-0.271399908903427],[32.31198852389766,-0.2713998395814371],[32.31198836309695,-0.271399751219733],[32.30428203781909,-0.2695527551967275],[32.30111541646712,-0.268793781938113],[32.30111530137311,-0.26879377482531186],[32.301115276475564,-0.268793768858049],[32.28939415888631,-0.268069406516928],[32.289394140178615,-0.26806940794808615],[32.28939405038071,-0.268069402398582],[32.281004372466846,-0.268711227026014],[32.28100432026415,-0.26871123800550356],[32.28100427968446,-0.268711241109893],[32.270383269403375,-0.270945090274461],[32.2702729051137,-0.27032594200530496],[32.27025245063635,-0.270094673729558],[32.27017702495826,-0.26978805033343334],[32.26926086856163,-0.264648374729058],[32.267779503584975,-0.2600415533269266],[32.26704125131844,-0.257040381539263],[32.26523219517914,-0.252118817540361],[32.25901216446241,-0.2438858145507454],[32.25220842415496,-0.229208886933455],[32.249495175921346,-0.22163613540891533],[32.24539833806986,-0.20651408507721394],[32.24539828801095,-0.20651386812802794],[32.243747098179384,-0.1900973283784856],[32.24353482385293,-0.187986839868746],[32.24358569615839,-0.18032390436988094],[32.244830545045595,-0.17314502872561804],[32.24557007720496,-0.1688802640149509],[32.24586504454251,-0.1679673540432466],[32.250091939713336,-0.154885450546279],[32.25014425930419,-0.1529989506670005],[32.250147014294406,-0.1528999250469599],[32.46200131325337,-0.15256217407213493],[32.46449247796018,-0.1571308939639872],[32.46449995975379,-0.15714473765576606],[32.47005157802494,-0.17449083360592102]]],[[[32.37314587945006,-0.441039429207903],[32.373145883175994,-0.441039423930249],[32.37314587945006,-0.441039429207904],[32.37314587945006,-0.441039429207903]]]]}},{"type":"Feature","properties":{"n":"Kyamuswa","c":"101203","d":"Kalangala","od":"Kalangala","dc":"101","k":"KYAMUSWA","a":["KYAMUSWA"],"lat":-0.684149,"lon":32.638929},"geometry":{"type":"Polygon","coordinates":[[[32.41266642932969,-0.44240367375519307],[32.418654287124674,-0.43449344053650185],[32.42398681401248,-0.4280905304971663],[32.42889248542408,-0.42255038794637145],[32.43563026106514,-0.4154330975031531],[32.44328746562507,-0.408002612892635],[32.4623242489378,-0.3922978605944573],[32.466954594252606,-0.389491535447497],[32.474952585620116,-0.385135730454338],[32.494834296450925,-0.372594478685822],[32.49483437749212,-0.372594364399247],[32.49483669788288,-0.372592958074123],[32.494857202687584,-0.37256217566530525],[32.49634499237423,-0.3704640527177],[32.497599465083084,-0.3684454116493512],[32.50240733954909,-0.36122769075317],[32.50411579422622,-0.35795962783726365],[32.506677860647805,-0.353836865770029],[32.507261056715144,-0.35194312892838475],[32.50813937524963,-0.350263013986326],[32.50833384230596,-0.3484596116170287],[32.50874248945207,-0.347132664816191],[32.50922808114104,-0.340166922812865],[32.50922807713089,-0.34016686922449263],[32.50922808242564,-0.340166820123261],[32.509228047663996,-0.34016647545295153],[32.50847927334217,-0.330160465454018],[32.50809042821019,-0.3288866975690774],[32.50796526865936,-0.32764570970744],[32.506049169023335,-0.32219999846140307],[32.50340216185656,-0.3135290072545375],[32.502930556113,-0.3117474418660333],[32.52701722482775,-0.316672419295932],[32.53652946469717,-0.32125977003462675],[32.53885555558912,-0.32238154745181596],[32.553310699389286,-0.33187195763225],[32.55390426117224,-0.3499349272746337],[32.553904410156996,-0.349939471719481],[32.55390441061674,-0.34993947509321927],[32.553904414608155,-0.349939596558075],[32.554981883414804,-0.357846903629175],[32.55582541410191,-0.359846342039753],[32.56349243652664,-0.366342523483245],[32.563493247245596,-0.3663429130071055],[32.56349329146662,-0.366342950473483],[32.563651131045894,-0.36641877099293907],[32.56972569154727,-0.369337398005979],[32.58346147220578,-0.366262040000452],[32.58739210643596,-0.364787548275431],[32.59068304024628,-0.362399258979321],[32.596712912247,-0.355605734797687],[32.617298196239545,-0.3630320530881055],[32.618531506951825,-0.3634769904377916],[32.63237495775161,-0.37084217237625783],[32.65922398425569,-0.387526046649498],[32.659224036360136,-0.38752607494701585],[32.659224058493784,-0.387526088700771],[32.685111958624,-0.4015856033389385],[32.702189703237416,-0.4108603930580597],[32.75079098024982,-0.44232853108587],[32.87401346298033,-0.4993423736006311],[32.875772345449036,-0.5001562036949128],[32.8756,-0.6158],[32.8751,-0.9994],[32.87061736718036,-0.999425284794309],[32.41058052006408,-1.0],[32.401925350034425,-1.0],[32.40266575150923,-0.752497731955911],[32.40148938336272,-0.500443596053118],[32.40107968578572,-0.4972885650965646],[32.40106300519477,-0.495096793708922],[32.400078612518726,-0.4895794222448787],[32.39917974416736,-0.482657346954243],[32.397718886025984,-0.47635351358988326],[32.397026039638654,-0.472470214801224],[32.39626363051137,-0.470073856443921],[32.39599714538742,-0.468923931089853],[32.39599756172707,-0.4689232270592278],[32.4095186965689,-0.4468480479956221],[32.41266642932969,-0.44240367375519307]]]}},{"type":"Feature","properties":{"n":"Mazinga","c":"101204","d":"Kalangala","od":"Kalangala","dc":"101","k":"MAZINGA","a":["MAZINGA"],"lat":-0.737459,"lon":32.291804},"geometry":{"type":"Polygon","coordinates":[[[32.145317032770436,-0.5925112347413056],[32.14531722487798,-0.592510907580496],[32.15363077063699,-0.5826678521331489],[32.158261457536994,-0.5771852323778531],[32.16910287635498,-0.5662744164017721],[32.17425097529911,-0.5610933753200081],[32.18350716340172,-0.553165373773537],[32.23483479170765,-0.533138551520854],[32.23910236815725,-0.5307858965378309],[32.2450552502611,-0.527504202282222],[32.2450552876676,-0.5275041355863923],[32.245055837802845,-0.527503832304554],[32.254928440949456,-0.509900344573621],[32.260853873212966,-0.502762815877561],[32.26466876940357,-0.499624440374022],[32.2814220959058,-0.491683369482444],[32.28142224476415,-0.4916832250187085],[32.28142238826674,-0.491683156998045],[32.29071668475417,-0.48266317644603873],[32.292756125318135,-0.480683944457045],[32.30801398601573,-0.473783605527673],[32.309591084075656,-0.474769128733555],[32.320356368126355,-0.475177695192353],[32.32333353471151,-0.484966221365633],[32.32333412758755,-0.4849668121637855],[32.323334160681334,-0.484966920996995],[32.32500130960231,-0.48662815109753504],[32.327192193477416,-0.48881135643974],[32.337273057227755,-0.49599105151244255],[32.33872736387841,-0.4970268295621705],[32.34443676208928,-0.502817423668501],[32.35073138699205,-0.502836497754905],[32.357718476196524,-0.508165454518867],[32.3577188044513,-0.5081655764345036],[32.357718879197016,-0.508165633443233],[32.3653830798278,-0.5110121306360038],[32.37170374300113,-0.513359659845023],[32.38056503499563,-0.518263918628459],[32.38056513794989,-0.5182639596454583],[32.380565156921364,-0.518263970145194],[32.401302194798525,-0.526525620033203],[32.402665750919724,-0.7524976056454477],[32.402665751509005,-0.752497731907775],[32.40192533853927,-1.0],[32.35204900858805,-1.0],[32.1802729086552,-0.999962760204157],[32.180380362908615,-0.962877471910126],[32.18107716168681,-0.72241961628212],[32.176891466038605,-0.713605371885531],[32.16851894141913,-0.701724601061268],[32.1468282834491,-0.663784899345142],[32.13274694849562,-0.647688404784649],[32.12589749716502,-0.634657939652497],[32.126279499598425,-0.62776094546413],[32.126280459203656,-0.6277591185766748],[32.145317032770436,-0.5925112347413056]]]}}]}
