{"type":"FeatureCollection","name":"Kampala sub-counties","metadata":{"source":"Uganda Bureau of Statistics NPHC 2024 Map Explorer","retrieved":"2026-07-26","display_only":true,"clipped_to_dashboard_district":true,"positive_area_overlaps_removed":true,"source_gap_ratio":0.09874709},"features":[{"type":"Feature","properties":{"n":"Kampala Central Division","c":"102101","d":"Kampala","od":"Kampala","dc":"102","k":"KAMPALACENTRALDIVISION","a":["CENTRAL","CENTRALDIVISION","KAMPALA","KAMPALACENTRAL","KAMPALACENTRALDIVISION"],"lat":0.325076,"lon":32.5841},"geometry":{"type":"MultiPolygon","coordinates":[[[[32.56990721525323,0.328116285420906],[32.573778966882884,0.330056500452387],[32.57911133832381,0.336637269298104],[32.58317692554446,0.336682351499567],[32.58706488939197,0.339930832113639],[32.58453540169783,0.339335253683778],[32.58349183011981,0.342111123103865],[32.58681391050781,0.344658336526257],[32.58555158895663,0.348218044596423],[32.5892046494542,0.347996962058651],[32.593417181327624,0.345092296230661],[32.59791276597334,0.347868873110577],[32.59538615542427,0.342026988847871],[32.596439090470504,0.339973465725531],[32.59923109051034,0.338078968287101],[32.601365738373694,0.335201071281075],[32.60300841609774,0.328807881180618],[32.606678078113916,0.325572428799284],[32.60801972363695,0.322830964348427],[32.6121860448526,0.320967947430234],[32.6110448974846,0.314280632086254],[32.61276777712931,0.310646259497783],[32.604191503064285,0.314923596222155],[32.59407776049673,0.314724344720868],[32.587012637319795,0.308333050120605],[32.58323306146714,0.30838194523013],[32.580165362738185,0.306050808186561],[32.57952946133011,0.307276251995511],[32.57805165969088,0.307286247558406],[32.57710459403345,0.301104440887845],[32.570121197962145,0.303227018254063],[32.56478306869067,0.303369415798709],[32.56170115627017,0.30644704017301],[32.565874657698075,0.311844916208183],[32.563300527963804,0.320162566086945],[32.560589301166466,0.324580482604966],[32.56514582646721,0.327860068925428],[32.56990721525323,0.328116285420906]]],[[[32.56464591253882,0.314731711187049],[32.56464591257884,0.314731711199556],[32.56464591253919,0.314731711185938],[32.56464591253882,0.314731711187049]]]]}},{"type":"Feature","properties":{"n":"Kawempe Division","c":"102201","d":"Kampala","od":"Kampala","dc":"102","k":"KAWEMPEDIVISION","a":["KAWEMPE","KAWEMPEDIVISION"],"lat":0.365406,"lon":32.579041},"geometry":{"type":"Polygon","coordinates":[[[32.5548023347419,0.3801276487861469],[32.55638362886344,0.3814378639154257],[32.557640278310345,0.382216127546865],[32.5577600495638,0.38257832678143505],[32.56344505907784,0.3872887632359294],[32.563763661749036,0.387485925903248],[32.56441529997753,0.395753461279231],[32.565,0.4025],[32.56576406130567,0.4023514325238968],[32.57192235437863,0.400874187093116],[32.57193612337468,0.399817803367444],[32.573735436143046,0.399829436222576],[32.57889781442475,0.40055112940412],[32.58049732271447,0.40147774070938],[32.58318583139776,0.40209458469299264],[32.58381081364658,0.401988332746792],[32.584282036079486,0.4023460948580638],[32.58879942341959,0.4033825516936715],[32.5936097771134,0.395958493697906],[32.592761161916584,0.391247801771081],[32.593372569390844,0.385164928031325],[32.598927154209115,0.378812293287263],[32.60446349864136,0.366487504496198],[32.60210314203128,0.364325452236385],[32.59986370648736,0.359755912981751],[32.591965712105186,0.356966375910178],[32.58890723759299,0.352143313627407],[32.58945999715578,0.351893646859397],[32.589057831626434,0.350151475302971],[32.58555866794469,0.3482176161773906],[32.58555158895663,0.348218044596423],[32.58555287599736,0.3482144151810349],[32.58555237521422,0.348214138416604],[32.58619173071575,0.3464128644631523],[32.58681391050781,0.344658336526257],[32.58349183011981,0.342111123103865],[32.58453540169783,0.339335253683778],[32.58706470976326,0.33993078981931146],[32.5831767694466,0.33668234976864],[32.57911133832381,0.336637269298104],[32.57911124844145,0.3366371583727786],[32.57911119555781,0.336637157786642],[32.57334265602049,0.32983785603131416],[32.5699072527832,0.3281163042279532],[32.56990707727019,0.3281162779958597],[32.56514582646721,0.327860068925428],[32.56434728519036,0.32728531406837774],[32.563941007222525,0.327224591953062],[32.55956176091438,0.334000969940775],[32.55677459246503,0.346372680588102],[32.5535582146191,0.348037137257822],[32.55398452058719,0.352302144214194],[32.55639244733368,0.356703773000961],[32.55636211522668,0.358405843335801],[32.554206849476415,0.368052721425721],[32.54974827017736,0.375828553166415],[32.555152278873756,0.378744252243679],[32.5548023347419,0.3801276487861469]]]}},{"type":"Feature","properties":{"n":"Makindye Division","c":"102301","d":"Kampala","od":"Kampala","dc":"102","k":"MAKINDYEDIVISION","a":["MAKINDYE","MAKINDYEDIVISION"],"lat":0.269141,"lon":32.61278},"geometry":{"type":"Polygon","coordinates":[[[32.57135255467748,0.293432019739308],[32.570818598317224,0.294817703347673],[32.572864969754974,0.296186552512641],[32.57370262348142,0.297956892627881],[32.57222422136838,0.30210929766624],[32.57708031670242,0.3011118198926779],[32.57710459403345,0.301104440887845],[32.57805165969088,0.307286247558406],[32.57952946133011,0.307276251995511],[32.580165362738185,0.306050808186561],[32.58323306146714,0.30838194523013],[32.587012637319795,0.308333050120605],[32.59407776049673,0.314724344720868],[32.60381827314068,0.31491624319511213],[32.60459686609444,0.3147214251904897],[32.606656103663575,0.3136943996533055],[32.60958089320076,0.311841320728866],[32.61020490389154,0.31192446862877615],[32.611702514061555,0.31117754952026566],[32.61677622691462,0.306261139567333],[32.62264484275483,0.302687528487346],[32.62934467837243,0.299902643250768],[32.63179859001475,0.296790198017996],[32.637028819265986,0.292640157577594],[32.6401299084142,0.282217619475285],[32.6389930062213,0.280324900693537],[32.64067704808984,0.279295248943747],[32.64033117339117,0.278708432955849],[32.64090123015275,0.278834352005569],[32.64150671717021,0.276538572624724],[32.64069915568602,0.275244016580522],[32.63799959947796,0.273928190364529],[32.63754931545679,0.272680221868296],[32.636136841327165,0.27429190821846],[32.63759002942054,0.272255930438367],[32.63737847325958,0.271005590154785],[32.63663390746473,0.270888629338238],[32.63732000749974,0.267393356262612],[32.636457524142045,0.265353907533094],[32.63690151282634,0.262510280910888],[32.635998029098616,0.261163834079394],[32.637564924397886,0.259295928237486],[32.636891284235794,0.258840936319738],[32.637531749985264,0.25886300454355],[32.637962345730166,0.256763392978343],[32.637288649496455,0.25388374490126],[32.63850200605115,0.250578936175125],[32.63682123128441,0.247653809274449],[32.63744678485975,0.246105501183293],[32.6413745165378,0.243748767438232],[32.6386610190965,0.242918888345542],[32.636382407890906,0.243844769708063],[32.63681361144318,0.246351241101925],[32.635960806965414,0.247424644885392],[32.63537460009054,0.247093276718721],[32.635696311485376,0.247474647515003],[32.63516821935815,0.248349191755445],[32.633824728728534,0.245690857458553],[32.63187492054001,0.244499595117507],[32.63225911379093,0.243695383385835],[32.63104864642938,0.240416877782763],[32.62904254362352,0.23940582401577],[32.62764537663303,0.236855548753518],[32.62432019745332,0.235192508076621],[32.62308982314578,0.235579005632848],[32.623798958234644,0.235352807179312],[32.62314721555114,0.235319116603437],[32.62372537278348,0.233766427943659],[32.62436579915022,0.234877599702543],[32.62387815651559,0.232800823579697],[32.623075846393554,0.232619362523519],[32.62354821481133,0.230189361365291],[32.622136495508485,0.228602533849998],[32.62071680279213,0.228338204926248],[32.61881600036527,0.225633406974262],[32.61848067119537,0.226979630294595],[32.617544160282264,0.226777568117402],[32.61797180354615,0.2249890018033],[32.615965878495786,0.2267987592210197],[32.61477879659776,0.22963662688348213],[32.61053847015364,0.243189260921781],[32.61084882721259,0.245168872922788],[32.60762594590791,0.24673641056388929],[32.6035,0.2566],[32.5765,0.2793],[32.5763737552001,0.27927097820691976],[32.57151768084807,0.286552402210381],[32.56849399036789,0.285533433060147],[32.57261865362284,0.293223969751171],[32.57135255467748,0.293432019739308]]]}},{"type":"Feature","properties":{"n":"Nakawa Division","c":"102401","d":"Kampala","od":"Kampala","dc":"102","k":"NAKAWADIVISION","a":["NAKAWA","NAKAWADIVISION"],"lat":0.346518,"lon":32.61843},"geometry":{"type":"Polygon","coordinates":[[[32.59986328475276,0.359755684055568],[32.59986333215673,0.35975578076980913],[32.59986370648736,0.359755912981751],[32.602103128729155,0.3643254250935695],[32.6021195093149,0.36434044442967517],[32.60446349864136,0.366487504496198],[32.60128971538907,0.3735528539757653],[32.5989272134757,0.378812190082917],[32.59892718693319,0.3788122204382322],[32.598927154209115,0.378812293287263],[32.59337267226458,0.3851648103772993],[32.59283986886797,0.39046474878619153],[32.59276116669184,0.39124775426226444],[32.593609792047786,0.395958235183329],[32.59360974392333,0.39595830945868987],[32.5936097771134,0.395958493697906],[32.58906609875138,0.4029709783967156],[32.58879943121487,0.40338255348220015],[32.5989,0.4057],[32.6051,0.3907],[32.60613513945077,0.3897231782647665],[32.606132529608495,0.389518624957286],[32.61034056891233,0.384750601889798],[32.61110761498464,0.3850308421975977],[32.6193,0.3773],[32.62138390680067,0.37738335627202685],[32.625179783941164,0.375735909464857],[32.63121034042665,0.377284737520993],[32.631917131407555,0.37780468525630195],[32.63423617584199,0.3778974470336796],[32.63336020167227,0.363761690866883],[32.634381423892314,0.362065375195583],[32.63704600991634,0.360919524244233],[32.63944643391998,0.3511968051322028],[32.6396,0.3504],[32.6394612008647,0.34523667216698734],[32.63865753832996,0.344445296477126],[32.63899000540485,0.342425428071653],[32.637302253764965,0.340594801126922],[32.63833240372263,0.338645710028945],[32.639271858444495,0.33819313413531854],[32.63912798133313,0.33284090559245244],[32.63852411999364,0.331688822011038],[32.640835719276964,0.329065513856236],[32.6448330332206,0.3268978411592001],[32.646,0.3259],[32.6654,0.3239],[32.6617,0.3095],[32.66179648771639,0.30902571530959483],[32.66150337682203,0.308674331421829],[32.662189175336884,0.3070954620764564],[32.66355284884794,0.3003923345361731],[32.66229906249726,0.299045816978675],[32.661173023582286,0.294860476433484],[32.662564218265636,0.291724040600915],[32.66207562990972,0.291266447455944],[32.66320377551297,0.290315756888359],[32.66265608326588,0.286663028811831],[32.66063671845428,0.286679321593208],[32.65922400103598,0.288373082557318],[32.655019420713636,0.290253246813603],[32.65413063593399,0.290014705932955],[32.653755950356626,0.28831044985248],[32.65319709722626,0.287615333610109],[32.65354357798192,0.289811227865515],[32.65249467378602,0.290134416374813],[32.652370080861296,0.291149552490517],[32.652595281080714,0.291144837380693],[32.65280336443719,0.291520103438483],[32.652700760316236,0.291570479683471],[32.650001706856784,0.291193524828367],[32.65036104344088,0.290524383906081],[32.64710599890234,0.289132332786627],[32.642965104201664,0.285335092559719],[32.64005716264085,0.286637127558606],[32.637903186353405,0.289701472538729],[32.637028819265986,0.292640157577594],[32.63702818233587,0.292640662963803],[32.637028147400784,0.292640842854041],[32.632993750843006,0.29584187137076934],[32.63179859001475,0.296790198017996],[32.62934467837243,0.299902643250768],[32.62934133993934,0.29990403091959733],[32.621200396919015,0.30356710346445204],[32.62006031366015,0.3042613411308709],[32.61464617944661,0.308325148090326],[32.61308539626788,0.3098375415143362],[32.61269737889522,0.31068136996063755],[32.61276777712931,0.310646259497783],[32.6110448974846,0.314280632086254],[32.6121860448526,0.320967947430234],[32.60802004022138,0.3228308227841741],[32.60770074882157,0.32348274464513976],[32.606678078113916,0.325572428799284],[32.603128122558,0.32870233888538947],[32.60300839132634,0.3288079775891938],[32.60164165918569,0.3341272062265207],[32.601365805365475,0.335200946785096],[32.60136575181008,0.33520101898758164],[32.601365738373694,0.335201071281075],[32.59923109051034,0.338078968287101],[32.596439090470504,0.339973465725531],[32.5957134244079,0.34138872115272834],[32.5953861598992,0.34202699919454665],[32.59539214723468,0.3420408427688663],[32.597944634191734,0.347836719266934],[32.597882586581086,0.3477990940475816],[32.59791276597334,0.347868873110577],[32.593417181327624,0.345092296230661],[32.5892046494542,0.347996962058651],[32.588528473804004,0.34803788408247877],[32.586378324601476,0.348168312462295],[32.58905631133322,0.3501506350928029],[32.589057831626434,0.350151475302971],[32.58945999715578,0.351893646859397],[32.58890723759299,0.352143313627407],[32.59196565475899,0.3569662854780682],[32.59986328475276,0.359755684055568]]]}},{"type":"Feature","properties":{"n":"Rubaga Division","c":"102501","d":"Kampala","od":"Kampala","dc":"102","k":"RUBAGADIVISION","a":["RUBAGA","RUBAGADIVISION"],"lat":0.30957,"lon":32.537996},"geometry":{"type":"Polygon","coordinates":[[[32.52304262220467,0.326492129337819],[32.5231581635188,0.326923785412392],[32.534,0.3436],[32.53409881127524,0.3436576029855682],[32.53834645125841,0.344805054195962],[32.54394413824541,0.347949300680298],[32.54817008942093,0.349146883002223],[32.55354487557693,0.348551420560504],[32.55360552924567,0.34851049964669584],[32.5535582146191,0.348037137257822],[32.55677308256684,0.3463734619515591],[32.55677465551047,0.34637240074137826],[32.55956176091438,0.334000969940775],[32.56393469160193,0.3272343646466639],[32.56394099724264,0.327224586176366],[32.560619092195786,0.32460192487638784],[32.560589301166466,0.324580482604966],[32.563300527963804,0.320162566086945],[32.56330984910505,0.320132447174008],[32.56587026866664,0.31183923957239296],[32.56170115627017,0.30644704017301],[32.56478306869067,0.303369415798709],[32.56482912472421,0.3033681872285942],[32.57153937591857,0.302734224936732],[32.57290244701381,0.3002043574862996],[32.573556938642525,0.2983660793123951],[32.57287470231037,0.2962071217916877],[32.57286498990675,0.2961865951024246],[32.572746666552604,0.2961074176904909],[32.570818598317224,0.294817703347673],[32.5713073899566,0.2935492278447936],[32.57135159839045,0.293434045202904],[32.571351786174304,0.2934340141012823],[32.57135255467748,0.293432019739308],[32.57261865362284,0.293223969751171],[32.56849399036789,0.285533433060147],[32.57151768084807,0.286552402210381],[32.5763737552001,0.27927097820691976],[32.57642440701323,0.2792826223018904],[32.57642440701322,0.27928262230188855],[32.5417,0.2713],[32.52682891960253,0.296977398819624],[32.52653541395331,0.297644405544274],[32.52582602661066,0.29774154179339213],[32.5104,0.3073],[32.51586823688892,0.31571088979101153],[32.51838764697626,0.318400584387582],[32.52304262220467,0.326492129337819]],[[32.54713946871975,0.313334919714689],[32.54471179598068,0.313047454630013],[32.54476634526855,0.31297247774972586],[32.54722226937555,0.3132323595577885],[32.54713946871975,0.313334919714689]]]}}]}
