{"type":"FeatureCollection","name":"Kamuli sub-counties","metadata":{"source":"Uganda Bureau of Statistics NPHC 2024 Map Explorer","retrieved":"2026-07-26","display_only":true,"clipped_to_dashboard_district":true,"positive_area_overlaps_removed":true,"source_gap_ratio":0.00470437},"features":[{"type":"Feature","properties":{"n":"Balawoli","c":"205101","d":"Kamuli","od":"Kamuli","dc":"205","k":"BALAWOLI","a":["BALAWOLI"],"lat":1.038719,"lon":33.067852},"geometry":{"type":"Polygon","coordinates":[[[33.020818131432996,1.092894326703978],[33.0273841057315,1.09272187772552],[33.05033694947656,1.085480204543014],[33.05673174524194,1.08131345109215],[33.063138893724535,1.07917098326698],[33.06897768939305,1.074845689940714],[33.07069323059847,1.072715440847169],[33.0745445854337,1.070681446045191],[33.082900124171886,1.071186836407154],[33.086718885612626,1.075529404002652],[33.08901279966955,1.073667653619977],[33.10031670149074,1.069990585108735],[33.098396379097466,1.067439090023624],[33.0900222249804,1.064545147878845],[33.08676746757522,1.060204896029387],[33.08586565697909,1.057107245817717],[33.0866326765628,1.057341592828747],[33.08824626053263,1.053643259852554],[33.089129704565586,1.053143159878178],[33.08836508363481,1.049711822475653],[33.08200030232578,1.037833957584268],[33.08653695060037,1.033065983487702],[33.087117338242145,1.0294572406806],[33.08549436907107,1.028955120213985],[33.08475680755203,1.027289480462782],[33.08643409495407,1.018212386411404],[33.08476847567985,1.015904313516043],[33.082240632608816,1.016836046078115],[33.08181821587699,1.01623880833636],[33.08078591023592,1.010894988105889],[33.08201154643655,1.007530396770729],[33.07700926582246,1.003622079500057],[33.07003557192593,1.000455357228456],[33.068614685399695,0.995752858290174],[33.06758076610971,0.99568582579445],[33.066070965677696,0.989504028863412],[33.06066575817151,0.984728138332716],[33.05377805766353,0.984439716428787],[33.05549974044886,0.987050889705159],[33.05571881158629,0.989096561559399],[33.054693583148264,0.998733080527278],[33.058859441402845,1.005488168000102],[33.05475413916361,1.007851088127249],[33.05914318991097,1.016614765375634],[33.05942872635518,1.019991020239298],[33.05859042552193,1.021949325838569],[33.060809593578604,1.022443928432929],[33.06004371004523,1.023299013581712],[33.06146216170333,1.023880653026136],[33.05821680311487,1.029059906805105],[33.05926279486925,1.034599804012992],[33.05520731182821,1.034113716562333],[33.05285033919424,1.039603574679446],[33.050220554024285,1.042213982775366],[33.04603427273399,1.043434708294562],[33.04142352582484,1.043029827935515],[33.03971933725246,1.043744200959435],[33.03303314356778,1.053119195386268],[33.02978195437654,1.061285462042929],[33.02868991603438,1.066619644300783],[33.025251072449905,1.07229249165482],[33.02246162223359,1.075006553406033],[33.01425199029679,1.078699151524891],[33.015679449302084,1.090193245875219],[33.020818131432996,1.092894326703978]]]}},{"type":"Feature","properties":{"n":"Balawoli Town Council","c":"205102","d":"Kamuli","od":"Kamuli","dc":"205","k":"BALAWOLITOWNCOUNCIL","a":["BALAWOLI","BALAWOLITOWNCOUNCIL"],"lat":1.045368,"lon":33.118408},"geometry":{"type":"Polygon","coordinates":[[[33.08837045181756,1.0497359129046582],[33.089129704565586,1.053143159878178],[33.08824626053263,1.053643259852554],[33.0866326765628,1.057341592828747],[33.08586565697909,1.057107245817717],[33.08586570766341,1.057107419914482],[33.0877891956927,1.0615673807861536],[33.0900222249804,1.064545147878845],[33.098396379097466,1.067439090023624],[33.100249312083555,1.0699010461116258],[33.10031671405976,1.069990580795947],[33.10710883715961,1.073839010323881],[33.11168086854825,1.072737521603048],[33.11271021004558,1.073180301152188],[33.11577111213982,1.077103378952351],[33.12107247911425,1.08171665635393],[33.13541020660264,1.092014828039422],[33.137349439174464,1.092591233570285],[33.142163904958444,1.081915203008064],[33.143395248423765,1.0716459160287],[33.147738503798536,1.055406355901443],[33.148164884001346,1.050447750520777],[33.14975827128503,1.046648512548229],[33.15179784502216,1.044087993534928],[33.145430508508454,1.032733853443144],[33.14056004390062,1.027875541475209],[33.133636594293534,1.016865594236669],[33.13066870210962,1.013798440782438],[33.13035722123211,1.009302077513057],[33.126879315835694,1.000689182377021],[33.12395208285641,0.998906952810851],[33.1144434360428,0.997459771567853],[33.110207197780255,0.997586549726336],[33.10440446954603,1.002189499774367],[33.102188091935275,1.002911437106647],[33.10375287983617,1.004877678499588],[33.10175915438413,1.006802034989703],[33.10081782197494,1.008984579817696],[33.09947487226503,1.009407546192244],[33.098322120139734,1.018384362262698],[33.09319005946531,1.018202484629568],[33.095764746279784,1.024760381901236],[33.08953283307736,1.025373942157936],[33.085671181257055,1.024322101731723],[33.0847568855024,1.0272890586132866],[33.08475680755203,1.027289480462782],[33.08549436907107,1.028955120213985],[33.087117338242145,1.0294572406806],[33.08653695060037,1.033065983487702],[33.08200030232578,1.037833957584268],[33.08836508363481,1.049711822475653],[33.08836529053717,1.0497127509773045],[33.088365300569635,1.049712769698207],[33.08837045181756,1.0497359129046582]]]}},{"type":"Feature","properties":{"n":"Bulopa","c":"205103","d":"Kamuli","od":"Kamuli","dc":"205","k":"BULOPA","a":["BULOPA"],"lat":0.82775,"lon":33.252903},"geometry":{"type":"Polygon","coordinates":[[[33.22048251491424,0.859596925939576],[33.225335193765645,0.859769057704821],[33.23229162364658,0.858071468081565],[33.23724305936629,0.855538087907671],[33.242805053396204,0.855285329878601],[33.24719479977657,0.85374597045507],[33.25084780945766,0.854985121599147],[33.253780529301615,0.852847718933144],[33.26421428491291,0.848052447502536],[33.26543210989491,0.850531565611155],[33.264813000817725,0.860996157417644],[33.26648466568343,0.861061279169989],[33.268082344836685,0.862887849012221],[33.268468707801595,0.86641099765013],[33.27109094821628,0.868068537845195],[33.27277926520552,0.868156539387694],[33.276348156855725,0.867433265148697],[33.280652695810076,0.863849143006918],[33.2836349654284,0.8628105524574328],[33.2836,0.8627],[33.30486726766693,0.8493205921719796],[33.29914089529136,0.848169070741484],[33.29545905222493,0.84654077827047],[33.290268817096546,0.843238713779394],[33.28329761076541,0.836010807663276],[33.28119531837139,0.830411280782489],[33.281196913698835,0.8303679796254054],[33.27950757288559,0.8128410686880562],[33.27883250225402,0.810475838238983],[33.27873002111032,0.8053839823671151],[33.27126142618332,0.7930018381460368],[33.271170233765275,0.7928952161408472],[33.2544,0.7902],[33.25338781715959,0.7836337882404317],[33.252681364521614,0.784248030081542],[33.24596702963122,0.793544208269306],[33.24674062807938,0.794077372790835],[33.243215858451315,0.802283485168742],[33.24316174622304,0.80460378598147],[33.2405743935583,0.804033629142573],[33.2437855730244,0.811377624531266],[33.243038638749155,0.818787345669427],[33.24141819183663,0.821456585590252],[33.2190709008507,0.829951025475437],[33.21132634521677,0.825549088091766],[33.209251241209124,0.825177448761251],[33.21057571598684,0.834213489804762],[33.21514643139879,0.840602154147805],[33.21317778810111,0.842434801064565],[33.2102891520971,0.847739405011082],[33.20769340703314,0.85017253802626],[33.21277472218316,0.853045785794226],[33.22048251491424,0.859596925939576]]]}},{"type":"Feature","properties":{"n":"Butansi","c":"205104","d":"Kamuli","od":"Kamuli","dc":"205","k":"BUTANSI","a":["BUTANSI"],"lat":0.914222,"lon":33.054632},"geometry":{"type":"Polygon","coordinates":[[[32.99161069374441,0.907332112055926],[32.99720518108829,0.91027262250568],[33.00083040289181,0.91585482024308],[33.00325070108781,0.918007623479558],[33.01411805401998,0.914493625426138],[33.01898501741341,0.913949447187384],[33.00993298009373,0.93301760531687],[33.01651646561465,0.949718949750424],[33.01968448191453,0.953473572556146],[33.0291514836309,0.956130841614105],[33.0332046496993,0.96151934598976],[33.037020717404666,0.969397404975397],[33.039793619951226,0.972076209600928],[33.0408353410356,0.974562030365998],[33.04525373430105,0.978513307319784],[33.053778048743396,0.984439705357366],[33.06032010634938,0.984641189558781],[33.06044182090109,0.9847187609775566],[33.06066575817151,0.984728138332716],[33.061207252999665,0.985206588053519],[33.06264926133888,0.986125612370557],[33.063624112065455,0.982794166383387],[33.061530462772225,0.975095440017274],[33.06250117401978,0.973113101494944],[33.06060804336895,0.971125543500309],[33.058600056484636,0.965472775409743],[33.06256515944903,0.964754801523398],[33.06445393596666,0.960346355382023],[33.06687092686379,0.957999347076529],[33.07844777343839,0.952865172052189],[33.07791999663301,0.94912605362376],[33.07888123494019,0.946956225854432],[33.07664576493393,0.943168970008145],[33.07881460946822,0.940065304346522],[33.07897641118689,0.937847762547521],[33.07770908090536,0.925223104836982],[33.081773700815326,0.918926536851153],[33.0847046634913,0.917306329277087],[33.088378281927554,0.916638917440276],[33.094430459030136,0.909434294551575],[33.097012356478345,0.905151137390899],[33.10195371059741,0.901739539200488],[33.10159357499596,0.89810164989295],[33.10529241375404,0.894284197721837],[33.10546423204923,0.891124740193825],[33.10276373426027,0.889823628041086],[33.10559682927353,0.889027523525205],[33.10622200525328,0.886824973559539],[33.10817575623468,0.887673680174392],[33.10765163166345,0.880556194600365],[33.11109290071502,0.87783664861454],[33.1086812181334,0.876927849791776],[33.11028747102633,0.870644468328089],[33.11269374645073,0.867287037882635],[33.112492821735316,0.863021183787071],[33.10966701972923,0.85603999000114],[33.10809249688426,0.854599358194347],[33.10732748732748,0.854977307409928],[33.104587114145964,0.853627315197098],[33.10469704833756,0.852161970105575],[33.10280594345143,0.851143382385671],[33.10077905782487,0.842795654604426],[33.09680276637221,0.842922490659645],[33.082456629915875,0.847648785615177],[33.078208521080825,0.849714863976438],[33.07889709167575,0.851121109998927],[33.07712195283428,0.851744841568266],[33.07822591716134,0.853963876612623],[33.0797240742371,0.862287392865687],[33.080729814661126,0.863082391172651],[33.080795190952095,0.866211227643553],[33.083551464018626,0.867559856082519],[33.08643344504542,0.871313805602691],[33.08802051387097,0.875159172456298],[33.08800203279416,0.879528724078435],[33.09283828031463,0.879652656052557],[33.093815782370555,0.880319855172701],[33.094608683396636,0.882649313345026],[33.09285293055745,0.88283405763959],[33.08977067038742,0.886936797463475],[33.08960487530511,0.888631741021674],[33.08606346473931,0.885999294875286],[33.08374644471959,0.888107174493819],[33.082842754862526,0.886772355547005],[33.08034825313568,0.88769785994668],[33.0761978424545,0.8877191632791],[33.066090823931326,0.884152078786924],[33.063688315883375,0.887110656001729],[33.06127462406516,0.892674616096233],[33.05693200007662,0.896889954472763],[33.05555027843307,0.896051594158762],[33.04953842477691,0.88830236061042],[33.040120580572385,0.879223287064192],[33.037573230951516,0.87618874597582],[33.03675201798408,0.873767912473377],[33.00514648754814,0.871949620348673],[33.0046,0.8744],[32.979008482852166,0.9046508422807306],[32.98355339330593,0.906780310914719],[32.99161069374441,0.907332112055926]]]}},{"type":"Feature","properties":{"n":"Kagumba","c":"205105","d":"Kamuli","od":"Kamuli","dc":"205","k":"KAGUMBA","a":["KAGUMBA"],"lat":1.143646,"lon":33.046537},"geometry":{"type":"Polygon","coordinates":[[[33.06125726433161,1.197493848183567],[33.0815,1.1926],[33.08585692228946,1.1840301859099862],[33.08889107394663,1.173448949008597],[33.0920689908736,1.169495281254369],[33.09341511427236,1.1691636595304016],[33.0936,1.1688],[33.09503794210209,1.1687638708014552],[33.0969546706402,1.168291678710617],[33.113529646858794,1.168254824474975],[33.11359289555572,1.1682370707525764],[33.125412430596405,1.1602302889508216],[33.12622693892836,1.1572893682586374],[33.12895882561588,1.1354750491866137],[33.13203749196191,1.108523540496469],[33.132469991052666,1.1074381311465817],[33.1326,1.1064],[33.13640476550734,1.0966899213614687],[33.137349436513055,1.0925912448223],[33.13724703449931,1.0925607954361467],[33.13541020660264,1.092014828039422],[33.1354096933717,1.0920144594077568],[33.13540965911568,1.09201444922168],[33.12107253369551,1.081716697493172],[33.12107252095542,1.0817166864066428],[33.12107247911425,1.08171665635393],[33.11577111213982,1.077103378952351],[33.11271021004558,1.073180301152188],[33.11168090351749,1.0727375366453473],[33.111516974382596,1.0727770068032858],[33.10710883715961,1.073839010323881],[33.10067299100099,1.0701924479707041],[33.10031670985745,1.069990592944384],[33.09893349445758,1.0704405312518117],[33.08901327261374,1.073667499775027],[33.08883987906238,1.0738079967185363],[33.086718885612626,1.075529404002652],[33.082900124171886,1.071186836407154],[33.074544620937495,1.0706814481926619],[33.0706932229962,1.0727154502871863],[33.06897768939305,1.074845689940714],[33.063138893724535,1.07917098326698],[33.05969751031906,1.0803217374972487],[33.056731707965554,1.0813134753808848],[33.05033694947656,1.085480204543014],[33.05033666243061,1.085480295106648],[33.05033650387533,1.085480398417177],[33.05033498927512,1.0854808229909216],[33.03510746691029,1.0902851401191265],[33.032979351783126,1.091170121878341],[33.030917509661215,1.0916070809375933],[33.0273841057315,1.09272187772552],[33.025412922917496,1.0927736489398403],[33.024301394689004,1.093009211267282],[33.02082293592706,1.092894200518578],[33.020818131432996,1.092894326703978],[33.02081755275796,1.0928940225310408],[33.020817167281464,1.092894009785758],[33.01568042724626,1.090194059499028],[33.01568038741635,1.090193738982674],[33.015679449302084,1.090193245875219],[33.01427058288805,1.078848861602283],[33.01425197875131,1.078699151734103],[33.00878500383409,1.078068123042813],[33.00780613338828,1.077186290228269],[33.00267305772694,1.08100615172029],[33.00293106529723,1.081458526927441],[32.99841619406719,1.082914483887574],[32.996442609613496,1.085183416054888],[32.97380380163778,1.09362576086522],[32.9699639475593,1.095941740026175],[32.964792356821974,1.100628302269979],[32.956479810483394,1.110849814741713],[32.95974954080917,1.113435257715218],[32.96073464747956,1.116225453485443],[32.961391138490285,1.122626148610302],[32.96100342497235,1.1298633619884284],[32.96114631909198,1.1325069032016637],[32.96806677454128,1.151816512041396],[32.96894027794292,1.158237865615801],[32.96483753798955,1.17153187735544],[32.96498627304142,1.180267295196812],[32.96513438045951,1.1811862274890284],[32.9663,1.1875],[32.965776078865176,1.188739115064894],[32.9650016664253,1.194179327131034],[32.961226682166235,1.20107280106818],[32.959257409900786,1.203370115434092],[32.955483267903894,1.205667452042809],[32.953020649071085,1.206816506128893],[32.94497973476083,1.207144627246372],[32.94214271979308,1.2078255110416352],[32.93672560298768,1.2196953699240567],[32.936172312089944,1.2224617967839053],[32.9544,1.2192],[33.0133,1.2245],[33.0303,1.2236],[33.0542,1.1992],[33.054492430207105,1.1991293025872938],[33.05923959605161,1.197569873857157],[33.06125726433161,1.197493848183567]]]}},{"type":"Feature","properties":{"n":"Kitayunjwa","c":"205106","d":"Kamuli","od":"Kamuli","dc":"205","k":"KITAYUNJWA","a":["KITAYUNJWA"],"lat":0.891832,"lon":33.185202},"geometry":{"type":"Polygon","coordinates":[[[33.120749361399184,0.849834513246501],[33.126075399387965,0.854605972931234],[33.12991574498729,0.860730514024755],[33.13330875526062,0.86393921046513],[33.13196274078603,0.869417662184033],[33.13310073359148,0.877523718685651],[33.129642076115665,0.877567682856869],[33.13551306810375,0.883617869346658],[33.13363797071313,0.884506584035722],[33.13388537138365,0.886874683308955],[33.13925326285138,0.898172054995079],[33.142467013994214,0.899467543161005],[33.14293833017384,0.897472047130535],[33.146879615237594,0.894104298597303],[33.15476150496313,0.890165808040024],[33.155013586034215,0.889186890412568],[33.15426843639873,0.888548763769049],[33.157147960624016,0.887376514689217],[33.16184776558076,0.893838199895789],[33.162812240293455,0.894243749098596],[33.16390911775187,0.892533628016493],[33.16476750842557,0.892648818360513],[33.16873935284191,0.894403393107327],[33.16809540618689,0.895375251259199],[33.16974254930436,0.896996132134411],[33.16920644439559,0.900032255375884],[33.16269654192294,0.899617295119187],[33.161744622894574,0.902243567975531],[33.161218214410056,0.909383422738003],[33.15966025262659,0.911533361576293],[33.157801864838994,0.912202280574843],[33.15949603613747,0.91372512993968],[33.16392760514253,0.915325281659999],[33.165780747795246,0.91704448833995],[33.16671148013178,0.920275361994467],[33.166708904212435,0.921340843651682],[33.16377945656813,0.921630354388927],[33.157950676359484,0.925452853390899],[33.15774541099625,0.927526087922789],[33.15874385988174,0.929668287595922],[33.15862818216918,0.937877718337445],[33.160692701688355,0.941926892504697],[33.15802835534159,0.943709550169433],[33.15783629702466,0.950722069895321],[33.15905783176413,0.957321537900322],[33.15759006172221,0.963998925557652],[33.160927979492705,0.970641599709431],[33.1637755234485,0.972352886205041],[33.17168661812634,0.961024241693874],[33.17616810694059,0.957908977389404],[33.184087324619696,0.955775833501044],[33.191151068249106,0.955730093887577],[33.19032814897884,0.953810324092417],[33.20000614875307,0.950038848187352],[33.205361879510455,0.945569195849109],[33.212272721454674,0.941976139243512],[33.21349756043781,0.937907534334468],[33.21027675210148,0.929761858321128],[33.20916296196825,0.928737487052845],[33.207702551112725,0.928814049333513],[33.20541960446057,0.926613021322104],[33.20356121474664,0.927641747536204],[33.20188923749367,0.926750466429533],[33.19841361879319,0.922450413508358],[33.19787516665086,0.919228551872966],[33.205611670886505,0.913270412915588],[33.21398413662008,0.908223472278882],[33.21390900316726,0.896650074692798],[33.21324631889195,0.894650668542624],[33.209211321578636,0.891131118146881],[33.2089289476284,0.888736644115383],[33.20988994141884,0.884121035700791],[33.21138451586562,0.882121550501473],[33.21277129175037,0.880875740568229],[33.214873550571205,0.883298506744385],[33.21415321908364,0.884173864334032],[33.21506615342892,0.88385591035175],[33.21618812953356,0.885704772087002],[33.21566749276024,0.885993255395694],[33.21662388078452,0.886540294778821],[33.21917797024638,0.885028919520529],[33.226710064610955,0.886219186388021],[33.22692246333384,0.881956528369046],[33.222196432369486,0.880358694951209],[33.22188282654534,0.877484165976688],[33.22355466729155,0.876181229228541],[33.22210916981949,0.870303459352518],[33.218718886026075,0.870182507820626],[33.217810475456986,0.868024508605046],[33.21945772094743,0.863968907033196],[33.219075439596914,0.85994769187465],[33.22048249961594,0.859596930334901],[33.21664724790927,0.8563371896543681],[33.21277472218316,0.853045785794226],[33.209054191727404,0.850941998583228],[33.207693501383176,0.850172597006147],[33.19805555987461,0.848249412009656],[33.183420557462895,0.840108759792997],[33.18525420881367,0.832490094310102],[33.17721903691384,0.828771322088462],[33.175478104974964,0.826056281118882],[33.170515246703786,0.822600356352922],[33.16850324643589,0.81932115685024],[33.16231875779162,0.815410504274313],[33.161128632283074,0.81379122658739],[33.15989216078164,0.814154922370812],[33.155202838115045,0.811023463226979],[33.154990178745585,0.813469799126374],[33.15382083364901,0.81432729156301],[33.153315570508,0.816506919763823],[33.15004817266766,0.820990869641365],[33.15275278574785,0.827678887224968],[33.15415624840586,0.828450143507346],[33.15433224736884,0.832504702251956],[33.14459363123373,0.833518467228522],[33.142286144476344,0.834405338226563],[33.14133580377939,0.836076644482361],[33.13981332257271,0.836266524699864],[33.121943740131236,0.836324613404656],[33.12023267017305,0.838658246107211],[33.11858636639394,0.839467205747804],[33.11775579660059,0.843996226960252],[33.119519870383066,0.844252804511455],[33.120749361399184,0.849834513246501]]]}},{"type":"Feature","properties":{"n":"Nabwigulu","c":"205107","d":"Kamuli","od":"Kamuli","dc":"205","k":"NABWIGULU","a":["NABWIGULU"],"lat":0.999798,"lon":33.161391},"geometry":{"type":"MultiPolygon","coordinates":[[[[33.126878957978796,1.000688881175289],[33.126879002595736,1.0006889916626076],[33.126879315835694,1.000689182377021],[33.13035722123211,1.009302077513057],[33.13035723912359,1.0093023357844817],[33.130357242356915,1.009302343791329],[33.13035864890426,1.0093226865876348],[33.13066870210962,1.013798440782438],[33.133636594293534,1.016865594236669],[33.13363679424485,1.0168659122072703],[33.133636796110196,1.016865914135012],[33.13379854342434,1.0171231322396386],[33.14056004390062,1.027875541475209],[33.14341110882269,1.0307194925040195],[33.14543033083506,1.032733600799335],[33.145430426821996,1.032733771960506],[33.145430508508454,1.032733853443144],[33.15015191158884,1.0411529894333822],[33.151797852982604,1.044087985356488],[33.156153534120115,1.041717611821234],[33.16031710762813,1.041111088742273],[33.16941550840908,1.0436920362223654],[33.17991555969107,1.0383001179964801],[33.1810738115811,1.037002404967028],[33.184358124004206,1.028307600853758],[33.1888901380679,1.0243803923144443],[33.19492423282234,1.014585320692504],[33.19505498601169,1.014293871159683],[33.19511946901675,1.0142825033346148],[33.201382706654755,1.0086537766991532],[33.20049794763163,1.007533414445158],[33.19641627756325,0.99744848961777],[33.19677354371236,0.993293936880807],[33.19534222532026,0.988498877458993],[33.19541039118203,0.982627417284796],[33.19379868088745,0.979352655586696],[33.192622052583665,0.971137316800598],[33.193272316100845,0.962225926223899],[33.19115107062758,0.955730105233492],[33.19039915968025,0.9557349626949837],[33.18408752564165,0.9557758321993736],[33.18408548553656,0.9557763288819144],[33.17616838752848,0.9579089018094201],[33.17429824761966,0.9592087923032189],[33.171686643875674,0.9610242237944678],[33.16377860861677,0.972348798751736],[33.163778430415455,0.97234872344419],[33.1637755234485,0.972352886205041],[33.163745298606536,0.9723347220029451],[33.161588050269565,0.971423072840847],[33.160162714046635,0.975614637203109],[33.156501779803605,0.97928576475343],[33.15311182964224,0.980902393516608],[33.15146750296219,0.985113924041799],[33.148722834311805,0.981915415571951],[33.143626962245236,0.980141157321212],[33.138409826109815,0.97657810891594],[33.13805465198369,0.973553269984115],[33.13872313783778,0.973191771159014],[33.13896344912472,0.970425954333469],[33.13710870370664,0.969077700114835],[33.13606035315679,0.969646524171287],[33.13481974451759,0.968079950652545],[33.130942314569054,0.967089540407582],[33.12684811893414,0.968123421464454],[33.12059742972019,0.972495730023461],[33.123416419293726,0.979235491948168],[33.123020957466096,0.981467393638599],[33.11856800724786,0.97994873398819],[33.118594846939416,0.988040845799499],[33.11491608094902,0.994998585633843],[33.11182742194381,0.99748201413119],[33.11220752138609,0.9975266859209027],[33.1144434360428,0.997459771567853],[33.12395208285641,0.998906952810851],[33.123952146605916,0.9989069916243811],[33.12395220520047,0.998906998510799],[33.126878957978796,1.000688881175289]]],[[[33.06362406200816,0.982793708684125],[33.06362402344301,0.9827938405026666],[33.063624112065455,0.982794166383387],[33.06270404163503,0.9859384066858276],[33.06264927019544,0.986125619536382],[33.06476841926821,0.9883531352010079],[33.066070965677696,0.989504028863412],[33.06614268393501,0.9897976754232958],[33.066409765480074,0.990078414675199],[33.067579105498005,0.9956790265088716],[33.06758076610971,0.99568582579445],[33.068614685399695,0.995752858290174],[33.07003557192593,1.000455357228456],[33.07700926582246,1.003622079500057],[33.08201154643655,1.007530396770729],[33.08082316530697,1.0107927162497103],[33.08078593460737,1.010895114266828],[33.08181821587699,1.01623880833636],[33.082240632608816,1.016836046078115],[33.08476847567985,1.015904313516043],[33.08643409495407,1.018212386411404],[33.086432844623694,1.018219152912144],[33.08567118334578,1.024322090249871],[33.087191692643266,1.0247362600812984],[33.08953283307736,1.025373942157936],[33.095764746279784,1.024760381901236],[33.09319005946531,1.018202484629568],[33.09832147923562,1.0183843395493808],[33.09947443393199,1.009410580415685],[33.09947448468671,1.0094105643773454],[33.09947487226503,1.009407546192244],[33.100817627127974,1.008984641185381],[33.101001969284184,1.0085576214409793],[33.10175915438413,1.006802034989703],[33.10375287983617,1.004877678499588],[33.102197334998266,1.0029230515197216],[33.10218808065508,1.002911441272856],[33.10084233993663,1.002635991541245],[33.101222284586065,1.001818005048473],[33.09601894063231,1.001421088642941],[33.09516159073568,1.000702119898428],[33.09434515589642,0.994039923911424],[33.09246768005142,0.991112966519304],[33.092527872520506,0.980608358685796],[33.087417607813535,0.975609655922219],[33.084318572399255,0.969465720029534],[33.076206676287626,0.967227265760065],[33.07449272670996,0.965790194364324],[33.069126156711825,0.964238687282484],[33.06544271092371,0.964148860082832],[33.062588936180795,0.9646993061058964],[33.06256515944903,0.964754801523398],[33.058600056484636,0.965472775409743],[33.060586482961035,0.9710648478917747],[33.060608133138324,0.9711256377472838],[33.06250117401978,0.973113101494944],[33.06153050271419,0.9750953584497679],[33.06362406200816,0.982793708684125]]]]}},{"type":"Feature","properties":{"n":"Namasagali","c":"205108","d":"Kamuli","od":"Kamuli","dc":"205","k":"NAMASAGALI","a":["NAMASAGALI"],"lat":1.00667,"lon":33.000698},"geometry":{"type":"Polygon","coordinates":[[[32.943174583004684,1.065677757620596],[32.93905542353266,1.0737876474302737],[32.937465701551126,1.0807719997425955],[32.9373714290041,1.0817524932238005],[32.94094929159846,1.094399821464312],[32.94120511664616,1.095054731712285],[32.95647490853291,1.110855900283921],[32.9564798391165,1.1108498373824975],[32.956479810483394,1.110849814741713],[32.964792356821974,1.100628302269979],[32.96479245579576,1.1006282125786608],[32.96479254069238,1.100628108185368],[32.96479280498966,1.10062789613464],[32.9699639475593,1.095941740026175],[32.9726613050464,1.0943148491073815],[32.97311418378966,1.093951495890982],[32.97351104865997,1.0938023326260322],[32.97380380163778,1.09362576086522],[32.99644149949652,1.0851838300338525],[32.99644261383035,1.085183411206981],[32.99841619406719,1.082914483887574],[33.00293106529723,1.081458526927441],[33.00267305772694,1.08100615172029],[33.00780613338828,1.077186290228269],[33.00878500383409,1.078068123042813],[33.014009170944135,1.0786711255047683],[33.01425205838283,1.078699120900573],[33.016767542321695,1.0775676851270604],[33.02246175463954,1.075006424578527],[33.025251072449905,1.07229249165482],[33.02868991603438,1.066619644300783],[33.02978195437654,1.061285462042929],[33.03303314356778,1.053119195386268],[33.03303451668677,1.0531172700781635],[33.037982791052954,1.045480748058015],[33.038995751378785,1.0447587712595086],[33.03971933725246,1.043744200959435],[33.04142352582484,1.043029827935515],[33.04603427273399,1.043434708294562],[33.050220554024285,1.042213982775366],[33.05285033919424,1.039603574679446],[33.05520731182821,1.034113716562333],[33.05926279486925,1.034599804012992],[33.05825699557101,1.0292727785362885],[33.05821679887436,1.029060128418664],[33.05821683428985,1.0290600719175031],[33.05821680311487,1.029059906805105],[33.06146143660493,1.0238818102075513],[33.06087562930489,1.0236401440342238],[33.06004371004523,1.023299013581712],[33.060808236542684,1.0224454435213386],[33.059431512728885,1.0221367852395782],[33.05859042552193,1.021949325838569],[33.05942872635518,1.019991020239298],[33.05914318991097,1.016614765375634],[33.05475413916361,1.007851088127249],[33.058859441402845,1.005488168000102],[33.054693583148264,0.998733080527278],[33.05469455897666,0.9987239083384672],[33.05549986750208,0.9870520761197387],[33.05549974044886,0.987050889705159],[33.05386403574126,0.9845701142354212],[33.05377804228043,0.984439715210315],[33.05377783114816,0.9844395540776376],[33.04525373430105,0.978513307319784],[33.0408353410356,0.974562030365998],[33.03979369482531,0.9720763882702137],[33.037137524505816,0.9695102482497622],[33.037020717404666,0.969397404975397],[33.037020314996724,0.9693965742266464],[33.03517095551489,0.966265559179315],[33.03261294976489,0.9607327071913873],[33.0291514836309,0.956130841614105],[33.029075181165275,0.9561094244656744],[33.020405735218375,0.953745716590506],[33.02025493369258,0.953633691240421],[33.01968448191453,0.953473572556146],[33.0190883906141,0.9527671058656231],[33.018687107538625,0.952469006249094],[33.01651830101968,0.9497211250086671],[33.01651646561465,0.949718949750424],[33.01651497291432,0.9497151629869776],[33.01009837858256,0.933686899782084],[33.010140369608315,0.9335437223264655],[33.00993298009373,0.93301760531687],[33.01087930134096,0.9310241752694557],[33.01161598532857,0.928512292383726],[33.018981035724025,0.9139578346343233],[33.01898501741341,0.913949447187384],[33.01411805401998,0.914493625426138],[33.00325070108781,0.918007623479558],[33.00083040289181,0.91585482024308],[32.99720518108829,0.91027262250568],[32.99161084229811,0.9073321901370203],[32.98355361613652,0.906780338277476],[32.98355358588406,0.9067803241033583],[32.98355339330593,0.906780310914719],[32.979008482852166,0.9046508422807306],[32.97900849805359,0.9046508243116614],[32.97900849805358,0.9046508243116596],[32.9678,0.9179],[32.9632,0.9375],[32.9481,0.9505],[32.94757604661867,0.961422412795305],[32.94803559221805,0.9623938742931],[32.94745211959376,0.9640058146223466],[32.9455,1.0047],[32.9344,1.0287],[32.9434,1.0547],[32.942775106892746,1.057445432012197],[32.94358293413311,1.057516304785832],[32.943174583004684,1.065677757620596]]]}},{"type":"Feature","properties":{"n":"Namwendwa","c":"205109","d":"Kamuli","od":"Kamuli","dc":"205","k":"NAMWENDWA","a":["NAMWENDWA"],"lat":0.928095,"lon":33.216972},"geometry":{"type":"Polygon","coordinates":[[[33.1926220574224,0.971137350585142],[33.19379868088745,0.979352655586696],[33.19541039118203,0.982627417284796],[33.19534222532026,0.988498877458993],[33.196075176603436,0.990954337387062],[33.1967734995673,0.993293524151415],[33.196773481861406,0.9932937296739349],[33.19677354371236,0.993293936880807],[33.19641629520675,0.9974482844462206],[33.200497965005134,1.007533436445067],[33.201382706654755,1.0086537766991532],[33.20138264143524,1.0086538353114642],[33.20138264143524,1.0086538353114645],[33.2257,0.9868],[33.22572326043069,0.9868086044682621],[33.225745424965766,0.986787471871351],[33.23335330373671,0.988321047310493],[33.23451398979775,0.9900604596406298],[33.2503,0.9959],[33.25041356236071,0.9958318625835745],[33.254004592523195,0.992873816230882],[33.25530693172242,0.9928958409665481],[33.26675225182103,0.9860286489073848],[33.266947695744335,0.98576242672397],[33.26815423086718,0.985318755551152],[33.271966708420905,0.985761361473828],[33.27411157731855,0.9872424902632829],[33.2821,0.9886],[33.28736323644415,0.9877476540171418],[33.28874427418981,0.987053748268999],[33.29054616307641,0.9872322003115132],[33.3019976885758,0.9853777022549315],[33.30631035015976,0.984377342905249],[33.3062746797839,0.9809908555523248],[33.30567055717753,0.9768403094974275],[33.30242947630371,0.96543872331799],[33.302861370612376,0.958345679315088],[33.301816053361165,0.953541325709413],[33.30174972099791,0.9499027127819507],[33.3014,0.9475],[33.30167457970133,0.9457808923047538],[33.30163383645938,0.943545951778335],[33.30037692722468,0.942664618862895],[33.294426819400506,0.941694629512083],[33.2943740876724,0.940195220619674],[33.29029931165984,0.940949771586342],[33.28625552340333,0.940035342499896],[33.28220521080097,0.942603952135263],[33.27729942895881,0.942783806263161],[33.27424880811097,0.945549671369676],[33.27071533950347,0.94730996036779],[33.268839078132245,0.951262369070454],[33.26337201885823,0.946118944624904],[33.254051146911756,0.941881107789462],[33.25115420137459,0.939257030055888],[33.24989097296973,0.939857146668213],[33.24714109647971,0.93797455465411],[33.243742275439466,0.938675368534344],[33.24009134159307,0.934367930839164],[33.237500659183226,0.934854541600913],[33.23352548065997,0.939512246525806],[33.22878779482127,0.941207533608139],[33.22564680217139,0.940604084183611],[33.22354624123248,0.938082633488234],[33.227244621337064,0.927347788959457],[33.231262738831376,0.923124447002403],[33.23290265097514,0.919736794038866],[33.23402131896808,0.91942390507866],[33.23669072567681,0.913514109105139],[33.23824896483927,0.911774371199928],[33.243548992483355,0.910659391735704],[33.2584098450786,0.901930355369849],[33.26579546969658,0.896596136407256],[33.267964167464434,0.892406644700917],[33.27062066744418,0.890666181313034],[33.28224205206191,0.888035370998756],[33.28634543285902,0.888506963465238],[33.290060305755865,0.8831259667281018],[33.28808567398115,0.8768826456757092],[33.28695856737714,0.876344114786799],[33.284060620922595,0.871903402297468],[33.283249595482914,0.863414871877427],[33.28065253533526,0.8638492766243322],[33.276348156855725,0.867433265148697],[33.27632904363105,0.86743713864904],[33.27374488474708,0.868005634930576],[33.27349465839173,0.8680115572719403],[33.27277926520552,0.868156539387694],[33.27109094821628,0.868068537845195],[33.26882191924981,0.8666342655738067],[33.26847044704816,0.866412113370116],[33.26847044511571,0.8664120958209787],[33.268468707801595,0.86641099765013],[33.268082344836685,0.862887849012221],[33.26798726526939,0.8627791479192106],[33.266484114980024,0.8610612577166633],[33.264813000817725,0.860996157417644],[33.26543210989491,0.850531565611155],[33.26421428491291,0.848052447502536],[33.253780529301615,0.852847718933144],[33.25084780945766,0.854985121599147],[33.24719479977657,0.85374597045507],[33.242805053396204,0.855285329878601],[33.24280482095552,0.8552853404415842],[33.242804668825194,0.855285393789422],[33.24169833772845,0.8553356232211355],[33.23724305936629,0.855538087907671],[33.23229162364658,0.858071468081565],[33.22958982591763,0.8587307924573316],[33.22779027195154,0.859481538753661],[33.22615705778483,0.8595684968058286],[33.225335193765645,0.859769057704821],[33.223567713945094,0.8597063625562521],[33.219086380400334,0.8599449644763851],[33.219075439596914,0.85994769187465],[33.21945772094743,0.863968907033196],[33.217810475456986,0.868024508605046],[33.21845010924003,0.8695440078810736],[33.21871919381908,0.8701825188014279],[33.22210916981949,0.870303459352518],[33.222109923048976,0.8703065221801461],[33.22211052311576,0.870306544029427],[33.222653345363476,0.8725162190989317],[33.22355466729155,0.876181229228541],[33.22188282654534,0.877484165976688],[33.222196375738186,0.8803581758654812],[33.22692160571514,0.881955661847556],[33.226921577626605,0.8819562289184849],[33.22692246333384,0.881956528369046],[33.22677040434708,0.88500822025525],[33.226710668077665,0.886214217620164],[33.22671031496211,0.8862141620575693],[33.226710064610955,0.886219186388021],[33.219223839554324,0.8850361680645382],[33.21917792882817,0.8850289440296378],[33.21662388078452,0.886540294778821],[33.21566749276024,0.885993255395694],[33.21618812953356,0.885704772087002],[33.21506615342892,0.88385591035175],[33.21415321908364,0.884173864334032],[33.214873550571205,0.883298506744385],[33.21277129175037,0.880875740568229],[33.21138451586562,0.882121550501473],[33.20989005395062,0.8841208851524911],[33.20944045256955,0.886279909707757],[33.2089289476284,0.888736644115383],[33.2092112151192,0.8911302153923658],[33.21218069053604,0.893721167873718],[33.21324631889195,0.894650668542624],[33.21390900316726,0.896650074692798],[33.21398413662008,0.908223472278882],[33.205611670886505,0.913270412915588],[33.19787516665086,0.919228551872966],[33.19841352740989,0.9224498667107455],[33.201202690871185,0.9259010674983111],[33.20188923749367,0.926750466429533],[33.20356121474664,0.927641747536204],[33.20541960446057,0.926613021322104],[33.20742789056479,0.9285492443898395],[33.20770273195984,0.9288140398525732],[33.20916296196825,0.928737487052845],[33.21027675210148,0.929761858321128],[33.21027914030902,0.9297678982846552],[33.213157531194696,0.936507662852017],[33.213131413204145,0.9369815193633363],[33.21349756043781,0.937907534334468],[33.21298687242585,0.939603910577421],[33.212947784179526,0.940313085351149],[33.21244334057055,0.9414093857502042],[33.212272721454674,0.941976139243512],[33.212154206391226,0.942037757109326],[33.21210188934477,0.942151457031151],[33.205362812325994,0.9455687108634776],[33.205361879510455,0.945569195849109],[33.20000614875307,0.950038848187352],[33.19645145477215,0.9514240975169291],[33.190328348554154,0.9538107896771587],[33.191151068249106,0.955730093887577],[33.1909971154094,0.955731090773046],[33.19099711856713,0.9557310997877113],[33.19115107062758,0.955730105233492],[33.193272316100845,0.962225926223899],[33.192632164653,0.9709987382136481],[33.1926220574224,0.971137350585142]]]}},{"type":"Feature","properties":{"n":"Namwendwa Town Council","c":"205110","d":"Kamuli","od":"Kamuli","dc":"205","k":"NAMWENDWATOWNCOUNCIL","a":["NAMWENDWA","NAMWENDWATOWNCOUNCIL"],"lat":0.915463,"lon":33.265682},"geometry":{"type":"MultiPolygon","coordinates":[[[[33.23352559043277,0.93951211790534],[33.23714228198907,0.9352744510999204],[33.237500598654414,0.934854590984813],[33.23750062054309,0.9348545868754508],[33.237500659183226,0.934854541600913],[33.24009134159307,0.934367930839164],[33.24009154347036,0.9343681690176405],[33.24009176318865,0.9343681277679],[33.24058209766495,0.9349469337168069],[33.243742275439466,0.938675368534344],[33.24714109647971,0.93797455465411],[33.24989097296973,0.939857146668213],[33.25115420137459,0.939257030055888],[33.254051146911756,0.941881107789462],[33.26337201885823,0.946118944624904],[33.26337209304161,0.9461190144168377],[33.26337214054786,0.946119036016102],[33.263404314282226,0.9461493282488863],[33.268839078132245,0.951262369070454],[33.27069999884078,0.9473422759980259],[33.270715174542296,0.94731020565923],[33.270715238089885,0.9473101739989717],[33.27071533950347,0.94730996036779],[33.27424880811097,0.945549671369676],[33.27729942895881,0.942783806263161],[33.27934263415164,0.9427088989599225],[33.28220536024404,0.9426038573621038],[33.28625552340333,0.940035342499896],[33.28646262788699,0.9400821754079969],[33.28675318929425,0.939910060762372],[33.29029627150621,0.9409490841109531],[33.290299162322455,0.9409497378164119],[33.29045384510736,0.9409211556914193],[33.2943740876724,0.940195220619674],[33.294426807387445,0.9416942879246885],[33.29994871431743,0.942450647837207],[33.30024476425138,0.9426430735933867],[33.30037692722468,0.942664618862895],[33.30163358866306,0.9435457780258867],[33.30163383719049,0.943545939563091],[33.30197442064985,0.93598763649601],[33.30369492245953,0.9331317898186219],[33.3037,0.9331],[33.2976,0.9237],[33.29756002018899,0.9219009085042664],[33.29722187521979,0.919222233005041],[33.2952219697133,0.917411243960387],[33.296851868576404,0.907823312903854],[33.29722706622315,0.9069179800419721],[33.2972,0.9057],[33.290060305755865,0.8831259667281038],[33.28634543285902,0.888506963465238],[33.28224213300877,0.8880353803017996],[33.2814324199457,0.8882186528186218],[33.27062066744418,0.890666181313034],[33.267964167464434,0.892406644700917],[33.2679638359245,0.8924072851699802],[33.26688774682622,0.895100288888965],[33.265795935353886,0.8965952368501717],[33.26579546969658,0.896596136407256],[33.26579506480471,0.89659642883775],[33.2657949663065,0.896596563705084],[33.26319201402559,0.8984764651982208],[33.2584098450786,0.901930355369849],[33.243548992483355,0.910659391735704],[33.23824931509043,0.9117742975167561],[33.238066415230705,0.9119781836064327],[33.23669072567681,0.913514109105139],[33.234146191073876,0.9191474508891951],[33.23402184244729,0.919422954446375],[33.23402173478168,0.9194229845094954],[33.23402131896808,0.91942390507866],[33.23290292331399,0.9197367178662914],[33.231262844938946,0.923124231669743],[33.23126284113563,0.9231242356671162],[33.231262738831376,0.923124447002403],[33.227244621337064,0.927347788959457],[33.22354624123248,0.938082633488234],[33.22554678002878,0.9404840205870867],[33.225646958106665,0.9406041141419914],[33.22878771761169,0.9412075187745866],[33.23352559043277,0.93951211790534]]],[[[33.265900999016324,0.896425287138795],[33.26590100412807,0.896425290294985],[33.265900999016324,0.896425287138792],[33.265900999016324,0.896425287138795]]]]}},{"type":"Feature","properties":{"n":"Bugulumbya","c":"205201","d":"Kamuli","od":"Kamuli","dc":"205","k":"BUGULUMBYA","a":["BUGULUMBYA"],"lat":0.799489,"lon":33.216149},"geometry":{"type":"Polygon","coordinates":[[[33.17547742540392,0.826055700470669],[33.17547754992748,0.826055894607268],[33.175478104974964,0.826056281118882],[33.176439670376304,0.8275558741823901],[33.17721939094577,0.8287714859386116],[33.18525420881367,0.832490094310102],[33.183420557462895,0.840108759792997],[33.19805555987461,0.848249412009656],[33.20412277154064,0.849460082403979],[33.2076933951819,0.85017253353015],[33.20771018660224,0.8501568096236037],[33.2102891520971,0.847739405011082],[33.213089243466754,0.8425974017578411],[33.21317682395808,0.842436492451847],[33.21317691131793,0.8424364111627326],[33.21317778810111,0.842434801064565],[33.21514643139879,0.840602154147805],[33.21057571598684,0.834213489804762],[33.209251241209124,0.825177448761251],[33.21132634521677,0.825549088091766],[33.21907079851285,0.8299509673075002],[33.21907550903582,0.8299492738559031],[33.240570333451366,0.8217788654625324],[33.241928650309276,0.8206157458672272],[33.242621772447364,0.8194740180718307],[33.243783190977524,0.8114012548607795],[33.2437855730244,0.811377624531266],[33.2405743935583,0.804033629142573],[33.24316174622304,0.80460378598147],[33.243215858451315,0.802283485168742],[33.24674062807938,0.794077372790835],[33.24596702963122,0.793544208269306],[33.245969605587185,0.79354064178862],[33.245969446516945,0.793540531850743],[33.252050486396044,0.7851214979031177],[33.252681364521614,0.784248030081542],[33.25338781715959,0.783633788240432],[33.2505,0.7649],[33.236420742152276,0.7485513880912902],[33.224445727922436,0.756036948204379],[33.220557341814,0.757412200299267],[33.21456493498931,0.761003988227555],[33.210585561557885,0.761725325726273],[33.207447158574816,0.764006224594356],[33.209176690677786,0.766485123460025],[33.209112792910204,0.769416409946535],[33.2050642809653,0.76914729409252],[33.199437466095816,0.771780237986038],[33.19947742499736,0.77515895617953],[33.1956629834879,0.77540451539012],[33.19376956695197,0.774317602418276],[33.19101923275527,0.774268717974093],[33.18346383542228,0.778585388127408],[33.17971745376468,0.778801031030408],[33.17383020768322,0.780722884899662],[33.169869799868565,0.784566257978924],[33.176736825578054,0.789612556870952],[33.18571304783213,0.793805359196617],[33.18735803988776,0.798915456759359],[33.18840663422994,0.800063253743316],[33.185553023383804,0.802091660604013],[33.18025363233821,0.801088050253178],[33.17839827815268,0.802381174169211],[33.1772202504218,0.805183208229246],[33.17361729811714,0.806799221390876],[33.16744460814743,0.81189988390668],[33.166767354312405,0.814807449024839],[33.162317773411026,0.8154091649319349],[33.16231875779162,0.815410504274313],[33.16850324643589,0.81932115685024],[33.170515246703786,0.822600356352922],[33.17257722346935,0.8240362298317853],[33.17547742540392,0.826055700470669]]]}},{"type":"Feature","properties":{"n":"Kasambira Town Council","c":"205202","d":"Kamuli","od":"Kamuli","dc":"205","k":"KASAMBIRATOWNCOUNCIL","a":["KASAMBIRA","KASAMBIRATOWNCOUNCIL"],"lat":0.791461,"lon":33.152368},"geometry":{"type":"Polygon","coordinates":[[[33.132468146262525,0.795613575228409],[33.1332058916826,0.795134370958438],[33.134179180736545,0.795975413570702],[33.13650863973577,0.796147312419093],[33.13988245608726,0.797893804569045],[33.14867488365251,0.804415764229164],[33.14978729841111,0.806841250489061],[33.15227827082424,0.806939770713243],[33.154057040187936,0.810229823082574],[33.15519431429067,0.8111215173951464],[33.155202838115045,0.811023463226979],[33.15989216078164,0.814154922370812],[33.161128632283074,0.81379122658739],[33.16112969687677,0.8137926750672413],[33.16113014800254,0.813792542940036],[33.162257363972905,0.815170917254752],[33.16336903821264,0.8152670026097467],[33.166767194424416,0.814807470646459],[33.166841027922146,0.8144911557729734],[33.16744460814743,0.81189988390668],[33.17361729811714,0.806799221390876],[33.17361751609108,0.8067991236241803],[33.173617741591386,0.806798937280313],[33.177220299516854,0.8051830914526829],[33.17816542553885,0.8029350329093798],[33.17839767163716,0.802382322304516],[33.178397846806426,0.802382200161098],[33.17839827815268,0.802381174169211],[33.18025363233821,0.801088050253178],[33.185553023383804,0.802091660604013],[33.18840663422994,0.800063253743316],[33.18735803988776,0.798915456759359],[33.186030171392495,0.7947904899924627],[33.18571251810577,0.793805111760908],[33.176736825578054,0.789612556870952],[33.169869799868565,0.784566257978924],[33.1698722659434,0.7845638647795181],[33.16964262160514,0.78190555335633],[33.16656148726472,0.779164081213841],[33.163860022140504,0.76950897628758],[33.15591920477914,0.77130311190614],[33.15059163048518,0.771161117709466],[33.14945054820132,0.773692696038564],[33.14705011345076,0.774496665349591],[33.147522657481844,0.77595376360952],[33.14661810211047,0.777480894217155],[33.144525275560525,0.777735694607982],[33.14303425042179,0.781110824426043],[33.14083295004334,0.782811360788955],[33.13871322348741,0.786625671902394],[33.13659707624828,0.785788070367536],[33.13469475410711,0.787018116317522],[33.13179269428171,0.787253890655198],[33.13176386468907,0.788087141358703],[33.12912956743808,0.787823957093531],[33.126321610638385,0.790462855390547],[33.12475127754895,0.790484000736387],[33.12333241817136,0.792438258761314],[33.1290599978604,0.793143986319929],[33.132468146262525,0.795613575228409]]]}},{"type":"Feature","properties":{"n":"Kisozi","c":"205203","d":"Kamuli","od":"Kamuli","dc":"205","k":"KISOZI","a":["KISOZI"],"lat":0.782834,"lon":33.076115},"geometry":{"type":"Polygon","coordinates":[[[33.05395653230255,0.802501820954935],[33.057911805996255,0.802628657232622],[33.059151814025405,0.806965187616282],[33.058737411132185,0.813079579010175],[33.05659613456739,0.815523468506288],[33.05616796408766,0.817588748885781],[33.053572334382466,0.821503641020931],[33.051101324371416,0.823676930640539],[33.05348161242004,0.82517521592402],[33.054962972601146,0.827384246956865],[33.05404279549675,0.828314347336875],[33.05636884074943,0.828525789200189],[33.05857915255858,0.82730591035561],[33.05902709697557,0.828076773309218],[33.06039382983052,0.826339560361077],[33.06305484541008,0.825444293681563],[33.063355145753384,0.823755219602794],[33.06456700163114,0.823725273848879],[33.06728342405462,0.819844284350958],[33.071937559859116,0.819880094034024],[33.07495758133556,0.816306376718307],[33.07809251819948,0.816604783123379],[33.080470847448005,0.815511115038181],[33.08316858747718,0.816206596111737],[33.08811640072875,0.813095492981412],[33.08940147350139,0.81331131754012],[33.089880832281644,0.812144484268835],[33.093576764607924,0.811103671395169],[33.09509326860334,0.806192956929275],[33.09715417930258,0.804328678209884],[33.09834975535066,0.804743883388922],[33.09887270533267,0.801723801840585],[33.09965532889751,0.80183240910985],[33.10061123417136,0.799507249274754],[33.10288039422113,0.797876150069745],[33.10482927254691,0.797903352603922],[33.10816145020425,0.795452308081631],[33.11288839924569,0.793985646001208],[33.11240045572274,0.789654117770045],[33.11296889916526,0.7876891945385],[33.11189303990661,0.782201833710164],[33.117116457499414,0.778966959715501],[33.12145517083724,0.774056064928337],[33.11386533059825,0.772005078453218],[33.112243876196345,0.773870336100342],[33.10599498099895,0.76291994085735],[33.103259843084814,0.762223576269725],[33.101492000400015,0.763498672632384],[33.09754445534581,0.76272860798541],[33.09780944805622,0.76083638445578],[33.096854920949234,0.757720523156728],[33.089067609163905,0.750490807659224],[33.084733086202874,0.750888701635714],[33.084073855226116,0.74796154643764],[33.08238591598251,0.746625769373267],[33.07988603867581,0.748928428711832],[33.0772430845354,0.747204664236354],[33.07744253168594,0.743730105375384],[33.07873119194073,0.742555721586411],[33.07806847826947,0.741479404563155],[33.072010652054196,0.740055264546988],[33.06595572369411,0.741013189911319],[33.06242468419668,0.740312037052328],[33.05759776810652,0.737915389732046],[33.05150626876788,0.737355600535752],[33.05004111803103,0.7411357764642934],[33.0507,0.7435],[33.0485,0.7648],[33.04841928405544,0.7648871732201218],[33.0467069395236,0.767849641588919],[33.04110308870395,0.7727886641997289],[33.041,0.7729],[33.04072834620371,0.7750430466151903],[33.04231657367915,0.778769207180859],[33.04212378042712,0.780650100946345],[33.039660553677194,0.7834667432132396],[33.03769469551443,0.7989751798305527],[33.04462729607096,0.800030597045741],[33.05395653230255,0.802501820954935]]]}},{"type":"Feature","properties":{"n":"Kisozi Town Council","c":"205204","d":"Kamuli","od":"Kamuli","dc":"205","k":"KISOZITOWNCOUNCIL","a":["KISOZI","KISOZITOWNCOUNCIL"],"lat":0.735814,"lon":33.082678},"geometry":{"type":"MultiPolygon","coordinates":[[[[33.05422969279676,0.7376058744442826],[33.05759776810652,0.737915389732046],[33.06242468419668,0.740312037052328],[33.06595572369411,0.741013189911319],[33.072010652054196,0.740055264546988],[33.07806847826947,0.741479404563155],[33.07873119194073,0.742555721586411],[33.07873033285856,0.7425565044864615],[33.0787309281504,0.742557472218548],[33.07803128357234,0.7431935631265313],[33.077442532211606,0.7437301048963296],[33.07744249668951,0.743730715046467],[33.077243090996674,0.7472045516747668],[33.078875677963794,0.7482694600690674],[33.07988603867581,0.748928428711832],[33.08238591598251,0.746625769373267],[33.084073855226116,0.74796154643764],[33.084733086202874,0.750888701635714],[33.089067609163905,0.750490807659224],[33.09683180218911,0.7576990597733431],[33.0968547188293,0.757720325169733],[33.09685472325657,0.7577203396194863],[33.096854920949234,0.757720523156728],[33.09779410631087,0.7607863044211487],[33.09780936955867,0.760836120713106],[33.09780936883471,0.7608361258531448],[33.09780944805622,0.76083638445578],[33.09754445534581,0.76272860798541],[33.10065988187249,0.7633363476807136],[33.101492285513736,0.7634984669876885],[33.103259843084814,0.762223576269725],[33.1032604029387,0.7622237188082126],[33.103260710494006,0.762223496870123],[33.10328771777202,0.7622306731495432],[33.10599498099895,0.76291994085735],[33.10600400227901,0.7629357495049701],[33.107250274885914,0.75782353428688],[33.106430709161366,0.755702743373818],[33.10829829133642,0.753553754861841],[33.108958505360754,0.748978472083643],[33.11097856230523,0.743618136350704],[33.115599015675485,0.737098637162829],[33.1159808286761,0.72803473181547],[33.11390314395479,0.724615520739839],[33.106473492995185,0.724673779762592],[33.10476336506626,0.718102112962188],[33.097121193791516,0.717073556355615],[33.08873205607474,0.71791080567383],[33.091222597655786,0.709248104005552],[33.07968240550995,0.707657872510817],[33.075982946735216,0.708169429084262],[33.07378063203328,0.709892340699316],[33.063789796378146,0.708833765242123],[33.062941943530866,0.709679676088893],[33.059715872406905,0.709363972662364],[33.05654927168891,0.710340770054465],[33.054551313856145,0.7092040153251319],[33.04933616132591,0.7250954706767098],[33.048938711047334,0.726590999518266],[33.04880269742525,0.7267210257702229],[33.0473,0.7313],[33.04819987555539,0.734528965228161],[33.051506266648204,0.73735558930229],[33.05422969279676,0.7376058744442826]]],[[[33.07590914949943,0.70822453323147],[33.07590915308498,0.708224538032027],[33.075909149499466,0.708224533231448],[33.07590914949943,0.70822453323147]]]]}},{"type":"Feature","properties":{"n":"Magogo","c":"205205","d":"Kamuli","od":"Kamuli","dc":"205","k":"MAGOGO","a":["MAGOGO"],"lat":0.691934,"lon":33.094976},"geometry":{"type":"Polygon","coordinates":[[[33.05646797399421,0.6783486776007319],[33.05671329235201,0.6818864265500456],[33.05720864685493,0.683780947921777],[33.05720861451561,0.6890294935409617],[33.0579,0.699],[33.054551313856145,0.7092040153251319],[33.056548868084434,0.7103405404203433],[33.058218553594855,0.7098258487373735],[33.059715872406905,0.709363972662364],[33.06294182249336,0.7096796642441584],[33.0629744139928,0.7096472800003062],[33.063789796378146,0.708833765242123],[33.06379281343834,0.7088340849136685],[33.063792860156056,0.708834038493039],[33.073780673619005,0.7098923081660294],[33.075982946735216,0.708169429084262],[33.075983351267524,0.7081693731460359],[33.07598341972647,0.70816931958332],[33.07729782442473,0.7079876094273045],[33.07968240550995,0.707657872510817],[33.079682695314936,0.7076579124457688],[33.07968299089298,0.70765787158352],[33.08075353486628,0.70780547348798],[33.091222597655786,0.709248104005552],[33.08873205607474,0.71791080567383],[33.097099376098505,0.7170757337961596],[33.09712115291983,0.717073556011836],[33.09712117179267,0.7170735585511346],[33.097121193791516,0.717073556355615],[33.097244522352014,0.7170901550945232],[33.10476108584648,0.718101491993467],[33.10476117064211,0.7181018176155672],[33.10476336506626,0.718102112962188],[33.10647343148046,0.7246735433742553],[33.1077017859207,0.7246641482003713],[33.11390314395479,0.724615520739839],[33.115971155658265,0.7280188130914304],[33.11598082962332,0.728034717351541],[33.11914009753322,0.721828403151849],[33.11974675968794,0.71851565770241],[33.12130885288124,0.716804791371188],[33.12098456318697,0.714302784492359],[33.126170225236294,0.705959229917775],[33.12589639719299,0.704216969098192],[33.12760536597566,0.699755441180941],[33.13077648017759,0.693687861280749],[33.134308649112505,0.690180708195778],[33.13418063161196,0.687769786487145],[33.137239502107256,0.676024848718127],[33.131630161392984,0.6676933279513447],[33.130521576620225,0.6680174354412286],[33.11365869991889,0.6769353029275073],[33.11250428070465,0.678180096947043],[33.1108025053282,0.6784457904514307],[33.1107,0.6785],[33.0864,0.6799],[33.0859,0.6662],[33.07093315704919,0.6553490388606661],[33.069125661028345,0.6547571122551177],[33.06808879620261,0.6549674906255568],[33.06482241587069,0.656499526152992],[33.0608968567676,0.6564267247138206],[33.05781318263776,0.6570523977256717],[33.05438950201822,0.658311287299194],[33.0492118002681,0.6588222122693593],[33.056,0.6716],[33.05616290282277,0.6739492301810323],[33.05695641121657,0.676816761740248],[33.05646797399421,0.6783486776007319]],[[33.07590915308498,0.708224538032027],[33.07590914949943,0.70822453323147],[33.075909149499466,0.708224533231448],[33.07590915308498,0.708224538032027]]]}},{"type":"Feature","properties":{"n":"Mbulamuti","c":"205206","d":"Kamuli","od":"Kamuli","dc":"205","k":"MBULAMUTI","a":["MBULAMUTI"],"lat":0.832747,"lon":33.104869},"geometry":{"type":"Polygon","coordinates":[[[33.02711794283555,0.865781523088712],[33.02627793252309,0.863667515264203],[33.03208076087102,0.864150456623144],[33.03376858842857,0.862466812104716],[33.036820217691684,0.862401230528024],[33.036930885452946,0.861534423710586],[33.03687733754307,0.858768737578946],[33.03330902219234,0.850471579998217],[33.030329674013764,0.847975429263462],[33.02735039413521,0.847812862743237],[33.02904521457256,0.843342359933867],[33.03191650475742,0.8406218638051],[33.03594050907517,0.838537906458377],[33.0365474060861,0.837101250503877],[33.03844731782551,0.836831967344881],[33.03949983936674,0.839004724769056],[33.03943136562635,0.834999966356996],[33.042184722278535,0.834434203167314],[33.043621727219815,0.832988734852622],[33.04686789474609,0.833123143301876],[33.04688826343544,0.831883732367917],[33.05579807833994,0.829128490116713],[33.05738009348708,0.83024187986887],[33.05788205429483,0.832416534815371],[33.05499813088396,0.83873103312607],[33.05871959675563,0.838835746353267],[33.067696309287356,0.841783631613672],[33.07045665331419,0.846340683226978],[33.07629932021451,0.85203317391919],[33.07713710681718,0.851739516904461],[33.07889709167575,0.851121109998927],[33.078208521080825,0.849714863976438],[33.07820937391377,0.8497144491989987],[33.07820934831634,0.849714397165003],[33.07915097565507,0.8492564988361082],[33.082456629915875,0.847648785615177],[33.09680276637221,0.842922490659645],[33.0983769101328,0.8428722784990632],[33.0992087882981,0.842622681875867],[33.100761361517506,0.84279621908262],[33.10077905782487,0.842795654604426],[33.10280594345143,0.851143382385671],[33.10469704833756,0.852161970105575],[33.104697002374564,0.8521625827598343],[33.104697511952885,0.85216285716653],[33.104682557122956,0.8523551277564378],[33.104587114145964,0.853627315197098],[33.10732748732748,0.854977307409928],[33.10809249688426,0.854599358194347],[33.10966701972923,0.85603999000114],[33.10982823108459,0.8564382655030474],[33.117674044569334,0.855986781161724],[33.12019701172725,0.853914869431391],[33.12179083998074,0.850992539703481],[33.12122517405541,0.8502607814990822],[33.120749361399184,0.849834513246501],[33.12069106186469,0.8495698419177417],[33.120251181350966,0.849000802559954],[33.11952486663136,0.844275486745317],[33.119519870383066,0.844252804511455],[33.11775579660059,0.843996226960252],[33.11814725088388,0.8418616625119578],[33.118585383944776,0.839469388099372],[33.1185860239666,0.8394690729727986],[33.11858636639394,0.839467205747804],[33.12023267017305,0.838658246107211],[33.120233518466776,0.8386570891668009],[33.121343664694656,0.836542193137529],[33.12178907933859,0.8365355466174108],[33.121943740131236,0.836324613404656],[33.13981332255325,0.8362665246999272],[33.13981333155983,0.8362665235790117],[33.14133580377939,0.836076644482361],[33.142286144476344,0.834405338226563],[33.14459363123373,0.833518467228522],[33.15433224736884,0.832504702251956],[33.15415625497546,0.828450294853776],[33.15409724185809,0.8284177171578389],[33.15275278574785,0.827678887224968],[33.15004817266766,0.820990869641365],[33.153315570508,0.816506919763823],[33.15379469246041,0.81444006066737],[33.15382054612236,0.81432840220434],[33.153820582335904,0.8143283756894482],[33.15382083364901,0.81432729156301],[33.15498971117566,0.8134701420000703],[33.15519428701314,0.8111214960078477],[33.154057040187936,0.810229823082574],[33.15227827082424,0.806939770713243],[33.14978729841111,0.806841250489061],[33.14978673871629,0.8068400301419724],[33.14978648653841,0.806840020113445],[33.1497133174297,0.8066799438788116],[33.14867488365251,0.804415764229164],[33.148641553784614,0.804391041130532],[33.1365091565461,0.7961475799514908],[33.13650863973577,0.796147312419093],[33.134179180736545,0.795975413570702],[33.1332058916826,0.795134370958438],[33.132468146262525,0.795613575228409],[33.13246604158293,0.7956120501500457],[33.13246587685081,0.795612156608961],[33.13135263480782,0.7948052610381865],[33.1290599978604,0.793143986319929],[33.12387549186729,0.7925051739496459],[33.11547300229856,0.794680326781625],[33.11369069445716,0.793768500129667],[33.10832393623134,0.7954018924557279],[33.10816145020425,0.795452308081631],[33.10482927254691,0.797903352603922],[33.103267495519,0.7978815532476375],[33.10288031289489,0.7978762085280141],[33.10061123417136,0.799507249274754],[33.09965532889751,0.80183240910985],[33.09887270533267,0.801723801840585],[33.09834975535066,0.804743883388922],[33.09715417930258,0.804328678209884],[33.09509326860334,0.806192956929275],[33.093576764607924,0.811103671395169],[33.089880832281644,0.812144484268835],[33.08940147350139,0.81331131754012],[33.089396283230755,0.8133104458479529],[33.089396027379266,0.813311064425618],[33.089009686390774,0.8132455179355712],[33.08811640072875,0.813095492981412],[33.08316858747718,0.816206596111737],[33.080470847448005,0.815511115038181],[33.07809251819948,0.816604783123379],[33.077066242566616,0.8165070946417572],[33.074957453485986,0.8163065280080375],[33.071937559859116,0.819880094034024],[33.07193729164911,0.8198800919703723],[33.071937148237176,0.819880261811341],[33.070394471365184,0.8198682212584472],[33.06728342405462,0.819844284350958],[33.06456700163114,0.823725273848879],[33.063355145753384,0.823755219602794],[33.06305484541008,0.825444293681563],[33.06039382983052,0.826339560361077],[33.06038383556904,0.8263522637656779],[33.05952596818056,0.827789811676017],[33.05933145127891,0.8276899177253562],[33.05902709697557,0.828076773309218],[33.05857915255858,0.82730591035561],[33.05712256580042,0.8281098056993433],[33.05636999017526,0.828525308165956],[33.05636972640466,0.8285253004039573],[33.05636884074943,0.828525789200189],[33.05636046563363,0.8285250278865013],[33.05454863289347,0.828471710938318],[33.05406560660334,0.8283164209091223],[33.05404279549675,0.828314347336875],[33.05404674366696,0.8283103565892276],[33.054044779997014,0.828309725281223],[33.05455727448362,0.8277943201606853],[33.054962972601146,0.827384246956865],[33.05348202375742,0.8251758293177361],[33.05322114243352,0.8250112616715837],[33.051101324371416,0.823676930640539],[33.05110323145565,0.8236752533319268],[33.05110191909904,0.823674425478728],[33.053442590035175,0.8216177530811459],[33.053572334382466,0.821503641020931],[33.05616796408766,0.817588748885781],[33.05659613456739,0.815523468506288],[33.05873706468389,0.813079974419798],[33.05902760955173,0.8087977876713373],[33.05915180689864,0.8069652927695791],[33.05791125128193,0.8026286394442448],[33.05395653230255,0.802501820954935],[33.0446273278696,0.8000306054688898],[33.03769469435388,0.7989751889860112],[33.0374,0.8013],[33.0299,0.8304],[33.0108,0.8466],[33.00515183300876,0.8719256519929831],[33.02748376691632,0.87298795418059],[33.02711794283555,0.865781523088712]]]}},{"type":"Feature","properties":{"n":"Mbulamuti Town Council","c":"205207","d":"Kamuli","od":"Kamuli","dc":"205","k":"MBULAMUTITOWNCOUNCIL","a":["MBULAMUTI","MBULAMUTITOWNCOUNCIL"],"lat":0.862775,"lon":33.0569},"geometry":{"type":"Polygon","coordinates":[[[33.02748377955549,0.872987954684958],[33.02790099286203,0.8732587057284501],[33.03675201798408,0.873767912473377],[33.03757132037183,0.8761831138249779],[33.03757323824687,0.8761887546664423],[33.04012057583193,0.8792232814171026],[33.04012058057345,0.8792232870652215],[33.04953842477691,0.88830236061042],[33.049538495731255,0.8883024520700304],[33.049538530541426,0.888302485628051],[33.051157579137495,0.8903894382421472],[33.05555027843307,0.896051594158762],[33.05693200007662,0.896889954472763],[33.061274598377096,0.8926746410313664],[33.06264576183659,0.8895139160488001],[33.063688315883375,0.887110656001729],[33.066090823931326,0.884152078786924],[33.0761978424545,0.8877191632791],[33.08034825313568,0.88769785994668],[33.082842754862526,0.886772355547005],[33.08370485228928,0.8880457392972418],[33.08596351681989,0.8860902212291684],[33.08606346473931,0.885999294875286],[33.08960487530511,0.888631741021674],[33.08977067038742,0.886936797463475],[33.09285293055745,0.88283405763959],[33.09460826004882,0.8826493578906427],[33.09284575553217,0.8796577583012269],[33.09283828031463,0.879652656052557],[33.08800203279416,0.879528724078435],[33.088020067351025,0.8752647448742552],[33.08802048824589,0.8751591103683459],[33.08643344504542,0.871313805602691],[33.08610643991382,0.870887862216719],[33.083551242656284,0.8675597477712085],[33.08175132678519,0.866679059365917],[33.080795328739384,0.866211443497621],[33.080795325602715,0.8662112935273223],[33.080795190952095,0.866211227643553],[33.080729814661126,0.863082391172651],[33.0797240742371,0.862287392865687],[33.07822591716134,0.853963876612623],[33.077516751603525,0.852538410964443],[33.077121941595585,0.851744845638764],[33.077121911455606,0.8517448431110451],[33.07629932021451,0.85203317391919],[33.07589803324599,0.851642201376655],[33.07542331996708,0.85160238908659],[33.070461627644434,0.8463455297001878],[33.07045665331419,0.846340683226978],[33.067696309287356,0.841783631613672],[33.05871959675563,0.838835746353267],[33.058671100114346,0.8388343817727517],[33.05500132735265,0.838731956434356],[33.055001702718755,0.8387311336290335],[33.05499813088396,0.83873103312607],[33.05788205429483,0.832416534815371],[33.05738015553009,0.8302421486590575],[33.05722606109185,0.8301334750342797],[33.05579807833994,0.829128490116713],[33.04688826343544,0.831883732367917],[33.04686789474609,0.833123143301876],[33.043621727219815,0.832988734852622],[33.04224013209871,0.8343784670058766],[33.042184948436784,0.834434018821086],[33.04218489454641,0.8344340298848505],[33.042184722278535,0.834434203167314],[33.03943136562635,0.834999966356996],[33.03948137494537,0.8379248137494025],[33.03950093662934,0.839003767495293],[33.039499782321265,0.8390013884047142],[33.03949983936674,0.839004724769056],[33.03851908333337,0.8369801154196653],[33.03844721090161,0.8368319824996935],[33.0365474060861,0.837101250503877],[33.03594050907517,0.838537906458377],[33.03191696313011,0.8406216264223684],[33.031042289229134,0.8414501673924382],[33.02904521457256,0.843342359933867],[33.02819590745191,0.8455826148807691],[33.02735062565483,0.8478128753762693],[33.030329674013764,0.847975429263462],[33.030330284282044,0.8479759405570513],[33.03033057075627,0.847975956142922],[33.03330876133328,0.850471212384754],[33.033308861539965,0.8504714454008089],[33.03330902219234,0.850471579998217],[33.03687733754307,0.858768737578946],[33.036930885452946,0.861534423710586],[33.036842479447884,0.8622268650052881],[33.036841676360226,0.862306660450848],[33.03683222884014,0.862307153036569],[33.036820217691684,0.862401230528024],[33.03377108631168,0.8624667584235187],[33.03376850744937,0.8624668928832222],[33.03208076087102,0.864150456623144],[33.02627793252309,0.863667515264203],[33.02711794283555,0.865781523088712],[33.02730496553319,0.8694657151745355],[33.02748377955549,0.872987954684958]]]}},{"type":"Feature","properties":{"n":"Nawanyago","c":"205208","d":"Kamuli","od":"Kamuli","dc":"205","k":"NAWANYAGO","a":["NAWANYAGO"],"lat":0.741532,"lon":33.124411},"geometry":{"type":"Polygon","coordinates":[[[33.10657150923379,0.7639302333715897],[33.112243876196345,0.773870336100342],[33.11386533059825,0.772005078453218],[33.11445651344976,0.7721648325448172],[33.12145305477858,0.774055152198613],[33.12145281176832,0.7740554274421343],[33.12145517083724,0.774056064928337],[33.1171203437199,0.7789625609874855],[33.11711664063346,0.778966755257232],[33.117116635121405,0.7789667586690548],[33.117116457499414,0.778966959715501],[33.11189303990661,0.782201833710164],[33.11296889916526,0.7876891945385],[33.11240045572274,0.789654117770045],[33.112737137389885,0.7926428778981074],[33.11288841085248,0.793985646367552],[33.11309017691254,0.7939512698218681],[33.11369069445716,0.793768500129667],[33.113808666999404,0.7938288547472678],[33.114427065375175,0.793723493121983],[33.11546661354485,0.7946770583025374],[33.11547300229856,0.794680326781625],[33.115484354987736,0.7946773879104942],[33.117898828169686,0.793715638558978],[33.11873381404937,0.7938362003050236],[33.122075893113895,0.7929710361554669],[33.12333240659803,0.792438256277082],[33.12334697623012,0.7924182073005386],[33.12475127754895,0.790484000736387],[33.126321610638385,0.790462855390547],[33.12912956743808,0.787823957093531],[33.12975518329872,0.7878864603856333],[33.13176390766337,0.7880858992889236],[33.13179269428171,0.787253890655198],[33.13469408701775,0.7870181705143896],[33.13659545083681,0.785788714245142],[33.13659584083416,0.7857888691891967],[33.13659707624828,0.785788070367536],[33.13871322348741,0.786625671902394],[33.14067614214806,0.7830935264748843],[33.140832590428005,0.782811968318419],[33.140832628973726,0.7828119385330047],[33.14083295004334,0.782811360788955],[33.1423657988882,0.7816272128984386],[33.14303434684179,0.7811106061668113],[33.144525275560525,0.777735694607982],[33.14661810211047,0.777480894217155],[33.147522657481844,0.77595376360952],[33.14705011345076,0.774496665349591],[33.14734024928205,0.7743994911588177],[33.14731223101642,0.774161800166714],[33.14945102282714,0.7736916430448905],[33.149457806595336,0.7736765927362368],[33.151303878673296,0.768739971152144],[33.15386240651527,0.767466555656512],[33.14581340826063,0.76520424402163],[33.14116607673106,0.762879997071034],[33.14226305668247,0.761415142302668],[33.144484192230806,0.750832607352815],[33.13866272911595,0.750958298930601],[33.13933132296636,0.746422712767913],[33.13526243933438,0.745154840074768],[33.1354086187009,0.742309392581056],[33.137320773455116,0.740753645014987],[33.13854849284198,0.738082806185732],[33.142800376847056,0.738425907790794],[33.14129972816994,0.736139212797085],[33.149483435715524,0.731503961473885],[33.146427653401,0.725605376902005],[33.141570862740714,0.722664681576087],[33.142568159603776,0.716758040590535],[33.14693515946146,0.715614211406312],[33.14859189135511,0.713800994053627],[33.15258590018897,0.713049681773525],[33.15718725829141,0.714620257962848],[33.154413128163156,0.724942725497887],[33.15747021385326,0.728262395070973],[33.157242558872234,0.731029601952607],[33.158782056909054,0.731782655626169],[33.159524899381594,0.731829773843054],[33.16367512523543,0.727827502118363],[33.164960641078544,0.721754787758082],[33.17249144320018,0.720644663766827],[33.17809955477059,0.725773680880654],[33.17948625285971,0.724691870919705],[33.179610058958346,0.725377617832857],[33.182650188486726,0.720727111001633],[33.18353845295867,0.714882979054513],[33.18478439935636,0.711065103169849],[33.1868987666414,0.70884792684122],[33.186861292374665,0.70502997791221],[33.18926428238791,0.698416307802733],[33.18213295559249,0.694084356275215],[33.18034524129375,0.6935793808789672],[33.1764347894919,0.6938157809878951],[33.17517941089279,0.694554791960976],[33.16945423366903,0.695047493420114],[33.16712044662001,0.694378864687959],[33.16499015495787,0.694507648063],[33.162928968021006,0.695173282921156],[33.15971939071063,0.6948262836849995],[33.1585,0.6949],[33.158021087460305,0.6946426738592697],[33.156725571435004,0.694502610845441],[33.15573363399767,0.6934135943868075],[33.14804091435055,0.6892801927853726],[33.14759184208509,0.689368237207981],[33.144999141156596,0.68779863609757],[33.13897692226158,0.689585202423626],[33.13427098751373,0.6894714366846328],[33.134308649112505,0.690180708195778],[33.13077648017759,0.693687861280749],[33.13077574755424,0.693689263075337],[33.12589752600349,0.704214022163393],[33.12589639719299,0.704216969098192],[33.126170225236294,0.705959229917775],[33.12231094918733,0.7121686743487232],[33.12098460280749,0.7143030901782893],[33.12130885288124,0.716804791371188],[33.11974675968794,0.71851565770241],[33.11914009753322,0.721828403151849],[33.115986137921126,0.7280242893140892],[33.115606444424145,0.7369222851931048],[33.115599015675485,0.737098637162829],[33.11097856230523,0.743618136350704],[33.108958505360754,0.748978472083643],[33.10829829133642,0.753553754861841],[33.10717429730179,0.7548471117487343],[33.10643080291019,0.7557029859677211],[33.107250274885914,0.75782353428688],[33.10600400470782,0.7629357395419633],[33.10657150923379,0.7639302333715897]]]}},{"type":"Feature","properties":{"n":"Nawanyago Town Council","c":"205209","d":"Kamuli","od":"Kamuli","dc":"205","k":"NAWANYAGOTOWNCOUNCIL","a":["NAWANYAGO","NAWANYAGOTOWNCOUNCIL"],"lat":0.740334,"lon":33.154795},"geometry":{"type":"Polygon","coordinates":[[[33.15386241356209,0.767466546384518],[33.15444067379725,0.766510691611555],[33.1550608388081,0.766797112533207],[33.155759172826734,0.763984780189638],[33.157622976478464,0.76249050467331],[33.158174093762355,0.759461096620649],[33.16029238361241,0.757749615241878],[33.16258098611295,0.753316621426228],[33.16305951382305,0.752938182960612],[33.165479478087356,0.754582859349297],[33.16626446461087,0.754229987956671],[33.165726983870364,0.751242147141166],[33.16650892509489,0.749814901897655],[33.16565438390853,0.74878261100874],[33.16538235543253,0.745517655213188],[33.16919170218247,0.74167528967401],[33.1698106959366,0.741952661432591],[33.172570057689484,0.739980247258904],[33.17219001535434,0.738535655295026],[33.17330358910069,0.73808028571879],[33.17365713438711,0.734037070965375],[33.17470540150377,0.732661692769644],[33.175620740620985,0.732633721147449],[33.175629806344354,0.728438123828678],[33.177741191058644,0.7254459317643129],[33.172491448855276,0.7206446689388165],[33.17248429461119,0.7206457175483517],[33.164960641078544,0.721754787758082],[33.16367512523543,0.727827502118363],[33.159524899381594,0.731829773843054],[33.158782056909054,0.731782655626169],[33.15878178468067,0.7317825224642027],[33.15878175690097,0.731782520733393],[33.158770674245496,0.7317770877355957],[33.157242558872234,0.731029601952607],[33.15747021385326,0.728262395070973],[33.154413128163156,0.724942725497887],[33.15718725829141,0.714620257962848],[33.15258590018897,0.713049681773525],[33.14859189135511,0.713800994053627],[33.14705520227872,0.7154828300282092],[33.14693534516803,0.715614081848545],[33.146935256702406,0.7156141049805326],[33.14693515946146,0.715614211406312],[33.142568159603776,0.716758040590535],[33.141570862740714,0.722664681576087],[33.146427653401,0.725605376902005],[33.14642770360739,0.7256054738155217],[33.1464277573381,0.725605506303656],[33.14647938048554,0.7257052258282118],[33.149483435715524,0.731503961473885],[33.14129972816994,0.736139212797085],[33.142800376847056,0.738425907790794],[33.13854849284198,0.738082806185732],[33.137351409237006,0.7406869984858979],[33.1373210005946,0.740753319606224],[33.13732087672894,0.7407534203482132],[33.137320773455116,0.740753645014987],[33.1354086187009,0.742309392581056],[33.135314420133355,0.7441430103091394],[33.135262504274266,0.745154860310171],[33.13933132296636,0.746422712767913],[33.13866272911595,0.750958298930601],[33.144484192230806,0.750832607352815],[33.14226305668247,0.761415142302668],[33.14116607673106,0.762879997071034],[33.14581340826063,0.76520424402163],[33.15289468783171,0.7671945614073079],[33.15386241356209,0.767466546384518]]]}},{"type":"Feature","properties":{"n":"Wankole","c":"205210","d":"Kamuli","od":"Kamuli","dc":"205","k":"WANKOLE","a":["WANKOLE"],"lat":0.733349,"lon":33.198755},"geometry":{"type":"Polygon","coordinates":[[[33.15139724491347,0.7711825895026804],[33.15591920477914,0.77130311190614],[33.163860022140504,0.76950897628758],[33.16656148726472,0.779164081213841],[33.16964262160514,0.78190555335633],[33.169642864104205,0.7819083604711482],[33.17011953400087,0.783937675015597],[33.173829248968964,0.7807238152827732],[33.17383020768322,0.780722884899662],[33.17971745376468,0.778801031030408],[33.18322903766917,0.7785989031597045],[33.18346386491332,0.7785853712781159],[33.19101923275527,0.774268717974093],[33.19376956695197,0.774317602418276],[33.195429811085944,0.7752706631164392],[33.19566308224202,0.775404509032706],[33.19947742499736,0.77515895617953],[33.199437466095816,0.771780237986038],[33.2050642809653,0.76914729409252],[33.20911132969652,0.76941631268265],[33.20917490082949,0.7665672320895877],[33.209176690677786,0.766485123460025],[33.207447158574816,0.764006224594356],[33.210585561557885,0.761725325726273],[33.21456493498931,0.761003988227555],[33.220557341814,0.757412200299267],[33.224138049611305,0.7561457684784296],[33.22444577657724,0.7560369177903472],[33.236420742152276,0.7485513880912911],[33.23097538492041,0.7422283252529752],[33.230670954955045,0.742374278255503],[33.22862446473636,0.742303107331611],[33.226292023987796,0.741612679792018],[33.224024740144074,0.738606268917328],[33.2244855456095,0.734692426316286],[33.2201,0.7296],[33.22049073640128,0.723839789181169],[33.22036855672268,0.723695211382045],[33.22064672155985,0.7215402660370235],[33.22100622555246,0.716240481371825],[33.22039261761185,0.710930017561191],[33.22160072376793,0.7074764270340601],[33.2232,0.6839],[33.2226058733349,0.683809980808318],[33.221441863553736,0.684550855189509],[33.21912745080611,0.6832829470918352],[33.21058479395993,0.6819886051454437],[33.20920172823273,0.6826170915875511],[33.20082511801332,0.6901418431405748],[33.20077013844079,0.690408459313305],[33.198527486886775,0.6922058168644251],[33.1982,0.6925],[33.19791621175839,0.6925171559642285],[33.19360976891607,0.693222987438187],[33.1901898641201,0.695104963682986],[33.189110624382245,0.6983229676640117],[33.18926428238791,0.698416307802733],[33.186861301287905,0.7050299533805989],[33.1868988553391,0.708847439142569],[33.18689876291619,0.7088475473096939],[33.1868987666414,0.70884792684122],[33.18689561289836,0.7088512339319297],[33.18464870560186,0.7114809010837618],[33.184518693776894,0.7118792882151573],[33.1829323201078,0.7188708908418682],[33.182650188486726,0.720727111001633],[33.182437236792424,0.7210528646577911],[33.18236537947563,0.72136956041155],[33.18039333970258,0.724663124884024],[33.17995178775575,0.7248548729656035],[33.179610058958346,0.725377617832857],[33.17954738738684,0.7250304876254058],[33.17843047940121,0.7255155154122407],[33.17809955477059,0.725773680880654],[33.17801469730818,0.7256960726926801],[33.17760194259516,0.725875315304907],[33.17564287550209,0.7284196026042806],[33.17563041532764,0.7284372607955494],[33.17562378191414,0.7312262172032229],[33.175620740620985,0.732633721147449],[33.17562043420395,0.7326337305111715],[33.175620432586335,0.732634410622219],[33.17521191191228,0.7326462144430673],[33.17470540150377,0.732661692769644],[33.17365713438711,0.734037070965375],[33.17330358910069,0.73808028571879],[33.17219096219157,0.7385352681083919],[33.1723297678034,0.7390668731257009],[33.172570057689484,0.739980247258904],[33.172568539273776,0.7399813326347752],[33.17256866100507,0.739981798847691],[33.16981202527733,0.741951744762593],[33.16981199653585,0.7419517317536902],[33.1698106959366,0.741952661432591],[33.16919170218247,0.74167528967401],[33.16538235543253,0.745517655213188],[33.16561634324645,0.7483260371898881],[33.16565445148698,0.7487826926439135],[33.16650892509489,0.749814901897655],[33.166508544866616,0.7498155959127287],[33.166508857366765,0.749815973558856],[33.16640570931223,0.7500032974320483],[33.165726983870364,0.751242147141166],[33.166259934549515,0.7542048054688485],[33.166264251423755,0.754228576016574],[33.166264213672605,0.7542285929977021],[33.16626446461087,0.754229987956671],[33.165479478087356,0.754582859349297],[33.165478346095064,0.7545820900152125],[33.16547791319762,0.754582284740075],[33.16398901947773,0.7535699013813966],[33.16305951382305,0.752938182960612],[33.16258108040095,0.7533165468595825],[33.16227877227877,0.7539020057634459],[33.16029238361241,0.757749615241878],[33.158174093762355,0.759461096620649],[33.157622976478464,0.76249050467331],[33.15575918455433,0.7639847707872206],[33.155753333677545,0.7640082956244916],[33.1550608388081,0.766797112533207],[33.15444067379725,0.766510691611555],[33.15386241356209,0.767466546384518],[33.153239195265016,0.7672913872366256],[33.153239190966886,0.7672913900344623],[33.15386240651527,0.767466555656512],[33.151598424276315,0.7685933716393679],[33.151443561615075,0.769670836073997],[33.15079652392773,0.7700966995365113],[33.15049772019644,0.7708957371076268],[33.150591632518484,0.771161106291471],[33.15139724491347,0.7711825895026804]]]}},{"type":"Feature","properties":{"n":"Northern Division","c":"205301","d":"Kamuli","od":"Kamuli","dc":"205","k":"NORTHERNDIVISION","a":["NORTHERN","NORTHERNDIVISION"],"lat":0.931212,"lon":33.135105},"geometry":{"type":"Polygon","coordinates":[[[33.10972429232087,0.91731968939461],[33.11046015680994,0.920441855570209],[33.11217306164619,0.921990603073588],[33.111205268219564,0.925216092810092],[33.112806925730915,0.927896324581884],[33.110893329196806,0.929595772402803],[33.11389542741988,0.93775192283945],[33.11621481324952,0.94018534234859],[33.11735820636595,0.939120447898278],[33.12026516758807,0.938992689318769],[33.12232301691141,0.941347387788021],[33.124181088806715,0.94580926316122],[33.122486056139905,0.947699202475607],[33.12729148333213,0.955195175828368],[33.12673155269531,0.95637014577717],[33.122716614614085,0.954293955023073],[33.118901141032424,0.954096671009982],[33.11570750279536,0.955060434535803],[33.11204617140544,0.957966039589514],[33.114081409471005,0.969958631174195],[33.11375038135424,0.972680414436683],[33.115166412002395,0.974149442102163],[33.11912325212026,0.973600771142123],[33.12063593532193,0.9725877908777909],[33.12059742972019,0.972495730023461],[33.12684811893414,0.968123421464454],[33.127577695836,0.9679391860722978],[33.1284183970619,0.967376203850312],[33.129491490327354,0.9674559077808337],[33.130942314569054,0.967089540407582],[33.13355956615087,0.9677580638405461],[33.134220566419515,0.967807159591291],[33.13437311863653,0.9679658691980403],[33.13481974451759,0.968079950652545],[33.13598230147411,0.9695479647260926],[33.13709577847718,0.9690847132093119],[33.13710870370664,0.969077700114835],[33.13896344912472,0.970425954333469],[33.13872313783778,0.973191771159014],[33.1380551405801,0.9735530057645703],[33.13841006437882,0.9765782716419985],[33.1431126973846,0.9797899396140246],[33.143626994226466,0.9801411684562962],[33.145561055952214,0.9808145615339698],[33.14872260089255,0.9819153112805],[33.14872262904448,0.9819153441028792],[33.148722834311805,0.981915415571951],[33.15146750296219,0.985113924041799],[33.15303279044046,0.9811048326152496],[33.15311128242249,0.980903124538433],[33.153111604145685,0.9809029710695044],[33.15311182964224,0.980902393516608],[33.156501779803605,0.97928576475343],[33.160162714046635,0.975614637203109],[33.16016625698187,0.9756042182992696],[33.16160418136127,0.971282909128319],[33.16141066307586,0.9709316777241466],[33.160927979492705,0.970641599709431],[33.15759006172221,0.963998925557652],[33.158108895165455,0.9616385748683959],[33.15905765694445,0.9573205934188714],[33.15783629702466,0.950722069895321],[33.15783630040434,0.950721946494755],[33.15783629433682,0.950721913737297],[33.157839459370884,0.9506066048864332],[33.15802835534159,0.943709550169433],[33.160692701688355,0.941926892504697],[33.15862818216918,0.937877718337445],[33.15862819098927,0.9378770923921413],[33.158628149651165,0.937877011326786],[33.15870035724036,0.9327555886286489],[33.15874385988174,0.929668287595922],[33.15874357677389,0.9296676801802041],[33.15785831775143,0.928358475907469],[33.15787588130764,0.9278060155810495],[33.15774541099625,0.927526087922789],[33.157950676359484,0.925452853390899],[33.16377945656813,0.921630354388927],[33.166708904212435,0.921340843651682],[33.166708927568884,0.9213311826852105],[33.165781640350495,0.9170475866885537],[33.165780747795246,0.91704448833995],[33.16570489259357,0.9169741155765581],[33.16382648528054,0.9152887692823419],[33.15949603613747,0.91372512993968],[33.157801864838994,0.912202280574843],[33.15780380146197,0.912201583495412],[33.157803783931264,0.91220156772052],[33.15789498470702,0.9121687624634552],[33.15966025262659,0.911533361576293],[33.161218214410056,0.909383422738003],[33.161744622894574,0.902243567975531],[33.16269654192294,0.899617295119187],[33.16920644439559,0.900032255375884],[33.16974254930436,0.896996132134411],[33.16809540618689,0.895375251259199],[33.16873935284191,0.894403393107327],[33.16873591272748,0.8944018734259706],[33.1639174305907,0.892534743544415],[33.16390941479903,0.8925336678782546],[33.16306768552312,0.894122974101097],[33.16291289554882,0.8940868193769534],[33.162812240293455,0.894243749098596],[33.16184776558076,0.893838199895789],[33.16184762023622,0.8938380000639519],[33.16184750635313,0.893837973463963],[33.16171480291487,0.8936553916943678],[33.15714813528737,0.8873767548310214],[33.1542689437966,0.888549198291303],[33.155013586034215,0.889186890412568],[33.15476150496313,0.890165808040024],[33.146879615237594,0.894104298597303],[33.14293833017384,0.897472047130535],[33.14248341463565,0.8993981048172849],[33.142468265069255,0.899463057493736],[33.1424680900666,0.8994629871999267],[33.142467013994214,0.899467543161005],[33.13925326285138,0.898172054995079],[33.13388537138365,0.886874683308955],[33.13363797071313,0.884506584035722],[33.13551306810375,0.883617869346658],[33.129853994491356,0.8777860694082655],[33.12964206229016,0.877567682475876],[33.12618519517464,0.876769193120362],[33.121628755559314,0.880299419949261],[33.11913201613574,0.885015112795971],[33.11857032858035,0.887704140481183],[33.11918215820212,0.893004578518582],[33.12194149154199,0.891893529524724],[33.12433439909808,0.892664452856783],[33.12454394119848,0.895007429825857],[33.12529879594003,0.893474906368299],[33.1302046795086,0.895591090529878],[33.130867408876284,0.897578590002093],[33.13027124385684,0.898914192744647],[33.126959771559754,0.900351456238889],[33.126652763579294,0.901738500845096],[33.12347157049022,0.903033925578034],[33.126375614328836,0.910139676433316],[33.12023979332896,0.915402438964059],[33.118310048634946,0.912903434400705],[33.11590829417446,0.91226115550227],[33.10466084110018,0.914206675416253],[33.10606729771872,0.916563278903343],[33.10972429232087,0.91731968939461]]]}},{"type":"Feature","properties":{"n":"Southern Division","c":"205302","d":"Kamuli","od":"Kamuli","dc":"205","k":"SOUTHERNDIVISION","a":["SOUTHERN","SOUTHERNDIVISION"],"lat":0.92656,"lon":33.094926},"geometry":{"type":"Polygon","coordinates":[[[33.06650082344629,0.9641746639877318],[33.069126156711825,0.964238687282484],[33.07032060597822,0.9645840096199091],[33.07192310019407,0.964755740340798],[33.0729357004438,0.9653400488748581],[33.07449272670996,0.965790194364324],[33.076206676287626,0.967227265760065],[33.084318572399255,0.969465720029534],[33.084504461916964,0.9698342518877554],[33.085038390555795,0.970002000580429],[33.0874111841334,0.9755969207728337],[33.087417607813535,0.975609655922219],[33.092527872520506,0.980608358685796],[33.09252717591028,0.9807299289980888],[33.09264875242041,0.980851694617931],[33.092467709789126,0.991113012879947],[33.09434515589642,0.994039923911424],[33.095068710647176,0.99994420839937],[33.09601714203915,1.001419580352953],[33.09601894063231,1.001421088642941],[33.09790777849719,1.001565171129631],[33.10121641117717,1.001816925704068],[33.10121613039669,1.0018175356006052],[33.101222284586065,1.001818005048473],[33.10084233993663,1.002635991541245],[33.10218808065508,1.002911441272856],[33.10219022762452,1.0029141348022275],[33.102190236518396,1.0029141318923742],[33.102188091935275,1.002911437106647],[33.10440446954603,1.002189499774367],[33.104757972267535,1.0019090876469636],[33.110206005916886,0.997587224832643],[33.110206377065154,0.9975872007495228],[33.110207197780255,0.997586549726336],[33.11022429589436,0.9975860380300419],[33.11182740723243,0.997482015118672],[33.112072939542415,0.9972846063241283],[33.11491608094902,0.994998585633843],[33.11859481003591,0.988040915595998],[33.11859237743148,0.9872962942351715],[33.11856800724786,0.97994873398819],[33.11856837408668,0.9799488590970021],[33.11856837353838,0.979948691262968],[33.1196386363835,0.9803138674815295],[33.123020957466096,0.981467393638599],[33.12341638561384,0.9792356820302375],[33.120635924552815,0.9725877980894138],[33.11912325212026,0.973600771142123],[33.115166412002395,0.974149442102163],[33.11375038135424,0.972680414436683],[33.11408140231487,0.9699586900134078],[33.11190361911451,0.95851147870701],[33.11210737017714,0.9583266518868999],[33.11204617140544,0.957966039589514],[33.11570750279536,0.955060434535803],[33.118901141032424,0.954096671009982],[33.122716614614085,0.954293955023073],[33.12673155269531,0.95637014577717],[33.12729148333213,0.955195175828368],[33.122486056139905,0.947699202475607],[33.124181088806715,0.94580926316122],[33.12232301691141,0.941347387788021],[33.12026516758807,0.938992689318769],[33.11735820636595,0.939120447898278],[33.11621481324952,0.94018534234859],[33.11389542741988,0.93775192283945],[33.113894984784565,0.9377507202804707],[33.11389459401711,0.937750310386842],[33.11089388523496,0.929598150531619],[33.11089412580757,0.9295979366481785],[33.110893329196806,0.929595772402803],[33.112806925730915,0.927896324581884],[33.111205268219564,0.925216092810092],[33.11217294992402,0.9219909754244432],[33.11150897010838,0.9213901551739575],[33.11046015680994,0.920441855570209],[33.1104599328053,0.920440905151044],[33.11045981019556,0.920440794204272],[33.110277571405064,0.9196671722097174],[33.10972429232087,0.91731968939461],[33.10619521960167,0.9165897381861301],[33.10606808378124,0.916563471965419],[33.106068063032836,0.9165634372004405],[33.10606729771872,0.916563278903343],[33.10466084110018,0.914206675416253],[33.11556943602421,0.9123197692413078],[33.11590696034739,0.912261248257658],[33.115907273738344,0.9122613320114564],[33.11590829417446,0.91226115550227],[33.118310048634946,0.912903434400705],[33.12023979332896,0.915402438964059],[33.12375890691948,0.9123840557442808],[33.12637543790026,0.9101392447395821],[33.12347157049022,0.903033925578034],[33.126652763579294,0.901738500845096],[33.12665523600751,0.9017273305549527],[33.126647336835326,0.900608826666415],[33.126932294735134,0.9004755949708086],[33.126959771559754,0.900351456238889],[33.13027124385684,0.898914192744647],[33.130867408876284,0.897578590002093],[33.13027987475699,0.895816598140918],[33.13020464385927,0.8955910751523136],[33.12529879594003,0.893474906368299],[33.12454394119848,0.895007429825857],[33.12454340108191,0.8950013905588813],[33.12454138963436,0.895005477539528],[33.12449028293267,0.8944074545427756],[33.12433439909808,0.892664452856783],[33.12194149154199,0.891893529524724],[33.11918215820212,0.893004578518582],[33.11912879642757,0.8925422916832886],[33.119002915719186,0.89257136964668],[33.11857094925762,0.887709517568676],[33.11857032858035,0.887704140481183],[33.11913201613574,0.885015112795971],[33.119132708312854,0.8850138054530229],[33.119132747471355,0.885013618027819],[33.11963249468405,0.8840698386965122],[33.121628755559314,0.880299419949261],[33.12162916251435,0.8802991046496618],[33.12162927939082,0.880298883926882],[33.12197179047216,0.8800336442219785],[33.12618519517464,0.876769193120362],[33.12618908793195,0.8767700922944307],[33.133100718069,0.8775236081171954],[33.13196274078603,0.869417662184033],[33.131962742663966,0.8694176545405838],[33.13196274113049,0.869417643778644],[33.131964696119,0.869409703727806],[33.13330875526062,0.86393921046513],[33.12991574498729,0.860730514024755],[33.126075399387965,0.854605972931234],[33.126065139219044,0.8545967811112616],[33.121873067303504,0.850875424516768],[33.12024887052057,0.853819784849326],[33.12019701172725,0.853914869431391],[33.117674044569334,0.855986781161724],[33.109921763682024,0.8564328832054404],[33.10982823297622,0.8564382701763517],[33.112492821735316,0.863021183787071],[33.11249288737829,0.8630225774599792],[33.11281443021476,0.866047332863964],[33.112666879499024,0.8667166227610096],[33.11269374645073,0.867287037882635],[33.112473324370086,0.8675945886296986],[33.11233574246577,0.868218660008234],[33.110290222835125,0.8706406287814866],[33.11028747102633,0.870644468328089],[33.11001837205665,0.8716971366130372],[33.10868131136125,0.8769278849230011],[33.11109290071502,0.87783664861454],[33.10765163166345,0.880556194600365],[33.10817575623468,0.887673680174392],[33.10622200525328,0.886824973559539],[33.10559682927353,0.889027523525205],[33.1027642964258,0.8898234700716159],[33.10314223342493,0.8900059906651007],[33.10546423204923,0.891124740193825],[33.10529241375404,0.894284197721837],[33.10200200978342,0.8976801175234372],[33.10159359934808,0.8981018958845207],[33.10195371059741,0.901739539200488],[33.097093337382546,0.9050952267438211],[33.09701234321537,0.9051511593930986],[33.094430459030136,0.909434294551575],[33.088378281927554,0.916638917440276],[33.08485226328725,0.9172795137945763],[33.08470460149226,0.9173063635495503],[33.081773700815326,0.918926536851153],[33.078327346365406,0.9242653398826379],[33.07770908640329,0.9252231596052327],[33.07897641118689,0.937847762547521],[33.078976334655174,0.937848811438014],[33.07897633465686,0.937848811454776],[33.07897633241559,0.9378488421321274],[33.07881460946822,0.940065304346522],[33.07664576493393,0.943168970008145],[33.07888123494019,0.946956225854432],[33.07797461438518,0.9490027635775024],[33.077920009465146,0.9491261445350861],[33.07844777343839,0.952865172052189],[33.06691520500277,0.9579797103201984],[33.066870907699844,0.9579993656855933],[33.064628285890215,0.9601770536609756],[33.06445393365669,0.9603463607735475],[33.06273791311638,0.9643515906452819],[33.06258894637962,0.964699304138711],[33.06544271092371,0.964148860082832],[33.06590111834904,0.9641600391411609],[33.06607502559821,0.964129033513262],[33.06650082344629,0.9641746639877318]]]}}]}
