{"type":"FeatureCollection","name":"Kapelebyong sub-counties","metadata":{"source":"Uganda Bureau of Statistics NPHC 2024 Map Explorer","retrieved":"2026-07-26","display_only":true,"clipped_to_dashboard_district":true,"positive_area_overlaps_removed":true,"source_gap_ratio":0.01289552},"features":[{"type":"Feature","properties":{"n":"Acinga","c":"236101","d":"Kapelebyong","od":"Kapelebyong","dc":"236","k":"ACINGA","a":["ACINGA"],"lat":2.155632,"lon":33.874377},"geometry":{"type":"Polygon","coordinates":[[[33.840072655103846,2.193989941155463],[33.84301242520975,2.197247634504538],[33.84265456346265,2.198664192655137],[33.84458809463799,2.198108642099821],[33.846150876977575,2.198816946628272],[33.842753514114506,2.201823926691448],[33.842054574930415,2.203757480999507],[33.840410858758155,2.203770482933793],[33.84011583859979,2.206378481852272],[33.841935743963695,2.206172023322869],[33.84274192866475,2.208176709032322],[33.841257945699084,2.209090953159583],[33.84242491320921,2.209584443878347],[33.842582458419045,2.21057847950427],[33.840663074970976,2.209571613806933],[33.83792196334692,2.21009972964591],[33.839748732322015,2.210977155495786],[33.83893495621293,2.213012783156881],[33.8399031186909,2.214176895973598],[33.83901109825297,2.215316099426439],[33.84128284749295,2.217876872879633],[33.84275921650424,2.216399501079473],[33.84356237018879,2.21829327628546],[33.84590132591848,2.218258260589158],[33.84457110441433,2.221400776882157],[33.84081286692464,2.223701133642294],[33.84067116861737,2.225568126102561],[33.841623064179046,2.225902665681406],[33.84262163539629,2.224657748306359],[33.86097942011258,2.228467020053506],[33.87910688809936,2.2355112838289912],[33.88067721555565,2.2284983441662334],[33.879556356481615,2.228439382428387],[33.879384049148406,2.227379919102891],[33.88066147784164,2.223372630815916],[33.881971754582246,2.222717050558836],[33.88220985403181,2.2216537200624926],[33.88136259883725,2.218316982395113],[33.87985710425443,2.217888590785337],[33.88044522998943,2.216770374108757],[33.88156597225004,2.217232877253712],[33.88154697524242,2.216096451168434],[33.88262482978503,2.215162748156923],[33.88257685070885,2.213331415174233],[33.88475800309162,2.210273918011286],[33.88515612202749,2.2084959550363283],[33.88462357906565,2.206787052107664],[33.8833756541063,2.207774968191413],[33.88234383679044,2.205769655297266],[33.883624204838895,2.204038769780675],[33.88324343393443,2.201528333097971],[33.88258091507703,2.20094949674702],[33.88066344832662,2.202361500434969],[33.880150282747884,2.20024377490916],[33.88032946296263,2.199541485023019],[33.881780123118425,2.199517792044936],[33.882196818773004,2.197042522484907],[33.88324060956689,2.195424005725319],[33.88302163718684,2.1939850443707214],[33.88212815241152,2.193424824915205],[33.88245828511574,2.190283016474875],[33.8824,2.1899],[33.882776715936615,2.1897744280211278],[33.88352956252117,2.188810134475667],[33.884608353676384,2.18916388210787],[33.885098304974115,2.1890005650086275],[33.88582558293779,2.187704012368051],[33.88713537510963,2.188321541630122],[33.8923,2.1866],[33.893725661658145,2.1829590794576537],[33.89354850752059,2.182992923994528],[33.89271972243638,2.182045659812586],[33.8940462217546,2.181326947419022],[33.89340483562219,2.180433611264918],[33.89476007475851,2.177424370973905],[33.89374145233412,2.176847267669534],[33.89671124181871,2.174783293592548],[33.897574421780305,2.173129938222601],[33.89875087684919,2.170125452969761],[33.89785210714756,2.169927722257793],[33.89882295156725,2.169032755380225],[33.898912096632024,2.165275927650569],[33.89818676321058,2.163579943913435],[33.89766374985453,2.16469415314776],[33.89727041886349,2.163873475152934],[33.89660433967962,2.164776831269167],[33.89566645168102,2.164070106023972],[33.89475900347351,2.15942100123861],[33.89554153875918,2.158452258171284],[33.89717072950677,2.158894338598532],[33.89872704960946,2.158178774598384],[33.89909448405955,2.1575896003475843],[33.899206951787704,2.152849888946985],[33.898486195131646,2.152821820281368],[33.89837310762328,2.151584083890604],[33.89926106526339,2.1505693924715685],[33.8995,2.1405],[33.89952142345906,2.140475086202107],[33.89900892315092,2.138931268395337],[33.900101129775585,2.138982091358246],[33.90019666803261,2.136850603294113],[33.901843939979244,2.13717184033808],[33.90281599452346,2.135177628614897],[33.903419013092964,2.135942496009867],[33.90993159927295,2.1283688705084254],[33.90822051238427,2.128058889876753],[33.90759930731665,2.125670839044078],[33.90538170238592,2.124721786508392],[33.90704410264049,2.123816710583402],[33.9065880542244,2.12288639614521],[33.907174181147944,2.121653766790806],[33.9083457152983,2.122620078641713],[33.90795639246841,2.123146763048556],[33.909065681412464,2.125090947400916],[33.91139629679848,2.12504439617705],[33.91198267621196,2.124483197274202],[33.91098878290533,2.123855670324256],[33.91130547557809,2.123100384440678],[33.914173888848985,2.122609349419939],[33.91358854051084,2.121832786259258],[33.914238413242536,2.121478549662621],[33.91428731124794,2.119569441313708],[33.9158194455381,2.120799150264684],[33.91718086497215,2.1195129928874703],[33.91696904969111,2.1190027106194957],[33.91363289801233,2.117209166130497],[33.91130922688178,2.11749882839589],[33.91085342956859,2.116432849261042],[33.908180188135596,2.115665510822365],[33.90674618988441,2.116497983221074],[33.905424045662244,2.113306175350803],[33.90334954495295,2.112095136746715],[33.90258664542415,2.112473672474266],[33.90164162495425,2.111254262680976],[33.90157610814663,2.109818041156776],[33.90264360829642,2.110973815953205],[33.90290387655215,2.108983588765531],[33.90451700723913,2.10770744195675],[33.90588585355129,2.108348548301818],[33.907466380447794,2.107786763122059],[33.90790568574602,2.106276614211068],[33.90878543229398,2.105994864793421],[33.90858785783058,2.103626461353985],[33.91067531307162,2.103949332087756],[33.91069395530691,2.1038967832335045],[33.90409408818942,2.1003845732469992],[33.90348608532815,2.1011942035782],[33.90275350527785,2.101195640458847],[33.90301269817669,2.100036855542012],[33.90157762251923,2.099295527570603],[33.901521982120336,2.099015791654684],[33.8936,2.0948],[33.89196546736849,2.091757953158033],[33.89174516482393,2.09141335427042],[33.89034358467917,2.09153111364373],[33.88844403111628,2.090257311126969],[33.888491885878906,2.088031477859307],[33.88951731811588,2.0872016753823273],[33.88404161160992,2.0770107771629056],[33.88396865033423,2.079964801394991],[33.882257469453904,2.08346061673013],[33.88016474374473,2.085616176096509],[33.874362637807664,2.089209072412355],[33.86779797236064,2.091941346257502],[33.857616657415655,2.093766098155014],[33.851334143071476,2.091184593534195],[33.84577261883364,2.090517478763076],[33.84527425750811,2.094907724869898],[33.84541702615893,2.095930893717176],[33.84658364990869,2.096362095515966],[33.8439664477046,2.100827131077684],[33.84241404233726,2.108639684555189],[33.84401149299736,2.118467470923984],[33.85767763700667,2.12132200765198],[33.85765691852943,2.124187383619836],[33.860085740517064,2.128111190164493],[33.86560308089418,2.12762968021137],[33.86660431164036,2.128726215789674],[33.865367966331696,2.129161353438684],[33.863466621966815,2.133135810867378],[33.86042198243622,2.133807492298084],[33.858947884539226,2.135531621543058],[33.85890168764566,2.138020863227898],[33.860091847760856,2.139312688042383],[33.86042794328218,2.144769095359535],[33.8581467898346,2.150228456933145],[33.857196935800516,2.150851147242665],[33.85472062664139,2.149224712302479],[33.853484394223884,2.150516848943537],[33.85210403856384,2.150087839999277],[33.85139123342982,2.15252990251604],[33.84891867452023,2.154972332585787],[33.8503074186759,2.15629221185224],[33.848676889754906,2.158036779836062],[33.849535180792465,2.159822815763379],[33.85104438506254,2.159350938431819],[33.85059731925207,2.161095382684526],[33.851333308150195,2.163168974904515],[33.85317214551584,2.162985135230551],[33.85335566399642,2.165960560583378],[33.853927416387585,2.166350392050613],[33.854883085392174,2.165508031226759],[33.85609133351126,2.166639756528522],[33.85576695088951,2.171545022349292],[33.854115919166034,2.17253745538171],[33.85282952055857,2.171293624922493],[33.850354870547015,2.170577040796636],[33.84762379690034,2.17347957480704],[33.84318141114256,2.175594138277081],[33.84093727920695,2.177810677462384],[33.84017914667645,2.182069959965491],[33.837466524152354,2.183030434115436],[33.83770502903123,2.184083429530415],[33.83951301200801,2.184799789825645],[33.83423319938053,2.187244691950769],[33.833287623537764,2.191773949928497],[33.838484021296146,2.19017026014387],[33.840072655103846,2.193989941155463]]]}},{"type":"Feature","properties":{"n":"Acowa","c":"236102","d":"Kapelebyong","od":"Kapelebyong","dc":"236","k":"ACOWA","a":["ACOWA"],"lat":2.084355,"lon":33.855457},"geometry":{"type":"Polygon","coordinates":[[[33.78804709689383,2.113017723577492],[33.79109550142052,2.111660574972097],[33.79452536967892,2.111382848938352],[33.79473775063252,2.114091683925344],[33.79597486492492,2.115863470085657],[33.79608068040855,2.124644948591454],[33.79723705792128,2.12849967386183],[33.79581861891435,2.130205260387947],[33.795183116543726,2.130005916532274],[33.79379244697201,2.13392998975247],[33.79723802490051,2.136218290072156],[33.796499604194366,2.140405778512584],[33.79704830808568,2.146413560401375],[33.79893317532849,2.14657197018448],[33.796961737150376,2.152637581388254],[33.798826968447216,2.155690745999438],[33.797978761002746,2.162038763890339],[33.7927476922941,2.168750007536504],[33.79557731523066,2.170213689185421],[33.79586581636034,2.172041230698314],[33.801141911337226,2.175196613633697],[33.80726534390895,2.181750843494068],[33.811204640470216,2.188198718317655],[33.8137972916845,2.190196622556619],[33.81946298028283,2.190628631635979],[33.82152217548525,2.191766130109279],[33.8224695955535,2.193747049832237],[33.825731862641724,2.192569359125781],[33.8273855710172,2.193626716994933],[33.83030621961851,2.193281330258278],[33.83328761250157,2.191773953747449],[33.833299746305066,2.191715882518122],[33.83423319938053,2.187244691950769],[33.83423407217263,2.1872442877903553],[33.83423421873152,2.187243586373443],[33.83634007897078,2.186269067482437],[33.83951251378626,2.184800020535238],[33.83834226203385,2.184335914441915],[33.83770502903123,2.184083429530415],[33.837466524152354,2.183030434115436],[33.840178525533055,2.1820701798973725],[33.84093714536583,2.177811133830847],[33.840937209199204,2.177811070774577],[33.84093727920695,2.177810677462384],[33.84318141114256,2.175594138277081],[33.84318151141303,2.1755940905486106],[33.84318159816188,2.17559400485584],[33.84478193788571,2.174832291925046],[33.84762379690034,2.17347957480704],[33.849430229698434,2.1715597318030397],[33.850354643129215,2.170577166114746],[33.85035472919318,2.1705771910248495],[33.850354870547015,2.170577040796636],[33.8517941783688,2.170993821000905],[33.8528287538953,2.17129326552742],[33.85282895661803,2.171293461622295],[33.85282952055857,2.171293624922493],[33.85411566205492,2.172537206778646],[33.85576695771031,2.171544919206143],[33.85596343493629,2.1685738197805553],[33.85609106286345,2.1666395030218397],[33.85488459209241,2.1655094425021058],[33.85392947043191,2.166349484242636],[33.853928891650966,2.1663490917007273],[33.853927416387585,2.166350392050613],[33.85335566399642,2.165960560583378],[33.85328551009781,2.164823140047509],[33.8531704178428,2.1629853079564563],[33.851333308150195,2.163168974904515],[33.85059731925207,2.161095382684526],[33.85104438506254,2.159350938431819],[33.849535180792465,2.159822815763379],[33.848676889754906,2.158036779836062],[33.850167522469306,2.1564418923883717],[33.850307290964196,2.15629209047349],[33.84928429476496,2.1553198224948917],[33.848918672002505,2.154973464246738],[33.848919256973105,2.154972886156057],[33.84891867452023,2.154972332585787],[33.85139123342982,2.15252990251604],[33.85210403856384,2.150087839999277],[33.853484394223884,2.150516848943537],[33.85472062664139,2.149224712302479],[33.85472189386793,2.149225544614357],[33.85472205440584,2.149225376991491],[33.8557486021604,2.149899884582812],[33.85719628078939,2.150850717032657],[33.858146897009966,2.1502282004361213],[33.86042794328218,2.144769095359535],[33.860091847760856,2.139312688042383],[33.85951605877068,2.1386877145653544],[33.85890218014766,2.138021548136253],[33.85890218288102,2.1380214007667684],[33.85890168764566,2.138020863227898],[33.858947884539226,2.135531621543058],[33.85894837308599,2.1355310501306968],[33.85894837326839,2.135531040296495],[33.85912712682668,2.1353219768034752],[33.86042198243622,2.133807492298084],[33.86269246404041,2.133306598738446],[33.86346666465002,2.133135721644944],[33.865367966331696,2.129161353438684],[33.86660224313533,2.1287269438099186],[33.86604883800542,2.1281178679079837],[33.86560308089418,2.12762968021137],[33.860085740517064,2.128111190164493],[33.86008561306626,2.1281109842653727],[33.860085557700806,2.128110989096191],[33.85765707827418,2.12418778474608],[33.857657079477356,2.124187643634167],[33.85765691852943,2.124187383619836],[33.85767763435506,2.121322374370026],[33.85374205224534,2.1204999563667237],[33.84401149299736,2.118467470923984],[33.84241404233726,2.108639684555189],[33.8439664477046,2.100827131077684],[33.8439676859239,2.1008250186336386],[33.84396801939704,2.100823341019846],[33.84658305624674,2.096361876089523],[33.84541702615893,2.095930893717176],[33.84527425750811,2.094907724869898],[33.845274559060016,2.094905068389494],[33.84527455202378,2.094905018653824],[33.84528245026351,2.094835551908929],[33.84577261883364,2.090517478763076],[33.84580047988443,2.0905208207459074],[33.84895529999063,2.090611583940136],[33.85000862304784,2.0910255950385728],[33.851334143071476,2.091184593534195],[33.856469706979425,2.0932948126650395],[33.85882930988169,2.09354875983473],[33.86779797236064,2.091941346257502],[33.874362637807664,2.089209072412355],[33.876988578354684,2.087582984881488],[33.880164864681454,2.085616051528685],[33.880166357872284,2.0856145135051074],[33.88274297797879,2.0824687589048376],[33.88337202163632,2.0811836694734764],[33.88388145024439,2.0767126990659386],[33.8828,2.0747],[33.88307794085175,2.074475378413689],[33.88259168718989,2.074303199815905],[33.88158828615411,2.070277524707869],[33.885271638411204,2.072139664215013],[33.88623198368141,2.070013279443921],[33.88616447844858,2.067834448470137],[33.89086680429131,2.066654673639543],[33.892065884640466,2.0672116524130115],[33.89440044987503,2.0653249425499784],[33.89432152996276,2.064798218294516],[33.892285627481435,2.063980075435331],[33.89440930252878,2.061116298199359],[33.89364343330704,2.059433038525894],[33.894399641604124,2.057751179999899],[33.896664659522315,2.057424196339717],[33.89827544290487,2.054520305623734],[33.901087913412034,2.054879626972687],[33.90121985650125,2.057012183398262],[33.90035616892973,2.057331646780911],[33.90122053805325,2.058461912226329],[33.90281750804891,2.058225803502159],[33.90350037897899,2.056895962811828],[33.90462599981498,2.0570610287209523],[33.905152516680126,2.05663551713198],[33.90588177223368,2.05476152339256],[33.907124383696846,2.0544917296200222],[33.905215154671254,2.0500531800904325],[33.9048625232976,2.049981967528795],[33.905003214622305,2.0495604647629615],[33.90473645010068,2.048940294251151],[33.90429651178193,2.048587435078095],[33.90447870855949,2.0483411002408682],[33.90290536128355,2.0446834040096165],[33.901606195623934,2.043185649837556],[33.90168812369347,2.0418535867061847],[33.900023209170016,2.0379830161901245],[33.89940416451334,2.036885514617208],[33.899496213780125,2.036757864514475],[33.89913736844282,2.0359236257815967],[33.898440548166604,2.035965967110193],[33.89780351492477,2.034772041827943],[33.89703721230477,2.0357223865875],[33.89578817554948,2.035401638517834],[33.89367399927841,2.03647499278035],[33.89142255328273,2.034902249739448],[33.890365248792634,2.03663979431313],[33.88905907025032,2.034242864607279],[33.89065579576275,2.032849245139311],[33.892839781555,2.032811790217251],[33.89354762938801,2.031400203240313],[33.89177156558603,2.030578884113806],[33.89136168765819,2.028581644208759],[33.89555688536696,2.0276561843160152],[33.88365959527839,2.0155654423560883],[33.88299394827577,2.01513124891608],[33.88265260845642,2.014506100366403],[33.88403577080376,2.012444833905425],[33.88324352232667,2.009288040923474],[33.885799143033466,2.0064302799007483],[33.885851586955084,2.006246249412156],[33.88548194282626,2.004591838983846],[33.88346173768284,2.005461277684082],[33.882452428605006,2.007424701838924],[33.88002313245477,2.006811127532253],[33.87763690666788,2.008040362738404],[33.87660969698278,2.006525072100359],[33.87698601247201,2.005962601553369],[33.87784716947307,2.006459480826343],[33.8795414260403,2.003780924000172],[33.881366523286246,2.004096521446413],[33.884371569837704,2.000422177261078],[33.88844141225182,1.9971583170072489],[33.8898219139426,1.9923140110741573],[33.88953810159608,1.992259857443754],[33.889120778352705,1.99103243141359],[33.89033737256167,1.990505219919966],[33.8943,1.9766],[33.894266949516314,1.9766020539848619],[33.89417224856685,1.976969096987083],[33.892366019841354,1.976969788696334],[33.89212375087802,1.9767352471205748],[33.882403729856236,1.9773393162236235],[33.88018993365786,1.978351771848776],[33.86953451003577,1.979406665051728],[33.86349889627255,1.9785141928870162],[33.861090082503196,1.9786638931777674],[33.85889966043909,1.978824316983691],[33.8588529826872,1.9788486385994435],[33.841541058408666,1.996757525784143],[33.84151419176255,1.996808254256667],[33.839485636811624,2.006714658509853],[33.83561069876681,2.011384569685568],[33.82927620229664,2.016477332888333],[33.8292,2.0166],[33.82862302561962,2.0167594652810097],[33.828240233171634,2.01689702196143],[33.828199001028054,2.016876658007322],[33.80942760767362,2.0220647315474922],[33.80761840960977,2.024980049777824],[33.8071013770866,2.028786894907845],[33.8099747071476,2.029467940229318],[33.80861154286009,2.032170490911766],[33.81109260203896,2.03362882826708],[33.805568707785994,2.042683336435703],[33.80146892531598,2.043326210928809],[33.801896343569105,2.044957754753343],[33.79444714588677,2.042478397539067],[33.79513297518461,2.050168964616046],[33.80097871363811,2.052760840138149],[33.80105761958777,2.05671344241845],[33.805155361135185,2.054820762536275],[33.81289619163699,2.053832460642954],[33.8118824346695,2.058664408558268],[33.81537415359879,2.062029787486745],[33.817680580219864,2.06604902582135],[33.82019866408851,2.066054389948284],[33.823768240155545,2.068307512993121],[33.82716435877436,2.07320380250146],[33.829021882579184,2.074297868835106],[33.82803335518329,2.080817849775989],[33.82998589729948,2.083095107137883],[33.82913381573982,2.087075809283158],[33.8309452936305,2.087750810876652],[33.829514955435414,2.088801234004305],[33.82611845193829,2.087274346420469],[33.8240428901496,2.088834001265762],[33.82219643218381,2.090628111624326],[33.822265829563186,2.095571180802216],[33.81231525174995,2.088575500298979],[33.809163638674455,2.087922230078959],[33.80665476558717,2.091971602671089],[33.804094622432984,2.089309391539377],[33.795344153214394,2.087563415502632],[33.793040242890115,2.088955211184354],[33.79138741071102,2.093303585889773],[33.78569091447663,2.097044355939059],[33.78322266494929,2.10085561010321],[33.78397556370234,2.109980214711919],[33.78804709689383,2.113017723577492]]]}},{"type":"Feature","properties":{"n":"Acowa Town Council","c":"236103","d":"Kapelebyong","od":"Kapelebyong","dc":"236","k":"ACOWATOWNCOUNCIL","a":["ACOWA","ACOWATOWNCOUNCIL"],"lat":2.072229,"lon":33.803002},"geometry":{"type":"Polygon","coordinates":[[[33.77926769857263,2.070362305930902],[33.780493100054656,2.079599529697509],[33.781673144345866,2.082264458056708],[33.78352492724084,2.080315563143904],[33.78319521603901,2.084569287587749],[33.78438519474864,2.095261768491571],[33.7832226669409,2.100855594171834],[33.78327245576431,2.1007787274991676],[33.78569091447663,2.097044355939059],[33.78569161837039,2.0970438937067324],[33.7856918558879,2.097043527014394],[33.786957444094995,2.0962126524027154],[33.79138741071102,2.093303585889773],[33.793040242890115,2.088955211184354],[33.795344153214394,2.087563415502632],[33.80409417992751,2.089309303246517],[33.8040943761683,2.089309338872615],[33.80409438035453,2.0893093432376033],[33.804094622432984,2.089309391539377],[33.80665476558717,2.091971602671089],[33.809163638674455,2.087922230078959],[33.81231525174995,2.088575500298979],[33.81231526774925,2.0885755115471696],[33.812315329534975,2.088575524333445],[33.81276950656291,2.0888948608022724],[33.822265829563186,2.095571180802216],[33.82219643218381,2.090628111624326],[33.8240428901496,2.088834001265762],[33.82428957059213,2.0886486363445522],[33.82611716666465,2.087274695637396],[33.8261176801692,2.0872749263566646],[33.82611845193829,2.087274346420469],[33.829514955435414,2.088801234004305],[33.8309452936305,2.087750810876652],[33.82913381573982,2.087075809283158],[33.82998589729948,2.083095107137883],[33.82803335518329,2.080817849775989],[33.829021882579184,2.074297868835106],[33.827192879589624,2.073220601028461],[33.827164577043796,2.073203965275318],[33.827164536914935,2.073203907424802],[33.82716435877436,2.07320380250146],[33.82581143366108,2.0712532484186226],[33.823767957114676,2.0683073343371983],[33.82019866408851,2.066054389948284],[33.817680580219864,2.06604902582135],[33.81539635615114,2.0620684782253575],[33.81537414737309,2.0620297814863076],[33.8118824346695,2.058664408558268],[33.81289619163699,2.053832460642954],[33.80517041841939,2.054818840114322],[33.80515533571315,2.0548207742782965],[33.80105761958777,2.05671344241845],[33.801015886241814,2.05462291161425],[33.80097784721037,2.052760455982603],[33.8009575126624,2.05275144007853],[33.79523384458048,2.05039414839648],[33.795200493677825,2.050198900873244],[33.79513297518461,2.050168964616046],[33.79506480443675,2.049404529922539],[33.7940643899431,2.043547763342346],[33.781653197412005,2.054224978807957],[33.7789641295177,2.062544370235946],[33.780219914652605,2.063528004492085],[33.77926769857263,2.070362305930902]]]}},{"type":"Feature","properties":{"n":"Akore Town Council","c":"236104","d":"Kapelebyong","od":"Kapelebyong","dc":"236","k":"AKORETOWNCOUNCIL","a":["AKORE","AKORETOWNCOUNCIL"],"lat":2.065736,"lon":33.764674},"geometry":{"type":"Polygon","coordinates":[[[33.74842419641435,2.070382655991683],[33.74810091461602,2.08358762105673],[33.74505176820593,2.088659331843542],[33.745029495645454,2.088780678897165],[33.74935886194407,2.090702328369391],[33.75690380769704,2.09257263841484],[33.7588427607195,2.094133228030812],[33.75949062912688,2.078973774415196],[33.76543281465279,2.07336336100138],[33.769353549608454,2.075422721754932],[33.77237344947455,2.075850310812664],[33.772740618011156,2.077276744871795],[33.7782850477738,2.067268301695354],[33.77964326424941,2.067666773793638],[33.78012576582995,2.064203734977716],[33.78009898562629,2.0634332829274333],[33.7789641295177,2.062544370235946],[33.78023969327158,2.0585980533049635],[33.77548126306991,2.056635710484205],[33.77579235935329,2.055979012293582],[33.77235124002223,2.055479662311458],[33.77226491695862,2.053195084722561],[33.76784388448199,2.052472205265314],[33.76705796600968,2.050892697545412],[33.76776945327432,2.048532512740964],[33.76327860292003,2.04662917259547],[33.759480315526076,2.04335233060376],[33.75688074783906,2.042405193117744],[33.75765659449901,2.040796875170378],[33.75407661335386,2.039329201450718],[33.75331995943215,2.040007220058772],[33.75092858605123,2.039015112576214],[33.75039104743346,2.040112582816759],[33.74863716542784,2.039464830661421],[33.74533821220802,2.047546507516782],[33.74131324023172,2.045407889992449],[33.73623706686151,2.0531091680795774],[33.7357450042705,2.054270214642643],[33.735049417148446,2.056585326919205],[33.744309298587666,2.0597531810957803],[33.75073824679996,2.059762275855053],[33.74842419641435,2.070382655991683]]]}},{"type":"Feature","properties":{"n":"Akoromit","c":"236105","d":"Kapelebyong","od":"Kapelebyong","dc":"236","k":"AKOROMIT","a":["AKOROMIT"],"lat":2.120254,"lon":33.752694},"geometry":{"type":"MultiPolygon","coordinates":[[[[33.74379076934042,2.035655510084005],[33.74131324451196,2.045407879285126],[33.74133408937809,2.045418967920462],[33.74533821220802,2.047546507516782],[33.74863716542784,2.039464830661421],[33.75039104743346,2.040112582816759],[33.75092858605123,2.039015112576214],[33.75331995943215,2.040007220058772],[33.75407661335386,2.039329201450718],[33.75765659449901,2.040796875170378],[33.75688074783906,2.042405193117744],[33.759480315526076,2.04335233060376],[33.76327847594622,2.0466290630531803],[33.763304706030546,2.0466402357782196],[33.76776945327432,2.048532512740964],[33.76705796600968,2.050892697545412],[33.76784388448199,2.052472205265314],[33.76970580718559,2.0527766467460156],[33.77225909263652,2.053192859643864],[33.77225914256311,2.0531941405558047],[33.77226491695862,2.053195084722561],[33.77235124002223,2.055479662311458],[33.77275717400901,2.0555385684723726],[33.77578712691049,2.055977236989136],[33.77578667798664,2.055978187855351],[33.77579235935329,2.055979012293582],[33.77548150660243,2.0566351964074676],[33.780239701297255,2.0585980284752843],[33.781653197412005,2.054224978807957],[33.79393494229121,2.0436591257652],[33.794446165869395,2.042480381203718],[33.79444735815589,2.0424807778251255],[33.79444714588677,2.042478397539067],[33.801896343569105,2.044957754753343],[33.80146892531598,2.043326210928809],[33.801473700369755,2.043325462167064],[33.80147362982432,2.043325190253893],[33.80219422543915,2.043212478809497],[33.805568484710975,2.0426833714154227],[33.806723696852714,2.0407901325725626],[33.81109260203896,2.03362882826708],[33.80861154286009,2.032170490911766],[33.8099747071476,2.029467940229318],[33.8071013770866,2.028786894907845],[33.80761840960977,2.024980049777824],[33.80930286857399,2.022265734510335],[33.80942759607959,2.022064734751874],[33.8093,2.0221],[33.802196245267304,2.019878249548621],[33.797891198088166,2.020848073273456],[33.79171706323773,2.0166008099015147],[33.785,2.0145],[33.78437240171643,2.011548326822598],[33.78106006737611,2.009269731252519],[33.78268149114715,2.003595763051465],[33.78220331852926,2.001346857457953],[33.77637780203965,1.99971947213585],[33.77903234966328,1.992990729350304],[33.779032341627065,1.989136117025433],[33.777050586434015,1.984876973011556],[33.77165603208328,1.984091630020773],[33.77031552486426,1.983019254144044],[33.7558,1.9806],[33.75562759564683,1.9807745240788284],[33.75419169311094,1.985072232219144],[33.75266818912109,1.987162616108516],[33.74733998972236,1.989861249361011],[33.74440438335456,1.992135726686157],[33.73671615108826,1.9999184863983577],[33.73180436918826,2.005808144310973],[33.73172540261002,2.006098956001829],[33.74022553138536,2.026969190881142],[33.74283008437795,2.029506014644907],[33.74379076934042,2.035655510084005]]],[[[33.71508164469549,2.154493178589454],[33.72681673421658,2.159776163896598],[33.729087539450575,2.167081492369761],[33.735022734777274,2.169123079751088],[33.736905509221984,2.168814608251644],[33.74020110934215,2.166406694736453],[33.74517963531696,2.16124022937128],[33.75141107980014,2.158973928293585],[33.754552536097904,2.156150404066079],[33.77333062916823,2.162599516356207],[33.77885580354156,2.162985449995817],[33.78598888083478,2.167785589592357],[33.78848159180488,2.167549091703667],[33.792747681867056,2.16875000149499],[33.7930250617747,2.1683941540258775],[33.797978761002746,2.162038763890339],[33.7987614281894,2.1561812518678716],[33.79882695430341,2.1556907228476825],[33.796961737150376,2.152637581388254],[33.79750383610793,2.1509696815032955],[33.79893211784103,2.1465718813101256],[33.79704830808568,2.146413560401375],[33.796499604194366,2.140405778512584],[33.79723802490051,2.136218290072156],[33.79379244697201,2.13392998975247],[33.795183116543726,2.130005916532274],[33.79581805747656,2.1302050842766054],[33.7971838698564,2.128563629270817],[33.79723705792128,2.12849967386183],[33.79608068040855,2.124644948591454],[33.79597486492492,2.115863470085657],[33.79490350862112,2.114329081320207],[33.79473797543055,2.114092285129797],[33.79473795103189,2.1140919709358803],[33.79473775063252,2.114091683925344],[33.79452537300389,2.1113828913470347],[33.792238260775214,2.111568042548344],[33.79109550142052,2.111660574972097],[33.78804709689383,2.113017723577492],[33.78397556370234,2.109980214711919],[33.78397499162919,2.1099732815866696],[33.78303218801759,2.102417905522741],[33.78325453669165,2.101241873257516],[33.78322266494929,2.10085561010321],[33.783370818130535,2.1006268449712096],[33.783370818130535,2.1006268449712047],[33.78327245576431,2.1007787274991676],[33.7832226669409,2.100855594171834],[33.78438498756431,2.0952627654165643],[33.78438518782016,2.095261706236201],[33.78319521603901,2.084569287587749],[33.78326662516781,2.083648012377773],[33.78352461128637,2.0803158956678036],[33.781673144345866,2.082264458056708],[33.780493100054656,2.079599529697509],[33.77954461661693,2.0724497474574215],[33.77926773416922,2.070362750567494],[33.779267746937435,2.070362670510594],[33.77926769857263,2.070362305930902],[33.77964327961339,2.0676666635223833],[33.77964327961339,2.0676666635223824],[33.77964326424941,2.067666773793638],[33.77828512627653,2.0672683247264003],[33.777889731545095,2.0679819007814833],[33.772740618011156,2.077276744871795],[33.77237356711437,2.0758507678383253],[33.76994890963717,2.075507019064439],[33.769353549608454,2.075422721754932],[33.76543281465279,2.07336336100138],[33.759860493441266,2.078624560863769],[33.75947666264166,2.0793005757878955],[33.7588427607195,2.094133228030812],[33.75690380769704,2.09257263841484],[33.74935886194407,2.090702328369391],[33.74512772713547,2.0888242803108414],[33.7450294941773,2.088780686896084],[33.744880295760424,2.0895935610293956],[33.74424761361189,2.094406396261006],[33.741080640696076,2.098843272239381],[33.73949516269108,2.095271193238681],[33.73360057983457,2.096579938811566],[33.722627002198095,2.096033259358574],[33.72245622896017,2.0961244172460076],[33.71262362044574,2.1046334053834963],[33.71226450113722,2.105609285899213],[33.71131626816549,2.111181930516274],[33.71100824690681,2.111403147975284],[33.707757139786224,2.1288709608096212],[33.70986615318974,2.129763597879166],[33.71107137183126,2.13163504056317],[33.706561417910486,2.142517643064247],[33.70621877063366,2.146172094823347],[33.70349181913328,2.14827805267114],[33.71062467017209,2.150591267390774],[33.71508164469549,2.154493178589454]]]]}},{"type":"Feature","properties":{"n":"Alito","c":"236106","d":"Kapelebyong","od":"Kapelebyong","dc":"236","k":"ALITO","a":["ALITO"],"lat":2.28853,"lon":33.578582},"geometry":{"type":"Polygon","coordinates":[[[33.49471702984928,2.2348928666784],[33.49797965715871,2.240772217077082],[33.5002289809485,2.24315068449444],[33.50035211952153,2.2438620780571004],[33.5087,2.2513],[33.512656850369964,2.2535970479675838],[33.51427496461019,2.252896068280903],[33.5192946377307,2.253348083065839],[33.52212665269533,2.254561801635763],[33.53336435314412,2.264042578926166],[33.53733785607819,2.268646620254872],[33.53923213035453,2.2723104356192843],[33.54118487972181,2.2751184036875594],[33.54518409845306,2.279437246748787],[33.546875494619364,2.279520135531603],[33.5492727725193,2.282602532767422],[33.54978690837464,2.287970598052041],[33.54873329544751,2.2918994084108113],[33.5462,2.3292],[33.54567265528696,2.3302735231658307],[33.54583805939266,2.333692018705114],[33.5448861846132,2.336666267261724],[33.54155511067086,2.339938271247732],[33.540603695269766,2.343149739083577],[33.53756053461698,2.347760844478992],[33.537007465471945,2.354803017329543],[33.53810983032001,2.356186309527066],[33.54436598631205,2.354682576163719],[33.54534365054495,2.355875885363215],[33.546367551507316,2.354563693867564],[33.548175396135655,2.355304822756092],[33.550886060728594,2.354462703669616],[33.55195173531519,2.354853137000097],[33.55244741865994,2.354772641414198],[33.553362008564896,2.353285757153777],[33.55362461000876,2.353909443147719],[33.55579478968024,2.353519563934122],[33.55550113919513,2.35273119015643],[33.55725801078174,2.351294104370701],[33.55837839148097,2.35184479877985],[33.55771296138359,2.352568769602937],[33.55818918758651,2.352903423951829],[33.560259327640786,2.352296393767479],[33.560674741162785,2.349962093775152],[33.56189605036147,2.350949191873741],[33.5623845539815,2.3497472158612904],[33.561840148630786,2.348414777601411],[33.563579344714896,2.3468074018199263],[33.564580743345694,2.3443434341362552],[33.564574597967805,2.34424361290995],[33.5646727837252,2.344116966360358],[33.56527235847967,2.342641696898703],[33.565026784749286,2.341871650935512],[33.565666928906175,2.3416708459808593],[33.56674422158282,2.3390201390001635],[33.56634475639604,2.336761133831298],[33.566748515445646,2.334417482475855],[33.56736780937071,2.334156152895414],[33.56814854880777,2.3355647549071916],[33.5685,2.3347],[33.581822735486654,2.3280386322566713],[33.5820349527393,2.327173788561907],[33.5831408550396,2.327379572480198],[33.5839,2.327],[33.58717104380305,2.3277744167307586],[33.590405779999294,2.326003678794347],[33.59264247165102,2.322291723308562],[33.5924286865771,2.320673233825867],[33.593784646968665,2.317889577511254],[33.59285715568031,2.313558728205292],[33.59730621610219,2.308942945056201],[33.596617968796274,2.3073475660231],[33.598376973115734,2.30565928967759],[33.59909072583292,2.30235208384329],[33.60251723458581,2.300353088026985],[33.60216251594043,2.299612789923336],[33.60371313043863,2.297861647805004],[33.60472890658459,2.298327595713204],[33.60472949351423,2.299255791461777],[33.6058716751,2.299255673708682],[33.604753450173256,2.295186663435312],[33.60626702508136,2.292002230615018],[33.60586826453751,2.290745358855535],[33.607409167944475,2.289089768804927],[33.60826850471985,2.285038810093869],[33.609465110065706,2.285206391814954],[33.6096377265813,2.283891686320445],[33.612037449362276,2.281861209180085],[33.612101465351685,2.280588513975375],[33.6082942474797,2.273183312810241],[33.60764711343007,2.265664534211691],[33.606029109579026,2.258811784997398],[33.60332601301373,2.253196159639133],[33.59742135261743,2.246822669739539],[33.58731640304722,2.231502707294335],[33.58681639431249,2.229560667618943],[33.57735401104649,2.222619500061844],[33.56549214057338,2.237912163333976],[33.56531856890502,2.242827235072402],[33.56263321227998,2.239141008460987],[33.55575893407889,2.235678972586091],[33.54861967403363,2.233479498290781],[33.53682585404719,2.232692886246372],[33.53370908840927,2.231527191295275],[33.52981280076092,2.225634518576793],[33.52685063529537,2.22273787648675],[33.524995873524674,2.222653015079876],[33.52462559797049,2.221984677044135],[33.51793083904311,2.222387469151932],[33.51352577543471,2.221442296705046],[33.50998148450864,2.223696614952297],[33.5098444656729,2.22525419957165],[33.50800079500831,2.226912709511915],[33.50688697989016,2.226149404789832],[33.50549275675333,2.227618189161047],[33.50549059756388,2.22761704515822],[33.50445526600557,2.228712492742494],[33.50445501075335,2.228722194547931],[33.50443582878383,2.22873305857711],[33.5039,2.2293],[33.50318802197763,2.2294397748264774],[33.501921781720476,2.230156931169021],[33.50155231604663,2.2297608950092505],[33.49186176149311,2.231663335166996],[33.492017049090066,2.232179694316049],[33.49471702984928,2.2348928666784]]]}},{"type":"Feature","properties":{"n":"Kapelebyong","c":"236107","d":"Kapelebyong","od":"Kapelebyong","dc":"236","k":"KAPELEBYONG","a":["KAPELEBYONG"],"lat":2.195619,"lon":33.757472},"geometry":{"type":"MultiPolygon","coordinates":[[[[33.82975207720459,2.271146841288914],[33.830893664583755,2.272246112122136],[33.830562336402075,2.273108667226966],[33.83213205464061,2.273347401263281],[33.83170539375124,2.274783454317572],[33.834395697304494,2.278490875922911],[33.83292185377376,2.279976626689022],[33.83277920942289,2.281413643271923],[33.831067424798185,2.282562678560335],[33.83111597128687,2.284333715948122],[33.83525661528132,2.285003039317878],[33.83578173091142,2.287969205559249],[33.837889633892736,2.29113665593019],[33.83704205066295,2.292225177659682],[33.83751868040989,2.293517376059448],[33.839280156103975,2.294760948557523],[33.84146933440335,2.295095652398294],[33.842706887751106,2.298011037428707],[33.83999663779687,2.299308157496106],[33.83742979884301,2.302133120767861],[33.835762940970795,2.30213497726415],[33.83423052361502,2.303590954293023],[33.834860436794166,2.304436272048463],[33.83477236188852,2.307737069032558],[33.83414866498792,2.309172757619956],[33.83177062930878,2.310897500857731],[33.83234286295219,2.312907688671005],[33.83431309420737,2.31331721386881],[33.83737908673071,2.316944786374552],[33.83734662564776,2.324728552825103],[33.83934896254541,2.33080680689725],[33.8415396223858,2.333581832613414],[33.842777625846885,2.334586445218375],[33.84472885490967,2.333963406878197],[33.84844122546582,2.335396798345702],[33.8502987670622,2.333960923378704],[33.851629726607165,2.334677640266657],[33.854253267182074,2.339645830284087],[33.863417102398095,2.3348328301156993],[33.9088,2.3058],[33.9047,2.2823],[33.90238372458328,2.2794599025809124],[33.90227951778615,2.279491242733857],[33.90134903174995,2.278370017454603],[33.90133975128439,2.279609367270203],[33.90050737294767,2.279361118246958],[33.89963798027544,2.276731309958295],[33.89872279009483,2.276969290779243],[33.89693910586519,2.274687980739637],[33.89483147321575,2.273733189997944],[33.893764392328315,2.275467203681789],[33.893012107130026,2.274082438917838],[33.89192859844075,2.274387432810565],[33.89202654734765,2.275700589371603],[33.8903102845718,2.275932989341026],[33.88975131755911,2.272507765891385],[33.88898181363742,2.273469808464551],[33.88837123234381,2.272495869804001],[33.88784837381502,2.273257075792849],[33.88743260903671,2.271569804848951],[33.88664637470217,2.271590532158559],[33.887444015926,2.270842216843587],[33.88891850720843,2.271532177946712],[33.88917625442639,2.269551561981833],[33.890334285218074,2.269890354779317],[33.88970277511705,2.268395815382132],[33.890941120460774,2.269200203882885],[33.890386617322235,2.265666402518736],[33.8907750899795,2.2652259937204504],[33.89065336925661,2.2650767460496253],[33.8887051058302,2.265417432430999],[33.88825671814409,2.26472938345024],[33.88882238586588,2.263943054138631],[33.887865288742326,2.262731312486101],[33.887157146800305,2.262940168204673],[33.88695545223528,2.261467067233874],[33.885825563344206,2.261740202581883],[33.88608507869048,2.260245061735363],[33.88736529494677,2.261045078962999],[33.87982473176691,2.2517992294103166],[33.879294049957615,2.251770410715999],[33.87943796012345,2.251324989974693],[33.878870946709434,2.2506297473787105],[33.878344148541004,2.2504979520329],[33.87853872836801,2.250222398387632],[33.87667887016542,2.2479419362099033],[33.875987459546764,2.247949737923898],[33.876406677373836,2.2476081874513163],[33.8764,2.2476],[33.877548689754185,2.2424700559841435],[33.87752289189667,2.242444634550899],[33.87756539890662,2.242395434428386],[33.87910688610377,2.2355112927410987],[33.87345803332064,2.233316160763832],[33.86097942011258,2.228467020053506],[33.86097941559164,2.2284670191154046],[33.84338331000234,2.225135752111397],[33.84376557950117,2.229300534478499],[33.84110515523202,2.233606924169842],[33.84010456897187,2.233371234028121],[33.83920095945493,2.234281274801623],[33.83948476850562,2.234952971854031],[33.83753704834344,2.236483970795281],[33.835442965338046,2.236581188970937],[33.83339888890709,2.240268212237767],[33.83425588402532,2.241128648963452],[33.83321156807116,2.245677723728912],[33.83473492694449,2.246921828642891],[33.83559299517669,2.249889832981581],[33.834833210527265,2.251755882597389],[33.831931461654264,2.254007818327511],[33.829985220472096,2.261952686701177],[33.828557203322944,2.261764679762458],[33.82756005362506,2.265594836461164],[33.828132841793625,2.269231813163043],[33.827514973188414,2.269998893580064],[33.82818222417831,2.271817552697179],[33.82975207720459,2.271146841288914]]],[[[33.66110674403926,2.236820605655591],[33.661015673127196,2.240312615589087],[33.662255318328256,2.241114343496014],[33.662852488291236,2.240567834336118],[33.67293909941332,2.243731751374863],[33.68024822952622,2.243448790214815],[33.68516036751361,2.244609869676426],[33.692820427268906,2.244613268589457],[33.690200831796034,2.241042191051193],[33.691999637193334,2.239435584832873],[33.70630970607217,2.233821880288669],[33.716445322377716,2.231713772143733],[33.71634028644893,2.228065860596639],[33.735351939285565,2.228747563765729],[33.741518480290935,2.230727052985601],[33.74747651073597,2.231145835431109],[33.753800644958645,2.229995592548947],[33.77012479821825,2.230618865889806],[33.77579087126548,2.231632824522833],[33.77959979918634,2.235630771985409],[33.784834254924384,2.235723715830219],[33.794588209513996,2.234426019254094],[33.8024290921203,2.236206003176144],[33.802501153932795,2.236837810561924],[33.80520699019849,2.236678394742973],[33.81051956150825,2.234830624748978],[33.81413889400079,2.23241621380607],[33.822804847897864,2.223919530048438],[33.836280251254294,2.222895842643041],[33.838633062708524,2.22417157906128],[33.84060359798732,2.22424000267603],[33.840781637717754,2.224112604286571],[33.84081286692464,2.223701133642294],[33.84457095965028,2.221400865489905],[33.845900116851496,2.218258278689681],[33.84356237018879,2.21829327628546],[33.842759516606414,2.2164002086975327],[33.84200262904418,2.217156602433738],[33.84128284749295,2.217876872879633],[33.83901109825297,2.215316099426439],[33.83901164994162,2.2153153948623],[33.83901110789211,2.215314783549907],[33.83990274465142,2.2141764462307445],[33.83907470577033,2.213180817195174],[33.83893516852556,2.213013283058973],[33.83893523451381,2.2130131177842123],[33.83893495621293,2.213012783156881],[33.83926251132335,2.212193417442087],[33.83974821927934,2.2109769090733273],[33.83792196334692,2.21009972964591],[33.837922660137416,2.210099595398879],[33.83792215416611,2.210099352658541],[33.83902201832868,2.2098877877262484],[33.840663074970976,2.209571613806933],[33.840663783030536,2.2095719852391666],[33.84066384692605,2.209571972948513],[33.842582319961856,2.210577605905027],[33.84242505225887,2.2095853212158345],[33.84203538106343,2.2094197173568855],[33.841257945699084,2.209090953159583],[33.84125951435851,2.2090899867484435],[33.8412578825831,2.209089293270691],[33.842186774450084,2.2085187254113685],[33.84274192866475,2.208176709032322],[33.841935743963695,2.206172023322869],[33.840778355540714,2.2063033228489304],[33.84011620618598,2.206379511108888],[33.84011632875106,2.206378426247232],[33.84011583859979,2.206378481852272],[33.840410858758155,2.203770482933793],[33.842054574930415,2.203757480999507],[33.842753514114506,2.201823926691448],[33.845631434961824,2.199276700810644],[33.846150711867594,2.1988168717949796],[33.84529433780308,2.1984287348084144],[33.84458710722348,2.1981089258080355],[33.84265456346265,2.198664192655137],[33.84265545741104,2.1986606540543003],[33.842654985394155,2.198660789156311],[33.84301195225256,2.1972471103991],[33.840072655103846,2.193989941155463],[33.838484021296146,2.19017026014387],[33.83846886975818,2.190174936145937],[33.830309936226875,2.1932794511606963],[33.83030621961851,2.193281330258278],[33.8273855710172,2.193626716994933],[33.82573201514278,2.192569456632814],[33.82488231278986,2.192876049822206],[33.8224695955535,2.193747049832237],[33.82152222056153,2.1917662243573384],[33.821396000472966,2.1916964310911027],[33.81946298028283,2.190628631635979],[33.8137972916845,2.190196622556619],[33.8137970922284,2.1901964688551905],[33.81379708958291,2.190196468653832],[33.813797079042374,2.1901964586940035],[33.811204640470216,2.188198718317655],[33.810551552400945,2.187129738093912],[33.809530281282974,2.186164731941822],[33.8065509255142,2.180986164154362],[33.80114223826936,2.175196963566237],[33.80114187825682,2.17519659384987],[33.79586581636034,2.172041230698314],[33.79586564794007,2.172040163821958],[33.79531507716502,2.170078041060944],[33.79444626850749,2.169628631610653],[33.78848308513877,2.16754951207906],[33.788481666526316,2.167549112737847],[33.788370950978646,2.1675595888379604],[33.78598888083478,2.167785589592357],[33.778856025114976,2.1629855991016345],[33.7763182397432,2.1628082010682226],[33.77333062916823,2.162599516356207],[33.754552536097904,2.156150404066079],[33.75141107980014,2.158973928293585],[33.74517963531696,2.16124022937128],[33.74020110934215,2.166406694736453],[33.7402008497098,2.166406884435516],[33.740200847568715,2.166406886657441],[33.74017968399745,2.1664223490559085],[33.736905509221984,2.168814608251644],[33.735022734777274,2.169123079751088],[33.729087539450575,2.167081492369761],[33.72908698901217,2.1670797215735123],[33.729086681259105,2.167079615630864],[33.72867688803444,2.1657603999934194],[33.72681673421658,2.159776163896598],[33.717314832496676,2.1554985308128503],[33.71508227365455,2.154493509869806],[33.71508216047719,2.1544934107876936],[33.71508164469549,2.154493178589454],[33.71062479993034,2.1505913809891757],[33.69999990548466,2.147201972996771],[33.695116942125686,2.1509629820101885],[33.68899916415659,2.1587656562068394],[33.6878181964007,2.164450469722621],[33.68661585417579,2.166234729588455],[33.682429833104464,2.168965555536691],[33.68000414506816,2.171982365324453],[33.67797703278377,2.1728233909741417],[33.6758,2.1756],[33.67561536860225,2.177140717181259],[33.67482058009156,2.187610985326958],[33.67427443681889,2.1883305617182214],[33.67405589377048,2.1901542657773923],[33.67410078996709,2.190439303884073],[33.67398570994545,2.1907399376966303],[33.67293781809172,2.199484414544984],[33.6730202742765,2.199747096345976],[33.672701728225704,2.200155521802181],[33.67171226905641,2.2019297244505824],[33.67177452697589,2.203365876186459],[33.67003589094503,2.206528979044785],[33.66873497630899,2.2072683183424933],[33.668706654255246,2.2073191027147243],[33.66940644680296,2.207637609858013],[33.668441040370695,2.209076172263193],[33.669155958372734,2.210238842820601],[33.668036529580824,2.210194521683114],[33.66644401182564,2.213447863579048],[33.66552001155679,2.213203513659146],[33.6655751432884,2.214731285253942],[33.664631474749214,2.21587266067968],[33.66525497367411,2.217172504027441],[33.66301190776908,2.217746045963469],[33.663359748812006,2.218550213080988],[33.66068195371054,2.222279453136454],[33.66147256391346,2.224035900306597],[33.66119225378465,2.225952149347688],[33.66263714215967,2.227489595477041],[33.66072892783927,2.230557090830128],[33.66153008340842,2.233660597393123],[33.6592373310328,2.234583521525275],[33.66027093239985,2.237043722572459],[33.66110674403926,2.236820605655591]]]]}},{"type":"Feature","properties":{"n":"Kapelebyong Town Council","c":"236108","d":"Kapelebyong","od":"Kapelebyong","dc":"236","k":"KAPELEBYONGTOWNCOUNCIL","a":["KAPELEBYONG","KAPELEBYONGTOWNCOUNCIL","TOWNCOUNCIL"],"lat":2.267916,"lon":33.759749},"geometry":{"type":"MultiPolygon","coordinates":[[[[33.69214698746446,2.266600837715403],[33.69077686799834,2.269742132995897],[33.69500302143892,2.271855576369095],[33.69955771020488,2.278357680161948],[33.69734947509993,2.283111328728364],[33.69610028201576,2.291141893478339],[33.69680516104686,2.294204926617939],[33.69747273254645,2.292470729071756],[33.70009884670912,2.292107284691112],[33.704779829051915,2.288567409861349],[33.71095682683401,2.287618052881649],[33.71176961048148,2.286359504636583],[33.71406202979388,2.285323183273464],[33.71635383677178,2.285891793817464],[33.71903230357573,2.285414767320482],[33.73850633435073,2.276725675540756],[33.74335826242999,2.277297181525661],[33.74500279617424,2.279285645436304],[33.7497735114341,2.2820814565364],[33.757328155916056,2.285031940452388],[33.76039776212538,2.286792766270879],[33.76196862061829,2.287435454595154],[33.765657559087565,2.289445943227742],[33.76326393728992,2.305271586096493],[33.75848130346425,2.31144631791737],[33.75826690106462,2.313420156522749],[33.77996918633724,2.31384755019946],[33.78415774116634,2.305583360841561],[33.784351747901994,2.300017466796662],[33.79339378601714,2.300730627922329],[33.79433057092161,2.302069252718733],[33.80595857068102,2.299980965251611],[33.818736666580186,2.300123695768385],[33.82498287589547,2.298588962563795],[33.8293725430464,2.298410495629302],[33.83996465143957,2.2993433604387916],[33.83999663779687,2.299308157496106],[33.842706887751106,2.298011037428707],[33.84146933440335,2.295095652398294],[33.839280156103975,2.294760948557523],[33.83751868040989,2.293517376059448],[33.83704205066295,2.292225177659682],[33.837889633892736,2.29113665593019],[33.83578173091142,2.287969205559249],[33.83525661528132,2.285003039317878],[33.83111597128687,2.284333715948122],[33.83111587146193,2.2843300742079573],[33.830735803319584,2.283569975809853],[33.83108187553472,2.2830898597300067],[33.831067424798185,2.282562678560335],[33.83183162665763,2.2820497081250917],[33.83285732160763,2.280626731598905],[33.83292185377376,2.279976626689022],[33.83439560091123,2.2784909730949385],[33.83368898017703,2.277516971567752],[33.83170539375124,2.274783454317572],[33.83213205464061,2.273347401263281],[33.830562336402075,2.273108667226966],[33.830893664583755,2.272246112122136],[33.82975207720459,2.271146841288914],[33.82818222417831,2.271817552697179],[33.82817999054897,2.271811464717649],[33.82765883507102,2.271100430291993],[33.82776530036518,2.270681185265177],[33.827514973188414,2.269998893580064],[33.828132841793625,2.269231813163043],[33.82756005362506,2.265594836461164],[33.828557203322944,2.261764679762458],[33.829985220472096,2.261952686701177],[33.831931461654264,2.254007818327511],[33.83483306318744,2.2517559969421606],[33.835592962107235,2.2498897185964015],[33.83473492694449,2.246921828642891],[33.83321156807116,2.245677723728912],[33.833211860359185,2.2456764505125992],[33.83321173739374,2.245676350002209],[33.83367162467453,2.243673701979806],[33.83425572515232,2.241129341019482],[33.833795305203395,2.240666220502626],[33.83339888890709,2.240268212237767],[33.83340321929,2.2402604012663767],[33.83368338208083,2.239551558723508],[33.83541801164839,2.2366261994377377],[33.835442965338046,2.236581188970937],[33.83753702486264,2.2364839718853813],[33.83948474979002,2.2349529275594135],[33.83920095945493,2.234281274801623],[33.84010456897187,2.233371234028121],[33.84110515523202,2.233606924169842],[33.84376557950117,2.229300534478499],[33.843418814346414,2.225522567869979],[33.84262195393846,2.2246578144044045],[33.84262163539629,2.224657748306359],[33.841623064179046,2.225902665681406],[33.84067709606635,2.2255702092788727],[33.84067337178956,2.225568906532571],[33.840673371461385,2.2255689002825636],[33.84067116861737,2.225568126102561],[33.84067244662441,2.2255512873021788],[33.840603593191815,2.22424001386222],[33.840490244481025,2.2242360666609136],[33.838633062708524,2.22417157906128],[33.836280251254294,2.222895842643041],[33.82280546782905,2.2239194829540594],[33.81413931137606,2.232415837745625],[33.81413920554496,2.2324159083472224],[33.81413889400079,2.23241621380607],[33.81070624436054,2.234706090978638],[33.810520093529135,2.234830275138608],[33.81052007694635,2.2348302809067415],[33.81051956150825,2.234830624748978],[33.80520699019849,2.236678394742973],[33.803699790040014,2.236767192262111],[33.80250579175381,2.236837653052373],[33.802505778354984,2.2368375381115695],[33.802501153932795,2.236837810561924],[33.80242910886772,2.2362061500104256],[33.799579503243294,2.2355591088607714],[33.79458823830725,2.2344260257905426],[33.79204285425198,2.2347646612662335],[33.784834254924384,2.235723715830219],[33.78483406022203,2.2357237123730522],[33.784833872356636,2.235723737366486],[33.77960051554978,2.235630800437388],[33.77960050030267,2.235630784434544],[33.77959979918634,2.235630771985409],[33.77579087126548,2.231632824522833],[33.77066244461698,2.2307150791230215],[33.77012476510301,2.2306188646254315],[33.76493889514763,2.230420862656144],[33.753800538683514,2.2299956118784254],[33.74747651073597,2.231145835431109],[33.747475856768204,2.2311457894645392],[33.747475811767,2.23114579764903],[33.744745481990165,2.2309538748650337],[33.741518480290935,2.230727052985601],[33.738979625760784,2.229912068512316],[33.73535187019634,2.228747561288388],[33.733623465191464,2.2286855856579986],[33.716340298354,2.2280662740610393],[33.716445322377716,2.231713772143733],[33.716437638022825,2.2317153704137],[33.70330308615132,2.235001348819202],[33.691999637193334,2.239435584832873],[33.690200831796034,2.241042191051193],[33.69028165779181,2.241152374436755],[33.69290262973832,2.244628015369773],[33.69102660012311,2.248891591708286],[33.68872790209808,2.260761879614131],[33.69071957149986,2.262603845942196],[33.69214698746446,2.266600837715403]]],[[[33.76361410136621,2.288360366973241],[33.763614101809424,2.288360366138022],[33.763614101346135,2.288360366962242],[33.76361410136621,2.288360366973241]]]]}},{"type":"Feature","properties":{"n":"Obalanga","c":"236109","d":"Kapelebyong","od":"Kapelebyong","dc":"236","k":"OBALANGA","a":["OBALANGA"],"lat":2.208727,"lon":33.557793},"geometry":{"type":"Polygon","coordinates":[[[33.52350664033154,2.221805843752256],[33.52423253525598,2.2220083257760743],[33.52462559797049,2.221984677044135],[33.52471294213784,2.222142331063093],[33.526847439001536,2.222737730245871],[33.52685063529537,2.22273787648675],[33.52981280076092,2.225634518576793],[33.5298131028487,2.225634975448707],[33.529813254265484,2.225635123496712],[33.53009474354296,2.226060923578125],[33.53370908840927,2.231527191295275],[33.53682576760336,2.2326928539156974],[33.542579364917,2.233076627981708],[33.54861967403363,2.233479498290781],[33.55575893407889,2.235678972586091],[33.55575918146407,2.235679097174642],[33.55575944946234,2.23567917974068],[33.55808935790409,2.236852624662794],[33.56263321227998,2.239141008460987],[33.56531856890502,2.242827235072402],[33.56549214057338,2.237912163333976],[33.56549265191422,2.237911504098719],[33.565492655607834,2.237911396939431],[33.589813753993646,2.205443683246847],[33.58182345573304,2.205099494802512],[33.57947304051178,2.203338063356222],[33.58158009526757,2.194716360303143],[33.58585344340524,2.195594944425273],[33.58760143676512,2.197711813864532],[33.591175688929575,2.199563930149352],[33.59224180903502,2.19807044801213],[33.59365706454401,2.19883460511373],[33.59598282011353,2.195530591011416],[33.589324398237395,2.192104778501978],[33.58347006307205,2.187843058145047],[33.579213110540216,2.186321506775719],[33.580134395122904,2.184737063742285],[33.577153773478884,2.183206852044113],[33.579630747249446,2.178065376042421],[33.57717510969792,2.177002666202398],[33.5830986128435,2.173330034425431],[33.588485808187784,2.171238872244926],[33.59483365284974,2.170247711572371],[33.60634250158382,2.170480655199579],[33.60712623739137,2.170720727001714],[33.60555874996301,2.174611975190289],[33.60724325060192,2.175982964381003],[33.6074813567815,2.177800452425852],[33.609046644827615,2.178644829424629],[33.6019642538037,2.188643484749173],[33.605155426521506,2.190826581429562],[33.60858347860095,2.196282095749009],[33.61024866968201,2.200335279497037],[33.61173965710626,2.208398284802666],[33.60625611947361,2.207102250442493],[33.59532571508719,2.208250992596606],[33.5955488215548,2.2147467405611],[33.59365576168133,2.214525870112915],[33.593132714539394,2.213293879351329],[33.589848908452765,2.216595105871925],[33.58744567702675,2.222615018372772],[33.586816396143504,2.229560552127253],[33.5868819992059,2.2298154777793493],[33.58731640304722,2.231502707294335],[33.59742135261743,2.246822669739539],[33.60332601301373,2.253196159639133],[33.606029109579026,2.258811784997398],[33.60602922786179,2.258812285961653],[33.60602922830518,2.258812286882838],[33.606031261567715,2.258820899338382],[33.60764711343007,2.265664534211691],[33.608179231568144,2.271846991263257],[33.608294282758536,2.2731833814290914],[33.608294601197784,2.273184000807],[33.61067379778963,2.277238785781875],[33.61107032871361,2.278582909229216],[33.612101465351685,2.280588513975375],[33.612037451287854,2.2818611708978604],[33.6120374604006,2.281861201787393],[33.61455558993372,2.278691418034364],[33.61619175460601,2.278747439092798],[33.61651482199132,2.2776213536963],[33.61720303123995,2.277914627403198],[33.6175031276012,2.276415521264494],[33.61958249390562,2.27737924695817],[33.61984865761565,2.275834833766137],[33.62109939732706,2.276427465601627],[33.624065494021025,2.272386746484122],[33.62371022851471,2.27125474004012],[33.62480907858317,2.270929321907923],[33.62620716362278,2.268342456081614],[33.627902375774056,2.26750884773685],[33.62935775415872,2.265250308140645],[33.63069824719536,2.265843223560025],[33.632035976312295,2.26364295551369],[33.635873573437536,2.261917114266539],[33.637000054564396,2.260550811310274],[33.63783663153973,2.261679164188852],[33.63899691519088,2.260489452230647],[33.64423098635005,2.258499818249224],[33.646289832667286,2.256357249153141],[33.647362025532736,2.25692062842742],[33.6485814032222,2.256474557345448],[33.651050182123406,2.252816063040763],[33.650843533326885,2.251714301156964],[33.65242915206827,2.250417768035797],[33.6542365236635,2.250322866198947],[33.65521315477989,2.248063001105758],[33.65844817619024,2.246111216437792],[33.6598994056664,2.244161103470951],[33.660875225462824,2.244183851111627],[33.66078016114662,2.242470696037973],[33.66225530870559,2.241114349642246],[33.662252308063756,2.241112396638111],[33.661015673127196,2.240312615589087],[33.66108212403618,2.2377646315071553],[33.66110595599386,2.2368208160214813],[33.66027093239985,2.237043722572459],[33.6592373310328,2.234583521525275],[33.66135001340394,2.233733082740594],[33.661529934866635,2.2336600219737788],[33.66072892783927,2.230557090830128],[33.66263714215967,2.227489595477041],[33.66119225378465,2.225952149347688],[33.66122452429578,2.225731542492414],[33.66105456816691,2.22552042409351],[33.660936166849375,2.222844221901983],[33.66068195371054,2.222279453136454],[33.66088972165056,2.2219901044391728],[33.659800969408195,2.220930561021463],[33.659039674285886,2.221633791398927],[33.65771655772913,2.219617095640539],[33.654090078689286,2.219074307371983],[33.64693878793359,2.2148935581193094],[33.6462,2.2146],[33.645999755379314,2.2143445859430044],[33.645999404047366,2.214344380549204],[33.64599657029182,2.214340523331401],[33.6364,2.2021],[33.63649479574382,2.201407010424488],[33.635720796464334,2.200353467255195],[33.634665830564224,2.187624155185468],[33.63926412798898,2.1808654945417794],[33.6288,2.1708],[33.6104,2.1357],[33.609332595072985,2.13647362375444],[33.60782882821509,2.138148777386696],[33.60653223296132,2.138503244000512],[33.58752961251372,2.1522757854258354],[33.585628197659986,2.1547036373232],[33.5845851435764,2.1544098500684825],[33.57848287873958,2.1588325924731473],[33.57789213164883,2.15979786499589],[33.57623554482842,2.160461394115183],[33.573867154280215,2.1621779340537888],[33.573011610052816,2.163638012115386],[33.57237137193411,2.163394895184558],[33.569389441562414,2.166489130657884],[33.56680816200976,2.1674772322118594],[33.56732226641953,2.1786406422526223],[33.567795568102106,2.179090978834297],[33.567369104880456,2.1796577059755577],[33.56738372124887,2.179975089975471],[33.567951199504066,2.181615559393546],[33.56747596057565,2.1819780010711645],[33.5675,2.1825],[33.56662485707544,2.18329710470199],[33.566611450635214,2.184529424195],[33.56469601595727,2.185833828503188],[33.56518982787185,2.186268489075994],[33.560524893602576,2.190060267826611],[33.56032477427323,2.191161800364871],[33.558676877280284,2.191644159028547],[33.55856095376054,2.193580070657703],[33.55708805632398,2.193472203781856],[33.55683694857915,2.194456598956495],[33.555315540686365,2.195006874677961],[33.55455687582907,2.194341644529889],[33.553301380525596,2.196079230621463],[33.551978475622455,2.1966374394012056],[33.5518,2.1968],[33.53545710969117,2.2049210041349423],[33.533151965076875,2.206553139306774],[33.53268383791194,2.206299080543756],[33.5282140728642,2.2085201674964905],[33.52825092643304,2.208933569468778],[33.52748189021297,2.209730346719015],[33.52643327994353,2.20940506768238],[33.52623572082154,2.209503237493],[33.52542576945875,2.210798445398687],[33.52461879330851,2.21043782764898],[33.522577448694676,2.211831666099024],[33.52237733548259,2.2114205215657514],[33.51941115950283,2.2128944546914946],[33.51995985883906,2.213307315773936],[33.519344815375476,2.215407115268014],[33.516237792221986,2.216864050130508],[33.51617466653288,2.218158044069028],[33.515510364262234,2.218176106438204],[33.51352578488567,2.22144229006551],[33.518925141394305,2.2223276466633],[33.52149710147037,2.222172903941203],[33.52350664033154,2.221805843752256]]]}},{"type":"Feature","properties":{"n":"Obalanga Town Council","c":"236110","d":"Kapelebyong","od":"Kapelebyong","dc":"236","k":"OBALANGATOWNCOUNCIL","a":["OBALANGA","OBALANGATOWNCOUNCIL"],"lat":2.19995,"lon":33.595196},"geometry":{"type":"Polygon","coordinates":[[[33.58013183013753,2.184735568430423],[33.58013175026194,2.1847357059056756],[33.580134395122904,2.184737063742285],[33.579213110540216,2.186321506775719],[33.58347006307205,2.187843058145047],[33.58670436927221,2.190197502874378],[33.589324524221006,2.192104843321576],[33.59598282011353,2.195530591011416],[33.59365706454401,2.19883460511373],[33.5922419386545,2.1980705179992412],[33.59218854820913,2.198145058829132],[33.591175688929575,2.199563930149352],[33.58853675287949,2.1981964786635397],[33.58760213906505,2.197712299868083],[33.58760196284473,2.197712086469982],[33.58760143676512,2.197711813864532],[33.58585344340524,2.195594944425273],[33.58158009526757,2.194716360303143],[33.57947304051178,2.203338063356222],[33.58182319077072,2.205099296236337],[33.58200758575277,2.2051074263493677],[33.589813753993646,2.205443683246847],[33.58978841051703,2.2054775157954283],[33.577354017374915,2.222619490309835],[33.58681639313975,2.229560653733903],[33.58681640073069,2.2295605699524983],[33.586816396143504,2.229560552127253],[33.58744567702675,2.222615018372772],[33.58744570178675,2.222614956350855],[33.58744570689005,2.222614900025551],[33.58973768742587,2.216873706111138],[33.589848908452765,2.216595105871925],[33.593132714539394,2.213293879351329],[33.59365576168133,2.214525870112915],[33.5955488215548,2.2147467405611],[33.59532571508719,2.208250992596606],[33.60625611947361,2.207102250442493],[33.61173965710626,2.208398284802666],[33.61024866968201,2.200335279497037],[33.60858348661767,2.1962821152622345],[33.60515529417311,2.1908264908893833],[33.6019642538037,2.188643484749173],[33.609046644827615,2.178644829424629],[33.6074813567815,2.177800452425852],[33.60724325060192,2.175982964381003],[33.60555874996301,2.174611975190289],[33.60555889860479,2.1746116061907914],[33.605558720175196,2.174611460974202],[33.605791527769284,2.174034110130184],[33.60712623739137,2.170720727001714],[33.60708547665979,2.1707082412862566],[33.60587684704662,2.1704712301685074],[33.59483365284974,2.170247711572371],[33.58952830470766,2.171076095490483],[33.58848579223287,2.1712388784381877],[33.5830986128435,2.173330034425431],[33.583096919478486,2.1733310843288436],[33.577287239362576,2.177051191807457],[33.579630747249446,2.178065376042421],[33.577153773478884,2.183206852044113],[33.5799594260452,2.1846472369338215],[33.58013183013753,2.184735568430423]]]}},{"type":"Feature","properties":{"n":"Okungur","c":"236111","d":"Kapelebyong","od":"Kapelebyong","dc":"236","k":"OKUNGUR","a":["OKUNGUR"],"lat":2.328268,"lon":33.713884},"geometry":{"type":"Polygon","coordinates":[[[33.59341978531728,2.329253800764162],[33.6122,2.3337],[33.613765536067525,2.3347838326621297],[33.61492320146954,2.335102917857022],[33.61585202974953,2.336034085808083],[33.61582190559823,2.3362074731064677],[33.619801400342524,2.3389625079294376],[33.6210989911087,2.339579069701033],[33.62100442847312,2.339795373558314],[33.6239,2.3418],[33.628041920882254,2.3541294389053173],[33.6313842296349,2.355179848923019],[33.63146200099394,2.355592782911199],[33.63517186946318,2.3567218733148803],[33.63695782904489,2.356650957703299],[33.63813955479113,2.355230102371858],[33.641191352408526,2.355979550799035],[33.64717867860278,2.354665034660649],[33.64851770336501,2.354799765502288],[33.64881461593156,2.355497564011406],[33.64929604777196,2.3554173253713397],[33.65114415859375,2.35475367598586],[33.65294017237432,2.3548099712709467],[33.656591449800814,2.3542014250331977],[33.65730363739725,2.353873159795712],[33.65788862248887,2.353985229585188],[33.659,2.3538],[33.66232256822137,2.3546919646231865],[33.66349233411081,2.354277341450814],[33.66879916382408,2.355116116972635],[33.6727777618057,2.35486151140075],[33.67308154147569,2.355702966713422],[33.67207954193243,2.357311286424813],[33.6739,2.3578],[33.67569787437869,2.367388663353019],[33.67718676288836,2.368246960508149],[33.6773106009082,2.368884279268339],[33.67907318487209,2.3705086213527102],[33.679327995787446,2.370490776689866],[33.684187832393484,2.374196810667231],[33.6866802657315,2.375037745550467],[33.69074510966131,2.379829135047629],[33.69097074699484,2.3814730413481873],[33.69575885011001,2.385885606964129],[33.6978042964246,2.385489060052427],[33.70022267189042,2.386582327479053],[33.700163469729034,2.387414871680178],[33.70356215353785,2.388244874087422],[33.704367957067035,2.389755652329399],[33.70538597470107,2.389565695959002],[33.70590509406859,2.393427801177444],[33.706511850848365,2.3943676925201487],[33.70747710507028,2.3951248969598984],[33.70839171988122,2.395118962049631],[33.708959928119924,2.3962881140389376],[33.71755561666661,2.4030310977860894],[33.71920940208391,2.402675360310897],[33.721359165078006,2.403298672751605],[33.72414411923677,2.4081995221080446],[33.72496004032585,2.408839580506242],[33.7263838376629,2.409239268310887],[33.727476077209374,2.410813313700588],[33.730049928808484,2.4128324002933725],[33.73299101616991,2.413659694540765],[33.73339469990628,2.4154562432848743],[33.7340120865558,2.4159405591277348],[33.749773788811126,2.4060874321279235],[33.7535,2.403],[33.84860121590083,2.3442930971707097],[33.8542532573876,2.339645836730711],[33.851629677804645,2.3346776139866776],[33.8502987670622,2.333960923378704],[33.84844122546582,2.335396798345702],[33.84472885490967,2.333963406878197],[33.842777625846885,2.334586445218375],[33.8415396223858,2.333581832613414],[33.84153938716944,2.3335815346522923],[33.841539373109384,2.333581523247228],[33.84146277091107,2.3334844807494823],[33.83934896254541,2.33080680689725],[33.83734662564776,2.324728552825103],[33.83737908673071,2.316944786374552],[33.83431309420737,2.31331721386881],[33.83234286295219,2.312907688671005],[33.83177062930878,2.310897500857731],[33.83414866498792,2.309172757619956],[33.83477236188852,2.307737069032558],[33.8348248003519,2.305771824556563],[33.83486009501922,2.304435813400446],[33.83423052361502,2.303590954293023],[33.835762940970795,2.30213497726415],[33.83742978798128,2.3021331207799585],[33.83742981646661,2.30213310137201],[33.83996424922377,2.299343803101889],[33.824983272922736,2.298588946422198],[33.82498287589547,2.298588962563795],[33.818736666580186,2.300123695768385],[33.81873638499896,2.3001236926231403],[33.81873630217754,2.300123712971929],[33.80446039945527,2.3002500237534225],[33.79433057092161,2.302069252718733],[33.79339378601714,2.300730627922329],[33.784351747901994,2.300017466796662],[33.78415774116634,2.305583360841561],[33.77996918633724,2.31384755019946],[33.75826690106462,2.313420156522749],[33.75848130346425,2.31144631791737],[33.76326393728992,2.305271586096493],[33.765657559087565,2.289445943227742],[33.76557857653508,2.2894028973690834],[33.76151332398787,2.2872491782184],[33.76039776212538,2.286792766270879],[33.75732818850569,2.2850319591468584],[33.756636138659225,2.2847616715084635],[33.7497735114341,2.2820814565364],[33.7497732087532,2.282081279154852],[33.74977310268676,2.2820812169957243],[33.74500279617424,2.279285645436304],[33.743358264649665,2.277297184209544],[33.74328676209088,2.2772887595393794],[33.73850633435073,2.276725675540756],[33.71903230357573,2.285414767320482],[33.71635383677178,2.285891793817464],[33.71406202979388,2.285323183273464],[33.712263126787555,2.286136403440276],[33.7117693232002,2.286359949474954],[33.71095682683401,2.287618052881649],[33.704779829051915,2.288567409861349],[33.70009884670912,2.292107284691112],[33.69897379900804,2.2922629870862052],[33.69747254446054,2.2924712176757884],[33.69680516104686,2.294204926617939],[33.69610028201576,2.291141893478339],[33.69734935447334,2.2831121041886497],[33.697349384481385,2.283111911276218],[33.69734947509993,2.283111328728364],[33.69955771020488,2.278357680161948],[33.69500302143892,2.271855576369095],[33.69348548245125,2.2710966752165107],[33.69077980147264,2.269744233232672],[33.69078002777493,2.2697437131583285],[33.69077686799834,2.269742132995897],[33.69214698746446,2.266600837715403],[33.69071957149986,2.262603845942196],[33.68872790209808,2.260761879614131],[33.69102660012311,2.248891591708286],[33.69290262973832,2.244628015369773],[33.692899151846426,2.244623403377096],[33.692526959508484,2.244613138372275],[33.68516036751361,2.244609869676426],[33.684202941016615,2.24438356328102],[33.68205835637498,2.244324415981517],[33.680250225372596,2.243449261971969],[33.68024822952622,2.243448790214815],[33.67293909941332,2.243731751374863],[33.662852488291236,2.240567834336118],[33.662255318328256,2.241114343496014],[33.66225515414726,2.2411142373136275],[33.66225514667627,2.241114244183502],[33.66225530870559,2.241114349642246],[33.66078016114662,2.242470696037973],[33.660875225462824,2.244183851111627],[33.6598994056664,2.244161103470951],[33.65844817619024,2.246111216437792],[33.65521315477989,2.248063001105758],[33.6542365236635,2.250322866198947],[33.654236217896774,2.250322882254209],[33.65423611912945,2.250323111031426],[33.65242885142845,2.250418013863799],[33.65085944568372,2.2517012898969857],[33.65084353421443,2.251714305888958],[33.651050182123406,2.252816063040763],[33.6485814032222,2.256474557345448],[33.64857977474277,2.2564751530735716],[33.64857891890055,2.256476421262261],[33.647362567212454,2.256920467662094],[33.6473625253488,2.25692044558539],[33.647362025532736,2.25692062842742],[33.646289832667286,2.256357249153141],[33.64423098635005,2.258499818249224],[33.644230768912855,2.258499900903896],[33.64423074192532,2.258499928990069],[33.643531156381314,2.258765845485896],[33.63899691519088,2.260489452230647],[33.63783663153973,2.261679164188852],[33.6370010688007,2.260552179285352],[33.635873766334775,2.261916946204301],[33.63587367999199,2.2619169850272147],[33.635873573437536,2.261917114266539],[33.63203636546827,2.2636427805027646],[33.630700177685036,2.26584182459561],[33.63069932679245,2.265841447861971],[33.63069824719536,2.265843223560025],[33.62935837625371,2.265250583300385],[33.628336110561335,2.2668357532332895],[33.627902375774056,2.26750884773685],[33.62620716362278,2.268342456081614],[33.62480907858317,2.270929321907923],[33.624188467315584,2.2711131123678907],[33.62371059424042,2.2712559053766115],[33.624065494021025,2.272386746484122],[33.62109939732706,2.276427465601627],[33.62109878445484,2.2764271752074032],[33.62109793579341,2.276428331325798],[33.62066639721753,2.2762222992929755],[33.61984971291886,2.275835333795256],[33.619757272880236,2.276365093097511],[33.61958249390562,2.27737924695817],[33.619580472199004,2.2773783099560623],[33.61958046429755,2.277378355238048],[33.61954822163858,2.277363362761021],[33.6175031276012,2.276415521264494],[33.61720303123995,2.277914627403198],[33.61651738787603,2.2776224471232207],[33.61642531639856,2.2779333348664537],[33.61619175460601,2.278747439092798],[33.61618428970081,2.2787471835000104],[33.61618427383174,2.278747237083369],[33.61615921195969,2.2787463248568525],[33.61455558993372,2.278691418034364],[33.61454785479647,2.278701154909322],[33.61297964883128,2.281275386601404],[33.60963768697166,2.283891988000804],[33.60954947758512,2.28456382038456],[33.609466470496464,2.28520472083492],[33.609465350229726,2.2852045626449433],[33.609465110065706,2.285206391814954],[33.60826850471985,2.285038810093869],[33.60826460165843,2.2850572093304757],[33.6081519025744,2.287146697541952],[33.60765544136835,2.287928822944892],[33.607409167944475,2.289089768804927],[33.60586826453751,2.290745358855535],[33.60626702508136,2.292002230615018],[33.604753450173256,2.295186663435312],[33.60507477798251,2.2963559149210457],[33.60587200907082,2.299254805385054],[33.60587143668013,2.2992548061436118],[33.6058716751,2.299255673708682],[33.605161548541204,2.2992557469191075],[33.60473208983751,2.29925631605698],[33.60473208836352,2.2992557911942613],[33.60472949351423,2.299255791461777],[33.60472890658459,2.298327595713204],[33.60471761110944,2.2983224143520973],[33.60371041121427,2.2978647186832277],[33.60222586182048,2.2995412520661134],[33.60216257604127,2.2996129153538436],[33.60251723458581,2.300353088026985],[33.5990907770514,2.3023520539628684],[33.599024093818215,2.302660826328597],[33.598376973115734,2.30565928967759],[33.596617968796274,2.3073475660231],[33.59730621610219,2.308942945056201],[33.59730526661729,2.3089439301218064],[33.597305282956505,2.308943967946951],[33.59618863256124,2.3101024085803794],[33.59285715568031,2.313558728205292],[33.59285829559945,2.313564050970098],[33.59397476214224,2.316891340957097],[33.59372976590045,2.317633314580076],[33.593784646968665,2.317889577511254],[33.59335161288766,2.3187785548453457],[33.59251363800305,2.321316370350421],[33.59264247165102,2.322291723308562],[33.59164496202818,2.32394716442123],[33.59152381267444,2.3243140664776],[33.59041548358992,2.3259875749668724],[33.590405779999294,2.326003678794347],[33.58742367002328,2.3276361257528393],[33.587171113361705,2.3277744331987074],[33.59284474624284,2.329117660771272],[33.59327660595113,2.328760992687073],[33.59341978531728,2.329253800764162]]]}}]}
