{"type":"FeatureCollection","name":"Kassanda sub-counties","metadata":{"source":"Uganda Bureau of Statistics NPHC 2024 Map Explorer","retrieved":"2026-07-26","display_only":true,"clipped_to_dashboard_district":true,"positive_area_overlaps_removed":true,"source_gap_ratio":0.00653872},"features":[{"type":"Feature","properties":{"n":"Bukuya","c":"126101","d":"Kassanda","od":"Kassanda","dc":"126","k":"BUKUYA","a":["BUKUYA"],"lat":0.641755,"lon":31.875815},"geometry":{"type":"Polygon","coordinates":[[[31.840890275170302,0.617409035204305],[31.839775827684672,0.619169847047434],[31.838573938018257,0.624967110652983],[31.837292781853435,0.626607328470352],[31.837632356476586,0.628929340648127],[31.836021392376697,0.634210645448772],[31.838261343244024,0.636264067662948],[31.837911566018217,0.639219196892799],[31.841374578138442,0.644291116215467],[31.84234794998995,0.649282646316002],[31.84337965259176,0.650805457392473],[31.84757539281115,0.647465667615338],[31.85133985802647,0.650332893947981],[31.85800612521861,0.65339868753418],[31.86153369981435,0.653422698996567],[31.864355216202625,0.657674054711048],[31.860570643264367,0.664793864160252],[31.8587603168302,0.670479801837909],[31.857501910296396,0.670296534567082],[31.855488738869106,0.673654173799079],[31.855060467303876,0.677984684221384],[31.857326823509577,0.683640436915512],[31.857148452627662,0.690421675485244],[31.856285847565264,0.695597206955074],[31.853448203885797,0.700342077754841],[31.8568106021884,0.70069456691275],[31.860725710436622,0.703276633834981],[31.865803220582475,0.702792057685707],[31.874230582816494,0.703827341266719],[31.885820857825433,0.706688426790904],[31.88990439800237,0.706385783164157],[31.892152208495816,0.702022920763611],[31.895812108162573,0.698396663364603],[31.89692823492147,0.6979621779659191],[31.90458712488121,0.6852735692266473],[31.90583065953263,0.683022053765997],[31.90610312042112,0.6827619945262023],[31.9228,0.6551],[31.9087,0.6377],[31.908818912360893,0.6353897027026396],[31.9066295175918,0.629266701552974],[31.904309764505115,0.625578636702582],[31.904250008277018,0.622901542683024],[31.902922724787445,0.620141808302813],[31.902136299562677,0.616087464466047],[31.881963858079374,0.5938353898401346],[31.87792494737952,0.590044486165311],[31.8701492470203,0.585818537460678],[31.85938946638639,0.582053289410469],[31.855175816376235,0.579086931103437],[31.851686341025086,0.582292388389371],[31.849948759239343,0.585029148607152],[31.8459707149239,0.587734333967581],[31.84228820933772,0.592860617104951],[31.838785140882976,0.593965348427868],[31.838437742356316,0.594528800017317],[31.840509045898987,0.595366177344265],[31.836464997848086,0.599987892314676],[31.833161288657998,0.606950259307151],[31.838545975841537,0.610919574108721],[31.840890275170302,0.617409035204305]]]}},{"type":"Feature","properties":{"n":"Bukuya Town Council","c":"126102","d":"Kassanda","od":"Kassanda","dc":"126","k":"BUKUYATOWNCOUNCIL","a":["BUKUYA","BUKUYATOWNCOUNCIL"],"lat":0.676686,"lon":31.811686},"geometry":{"type":"Polygon","coordinates":[[[31.752998849992668,0.707411373319546],[31.75580601421581,0.707656487403333],[31.763426332596207,0.705894948315543],[31.76528732521279,0.706252745360376],[31.769814984900385,0.704751352942107],[31.77386315232132,0.706245008422215],[31.774088139059707,0.70688115521518],[31.770829269707768,0.707492079703023],[31.77354821894303,0.708416834351249],[31.776068501952366,0.711570900282183],[31.776782406582072,0.72014354917908],[31.77625846777458,0.721876027592592],[31.777495401738225,0.72456501962364],[31.78129222973318,0.728108425980074],[31.78838239191423,0.730753928569799],[31.794029901891065,0.734827849526175],[31.793963487503692,0.746853814389312],[31.799982830930496,0.742529829100824],[31.805390083943692,0.733039300034097],[31.807021004280713,0.732227265231316],[31.808629469733525,0.72427608550576],[31.819631190999882,0.717819073895417],[31.827483216931945,0.709998739013611],[31.827860253055007,0.708380821183715],[31.83247644280183,0.711485962494852],[31.8400163175578,0.711509857765964],[31.850396713668214,0.704401218514537],[31.85408868721678,0.6992711150131454],[31.85577403064593,0.6964530244676672],[31.856568102390316,0.6939037103675362],[31.856666892770292,0.6933109794147797],[31.857326779897814,0.6836420949314841],[31.857326823509577,0.683640436915512],[31.855364789962636,0.6787441295781388],[31.855060551768428,0.677984923778959],[31.855060554050347,0.6779849006995258],[31.855060467303876,0.677984684221384],[31.855488738869106,0.673654173799079],[31.857501910296396,0.670296534567082],[31.85876006104808,0.6704797645872357],[31.860570592763512,0.66479399719385],[31.86057061306963,0.6647939589969553],[31.860570643264367,0.664793864160252],[31.864355216202625,0.657674054711048],[31.862612210340256,0.6550477584527119],[31.8615330507036,0.6534226945782059],[31.85828541350564,0.6534005885911293],[31.858007149142168,0.653398795644545],[31.858006925889306,0.653398692984178],[31.85800612521861,0.65339868753418],[31.851710970935063,0.6505035675111794],[31.85134010163253,0.650333027351233],[31.85134003082883,0.6503329734191982],[31.85133985802647,0.650332893947981],[31.84757539281115,0.647465667615338],[31.84337965259176,0.650805457392473],[31.84234794998995,0.649282646316002],[31.841374578138442,0.644291116215467],[31.838191417723003,0.6396290670346625],[31.837911693675622,0.639219444145473],[31.837911699759914,0.6392193927705695],[31.837911566018217,0.639219196892799],[31.838261343244024,0.636264067662948],[31.836739312120905,0.6348687814696345],[31.836021617773714,0.634211084841168],[31.836021673248364,0.6342109029312609],[31.836021392376697,0.634210645448772],[31.83748861110683,0.6294005883385109],[31.83763234506433,0.628929262611083],[31.837292781853435,0.626607328470352],[31.838403190474104,0.6251857125470227],[31.838573979487748,0.6249669106266671],[31.839775827684672,0.619169847047434],[31.840890275170302,0.617409035204305],[31.840643214905825,0.6167251259633106],[31.83854567169329,0.6109193499062555],[31.833161288657998,0.606950259307151],[31.833285903893586,0.6066876402468492],[31.8325830693352,0.606122216521288],[31.828934881509802,0.608713429258943],[31.81951128517602,0.607962667927601],[31.821861046493158,0.609704856994652],[31.822765540060814,0.611608740257702],[31.824595770932305,0.617522964074253],[31.824933573361072,0.620471003362303],[31.824189832484628,0.623055358287294],[31.814366579379197,0.62477523352858],[31.81062058808367,0.624047524406103],[31.809548560773194,0.622978249169061],[31.80770308932012,0.62427545985697],[31.80736783144009,0.625469370011557],[31.808961837739652,0.631928553841558],[31.81124366248886,0.63629945420454],[31.811588894966942,0.638618911343845],[31.805622736917407,0.641343360149614],[31.80252666149777,0.640033370222858],[31.80131680800316,0.637645019421046],[31.799619813927936,0.64614439244399],[31.795003760453902,0.649224044279271],[31.793544110002035,0.651285313023977],[31.796146970944182,0.653994170825257],[31.79655358157152,0.656593317302906],[31.794340975527533,0.663207402335338],[31.793136207379163,0.664477933596361],[31.784260334981383,0.66485447669962],[31.78092814604917,0.663738629226978],[31.77678818863292,0.664900710194919],[31.77368168319203,0.663602432180125],[31.77437831014167,0.662699829078996],[31.770813698644563,0.656189464012191],[31.766555262361358,0.657117327960702],[31.765349892697248,0.656170157486862],[31.758176885851384,0.660282926530319],[31.755919048090103,0.665723163393566],[31.74997486252389,0.67150941741186],[31.754015467816544,0.673666881834537],[31.755756960408423,0.676093663131721],[31.757941404027495,0.676950335425762],[31.76435167082823,0.676422092505072],[31.768095643580025,0.674945849599482],[31.76837544321733,0.680501968273367],[31.764167270392647,0.685278457359287],[31.763274971677816,0.68819329560647],[31.763988789825135,0.691316336379831],[31.763333861738552,0.695034699117776],[31.75887295688606,0.697770612924492],[31.756255559116017,0.697859861102929],[31.75051510867507,0.70068546928598],[31.74896808146299,0.702261649855284],[31.745013923904164,0.702009193251888],[31.746680740570497,0.705170028733121],[31.752998849992668,0.707411373319546]]]}},{"type":"Feature","properties":{"n":"Kijjuna","c":"126103","d":"Kassanda","od":"Kassanda","dc":"126","k":"KIJJUNA","a":["KIJJUNA"],"lat":0.628699,"lon":31.774319},"geometry":{"type":"MultiPolygon","coordinates":[[[[31.742276540114194,0.659311668046716],[31.74545649098839,0.65923851320246],[31.747196324618834,0.658396923279409],[31.74833819688544,0.661020982711157],[31.746520474905655,0.667936666083856],[31.747653094225296,0.671410672340185],[31.749723336836098,0.671600993710577],[31.750219137953895,0.6712716321555453],[31.7553420040597,0.6662848758943718],[31.75602739039668,0.6654621137202008],[31.758173948202145,0.660290004765946],[31.75817604878054,0.660283809847758],[31.758176666161116,0.6602834558717596],[31.758176885851384,0.660282926530319],[31.765349892697248,0.656170157486862],[31.76655520159212,0.6571172802086894],[31.766684372202285,0.6570891964216045],[31.770813698644563,0.656189464012191],[31.770814652660423,0.6561912064156836],[31.77081536332588,0.656191051905479],[31.77269083344705,0.659617841229093],[31.77437831014167,0.662699829078996],[31.77368168319203,0.663602432180125],[31.77678818863292,0.664900710194919],[31.78092814604917,0.663738629226978],[31.784260334981383,0.66485447669962],[31.793136207379163,0.664477933596361],[31.79434092850638,0.6632074519231733],[31.79655357427134,0.656593270638511],[31.79631075885425,0.655041139942427],[31.79614690027669,0.653994097279956],[31.793544110002035,0.651285313023977],[31.793545837865167,0.6512828729944015],[31.79354563190234,0.651282658320609],[31.79463159640841,0.6497496016919343],[31.795003760453902,0.649224044279271],[31.799619510577514,0.6461445948276265],[31.801312226380382,0.637656481228346],[31.801313875136323,0.6376597086469185],[31.80131680800316,0.637645019421046],[31.802526638993086,0.6400333257967555],[31.805623171918683,0.6413431615060826],[31.811588664946967,0.6386190163825723],[31.811273092753048,0.6364971825201561],[31.811243666154553,0.636299478832627],[31.81060330670421,0.635072834442206],[31.808961837739652,0.631928553841558],[31.80736783144009,0.625469370011557],[31.80770308932012,0.62427545985697],[31.807703492462792,0.6242751764816942],[31.80770355545022,0.624274952020276],[31.809546873714066,0.622979233063209],[31.809546992630267,0.6229793514412009],[31.809548560773194,0.622978249169061],[31.810620392094982,0.6240473289205535],[31.814366795547123,0.6247751956814576],[31.824189832484628,0.623055358287294],[31.824933573361072,0.620471003362303],[31.824628267056834,0.6178065613597074],[31.824595756892762,0.6175229187067574],[31.824594771455633,0.6175197343567196],[31.821862038863113,0.6097069458503536],[31.821861046493158,0.609704856994652],[31.81951128517602,0.607962667927601],[31.819580466451953,0.6079681794780731],[31.822097444343648,0.607851054064929],[31.817840004424262,0.597340557055078],[31.816299138327796,0.595467827180851],[31.812689283242,0.593892678265447],[31.810452536880117,0.59189016918627],[31.807933711475336,0.590831785274027],[31.803644752479503,0.590573289501885],[31.80117530462347,0.59275077543242],[31.800569293672172,0.592360014921999],[31.798211809994978,0.593588085810324],[31.788347049481334,0.599578407878313],[31.78900185117066,0.600811800298156],[31.787061814020603,0.600553895476017],[31.783904268444235,0.600032068826278],[31.77773252060265,0.594635479554456],[31.775328963103448,0.59103563938499],[31.769151161755776,0.589975719770702],[31.76323113817932,0.585280167266528],[31.759587056429773,0.584741290994436],[31.75071981177535,0.586986866906025],[31.748017744487978,0.586006527494379],[31.747089394203083,0.586805081723875],[31.744461667475104,0.58677343774289],[31.746272331945356,0.601864390505162],[31.74139271947802,0.618157624565215],[31.73961577739644,0.638547145144638],[31.740280650063717,0.641267351137857],[31.739679555444727,0.646848907177619],[31.738840929074485,0.649349035614719],[31.734169081059843,0.651306445722126],[31.737975527045403,0.65354373085737],[31.742276540114194,0.659311668046716]]],[[[31.67549782828466,0.624939489190658],[31.683134841778724,0.629854038870015],[31.686430953832748,0.629258807014443],[31.695415335425373,0.629922007709205],[31.69814503237092,0.628134264880401],[31.70043968932271,0.624391117439201],[31.711391332728358,0.627450830486539],[31.7217665475591,0.628969598538654],[31.72472858053104,0.623825633865283],[31.727782363795644,0.61173566628975],[31.725401586099636,0.602518315301904],[31.72374177110775,0.601890455143467],[31.71875965849446,0.60240767409785],[31.718017689019398,0.600596565939449],[31.709319612498074,0.600393094635323],[31.7061915205369,0.599441584863042],[31.7023401421529,0.595972524539581],[31.701159266334674,0.592571514661829],[31.697258239408928,0.594023740627468],[31.695915620543293,0.59751501871218],[31.695647782514815,0.602050825608644],[31.692870358522,0.607250738075036],[31.69127589352516,0.608368118131271],[31.68674911002023,0.605822178955168],[31.687306628573257,0.610926852862969],[31.686401642295955,0.613424257761551],[31.68443323926851,0.615397018327328],[31.682821107813634,0.615010448231059],[31.67888815036541,0.616492652606898],[31.674445330826014,0.615713857213764],[31.674659799506834,0.622651346748093],[31.67549782828466,0.624939489190658]]]]}},{"type":"Feature","properties":{"n":"Kitumbi","c":"126104","d":"Kassanda","od":"Kassanda","dc":"126","k":"KITUMBI","a":["KITUMBI"],"lat":0.761861,"lon":31.713026},"geometry":{"type":"MultiPolygon","coordinates":[[[[31.790540328575922,0.7779156553910014],[31.790732010183767,0.7779579899792373],[31.790075174884453,0.777688962680628],[31.787888197861808,0.7773299087302155],[31.787897979405866,0.7773320690712343],[31.790075568032165,0.777698901652908],[31.790540328575922,0.7779156553910014]]],[[[31.6053,0.7501],[31.6195,0.7626],[31.619517346221677,0.7625985630348905],[31.620730815050866,0.761066643781133],[31.622439875213043,0.7623564600415229],[31.632732337958668,0.7615038299915895],[31.63455000798191,0.76053678522379],[31.63594899607247,0.760664841662085],[31.63613958841414,0.7612215725574084],[31.6364,0.7612],[31.636480819701887,0.7622183282438068],[31.638243272421768,0.767366551263265],[31.637560770468173,0.7739740985898889],[31.640325632539845,0.7769681720250143],[31.641844293116876,0.778295317913794],[31.642729254585742,0.779571058074715],[31.646747063508116,0.783921949602052],[31.651545096777088,0.787081397594134],[31.65328982126361,0.7910071121455668],[31.656421013615308,0.794397885210357],[31.656717982457877,0.79468035360225],[31.658636445324735,0.805090308151125],[31.654945292982056,0.8123306276564896],[31.654615391820727,0.8156453488488666],[31.65462019957967,0.8158102940165642],[31.654677430226126,0.8158394596344687],[31.660023116194445,0.817908538413477],[31.664549555814748,0.8208704467132852],[31.664999774815417,0.8210998852424723],[31.666518232085583,0.819584217544788],[31.668974329520346,0.8189599764121207],[31.66932329238542,0.8187720733309273],[31.67079839198793,0.81623921328829],[31.672647884619582,0.81521755547744],[31.676611185856927,0.8148478230001168],[31.679561929978597,0.8132589607807562],[31.68306783005186,0.807941037199674],[31.684762007307274,0.809748519804118],[31.686374652793408,0.808709018466574],[31.687732142737303,0.8088596154491442],[31.697062364944195,0.8038356496454345],[31.697464163720962,0.803565896403023],[31.698583381025134,0.801847712567684],[31.698471074787403,0.79553530398684],[31.700905662332573,0.79407967041206],[31.704668677042633,0.7938780955175219],[31.7048,0.7937],[31.70540544092121,0.7938386289959782],[31.705944348390588,0.793809761126816],[31.716650761124203,0.796056275991044],[31.718034142984564,0.7967302476927275],[31.72324574124138,0.7979235575739618],[31.723514765125085,0.797750077703141],[31.731542669988634,0.797842919233356],[31.734683206729933,0.798594607371858],[31.73879395901598,0.80129127142108],[31.74607713319299,0.8031513061983957],[31.7476,0.8035],[31.75462199863616,0.8022328724265575],[31.756246928575727,0.801559037102101],[31.75747977529786,0.8017171834048976],[31.77180035396548,0.7991330188332963],[31.772265181996193,0.798886759177902],[31.77412664066627,0.7987132377745072],[31.7742,0.7987],[31.787279504076146,0.7772336383483083],[31.7874681801176,0.776092790619656],[31.786695324409052,0.774217939053233],[31.78833073355033,0.770798488285926],[31.789705589661846,0.76352384964727],[31.789398882455828,0.758735132028853],[31.79409559365575,0.747315877570896],[31.794092701430472,0.746760993781009],[31.793963487503692,0.746853814389312],[31.794029901891065,0.734827849526175],[31.78838239191423,0.730753928569799],[31.78129222973318,0.728108425980074],[31.781292058319195,0.728108266007222],[31.781292035433506,0.728108257467764],[31.777495484855486,0.724565135485511],[31.77749545399414,0.7245650683917009],[31.777495401738225,0.72456501962364],[31.77625846777458,0.721876027592592],[31.776782406582072,0.72014354917908],[31.776068501952366,0.711570900282183],[31.77354821894303,0.708416834351249],[31.770829269707768,0.707492079703023],[31.773914355792275,0.7069137335244604],[31.774088008414395,0.7068807858174243],[31.774078779908145,0.7068546923476674],[31.773739099528648,0.7061992365668716],[31.769815100382804,0.7047513955517449],[31.769014810829887,0.7050166942808196],[31.76528732521279,0.706252745360376],[31.76376297307199,0.7059596712845293],[31.76342614870217,0.705894990825123],[31.75580601421581,0.707656487403333],[31.752998849992668,0.707411373319546],[31.746680740570497,0.705170028733121],[31.74668057222816,0.7051697095003938],[31.74667998007484,0.705169499418796],[31.745013911940553,0.702009194163686],[31.74014484080818,0.704741327750459],[31.731708814595184,0.704884091026181],[31.729851867520736,0.703991732259266],[31.722892179022416,0.706168835956781],[31.72092889126728,0.705704944299055],[31.715645982805388,0.710630641932609],[31.711610397622454,0.711493217175395],[31.707742523422397,0.718427335515267],[31.70671729063252,0.729827900081485],[31.6974370884677,0.729369765462771],[31.694629098671623,0.727466204509965],[31.68751460957769,0.725990941095709],[31.677116536168697,0.727870685780379],[31.668418925449362,0.723151209837736],[31.665085325259486,0.723175777498452],[31.660325916227563,0.72537741786199],[31.654446143498053,0.731600168650499],[31.64856664312724,0.73454456003686],[31.64077845775977,0.740280107317478],[31.62398224972844,0.742349989459728],[31.607696052922005,0.742908423033616],[31.601333215273783,0.746825573745004],[31.598936498080253,0.749319297397568],[31.601694099276365,0.7501],[31.6053,0.7501]]]]}},{"type":"Feature","properties":{"n":"Makokoto","c":"126105","d":"Kassanda","od":"Kassanda","dc":"126","k":"MAKOKOTO","a":["MAKOKOTO"],"lat":0.739805,"lon":31.852171},"geometry":{"type":"Polygon","coordinates":[[[31.787584093484966,0.7772627445733673],[31.8036,0.7808],[31.8239,0.774],[31.8326719580939,0.7734517526191311],[31.837878592106648,0.773009264275368],[31.84296917198833,0.77124532046911],[31.844067131702374,0.770064632526739],[31.850911927894504,0.7678454805600196],[31.856264772581888,0.7653398936850739],[31.85830002374605,0.760724568845583],[31.8599284518305,0.759288934005644],[31.859332865905614,0.757343920635266],[31.863601752955457,0.755014590322435],[31.866781102799052,0.750750060112429],[31.86855351396368,0.749643716547385],[31.87393967884644,0.747753973045696],[31.87799543438537,0.747456577888654],[31.88024830228358,0.7481359606852782],[31.88063552364744,0.747959081790675],[31.883306919176437,0.745865182391187],[31.885867213782205,0.745540322856985],[31.886132402794296,0.7456285937887568],[31.888670140244614,0.745846893784483],[31.89656402966399,0.741837277885338],[31.90564093876768,0.73888197008947],[31.907580714209427,0.738763707489174],[31.90946539747633,0.7407275476691345],[31.9134,0.7357],[31.909803542578885,0.7319543119805012],[31.904569127294373,0.727707105364809],[31.90343974607984,0.7253264575354378],[31.895244991386413,0.7167916715269284],[31.889639593341823,0.711457795384009],[31.889567400199308,0.7108784956432637],[31.8893,0.7106],[31.889492872732845,0.7102804645769271],[31.88928445849823,0.708608085347088],[31.889904397270794,0.706385794673219],[31.88990419808768,0.7063857979804448],[31.885820857825433,0.706688426790904],[31.884929517076426,0.706468397316872],[31.884214959627766,0.706480261790386],[31.874239228197048,0.7038294753984053],[31.874230582816494,0.703827341266719],[31.865803464564213,0.702792087658346],[31.865209076459188,0.7028487602944868],[31.860725710436622,0.703276633834981],[31.856876483008712,0.7007380162061405],[31.8568105814825,0.7006945647420952],[31.853846375987835,0.7003838191954198],[31.853448195622743,0.700342089484953],[31.850400253512696,0.7043962997987513],[31.850396713668214,0.704401218514537],[31.850396387940002,0.7044014415777344],[31.85039631395917,0.7044015399831],[31.840016979026377,0.711509621506277],[31.840016664004484,0.7115096205144708],[31.8400163175578,0.711509857765964],[31.83247644280183,0.711485962494852],[31.827861406011703,0.7083815967353413],[31.8277580506365,0.7088193868941265],[31.827483216931945,0.709998739013611],[31.827478519662762,0.7100034173244514],[31.827478294953032,0.710004369144408],[31.819796477738965,0.717654454259373],[31.819631190999882,0.717819073895417],[31.81921521642492,0.7180632132073584],[31.80862939565006,0.7242764517249789],[31.807021004280713,0.732227265231316],[31.805390083943692,0.733039300034097],[31.802648872508698,0.7378505316776607],[31.799983178248134,0.742529406540977],[31.799982997849906,0.7425295361325608],[31.799982830930496,0.742529829100824],[31.793963487503692,0.746853814389312],[31.794092701430472,0.746760993781009],[31.79409559365575,0.747315877570896],[31.792495485890388,0.7512062674533189],[31.79228552967009,0.752432574749711],[31.79145892647522,0.753726485371503],[31.789949118636397,0.757397326340908],[31.789568146037787,0.7613778984235946],[31.789705589661846,0.76352384964727],[31.789011028489547,0.7671989117127299],[31.788851404667824,0.768866732786503],[31.788558374901463,0.7695939923718778],[31.78833073355033,0.770798488285926],[31.786695324409052,0.774217939053233],[31.7874681801176,0.776092790619656],[31.78734919134495,0.7768122676129389],[31.787451130738056,0.777216286835732],[31.787584093484966,0.7772627445733673]],[[31.790732010183767,0.7779579899792373],[31.790540328575922,0.7779156553910014],[31.790075568032165,0.777698901652908],[31.787897979405866,0.7773320690712343],[31.787888197861808,0.7773299087302155],[31.790075174884453,0.777688962680628],[31.790732010183767,0.7779579899792373]]]}},{"type":"Feature","properties":{"n":"Mbirizi","c":"126106","d":"Kassanda","od":"Kassanda","dc":"126","k":"MBIRIZI","a":["MBIRIZI"],"lat":0.668444,"lon":31.662385},"geometry":{"type":"Polygon","coordinates":[[[31.5781409095564,0.6610701138906473],[31.5782,0.6613],[31.577989607022413,0.6742391681215666],[31.578525795528854,0.676957557356629],[31.577803510161775,0.6856841250508269],[31.57780003954396,0.6858975680464441],[31.58125645744828,0.694440731217736],[31.58164381345226,0.697561713220019],[31.58178145790858,0.6975724487992213],[31.600548895455212,0.6947229425748629],[31.60196257002991,0.694343294705147],[31.604432414778707,0.694824096491153],[31.605845417522076,0.696841474966746],[31.60665384329378,0.705121057853644],[31.60424374042138,0.711016598917992],[31.60236976965662,0.712183470522251],[31.6024,0.7125],[31.58330469544619,0.7209868020239153],[31.582579588761135,0.7218766174978779],[31.582501525970354,0.7240818913374574],[31.5827954226791,0.726124490335985],[31.582225516636107,0.7318791550299752],[31.5822,0.7326],[31.592448557054404,0.7492064581900042],[31.59369386910502,0.7501],[31.595138974078324,0.7501],[31.5989364882318,0.749319289911397],[31.59931447278375,0.7489260242735123],[31.601333215273783,0.746825573745004],[31.601333438226177,0.746825436488927],[31.60133351632567,0.746825355232044],[31.602152210971237,0.7463213758137857],[31.607696052922005,0.742908423033616],[31.62398224972844,0.742349989459728],[31.64077820815579,0.7402801380774457],[31.646223488235407,0.7362701578537855],[31.64856664312724,0.73454456003686],[31.648566922651046,0.734544420054305],[31.648567127124764,0.734544269477005],[31.65055346699221,0.7335495797315134],[31.654446011816216,0.7316002345953652],[31.6566272715268,0.7292918113746119],[31.660325916227563,0.72537741786199],[31.665085325259486,0.723175777498452],[31.665085574688337,0.723175775660234],[31.66508567830928,0.723175727724645],[31.665674493484513,0.723171435500542],[31.668418925449362,0.723151209837736],[31.668419325272396,0.7231514267887184],[31.66841947300466,0.72315142571181],[31.67134562630621,0.7247392889931416],[31.67711649172879,0.7278706616665074],[31.68299894745099,0.7268072742322966],[31.68751460957769,0.725990941095709],[31.687514673159242,0.7259909542800059],[31.687514705342185,0.725990948462208],[31.687912662019787,0.7260734814154745],[31.694629098671623,0.727466204509965],[31.6974370884677,0.729369765462771],[31.70671729063252,0.729827900081485],[31.70773720310859,0.7184864972799428],[31.707742496739716,0.718427444103119],[31.70774251690742,0.718427407961643],[31.707742523422397,0.718427335515267],[31.711610397622454,0.711493217175395],[31.71531718737993,0.7107009194217672],[31.7156461491992,0.7106304867897344],[31.72092889126728,0.705704944299055],[31.720929426051693,0.7057050706595578],[31.720929690966347,0.705704823676875],[31.722262461828834,0.7060200444451618],[31.722892179022416,0.706168835956781],[31.729851867520736,0.703991732259266],[31.731708666570256,0.7048840198925755],[31.740144969680195,0.7047412554377841],[31.740147924731577,0.7047395972991148],[31.743869789102998,0.702293877674191],[31.744513772227947,0.7022898325995898],[31.745013911940553,0.702009194163686],[31.745159721529163,0.702285775174774],[31.745159774836075,0.7022857748399354],[31.745013923904164,0.702009193251888],[31.74896808146299,0.702261649855284],[31.75051510867507,0.70068546928598],[31.756255559116017,0.697859861102929],[31.75781997084899,0.6978065177024374],[31.758873010722034,0.6977705799063948],[31.759580496929285,0.697336672135106],[31.76333388120465,0.6950345885987435],[31.763988789825135,0.691316336379831],[31.763274971677816,0.68819329560647],[31.764167270392647,0.685278457359287],[31.76837544321733,0.680501968273367],[31.768095643580025,0.674945849599482],[31.76435167082823,0.676422092505072],[31.757941404027495,0.676950335425762],[31.75794084120075,0.6769501147022443],[31.75794074671107,0.676950122485193],[31.757939450536572,0.676949569326085],[31.755756960408423,0.676093663131721],[31.75567886371437,0.6759848348786538],[31.75550142568481,0.675909110921618],[31.755398217880686,0.6755937530770467],[31.754210830912893,0.6739391215848458],[31.75309661195402,0.6731762625610923],[31.75040114620341,0.6717370298129537],[31.74769073070671,0.6714141323340439],[31.747653094225296,0.671410672340185],[31.746850892036022,0.6689501320897663],[31.74652050805917,0.667936957851832],[31.746520535722414,0.667936852622968],[31.746520474905655,0.667936666083856],[31.748338103166624,0.6610213392726506],[31.74719598301088,0.6583970885215372],[31.74545649098839,0.65923851320246],[31.745456078233723,0.6592385226978907],[31.745455880607476,0.659238618793659],[31.744734750922095,0.6592551168495702],[31.742276540114194,0.659311668046716],[31.738011625782747,0.6535921416029954],[31.737975515745358,0.6535437242156305],[31.734169081059843,0.651306445722126],[31.738437194470674,0.6495181922721562],[31.738841051367825,0.6493486710315526],[31.739679545790153,0.646848935960016],[31.740280490293422,0.6412666974666524],[31.73961577739644,0.638547145144638],[31.74139271947802,0.618157624565215],[31.746272331945356,0.601864390505162],[31.745248784789798,0.5933336538456238],[31.74446165565889,0.586773438212202],[31.7348716830306,0.596616515777014],[31.726026849504432,0.603167588130989],[31.72670332647816,0.6075580962037542],[31.727782363795644,0.61173566628975],[31.727511947027793,0.6128062497830508],[31.72764035072612,0.613639622530348],[31.724729166574015,0.6238233137135345],[31.72472858053104,0.623825633865283],[31.72472842719575,0.6238259001524309],[31.724728327711684,0.623826248160302],[31.72444731255522,0.6243140931582998],[31.7217665475591,0.628969598538654],[31.711391332728358,0.627450830486539],[31.70043968932271,0.624391117439201],[31.69814503237092,0.628134264880401],[31.698144973437223,0.6281343034774676],[31.698144959906767,0.628134325579603],[31.69814474691102,0.6281344518348142],[31.695415335425373,0.629922007709205],[31.695160793225103,0.6299032181506444],[31.694823539500895,0.630103128434133],[31.686430872333425,0.629258821732084],[31.683134841778724,0.629854038870015],[31.675821526910656,0.625147794830007],[31.675497833539946,0.624939502416346],[31.6753772399268,0.626984247295095],[31.673969889602763,0.62932602519149],[31.662831674675985,0.625831895867932],[31.657599368042792,0.621561454775688],[31.656983870898046,0.619987644729951],[31.652992263219616,0.619959581835187],[31.651664251777284,0.617978328154647],[31.650377852172067,0.619813973643701],[31.651111285201242,0.621913397964743],[31.65068843475984,0.624465791735458],[31.63642308357099,0.626512579507208],[31.628945536836184,0.629216321140139],[31.630578935727783,0.634819485408046],[31.63397668771605,0.640247496328992],[31.634062386791342,0.642585885295518],[31.63554756964414,0.643444189893828],[31.638003350597714,0.64940546809492],[31.637113627003288,0.652213620415015],[31.629063767138906,0.651300037941188],[31.62780705651859,0.650329495800458],[31.62477945050973,0.651242749961583],[31.621982135153267,0.64975842510573],[31.620211229374164,0.649872136880498],[31.617797627339236,0.648114050103422],[31.609304506948213,0.648102302454721],[31.600645992996597,0.650399724917697],[31.596031315055725,0.649317853441695],[31.590742495857356,0.64952291134475],[31.58937552773475,0.648342590798419],[31.589170266279886,0.646551836425784],[31.58673728787328,0.646333870555578],[31.585471331258045,0.644832329565528],[31.582705754765332,0.644469761612057],[31.578893113504982,0.64477459659693],[31.57785128845385,0.646784503792486],[31.574774995349358,0.6479753243728482],[31.576397095833368,0.6542859618722869],[31.577797400052837,0.657756096692848],[31.5781409095564,0.6610701138906473]]]}},{"type":"Feature","properties":{"n":"Kalwana","c":"126201","d":"Kassanda","od":"Kassanda","dc":"126","k":"KALWANA","a":["KALWANA"],"lat":0.578208,"lon":31.649681},"geometry":{"type":"Polygon","coordinates":[[[31.578891517938615,0.6447776747916006],[31.578893113504982,0.64477459659693],[31.582705754765332,0.644469761612057],[31.584688943474077,0.644729758279432],[31.58520178549466,0.644724036185343],[31.58528131715419,0.6448074186563755],[31.585471331258045,0.644832329565528],[31.58673728787328,0.646333870555578],[31.589170266279886,0.646551836425784],[31.58937552773475,0.648342590798419],[31.590742495857356,0.64952291134475],[31.595691336074513,0.6493310350942256],[31.596030591604393,0.649317822244452],[31.596030808464604,0.6493178730832272],[31.596031315055725,0.649317853441695],[31.600645992996597,0.650399724917697],[31.609304506948213,0.648102302454721],[31.611331081834628,0.6481051056046513],[31.612673445201306,0.647816821628793],[31.617791544220967,0.6481140416892782],[31.617797627339236,0.648114050103422],[31.6177981417784,0.6481144248249723],[31.61779851791233,0.648114446667955],[31.619745685346974,0.649533030935729],[31.620211229374164,0.649872136880498],[31.621982135153267,0.64975842510573],[31.624351648086844,0.6510157473934898],[31.624779508713917,0.6512427324047363],[31.62763760585023,0.6503806092965783],[31.627805920963354,0.650329795489747],[31.627805960875254,0.6503298262928782],[31.62780705651859,0.650329495800458],[31.629063767138906,0.651300037941188],[31.637113627003288,0.652213620415015],[31.638003350597714,0.64940546809492],[31.63554756964414,0.643444189893828],[31.634062386791342,0.642585885295518],[31.633976688861157,0.6402475275744088],[31.633453419208877,0.6394115591619083],[31.630578935727783,0.634819485408046],[31.630578847560486,0.6348191829614999],[31.63057872505708,0.634818987251743],[31.630547697262863,0.6347123258823892],[31.628945536836184,0.629216321140139],[31.63642308357099,0.626512579507208],[31.647720853392066,0.6248915793080749],[31.65068848161657,0.6244655089006418],[31.651104079836163,0.6219568907157172],[31.651111196608007,0.6219131443699576],[31.650377852172067,0.619813973643701],[31.65037804632794,0.6198136965903274],[31.650377940355998,0.619813393203231],[31.65053969905804,0.6195830240189116],[31.651664251777284,0.617978328154647],[31.651665335584045,0.6179799450805759],[31.651665923470908,0.617979107839578],[31.652666915683998,0.6194741974613421],[31.65299219277004,0.6199594767318112],[31.655364556025056,0.6199762601785292],[31.656983870898046,0.619987644729951],[31.657599368042792,0.621561454775688],[31.66155857574938,0.6247928332992013],[31.662831841827376,0.6258319483043929],[31.662835540646906,0.6258331086477583],[31.67408316412126,0.6291375406620053],[31.67459414606285,0.6282872859700249],[31.675421311269627,0.6262369883798258],[31.675473847153036,0.625346207552033],[31.67465987918987,0.622651585605919],[31.674659878476223,0.6226515623650417],[31.674659799506834,0.622651346748093],[31.674445330826014,0.615713857213764],[31.67888815036541,0.616492652606898],[31.682821107813634,0.615010448231059],[31.68443323926851,0.615397018327328],[31.686401642295955,0.613424257761551],[31.687306628573257,0.610926852862969],[31.68674911002023,0.605822178955168],[31.69127589352516,0.608368118131271],[31.691281158955192,0.6083644281872971],[31.693300363680198,0.6064456794349044],[31.695647680464152,0.6020510166686056],[31.69586987044809,0.5982897914303258],[31.695915620543293,0.59751501871218],[31.697258239408928,0.594023740627468],[31.697258761996338,0.5940235460851024],[31.697258853941914,0.594023307070636],[31.69726194196904,0.5940223622842685],[31.701159266334674,0.592571514661829],[31.70124038796672,0.5928051509744925],[31.705081729701238,0.591629886912419],[31.715683976279767,0.585784147359313],[31.71672437860533,0.587021939702883],[31.717962222792753,0.585955529310917],[31.72188909104432,0.581705051543346],[31.720691928718136,0.581311822535472],[31.71912691126274,0.577167386023546],[31.719163475165093,0.574342114633085],[31.722207942939765,0.572254176643901],[31.723410811270597,0.570473095288776],[31.72471059217281,0.567499368913454],[31.723827949154217,0.566750395228011],[31.724917185568938,0.566195290789749],[31.72577031903209,0.563614592160148],[31.725797836115163,0.560741766287011],[31.726961205763384,0.559830201852282],[31.727730430427183,0.557338517138078],[31.729895694026425,0.559721637659222],[31.732532638797462,0.55729822767922],[31.734258982368285,0.553805841604294],[31.738770741326174,0.552404610710864],[31.73761282922323,0.550531956886376],[31.734931419148218,0.549500279404398],[31.73044594322438,0.545997574990291],[31.72734924519169,0.539117558467658],[31.724221633546758,0.535335176398964],[31.725431687876473,0.531638071241032],[31.7290316922808,0.528175318180812],[31.726059229679347,0.5244232963488],[31.721826595710148,0.52133945381477],[31.720329954465605,0.517818009540535],[31.715985874352874,0.515488073436369],[31.712196181349878,0.511451180069438],[31.70955020542705,0.507358520929701],[31.705002053075333,0.505114347044729],[31.701999815786785,0.513521676089649],[31.696692326122857,0.516441646834496],[31.687718542055475,0.516367372694967],[31.683116694556563,0.519866867906213],[31.68215857526364,0.520834406366305],[31.68141902737301,0.528751031654484],[31.678002761296053,0.532886948395425],[31.674671027261763,0.53406775597934],[31.674236015076183,0.533291988639737],[31.67128491095216,0.533413547269803],[31.66471963580528,0.53581801464589],[31.660310694573692,0.535717547597618],[31.641584942847775,0.53199595705447],[31.638260469373044,0.53039414636298],[31.63489291169613,0.52722413619431],[31.633409547810018,0.52752655966968],[31.6305548880579,0.525737728581794],[31.625812976754688,0.521058182062997],[31.62170893377907,0.52341134023103],[31.62169126421646,0.525256619142646],[31.61799222142431,0.525419155110463],[31.609972016461857,0.5234449449370849],[31.60866138144231,0.5342842507743942],[31.60871653020339,0.534711921787614],[31.60823571990866,0.538148498015337],[31.608021127703143,0.5383413041788608],[31.591230970695314,0.5609917375938535],[31.589599850220775,0.564201248828793],[31.585449923085143,0.5687905469737821],[31.580486980229104,0.5754857081119858],[31.579595007875263,0.579248123937563],[31.57685580361469,0.583001440224284],[31.572101739907126,0.5868089526130364],[31.57758734594683,0.615034889144609],[31.577606589832996,0.615073351472426],[31.57776484346876,0.619993848366022],[31.576916204215483,0.623042040994176],[31.573343075911055,0.628323388249841],[31.571542224759202,0.632627655725213],[31.57099749836721,0.6326409744871235],[31.5709,0.6329],[31.573023359197947,0.6411607398933749],[31.577216675647062,0.642758928224562],[31.578891517938615,0.6447776747916006]]]}},{"type":"Feature","properties":{"n":"Kamuli","c":"126202","d":"Kassanda","od":"Kassanda","dc":"126","k":"KAMULI","a":["KAMULI"],"lat":0.551641,"lon":31.87504},"geometry":{"type":"Polygon","coordinates":[[[31.849603101965993,0.571703051751809],[31.855247353544303,0.5791372923988106],[31.85937477596197,0.5820429475305305],[31.85938969610351,0.5820533697970462],[31.8701492470203,0.585818537460678],[31.872650706662668,0.5871780343094496],[31.87369904615711,0.587583156914997],[31.87507624404155,0.588496268818342],[31.87792494737952,0.590044486165311],[31.879160675049224,0.5912043346770242],[31.88033066842652,0.5919800655227612],[31.90042477871403,0.5789188938358801],[31.90489673485422,0.572557299970785],[31.91147518082797,0.570828353343356],[31.911770330325055,0.568905587284523],[31.907677988412363,0.565074945877392],[31.90621526914422,0.562325177122301],[31.906559282979476,0.560232571934075],[31.9142470219817,0.558093246470614],[31.915477211203243,0.555244856672166],[31.91790022309507,0.5532838479168212],[31.918032209789946,0.5437280112077575],[31.918013576329603,0.54359293662868],[31.918034352607695,0.5435728712027814],[31.91808883041541,0.5396286779241702],[31.914372771396845,0.533497993846353],[31.911422794318003,0.534474363539561],[31.90448085156252,0.534862115377653],[31.901978408855975,0.541343329208755],[31.89670901074603,0.54185606294084],[31.891600088144205,0.543493756908718],[31.8868233837426,0.538287123307338],[31.88352457962431,0.535988932028336],[31.882293253036437,0.533672199340572],[31.88356475916761,0.52315328381807],[31.885327144925395,0.517476187568397],[31.88740164870702,0.514620165300364],[31.884200577657964,0.514493394991934],[31.879703724630897,0.516563431937623],[31.87467803659281,0.516777642785634],[31.86692108728035,0.522026253024991],[31.86217536350893,0.512838950836403],[31.861727549113148,0.510808067051746],[31.862575924413772,0.508284006965148],[31.853827043188502,0.510898051102406],[31.85168553212575,0.513289408312939],[31.85122147879744,0.517286646681406],[31.85025782545637,0.518857325898156],[31.84547546102482,0.522176537010875],[31.842191469315203,0.523140295660343],[31.838194385438573,0.522569417101297],[31.83683749189273,0.521926352273522],[31.835216567846462,0.519145149181402],[31.835077556863535,0.524600851072937],[31.833392994919706,0.53209598790521],[31.83336449018191,0.542974391730297],[31.83123923530916,0.54999874547248],[31.835890448590852,0.558314848219619],[31.849603101965993,0.571703051751809]]]}},{"type":"Feature","properties":{"n":"Kassanda","c":"126203","d":"Kassanda","od":"Kassanda","dc":"126","k":"KASSANDA","a":["KASSANDA"],"lat":0.526832,"lon":31.747215},"geometry":{"type":"Polygon","coordinates":[[[31.70315836899171,0.5967095277574163],[31.706191449381496,0.5994415207710819],[31.709319702027276,0.6003930967296508],[31.709320079898596,0.6003931055690729],[31.716977139404207,0.600369163136229],[31.71792434039943,0.6005943822652313],[31.718017689019398,0.600596565939449],[31.718026772342114,0.6006187378487133],[31.718173643762945,0.600653659954625],[31.718743995590494,0.6023694417795225],[31.71875965849446,0.60240767409785],[31.72374177110775,0.601890455143467],[31.72387328812161,0.6019402042381323],[31.72409245270693,0.601920167324467],[31.724478593842257,0.602169173941097],[31.725401586099636,0.602518315301904],[31.72547784284218,0.6028135487302065],[31.726026844340645,0.603167577330506],[31.734871722693573,0.5966164750672325],[31.734872087317335,0.5966161008200767],[31.743679428660347,0.587093867459437],[31.744191705817784,0.5870505127490754],[31.74446165565889,0.586773438212202],[31.744491852671615,0.5870251109139069],[31.744491863973902,0.587025109957379],[31.744461667475104,0.58677343774289],[31.747089394203083,0.586805081723875],[31.748017744487978,0.586006527494379],[31.75071980660149,0.5869868650288919],[31.75647943713672,0.5855282767266268],[31.759587056429773,0.584741290994436],[31.76323113817932,0.585280167266528],[31.769151161755776,0.589975719770702],[31.773933835155784,0.5907962785844479],[31.775328452458425,0.591035491323857],[31.77532849805197,0.5910355595965416],[31.775328963103448,0.59103563938499],[31.777430669164623,0.594183392624071],[31.777732662742707,0.5946356038420195],[31.783904268444235,0.600032068826278],[31.7839524918769,0.6000400383936834],[31.788950588772426,0.6008049855731395],[31.78900185117066,0.600811800298156],[31.788347049481334,0.599578407878313],[31.788350451934683,0.5995763417570578],[31.788350408471306,0.599576260327823],[31.798211561092206,0.5935882249031],[31.798211700180687,0.5935881524944531],[31.798211809994978,0.593588085810324],[31.800569293672172,0.592360014921999],[31.80117530462347,0.59275077543242],[31.803586414200502,0.5906247304672909],[31.803644740821905,0.59057328334053],[31.802326257749694,0.589320269284705],[31.801612219388378,0.586518166034293],[31.798727541680943,0.584959915898131],[31.79806683234905,0.583567813684211],[31.800110782808805,0.576526539113364],[31.794678408600095,0.575912399746679],[31.788035231508246,0.571181698321346],[31.781339854740263,0.568359053517613],[31.775826793072923,0.564401080832153],[31.777438910571966,0.55717509258851],[31.783397816923255,0.549649253500492],[31.78069970342006,0.548013350646299],[31.777302052142723,0.547812806829802],[31.774024785335488,0.546509706493504],[31.77708536622252,0.541416966950371],[31.767493761744266,0.53737923007382],[31.767535283695878,0.530785422638339],[31.766098109531583,0.525492538540162],[31.767388674693304,0.520869309891123],[31.77756321236904,0.515977365976888],[31.787053709081484,0.514770272242565],[31.795667670855078,0.515758174694484],[31.80048617383119,0.514116304085939],[31.807614185545802,0.510546940533155],[31.810768488715418,0.503316131116296],[31.803101794683673,0.505335232762863],[31.79788936521451,0.504478068266045],[31.787226906344035,0.49589917225743],[31.78480393957141,0.488712482027438],[31.784277307845517,0.481250377784489],[31.78117976406444,0.479252053206322],[31.777833727915993,0.475463530437433],[31.76918939876928,0.470119469767545],[31.767210904956272,0.471324242875517],[31.76020408925473,0.466289717241498],[31.75884214141243,0.464439578808383],[31.75844414394001,0.458795294614206],[31.751380032335188,0.459999273309745],[31.744049737701232,0.459023844485427],[31.740353458113766,0.452293632717725],[31.73669888902093,0.451800043095812],[31.73441732674942,0.450470628193269],[31.733943627086877,0.449163253043155],[31.73110233536466,0.450971068556033],[31.729366435295447,0.45599939961116],[31.72701219929645,0.459590197545624],[31.72565091743148,0.464439883209848],[31.7264123123801,0.473615079537825],[31.725860219928038,0.47660365577199],[31.722574015753434,0.483794090146],[31.720980394966237,0.486118835258812],[31.71470441380754,0.489292068594232],[31.706945940689742,0.494779430893646],[31.705990393936105,0.496082840256073],[31.70504961922307,0.502510951243894],[31.704025007270207,0.504373554898815],[31.709548446722163,0.5073576531400412],[31.70955020542705,0.507358520929701],[31.712196181349878,0.511451180069438],[31.715985874352874,0.515488073436369],[31.720329954465605,0.517818009540535],[31.721826565674355,0.521339383143611],[31.726059140068003,0.524423211860901],[31.72605917604452,0.5244232572711549],[31.726059229679347,0.5244232963488],[31.72675685377567,0.5253038796196053],[31.72902872888568,0.528171484396767],[31.729028687013006,0.5281715247502864],[31.7290316922808,0.528175318180812],[31.72543174997211,0.5316380115128115],[31.725402354299504,0.5317276947530036],[31.724221633546758,0.535335176398964],[31.72734924519169,0.539117558467658],[31.730193828810112,0.545437445679179],[31.730445986931183,0.5459976091208967],[31.734931419148218,0.549500279404398],[31.7350541838377,0.5495475133455625],[31.737611333971376,0.550530861663313],[31.73761175539203,0.5505315437278366],[31.73761282922323,0.550531956886376],[31.738770741326174,0.552404610710864],[31.7342590585566,0.5538058179422538],[31.732532765623453,0.557297995631596],[31.73253274342087,0.5572980160264928],[31.732532638797462,0.55729822767922],[31.729895694026425,0.559721637659222],[31.727730430427183,0.557338517138078],[31.72698456287109,0.5597545431390686],[31.726961523798643,0.559829499127849],[31.726961390501188,0.5598296034466606],[31.726961205763384,0.559830201852282],[31.725798367293944,0.5607413500790703],[31.72577034754766,0.563614443935625],[31.725770319643683,0.5636145283087598],[31.72577031903209,0.563614592160148],[31.724917185568938,0.566195290789749],[31.7249167303665,0.5661955227732667],[31.724916407707425,0.566196498396203],[31.724406762906657,0.5664554160310574],[31.723827949154217,0.566750395228011],[31.72471059217281,0.567499368913454],[31.72471014569028,0.5675003904062801],[31.72471036994631,0.567500581042125],[31.723595292449442,0.5700510268106616],[31.723410811270597,0.570473095288776],[31.722207942939765,0.572254176643901],[31.722207899148934,0.5722542066762558],[31.722207884561957,0.572254228277704],[31.722171669489125,0.5722790534766339],[31.719163475165093,0.574342114633085],[31.719126911314447,0.5771673820282506],[31.719131521032896,0.577179593491053],[31.720691928718136,0.581311822535472],[31.72188909104432,0.581705051543346],[31.717980088302735,0.5859361915210742],[31.717962437373888,0.585955306881655],[31.71796239305871,0.5859553450135031],[31.717962222792753,0.585955529310917],[31.71672437860533,0.587021939702883],[31.715683976279767,0.585784147359313],[31.705081729701238,0.591629886912419],[31.701240390838045,0.5928051500960071],[31.70126935059355,0.5928885654863458],[31.70234010347409,0.5959724131417387],[31.70315836899171,0.5967095277574163]]]}},{"type":"Feature","properties":{"n":"Kassanda Town Council","c":"126204","d":"Kassanda","od":"Kassanda","dc":"126","k":"KASSANDATOWNCOUNCIL","a":["KASSANDA","KASSANDATOWNCOUNCIL","TOWNCOUNCIL"],"lat":0.548831,"lon":31.806821},"geometry":{"type":"Polygon","coordinates":[[[31.777302077022064,0.5478128082982866],[31.78069970342006,0.548013350646299],[31.780699862579834,0.5480134471470328],[31.780700011316974,0.548013455926669],[31.783397275176902,0.549648241006126],[31.783396909286594,0.5496487031880593],[31.783397816923255,0.549649253500492],[31.777438910571966,0.55717509258851],[31.775826793072923,0.564401080832153],[31.78110492883213,0.5681903939988908],[31.781339916860286,0.5683590797062448],[31.788035231508246,0.571181698321346],[31.78803534167258,0.5711817767709423],[31.78803537259087,0.571181789805545],[31.794678578219465,0.5759124189224443],[31.800110782808805,0.576526539113364],[31.80011037440386,0.5765279460414716],[31.80011063812366,0.576527975916884],[31.79958743276705,0.579432627146507],[31.798922712748872,0.5806193621372604],[31.798176916754013,0.5831885801672728],[31.798309964487757,0.5840800885564258],[31.798557251567832,0.5846011178124595],[31.80161007856856,0.586517009602585],[31.801612219388378,0.586518166034293],[31.801612276142606,0.5865183887551104],[31.80161243721412,0.586518489840299],[31.801925892683126,0.5877491152471077],[31.802326213810677,0.5893200968546597],[31.803644752526758,0.590573277309895],[31.80388190330386,0.5905875825938721],[31.807933711475336,0.590831785274027],[31.80793429044677,0.5908320285517267],[31.807934422598805,0.590832036523332],[31.80793477741942,0.5908322331725072],[31.810452536880117,0.59189016918627],[31.81144199274356,0.5927760069297677],[31.816298173459806,0.5954674061637371],[31.816299138327796,0.595467827180851],[31.817840004424262,0.597340557055078],[31.818135236082664,0.5980694062042413],[31.81843162712981,0.598489368385762],[31.81933590268769,0.6010335355873646],[31.821998147884962,0.6076059172804137],[31.822549507758872,0.6082047177725246],[31.8289341437503,0.6087133704829422],[31.82893490489102,0.6087134126518733],[31.828973316523694,0.6086861298702241],[31.832497914865037,0.606150622568717],[31.832514659218322,0.6061708064444832],[31.8325830693352,0.606122216521288],[31.83328589820481,0.6066876356702838],[31.8335271891963,0.6061791460874926],[31.836464997848086,0.599987892314676],[31.840509045898987,0.595366177344265],[31.838529231364078,0.5945657867839533],[31.83844183691177,0.594530715316517],[31.83844196366406,0.5945305065887218],[31.838437742356316,0.594528800017317],[31.838785140882976,0.593965348427868],[31.842288153792726,0.5928606346216786],[31.84556831135826,0.5882945054499263],[31.8459707149239,0.587734333967581],[31.84981887983461,0.5851174703643883],[31.84994876320894,0.5850291423548833],[31.851686341025086,0.582292388389371],[31.854914629864464,0.5793268589214898],[31.855175808087765,0.579086923089597],[31.849608181857306,0.5717097426538641],[31.849603114242303,0.5717030679213636],[31.847893846953777,0.5700342387682166],[31.835890448590852,0.558314848219619],[31.834161910719725,0.5552243215832298],[31.831239428244494,0.549999440576276],[31.8312394969861,0.54999921333585],[31.83123923530916,0.54999874547248],[31.833364457089008,0.5429745011083594],[31.833381006850367,0.5366710539976726],[31.833392994919706,0.53209598790521],[31.833393019012085,0.5320958807107723],[31.833393019427557,0.532095722465813],[31.834211574958037,0.5284538722691914],[31.835077556863535,0.524600851072937],[31.83520860096402,0.5194578218544583],[31.833788496507736,0.508988210763954],[31.834252002094292,0.507311011529873],[31.832039218164404,0.503846689868182],[31.83121822564196,0.498923408580564],[31.832788726420187,0.490773190304132],[31.82935957641268,0.492558768261825],[31.827383985906142,0.492558894284618],[31.824385861874173,0.491749780697175],[31.819566937023552,0.488108027632055],[31.81634348925425,0.487895225044723],[31.812203231893115,0.492083074088071],[31.8112571514392,0.501876195564409],[31.81063743068175,0.5033506465789552],[31.810768488715418,0.503316131116296],[31.807614185545802,0.510546940533155],[31.80048617383119,0.514116304085939],[31.795667670855078,0.515758174694484],[31.787053983656506,0.5147703037325282],[31.777570015691904,0.5159765006640755],[31.77756321236904,0.515977365976888],[31.767388674693304,0.520869309891123],[31.766117135004198,0.5254243830431231],[31.766098118010007,0.5254925697648467],[31.767535283695878,0.530785422638339],[31.767493761744266,0.53737923007382],[31.77708536622252,0.541416966950371],[31.774024785335488,0.546509706493504],[31.77723161146697,0.5477847983478381],[31.777302077022064,0.5478128082982866]]]}},{"type":"Feature","properties":{"n":"Kiganda","c":"126205","d":"Kassanda","od":"Kassanda","dc":"126","k":"KIGANDA","a":["KIGANDA"],"lat":0.421782,"lon":31.696161},"geometry":{"type":"Polygon","coordinates":[[[31.593184675051532,0.3884692849207181],[31.5941,0.3893],[31.594697411216387,0.39024295219868427],[31.598713521755176,0.394951799658571],[31.609312494690947,0.411966777820356],[31.611945854183492,0.4174678464986809],[31.6228,0.4346],[31.622816970923456,0.4347059882200668],[31.623606672608787,0.43541319257467],[31.62478116205669,0.438772321405594],[31.63006810611901,0.438022984122788],[31.643071539131714,0.428287760465354],[31.645117812252433,0.428135374643109],[31.648134760687245,0.420483526582218],[31.650246842041614,0.41745690814437],[31.656359185416015,0.423846701878529],[31.659356415884105,0.42789054464222],[31.659625938925956,0.42946893423804],[31.661499082304445,0.430331234672003],[31.660970450213085,0.432358692180845],[31.662355027471516,0.434738698236865],[31.66434318877326,0.431833146003904],[31.66935819905458,0.428084764915195],[31.671040984765675,0.425921142870965],[31.677344617875686,0.423742981596382],[31.676968987671216,0.428825819450804],[31.678429966771013,0.434367959405706],[31.680570404464337,0.434748512635288],[31.685749146667472,0.43096681307276],[31.690664463690887,0.429865099716012],[31.696508456692953,0.430178173653163],[31.701370691701115,0.434172612218836],[31.702864282600526,0.438132541719279],[31.704086385520917,0.439348029041548],[31.709920636668777,0.442588836417183],[31.714702342068982,0.442023139476301],[31.716644707043834,0.438992191118777],[31.72148874653614,0.435147283496294],[31.719715826706835,0.430722691275586],[31.726065052032745,0.426068162684142],[31.732386839815316,0.423080633146185],[31.7328268298715,0.431074180132751],[31.73044266515027,0.43514285302243],[31.731032499200545,0.440701805743697],[31.72911758367923,0.443185154414542],[31.724715229675827,0.446445402048805],[31.72338501998385,0.452058599144008],[31.720667831187733,0.450936306752558],[31.721140368946948,0.451962689675823],[31.714273671653775,0.45691524183281],[31.71502871128796,0.460312333402823],[31.711287060029452,0.463637005087299],[31.713673314236512,0.466583227712222],[31.711237798905522,0.468551173414685],[31.70873212757314,0.465706256615088],[31.703129623399157,0.462133962544425],[31.699358317208812,0.46477072434324],[31.691461658189525,0.465237939301158],[31.68949170816103,0.464007415461866],[31.686695484485227,0.468222767596593],[31.68267462515538,0.468347116297066],[31.681828625284275,0.469946986955332],[31.676331857701584,0.472932311484617],[31.67408172646243,0.471330044935604],[31.669753531022725,0.471180948029365],[31.66912427261298,0.474047891425837],[31.66107477671924,0.475213865404386],[31.659243412042457,0.476535112421896],[31.657399333542635,0.482562284494985],[31.658165454338587,0.485962021400612],[31.65721346344401,0.489040818306593],[31.651745465400545,0.49334685320864],[31.646863366893992,0.48958888515535],[31.644573362622292,0.489671256186621],[31.642292332667292,0.486440450321716],[31.639763065982976,0.489522427454885],[31.640005832784727,0.494226389994928],[31.63680686423278,0.496882249849668],[31.630599444124275,0.49640162800887],[31.630531757878348,0.493665214075115],[31.622168826883758,0.491789840637943],[31.62036973202802,0.488816138449847],[31.617386556266894,0.487672381951162],[31.614419001201277,0.496671286378213],[31.61492059123255,0.501057883664185],[31.61192158413611,0.5074017549666663],[31.6119,0.5075],[31.611889271873384,0.5075887245066109],[31.61202184545826,0.511060433483759],[31.611040168481583,0.515673096942349],[31.61173520198873,0.51931009502335],[31.610110976693566,0.5222957062640247],[31.609972016687365,0.5234449430720468],[31.610055191417718,0.5234654188333011],[31.61799222142431,0.525419155110463],[31.62169126421646,0.525256619142646],[31.62170893377907,0.52341134023103],[31.625812976754688,0.521058182062997],[31.625814259240403,0.5210594476816861],[31.625814754498254,0.521059163913211],[31.630554940924952,0.5257377617101643],[31.633409547810018,0.52752655966968],[31.63489291169613,0.52722413619431],[31.634897358805638,0.5272283224276925],[31.63923363364557,0.5308630401436509],[31.640592093042592,0.5315175783141745],[31.65508200477342,0.534196781639304],[31.6583215292476,0.5353222172004897],[31.659907084812367,0.5356373334469202],[31.664718209663665,0.5358179821482378],[31.66471963580528,0.53581801464589],[31.666512361549383,0.5351614464945887],[31.671284486556665,0.533413642632835],[31.671284671357416,0.5334136350190191],[31.67128491095216,0.533413547269803],[31.674236015076183,0.533291988639737],[31.674671027261763,0.53406775597934],[31.678002761296053,0.532886948395425],[31.681056330926666,0.5291901316164109],[31.681419036561945,0.5287509332898476],[31.68215857526364,0.520834406366305],[31.68215995030499,0.5208330178070714],[31.682159951092405,0.520833009388307],[31.682159988016675,0.5208329797246475],[31.683116694556563,0.519866867906213],[31.687718542055475,0.516367372694967],[31.69572181348779,0.5164336141037851],[31.696692375404986,0.5164416197214184],[31.70099093947564,0.5140767199051323],[31.701999822287256,0.5135216578860213],[31.705002020231603,0.5051144390188144],[31.705002041690452,0.505114342650398],[31.704029069505992,0.5043757495658816],[31.704025007270207,0.504373554898815],[31.70504961922307,0.502510951243894],[31.705990393936105,0.496082840256073],[31.7059910215232,0.4960819841986438],[31.70599102367406,0.496081969509769],[31.70599104422764,0.49608195322875315],[31.706945940689742,0.494779430893646],[31.71338214046808,0.49022727746359357],[31.71401517928225,0.489725831279813],[31.714298777882256,0.489578964127656],[31.71470441380754,0.489292068594232],[31.720973958154946,0.48612208981035426],[31.72098047879838,0.4861187129659995],[31.722327277435358,0.4841540275311652],[31.72585753211404,0.47660953688865854],[31.725860219928038,0.47660365577199],[31.725860830747088,0.47660034929805833],[31.72638409477522,0.4732750430493547],[31.72565091743148,0.464439883209848],[31.72701219929645,0.459590197545624],[31.727072108321497,0.45949882131847963],[31.72717840541167,0.459129178823283],[31.729365160138325,0.45600134454427593],[31.729366371571693,0.45599949680580143],[31.72974791291148,0.4548943845370977],[31.73110233536466,0.450971068556033],[31.73111387144378,0.4509637285484486],[31.734237951018386,0.448891220926459],[31.73717413972646,0.44413264270734],[31.73766928547858,0.44167571010708],[31.736888843510755,0.439773117494849],[31.73922058756077,0.434448948758015],[31.740112002658922,0.429335537614809],[31.737925125563667,0.423502352510479],[31.73795905715046,0.419030884947463],[31.740003418768946,0.414794275667113],[31.74183902103081,0.413159140509569],[31.7429100889315,0.413277512662281],[31.743357010619732,0.410510095254516],[31.744516222188008,0.409648839137301],[31.744308646370218,0.406822578703665],[31.746181706276296,0.405098349220887],[31.75093985575199,0.403075873844648],[31.75257664979551,0.403224288817947],[31.753558443830148,0.401826254023992],[31.755580719521248,0.400993546599594],[31.756443270184366,0.399803821297918],[31.75665136964704,0.395491632831654],[31.759883157147527,0.393882730323973],[31.75021270765489,0.391529692262436],[31.74809306166109,0.389322146354362],[31.724743718904655,0.382129385351396],[31.711839642886893,0.385940264708012],[31.71152822704129,0.387188490260234],[31.70662799443607,0.389891916801605],[31.704474813019626,0.396428799216613],[31.699721340904574,0.401396499906066],[31.698404098820006,0.394334274196533],[31.69350275349799,0.387720876358614],[31.694275660417578,0.38538641257549],[31.696740706132385,0.383791875521857],[31.6919152170245,0.383756322526461],[31.687971235358336,0.381279893061407],[31.680759711545644,0.382251396038287],[31.675546383626,0.38537628478149],[31.673620745162285,0.384516799836874],[31.670363814660714,0.384896064761071],[31.66796318974374,0.383294846324084],[31.661751344952897,0.384662182196548],[31.65896419934969,0.384630812882823],[31.65823366657726,0.383705662785799],[31.65687245187093,0.383604213636837],[31.650407482947564,0.385941239924915],[31.647358315119178,0.388883838567213],[31.64018685601869,0.390478639097128],[31.63438054971075,0.389602666695205],[31.62957760610709,0.382635870234477],[31.625295144806163,0.379124130598906],[31.625654790676965,0.378321036274999],[31.631690497156697,0.375653753101901],[31.63379854835202,0.373564350761495],[31.634852834961496,0.370831783623313],[31.635019155869756,0.364163155006129],[31.63813504326302,0.3624591554438],[31.636088109091933,0.357711945727372],[31.635786738217764,0.348515121158834],[31.639405021924812,0.336454498005054],[31.648752165278665,0.320926121118268],[31.648752125136706,0.318966076074612],[31.644571758768272,0.307034176318342],[31.641598976783015,0.311665688465503],[31.641241403257396,0.314795869460121],[31.629193587480064,0.331475827911625],[31.629022389317868,0.33150654197607743],[31.6288,0.3319],[31.625427787870787,0.33215143686928333],[31.61964339303525,0.333189194947513],[31.617076630690665,0.334527302372723],[31.61478194115591,0.333631370539407],[31.614115154127976,0.3329949227185281],[31.606679763094608,0.33354931590961273],[31.601085084976127,0.339330598205368],[31.600010259387442,0.34010168425465953],[31.5826,0.359],[31.5703,0.3677],[31.571969082462456,0.36921479752895264],[31.59147697281616,0.386467021971128],[31.593184675051532,0.3884692849207181]]]}},{"type":"Feature","properties":{"n":"Kiganda Town Council","c":"126206","d":"Kassanda","od":"Kassanda","dc":"126","k":"KIGANDATOWNCOUNCIL","a":["KIGANDA","KIGANDATOWNCOUNCIL"],"lat":0.457244,"lon":31.671565},"geometry":{"type":"MultiPolygon","coordinates":[[[[31.620369543184236,0.4888160660467023],[31.62036973202802,0.488816138449847],[31.622168787307857,0.4917897752234137],[31.630531232964493,0.493664873375987],[31.63053123829982,0.49366509756048954],[31.630531757878348,0.493665214075115],[31.630599425933358,0.49640089258795317],[31.636807077557975,0.49688207274201274],[31.640005750831328,0.4942264580345913],[31.6399461384434,0.49306972465424276],[31.639763065982976,0.489522427454885],[31.639763312587828,0.4895221269604705],[31.63976330317657,0.489521944342112],[31.642289767469737,0.486442381674645],[31.64229022117646,0.4864430232281267],[31.642292332667292,0.486440450321716],[31.644573275165598,0.48967113231468345],[31.645310169844958,0.48964475336672286],[31.646863366893992,0.48958888515535],[31.651745465400545,0.49334685320864],[31.65721346344401,0.489040818306593],[31.65816541792116,0.48596213917679293],[31.657926125377685,0.4848999754344154],[31.657399333542635,0.482562284494985],[31.657457045957578,0.48237365767912166],[31.659243306081642,0.476535293788456],[31.659243370849357,0.4765352470571091],[31.659243412042457,0.476535112421896],[31.660801374827628,0.4754111125384237],[31.661074085261543,0.475214345895562],[31.66107411711045,0.47521434128237955],[31.66107477671924,0.475213865404386],[31.66912427261298,0.474047891425837],[31.669753531022725,0.471180948029365],[31.67408172646243,0.471330044935604],[31.67408189305771,0.4713301635642601],[31.674081959769186,0.47133016583956],[31.67411346495501,0.47135264518402287],[31.676331857701584,0.472932311484617],[31.681828625284275,0.469946986955332],[31.68267462515538,0.468347116297066],[31.686695418505614,0.46822276963707204],[31.686807724393038,0.46805356413154564],[31.68949170816103,0.464007415461866],[31.691461658189525,0.465237939301158],[31.699358317208812,0.46477072434324],[31.703129623399157,0.462133962544425],[31.703145718258114,0.46214422502124597],[31.70314876778672,0.462142110014543],[31.70410179623702,0.462630240784976],[31.704959594825134,0.46330079720826284],[31.706605819341046,0.4643504703355924],[31.70811330189827,0.465239806186199],[31.708731803412206,0.465706012247306],[31.70873187873224,0.4657060979480279],[31.70873212757314,0.465706256615088],[31.711237798905522,0.468551173414685],[31.713673314236512,0.466583227712222],[31.711287060029452,0.463637005087299],[31.71494799678976,0.46038405286253664],[31.715028704410372,0.46031230245901594],[31.714273671653775,0.45691524183281],[31.72092791970727,0.45211591704194737],[31.721140367988426,0.45196268759385394],[31.720667831187733,0.450936306752558],[31.723383539255092,0.45205798755212223],[31.72471503021609,0.446445730570635],[31.724715177709015,0.44644562133749954],[31.724715229675827,0.446445402048805],[31.729117458008798,0.4431852474821889],[31.731032486095707,0.44070168223578227],[31.73044266515027,0.43514285302243],[31.73044293275782,0.4351423963393928],[31.73044293016357,0.435142371886531],[31.732826823325393,0.4310740612059864],[31.732810979374424,0.430786215231417],[31.73238538412801,0.42308132107007246],[31.726065052032745,0.426068162684142],[31.725538265940312,0.426454342226203],[31.71971594179184,0.4307229784877964],[31.72148874653614,0.435147283496294],[31.721487569152604,0.43514821803263115],[31.721487885200084,0.435149005079332],[31.718532713812138,0.4374936047372499],[31.716644707043834,0.438992191118777],[31.714702342068982,0.442023139476301],[31.709920636668777,0.442588836417183],[31.709920568503527,0.4425887985527788],[31.70992045415497,0.442588812081397],[31.707823220824285,0.4414237647453711],[31.704086385520917,0.439348029041548],[31.702864282600526,0.438132541719279],[31.70286411437634,0.4381320957096532],[31.7028640844195,0.438132065909699],[31.70282410718263,0.4380260253883411],[31.701370691701115,0.434172612218836],[31.696508456692953,0.430178173653163],[31.690758332494838,0.42987012844825345],[31.690664381818973,0.42986511806668587],[31.685749146667472,0.43096681307276],[31.682909881904628,0.433040143987947],[31.680572183609932,0.43474736653905],[31.680572015152354,0.4347473364542899],[31.680570404464337,0.434748512635288],[31.678429966771013,0.434367959405706],[31.676973949655572,0.42884464245227494],[31.676969109314374,0.428826301479108],[31.676969110508107,0.42882628542546347],[31.676968987671216,0.428825819450804],[31.677344617875686,0.423742981596382],[31.671041371977473,0.42592100907356106],[31.669740750574224,0.4275929037735783],[31.66935819905458,0.428084764915195],[31.669358000031465,0.42808491367151774],[31.669357936204975,0.428084995717815],[31.66610281004066,0.43051794808565147],[31.66434318877326,0.431833146003904],[31.662355027471516,0.434738698236865],[31.660970450213085,0.432358692180845],[31.661499082304445,0.430331234672003],[31.659625938925956,0.42946893423804],[31.659356415884105,0.42789054464222],[31.656359185416015,0.423846701878529],[31.650246842041614,0.41745690814437],[31.64813478886243,0.42048348620710263],[31.645118461878578,0.428134654088967],[31.6451180852499,0.42813468224309187],[31.645117812252433,0.428135374643109],[31.643071539131714,0.428287760465354],[31.63006810611901,0.438022984122788],[31.63006804051954,0.4380229934204328],[31.63006796943905,0.438023046636454],[31.624781163474147,0.438772332852296],[31.625375821585447,0.445670099460713],[31.628879776849967,0.457573709117957],[31.62884271314586,0.465197999164224],[31.62797886115779,0.46694345364582185],[31.6281,0.4677],[31.626732247495095,0.46946229649670623],[31.625798927558556,0.471348114308658],[31.620653057493037,0.47729509899935496],[31.61806947654601,0.48062394368109906],[31.617386557508514,0.487672369411431],[31.620369502366042,0.488815998576449],[31.620369543184236,0.4888160660467023]]],[[[31.707581764680302,0.464935392240469],[31.707581764786653,0.46493539205477],[31.707581764675197,0.464935392237456],[31.707581764680302,0.464935392240469]]]]}},{"type":"Feature","properties":{"n":"Manyogaseka","c":"126207","d":"Kassanda","od":"Kassanda","dc":"126","k":"MANYOGASEKA","a":["MANYOGASEKA"],"lat":0.319946,"lon":31.730337},"geometry":{"type":"Polygon","coordinates":[[[31.629578167085825,0.38263668394893385],[31.634021059730138,0.3890812169903421],[31.6360414878367,0.38985324527002874],[31.64018685601869,0.390478639097128],[31.643971156556116,0.38963708029885846],[31.647358355543385,0.3888837995558407],[31.650407482947564,0.385941239924915],[31.65687245187093,0.383604213636837],[31.6571884652263,0.3836277656053942],[31.657461957867174,0.383534457936726],[31.657635438484732,0.3836610778054943],[31.65823366657726,0.383705662785799],[31.65896419340903,0.3846308053595449],[31.661751353895458,0.3846621802281341],[31.66220302690963,0.38456275908422277],[31.66796243340669,0.383294835125549],[31.667962633732856,0.38329496871182106],[31.66796318974374,0.383294846324084],[31.670363814660714,0.384896064761071],[31.673620745162285,0.384516799836874],[31.675546298382027,0.38537624673389675],[31.676663599735374,0.3847066211620677],[31.680759711545644,0.382251396038287],[31.680760414945293,0.38225130127955476],[31.680760648001918,0.382251161603115],[31.687969844261907,0.381280053211252],[31.687969880008197,0.3812800756478799],[31.687971235358336,0.381279893061407],[31.6919152170245,0.383756322526461],[31.692137080899034,0.38375795716393163],[31.696724804154833,0.383790104278873],[31.696722294026333,0.3837917398660702],[31.696740706132385,0.383791875521857],[31.694275660417578,0.38538641257549],[31.69350296428635,0.38772023970007863],[31.698403890003128,0.394333878543194],[31.69840391833421,0.3943340306665872],[31.698404098820006,0.394334274196533],[31.699721340904574,0.401396499906066],[31.704407983031015,0.3964986410864018],[31.704474830172916,0.39642874714062803],[31.70662799443607,0.389891916801605],[31.710509440042873,0.3877505484385718],[31.711528245453977,0.3871884164579935],[31.711839642886893,0.385940264708012],[31.711841845321867,0.3859396142767867],[31.71184190978192,0.385939356654644],[31.723826140619664,0.382126885881208],[31.72428823611194,0.3822639002108608],[31.724743718904655,0.382129385351396],[31.74809306166109,0.389322146354362],[31.75021270765489,0.391529692262436],[31.759883157147527,0.393882730323973],[31.759871131106646,0.39388871732878944],[31.759395110187985,0.394426755112259],[31.76072619312469,0.39412289745283],[31.76720185344754,0.389284404319231],[31.766734716252213,0.388174802483207],[31.76750726649213,0.387520168954163],[31.771761342391965,0.386211250225034],[31.77550870503332,0.386181400773415],[31.779490991335926,0.383475977301163],[31.778867180166305,0.381765551754968],[31.79064569659266,0.364110085196811],[31.797880218042113,0.347648481166011],[31.804103746251016,0.33936278152897],[31.804324132564982,0.33718546015058],[31.8181364871929,0.305844760705358],[31.806246508366154,0.290646398960206],[31.802079126404504,0.2830293068706087],[31.781290774553522,0.2723393617114646],[31.77974163620688,0.271955859561142],[31.753581826544295,0.25810486582157],[31.753369000217127,0.25788623900689506],[31.733723897196064,0.2397071884500915],[31.733415628224865,0.23966549848199373],[31.720530588646028,0.26493999919433203],[31.72050956072754,0.265001030723569],[31.714990450866832,0.271655517314143],[31.71149104765162,0.2732813061971663],[31.709159013180333,0.2754249840380809],[31.706537832649808,0.278706676740323],[31.699695700417866,0.285164994850802],[31.694463615160227,0.288926271860917],[31.68535478249105,0.292229885666875],[31.671215088810786,0.293994749520355],[31.669624775435704,0.293994212217369],[31.668485819792537,0.2932806262007384],[31.6559,0.2954],[31.655808373319793,0.29548017334517984],[31.654103978002038,0.297819303284417],[31.652564778701525,0.29831831863616587],[31.644239176889847,0.30560322022138353],[31.644131360267583,0.305777124998959],[31.648751890349576,0.318965405927663],[31.648751890349576,0.31896540592844463],[31.648752125136706,0.318966076074612],[31.648752165278665,0.320926121118268],[31.639405021924812,0.336454498005054],[31.636263673174188,0.34692538048508],[31.63578673936146,0.3485151560606138],[31.636088109091933,0.357711945727372],[31.63813504326302,0.3624591554438],[31.635153876856315,0.3640894795252287],[31.635019154523576,0.36416320898115984],[31.634852834961496,0.370831783623313],[31.63379854835202,0.373564350761495],[31.631690497156697,0.375653753101901],[31.625654790676965,0.378321036274999],[31.625537495881716,0.3785829572142754],[31.625295718039258,0.3791246006662907],[31.62957760610709,0.382635870234477],[31.62957772820051,0.3826360473342023],[31.62957780253391,0.382636108238385],[31.629578167085825,0.38263668394893385]]]}},{"type":"Feature","properties":{"n":"Myanzi","c":"126208","d":"Kassanda","od":"Kassanda","dc":"126","k":"MYANZI","a":["MYANZI"],"lat":0.436736,"lon":31.906543},"geometry":{"type":"Polygon","coordinates":[[[31.861652811590698,0.456826099051255],[31.867306959663605,0.459272234445696],[31.868369966749473,0.460839060358503],[31.870664800235193,0.46954137327274],[31.87163237500496,0.471069870016851],[31.873170341326688,0.471588141408027],[31.87517784095456,0.475910443934147],[31.87595387050784,0.479769023340239],[31.877602848559004,0.481399654847606],[31.876012625712605,0.485774816826494],[31.8772807237188,0.486891410991265],[31.88089526548818,0.495706007388877],[31.88477805544065,0.497023250910226],[31.887971377944538,0.496130136324432],[31.890594081803602,0.503500299757674],[31.892022928067124,0.503752640349345],[31.893422500756905,0.507017590744825],[31.889100953329176,0.511685659262539],[31.887269125301795,0.5146149170466712],[31.88740164870702,0.514620165300364],[31.886425030785876,0.5159647001018176],[31.885176648169026,0.5179609761950568],[31.88460687903129,0.5197963486274182],[31.883350057287313,0.5249294694659441],[31.882564979519785,0.5314242605745101],[31.882784699650884,0.5345968528380227],[31.883207499277834,0.535392347490517],[31.884605562698862,0.5367420249024801],[31.8868233837426,0.538287123307338],[31.891600088144205,0.543493756908718],[31.89670901074603,0.54185606294084],[31.901978408855975,0.541343329208755],[31.90448085156252,0.534862115377653],[31.904485030949537,0.5348618819321962],[31.912421403053617,0.5341438486647778],[31.91340347116634,0.5338188083284291],[31.91803383168217,0.53017958743842],[31.918225282906707,0.5297495175543214],[31.918328379871184,0.52228529732611],[31.917973613771235,0.519794681587561],[31.91836037279612,0.517044376775708],[31.92382453589157,0.512860767219728],[31.925223233043965,0.5123811285490322],[31.9282545724983,0.5102846881787441],[31.929108481360963,0.5093466099598245],[31.9294,0.4972],[31.93487629496752,0.48054759285386467],[31.93439337580336,0.47804872118553],[31.935463869381223,0.473907625152897],[31.938876817252467,0.467768775379464],[31.939199060660258,0.46740285635962087],[31.9392,0.4674],[31.9511,0.4535],[31.952956161069096,0.44695187622846594],[31.954536326627526,0.435891635409344],[31.95566600663845,0.432128569979973],[31.958294684160684,0.4280929244345661],[31.95782129159002,0.42746282259912693],[31.946087805896028,0.412593539680847],[31.944973690353937,0.410362222333173],[31.9438,0.4088],[31.94359685141267,0.4076047304047859],[31.940799336057335,0.402001950166179],[31.938910338744527,0.394474431582416],[31.939459611503054,0.383451391899391],[31.93938842018418,0.383215874077242],[31.92992886170052,0.35912813237143326],[31.929785670327202,0.358836488515809],[31.929752227234356,0.3585789338687904],[31.9247,0.3352],[31.89016041071604,0.3302657729594345],[31.88704904240323,0.3300468288011689],[31.862718695820977,0.33653080441319094],[31.85833057120785,0.338874476297771],[31.859743385719106,0.380976505620545],[31.865210211456095,0.384449310217318],[31.870349836187835,0.389160646861657],[31.8773164333676,0.399532570204932],[31.871024195785008,0.409620798328454],[31.869358431521192,0.417045049865777],[31.867455053674398,0.418995763073668],[31.8676449686844,0.42313610399636],[31.864885236528217,0.42641968206318],[31.86288646774724,0.430987436437943],[31.859783959439657,0.43101228322171],[31.858505649719394,0.437580123663651],[31.85897917915242,0.442675687411791],[31.857402962821293,0.45071211088107],[31.859413937807563,0.454972728664487],[31.861652811590698,0.456826099051255]]]}},{"type":"Feature","properties":{"n":"Nalutuntu","c":"126209","d":"Kassanda","od":"Kassanda","dc":"126","k":"NALUTUNTU","a":["NALUTUNTU"],"lat":0.414036,"lon":31.805444},"geometry":{"type":"Polygon","coordinates":[[[31.736698897027477,0.4518000441771843],[31.740353458113766,0.452293632717725],[31.744049737701232,0.459023844485427],[31.75137997689139,0.4599992659319406],[31.751457582747843,0.45998605593013797],[31.75844414394001,0.458795294614206],[31.75884214141243,0.464439578808383],[31.76020403441937,0.4662896427503883],[31.760916069469435,0.4668012880883029],[31.767210904956272,0.471324242875517],[31.76918939876928,0.470119469767545],[31.777736935660084,0.475403691937629],[31.77783328729308,0.475463243926213],[31.777833314746733,0.4754632750096767],[31.777833727915993,0.475463530437433],[31.781179596709517,0.4792518637200461],[31.781429368174866,0.4794130808023561],[31.784277307845517,0.481250377784489],[31.78480393957141,0.488712482027438],[31.787226906344035,0.49589917225743],[31.79788936521451,0.504478068266045],[31.803101595560882,0.505335200017866],[31.810637437896016,0.503350629414647],[31.810819364606946,0.502917786040789],[31.8122030612081,0.492083596571564],[31.81220319443653,0.4920834618107639],[31.812203231893115,0.492083074088071],[31.81634348925425,0.487895225044723],[31.817526389950977,0.48797331668660326],[31.819566815609868,0.488107981273004],[31.819566871205105,0.48810802328691366],[31.819566937023552,0.488108027632055],[31.824385861874173,0.491749780697175],[31.827383985906142,0.492558894284618],[31.82935950211033,0.49255876826656475],[31.829389271692452,0.49254330576036154],[31.832788726420187,0.490773190304132],[31.83132037500204,0.4983932976802634],[31.83140773313219,0.5000598363250318],[31.832039218164404,0.503846689868182],[31.834252002094292,0.507311011529873],[31.833788496507736,0.508988210763954],[31.833802584841855,0.5090920759257667],[31.835216567323158,0.519145126974672],[31.835422378677762,0.5194982821500469],[31.83683749189273,0.521926352273522],[31.838194205233098,0.5225693316975433],[31.839990813375817,0.5228259896986948],[31.842191469315203,0.523140295660343],[31.842192135274306,0.5231401002201891],[31.846803566472058,0.5212547623484802],[31.84959984659223,0.5193139976531115],[31.851220654493357,0.5172879902322847],[31.85122147879744,0.517286646681406],[31.85168553212575,0.513289408312939],[31.85168598605607,0.5132889014234083],[31.851685994539285,0.513288828400984],[31.851686450309096,0.5132883830068347],[31.853827043188502,0.510898051102406],[31.854266973114647,0.51076660615366],[31.854901516397366,0.51014650833501],[31.86252484371588,0.5082992691678696],[31.862575924413772,0.508284006965148],[31.861735359280708,0.5107848304815698],[31.861727559008305,0.510808111927286],[31.862175359090646,0.512838930799039],[31.862187850700963,0.5128631249376007],[31.86692108728035,0.522026253024991],[31.87467803659281,0.516777642785634],[31.874678139985228,0.5167776383787195],[31.87467821145559,0.516777589996934],[31.876392405316768,0.5167045709245516],[31.879703491628778,0.5165634418689162],[31.881654443506516,0.5156654572609154],[31.884200577657964,0.514493394991934],[31.884200831754164,0.5144934050547703],[31.884200929657805,0.514493359991659],[31.88738811503448,0.5144246417612814],[31.889100953329176,0.511685659262539],[31.893422500756905,0.507017590744825],[31.89288695564329,0.5057682606862557],[31.892022806575238,0.5037526188933383],[31.890594081803602,0.503500299757674],[31.890515628590027,0.5032798352916169],[31.887970751236853,0.4961303116032437],[31.88477805544065,0.497023250910226],[31.884777123737088,0.49702293482810656],[31.884777064274953,0.497022951498427],[31.884632748808336,0.4969739553721293],[31.88089526548818,0.495706007388877],[31.880894810940752,0.4957048989075273],[31.880894536366167,0.495704805687505],[31.877280628586913,0.4868913272250971],[31.876012625712605,0.485774816826494],[31.87760282901558,0.481399708617209],[31.875954385119446,0.479769828635538],[31.875954310674143,0.4797694586092477],[31.87595387050784,0.479769023340239],[31.87517784095456,0.475910443934147],[31.873170341326688,0.471588141408027],[31.87163237500496,0.471069870016851],[31.87114436380753,0.47029894920569815],[31.87066506349873,0.469541821183281],[31.870665049020836,0.46954176628427285],[31.870664800235193,0.46954137327274],[31.868369966749473,0.460839060358503],[31.867306959663605,0.459272234445696],[31.861652811590698,0.456826099051255],[31.859720658057746,0.45522663588917855],[31.85941445932897,0.454973174719533],[31.859414448221113,0.4549731511918149],[31.859413937807563,0.454972728664487],[31.858254246928322,0.4525157117363332],[31.857403220927647,0.450713141023219],[31.857403287878405,0.45071279957393107],[31.857402962821293,0.45071211088107],[31.85897917915242,0.442675687411791],[31.858505649719394,0.437580123663651],[31.859783959439657,0.43101228322171],[31.86288646774724,0.430987436437943],[31.864885236528217,0.42641968206318],[31.8676449686844,0.42313610399636],[31.867455053674398,0.418995763073668],[31.869153622252746,0.41725495256362155],[31.86935848814396,0.41704479750014145],[31.869712139878608,0.4154685844118365],[31.871023613743994,0.409622350429501],[31.871023978887994,0.4096217650306682],[31.871024195785008,0.409620798328454],[31.8773164333676,0.399532570204932],[31.870349836187835,0.389160646861657],[31.865210211456095,0.384449310217318],[31.859743385719106,0.380976505620545],[31.858418490960595,0.34149449469267806],[31.858330559889513,0.338874482210768],[31.852023180551846,0.341170423546869],[31.848218073531434,0.340401033790207],[31.848210728489978,0.3403971408846498],[31.8482,0.3404],[31.848150911027016,0.3403654373557576],[31.842755241671046,0.337505707924802],[31.838382851909003,0.333525181093465],[31.830806978564638,0.324370599575457],[31.81813649514771,0.305844770672376],[31.80432412935269,0.33718549188665203],[31.804103746251016,0.33936278152897],[31.797995886104772,0.3474944863912414],[31.797880210033586,0.3476484993888062],[31.79064569659266,0.364110085196811],[31.778867180166305,0.381765551754968],[31.779490991335926,0.383475977301163],[31.77550870503332,0.386181400773415],[31.775508117929505,0.38618140544996454],[31.775507900769025,0.386181552999682],[31.773256087381725,0.38619934389983285],[31.771761342391965,0.386211250225034],[31.771755362750486,0.38621309007578214],[31.767240136448148,0.3877465261208168],[31.76704295131143,0.3879136142857722],[31.76719768500412,0.3892745029187066],[31.76720185344754,0.389284404319231],[31.764655304086133,0.39118713871004634],[31.764027750041883,0.392219208516751],[31.762172874232537,0.3930419641953929],[31.76072619312469,0.39412289745283],[31.759395110187985,0.394426755112259],[31.75961743646466,0.394175463766818],[31.756661122757635,0.39548677737501003],[31.756651459453806,0.3954915881225487],[31.75661437190451,0.3962582914119615],[31.756443270184366,0.399803821297918],[31.75644283588402,0.39980442033300384],[31.756442803756205,0.399805084504737],[31.755581203916833,0.400992988267108],[31.755581090412722,0.40099303502503847],[31.755580719521248,0.400993546599594],[31.753606320031086,0.4018065401599777],[31.753558435233376,0.4018262662654457],[31.75257664979551,0.403224288817947],[31.750940019652536,0.40307588870619704],[31.74929336008094,0.4037757251143047],[31.746181706276296,0.405098349220887],[31.74524618086247,0.40595953924218553],[31.744308652346582,0.4068226600752158],[31.744516222188008,0.409648839137301],[31.74423850220073,0.409855175965247],[31.74335687591185,0.41051092938933137],[31.743115521059455,0.4120054409280333],[31.742911084520117,0.413274254938124],[31.742910623079812,0.41327420512231616],[31.7429100889315,0.413277512662281],[31.74183902103081,0.413159140509569],[31.740003869172984,0.4147938744519416],[31.737959056260983,0.41903100216143874],[31.7379288155597,0.4230160888507788],[31.737925149466626,0.4235024162682445],[31.738325931333183,0.4245714451675605],[31.740111984146296,0.429335120541513],[31.74011194039422,0.4293353715325288],[31.740112002658922,0.429335537614809],[31.73922058756077,0.434448948758015],[31.739220534163888,0.4344490706813515],[31.73922052676544,0.434449113123764],[31.739132155154604,0.43465087017054616],[31.736889163472117,0.4397723869136845],[31.73734354414056,0.4408816048580484],[31.73766928547858,0.44167571010708],[31.73766913919971,0.44167643594855804],[31.737669230312846,0.441676658370706],[31.73742032452584,0.44291106409803044],[31.73717413972646,0.44413264270734],[31.73717393989945,0.44413296655997475],[31.737173915088313,0.444133089606575],[31.737172610078463,0.44413512175428127],[31.734237951018386,0.448891220926459],[31.734029536985005,0.44902948234470913],[31.73394363803709,0.449163243289153],[31.73413713498259,0.4496973201624886],[31.73441732674942,0.450470628193269],[31.736405750664357,0.4516292379836315],[31.736698897027477,0.4518000441771843]]]}}]}
