{"type":"FeatureCollection","name":"Katakwi sub-counties","metadata":{"source":"Uganda Bureau of Statistics NPHC 2024 Map Explorer","retrieved":"2026-07-26","display_only":true,"clipped_to_dashboard_district":true,"positive_area_overlaps_removed":true,"source_gap_ratio":0.01938643},"features":[{"type":"Feature","properties":{"n":"Akoboi","c":"207101","d":"Katakwi","od":"Katakwi","dc":"207","k":"AKOBOI","a":["AKOBOI"],"lat":1.857494,"lon":33.991505},"geometry":{"type":"MultiPolygon","coordinates":[[[[33.92169019999335,1.828031872502043],[33.92516769843498,1.833119104991522],[33.926719135954315,1.839626185128758],[33.92930931602978,1.842378918483469],[33.92759829329889,1.859490022950522],[33.937024624432695,1.858236377061098],[33.94684755822644,1.858358764900989],[33.95140561078566,1.856627951785066],[33.954762500053775,1.86886326341968],[33.95950130755625,1.893230880664672],[33.96018076573261,1.900292276510874],[33.963463603111315,1.899661703758751],[33.96890377305089,1.90128524721102],[33.97874015842252,1.910822482695428],[33.98461338485365,1.914175138128661],[33.996373010427874,1.913554621481267],[34.00724015969226,1.909314259044279],[34.01477233521595,1.905381120901273],[34.022631911720524,1.902781047509789],[34.02114449124809,1.901253996480327],[34.02377231083751,1.896367970637664],[34.02276370300653,1.892460785770098],[34.024558622203735,1.89093990999915],[34.025670388359096,1.884552267567754],[34.02713598932145,1.881431337700744],[34.02255591163986,1.876088645576637],[34.02474119259214,1.871762916771411],[34.023957881050045,1.868668982379678],[34.02487866018549,1.865131394715058],[34.02524005307607,1.864317177835674],[34.02790676654008,1.863737186557967],[34.031777461729355,1.856751334605142],[34.03416040813457,1.855881781846739],[34.035095304500395,1.854190976009181],[34.03688554999199,1.853104036467701],[34.04006322372116,1.852748525253616],[34.042119044973724,1.850712016675933],[34.04091027595469,1.849771776111324],[34.040796838649946,1.848388532252322],[34.04318989351224,1.837693912684821],[34.04445741676004,1.836720286172351],[34.030826214244314,1.832573954274246],[34.019048021073566,1.831681656202379],[34.01305180701678,1.833608943003623],[34.00658187519182,1.837718314951965],[34.0024769875969,1.838931927349311],[33.99871855417796,1.839773400068696],[33.99741022156013,1.839919109072905],[33.988034134961765,1.836966278783573],[33.97956286184836,1.836618006597001],[33.97350277706919,1.8352011863327],[33.95866899056237,1.827810585974805],[33.95299577048107,1.822196306786699],[33.95009642377168,1.81729445277564],[33.94785857001348,1.810354701246466],[33.94763983436893,1.806843863460436],[33.93535199993768,1.801995638533258],[33.91430122115311,1.804269622896519],[33.90888280811966,1.806083916722611],[33.90459276986575,1.808807449986565],[33.90895463547537,1.815749048885591],[33.92169019999335,1.828031872502043]]],[[[33.99950178579203,1.83953792341522],[33.99950178597868,1.839537924035994],[33.99950178580849,1.83953792341055],[33.99950178579203,1.83953792341522]]]]}},{"type":"Feature","properties":{"n":"Getom","c":"207102","d":"Katakwi","od":"Katakwi","dc":"207","k":"GETOM","a":["GETOM"],"lat":1.846025,"lon":33.893319},"geometry":{"type":"Polygon","coordinates":[[[33.851154389730354,1.882017537533494],[33.85186694485455,1.882042129267347],[33.85286775614041,1.883443744154585],[33.85574143615564,1.883441247820164],[33.855851892861224,1.8859100946860932],[33.85795683641489,1.8867912338480959],[33.85852488633152,1.885295547879607],[33.857096609178654,1.882762544479331],[33.85719009804716,1.88140637729267],[33.85848313152943,1.880555325389044],[33.85984274534884,1.884326959031644],[33.86391027639169,1.8892833715128028],[33.86787428417123,1.8909427236065608],[33.86805958296222,1.891007684101937],[33.868116239436574,1.891044007206007],[33.88267222602952,1.8971372108960791],[33.8830820773647,1.89715454086067],[33.88659961796776,1.899813272826452],[33.88668387275494,1.9000128637728053],[33.896787908214996,1.907814713938165],[33.89790082659184,1.907302966096303],[33.8991129085403,1.907926767798485],[33.91915077950086,1.906953051685255],[33.931260651826896,1.907349262999407],[33.93582969271306,1.905540774580889],[33.94076704064943,1.905387674290683],[33.95741898823325,1.900432117712556],[33.95808130408624,1.901078001297411],[33.960263921152006,1.900734383200011],[33.960218256187154,1.9002850752832847],[33.96018076573261,1.900292276510874],[33.959501308756934,1.8932308931429913],[33.95845987963059,1.8878757112327806],[33.954762500053775,1.86886326341968],[33.95140561078566,1.856627951785066],[33.946867914673945,1.8583510350194483],[33.94684767322172,1.858358748651598],[33.946847603312214,1.8583587477807257],[33.94684755822644,1.858358764900989],[33.93902176141554,1.8582612601852673],[33.93702459340918,1.858236381187041],[33.92759829329889,1.859490022950522],[33.92930931602978,1.842378918483469],[33.92674973073882,1.8396586999660767],[33.92671930218397,1.839626403767688],[33.92671929130996,1.8396263502341352],[33.926719135954315,1.839626185128758],[33.925250342826146,1.833465734275329],[33.9248212000776,1.8326122125425928],[33.922965109436184,1.8298969375330123],[33.90895533822174,1.8157497266497895],[33.90895463547537,1.815749048885591],[33.90459276986575,1.808807449986565],[33.90483962740396,1.8086507323358167],[33.903070826249966,1.805599600462489],[33.89298119263495,1.798286114162506],[33.87308487782904,1.788041508113967],[33.870743786788545,1.7863195225594863],[33.8713,1.798],[33.8709455260863,1.798562987980571],[33.87119692124741,1.799312877530747],[33.86927464194503,1.801612491575865],[33.86875417521151,1.803639091548917],[33.87184642222693,1.806858519841465],[33.87011295026813,1.807383503192007],[33.86782868109947,1.804697952593677],[33.86621506359202,1.806128155418794],[33.866246519619466,1.8063298616491428],[33.8678070120788,1.8140405302717268],[33.87053298982382,1.821070595874653],[33.870633924040696,1.82627077904076],[33.87037859509648,1.8267471757708729],[33.8713,1.8313],[33.87128135962415,1.8313111413740686],[33.871292897346564,1.831346652724668],[33.87114893959205,1.8313902889794638],[33.862893501735996,1.8363245736750355],[33.86253202401423,1.83707698531169],[33.863068043319025,1.838587345573694],[33.85998241801512,1.841194269530084],[33.85596534595474,1.849671863420389],[33.854184352922324,1.850967039460918],[33.854985226576886,1.855561936897572],[33.85123380725535,1.85764451582844],[33.84923749239871,1.857392352389778],[33.84919945572226,1.8574464450340877],[33.84913222734936,1.8631832661882888],[33.85040878868363,1.86378686342435],[33.84997242612118,1.865831383186444],[33.84909368210993,1.8664724599529054],[33.8489,1.883],[33.8493503735548,1.8831885284648],[33.850824164176025,1.883643769376077],[33.851154389730354,1.882017537533494]]]}},{"type":"Feature","properties":{"n":"Katakwi","c":"207103","d":"Katakwi","od":"Katakwi","dc":"207","k":"KATAKWI","a":["KATAKWI"],"lat":1.946119,"lon":33.966851},"geometry":{"type":"Polygon","coordinates":[[[33.885634040597765,1.926915041194362],[33.890139944664796,1.9289060220611915],[33.89032249341479,1.928882906747694],[33.89036925730691,1.929007346251892],[33.892411049707114,1.929909533591516],[33.8925704076131,1.929812391273868],[33.894161880251964,1.93033824647055],[33.89399287678141,1.9306084804383001],[33.8942,1.9307],[33.88820230664928,1.945194425597567],[33.89020210899963,1.947643485462039],[33.89031501715808,1.952555675690953],[33.89333117941509,1.951378148853679],[33.8955179999902,1.951639229232248],[33.899789572043254,1.947014357888017],[33.89897754921651,1.944754664597552],[33.90166439027448,1.945223977274769],[33.90133462718351,1.947655788893769],[33.89780039653847,1.953257531706669],[33.894501244290886,1.956271588636178],[33.8909383420963,1.95708747768053],[33.89062000037597,1.959657633584589],[33.88862813312184,1.962978054456624],[33.888599820742336,1.9629920230341293],[33.8886,1.963],[33.889575085356896,1.965326519448032],[33.8913641163367,1.965915584824692],[33.89055814799436,1.9676720724076042],[33.89071913944047,1.9680561923491957],[33.891594186222186,1.968928558428391],[33.8943388547329,1.976562001282508],[33.89457120440922,1.974372147615374],[33.896137820938584,1.973241083325572],[33.897923559481335,1.976063108630968],[33.89761671602439,1.977727180008881],[33.91226819736261,1.979808745170101],[33.921624259461225,1.98372052308711],[33.928668846597546,1.98326427819694],[33.936412494153274,1.980907921992126],[33.9457398677177,1.981282488696598],[33.95411437121781,1.980481575947957],[33.95970187505486,1.982549877411944],[33.9682437304653,1.982562952931757],[33.97451899252578,1.983509261517817],[33.98189388170827,1.987882908358882],[33.98655290520925,1.988974664234436],[33.99860632641623,1.98359676938802],[33.99712090578443,1.981039469224535],[33.99699003508343,1.975734042505957],[33.997608845904175,1.97403499652832],[33.999399560290996,1.972655595143676],[34.000950170337426,1.968650165936985],[34.00185516610761,1.968201244241254],[34.004977018211335,1.960691668338429],[34.005158160135636,1.957999222301975],[34.0039210048174,1.953319797873321],[34.0191535307883,1.951274981236748],[34.03264563313182,1.951808092607368],[34.03112813334606,1.934081007981387],[34.02724522277304,1.929470077406571],[34.0264923462635,1.927420457876541],[34.026243634260915,1.924056145451354],[34.02768547474116,1.917433195950424],[34.026708882299395,1.915180631158228],[34.02715075526022,1.912132794474932],[34.02529536606949,1.911933049144909],[34.02556957260736,1.909221107492659],[34.02389197285008,1.908856700957432],[34.02263205229065,1.902781074947522],[34.014772311228725,1.9053811334268809],[34.00724015969226,1.909314259044279],[33.996373010427874,1.913554621481267],[33.98618925831639,1.9140919844847255],[33.98461338874923,1.91417515015604],[33.979755817707805,1.922500358970436],[33.97740623255014,1.924292483588547],[33.965016709705175,1.927408496827606],[33.95907797907908,1.927940012926059],[33.95026787345206,1.924453066073192],[33.93415538086359,1.91337133692122],[33.93310746528134,1.911435776898945],[33.93258757603992,1.906828007288124],[33.93256629402691,1.906832472089391],[33.931260651826896,1.907349262999407],[33.93025913842036,1.9073164954414792],[33.92871625937363,1.907640179499002],[33.919151071971214,1.9069530612543124],[33.919150800031915,1.906953052356991],[33.899112921084956,1.9079267757653],[33.89905724351114,1.909566985495944],[33.8991,1.9096],[33.88560926626173,1.9268881254571875],[33.885615149842444,1.926903223833121],[33.885634040597765,1.926915041194362]]]}},{"type":"Feature","properties":{"n":"Katakwi Town Council","c":"207104","d":"Katakwi","od":"Katakwi","dc":"207","k":"KATAKWITOWNCOUNCIL","a":["KATAKWI","KATAKWITOWNCOUNCIL","TOWNCOUNCIL"],"lat":1.913754,"lon":33.959294},"geometry":{"type":"Polygon","coordinates":[[[33.9346030736496,1.9136792477035274],[33.93859197928985,1.9164227072691664],[33.93931645143281,1.916724830599503],[33.95037341544203,1.9244948384792615],[33.95907797907908,1.927940012926059],[33.965016709705175,1.927408496827606],[33.97740614717494,1.9242925050607416],[33.97975585312802,1.9225002982650563],[33.98375876678115,1.915639854692723],[33.98461337514101,1.914175148530006],[33.98400625696295,1.9138285670156125],[33.97874015842252,1.910822482695428],[33.96890377305089,1.90128524721102],[33.96346403172971,1.8996618316739802],[33.96024111796005,1.900510017437212],[33.960263921152006,1.900734383200011],[33.95808130408624,1.901078001297411],[33.95741898823325,1.900432117712556],[33.94278864079452,1.9047860537386796],[33.940767779024426,1.905387481998999],[33.940767708063056,1.9053874756709155],[33.94076704064943,1.905387674290683],[33.93647193739429,1.9055208594668749],[33.932587587540795,1.906828003139712],[33.93364921238584,1.9124364147894521],[33.93402451967044,1.9131296288120816],[33.9346030736496,1.9136792477035274]]]}},{"type":"Feature","properties":{"n":"Ngariam","c":"207105","d":"Katakwi","od":"Katakwi","dc":"207","k":"NGARIAM","a":["NGARIAM"],"lat":1.850242,"lon":34.13212},"geometry":{"type":"Polygon","coordinates":[[[34.04384365533612,1.853265321546775],[34.044214941558295,1.855622925317298],[34.051886359869805,1.85832265935216],[34.052383291829564,1.860086196916113],[34.05616028470366,1.864167307941063],[34.06351383297556,1.867737201101073],[34.07250704620615,1.869910398234164],[34.077087011121556,1.875820960558475],[34.08271483057546,1.880757175825397],[34.0911648136566,1.88504911417685],[34.10151435813834,1.886195290109787],[34.11153996877685,1.891953142874882],[34.11462337313766,1.895140503735603],[34.11524358037786,1.896856287746059],[34.132272390494435,1.899878176455127],[34.15897205359317,1.898166405090094],[34.16718152861414,1.899475058427242],[34.2228760430622,1.8991818624408097],[34.2228,1.88],[34.22266943289078,1.82781667868249],[34.22257911140297,1.824357414844352],[34.150494760625875,1.825398195132967],[34.14487980824014,1.82611445976045],[34.12400211496021,1.83213529105446],[34.11752727121983,1.832740951088806],[34.11595514643599,1.83425727581363],[34.11623437272715,1.836173253075003],[34.11527092530058,1.837201216346213],[34.11128318844243,1.837723631193362],[34.10852304940802,1.836812041484783],[34.1040072570449,1.823611132223055],[34.10590686869873,1.822830081462515],[34.10541767540695,1.819349820819705],[34.101807216793716,1.81919669521075],[34.09575402633284,1.806726676326913],[34.090946804734266,1.804378446471044],[34.08902343378949,1.801286028385479],[34.08036642832297,1.806172883271672],[34.066328561749664,1.818908242449222],[34.061503424605455,1.822389057758118],[34.05448708626749,1.822871050709846],[34.050005424542384,1.820240170758024],[34.04805968736123,1.823679791544957],[34.04774918348773,1.826546811199117],[34.046121888333886,1.827679152068799],[34.04665925300257,1.83078950346609],[34.045106895056385,1.832066937037019],[34.0463807927119,1.834427161212622],[34.04629084462719,1.835891607416521],[34.04436210509157,1.8366912943199627],[34.04445741676004,1.836720286172351],[34.04327972219903,1.8376249123006538],[34.04091018258418,1.8497706375600544],[34.04091027595469,1.849771776111324],[34.042119044973724,1.850712016675933],[34.04188995953269,1.850938950056017],[34.04384365533612,1.853265321546775]]]}},{"type":"Feature","properties":{"n":"Okore","c":"207106","d":"Katakwi","od":"Katakwi","dc":"207","k":"OKORE","a":["OKORE"],"lat":1.80013,"lon":34.15371},"geometry":{"type":"Polygon","coordinates":[[[34.10541953537857,1.819355892235064],[34.1058780233931,1.8226248677288281],[34.10590686869873,1.822830081462515],[34.1040072570449,1.823611132223055],[34.10852304940802,1.836812041484783],[34.11128072551565,1.837722817763792],[34.11519429645897,1.8372112551341273],[34.11527092530058,1.837201216346213],[34.11623437272715,1.836173253075003],[34.11595514643599,1.83425727581363],[34.115957005416476,1.8342554828146818],[34.115956904028444,1.834254782396944],[34.11685946575458,1.8333850538653371],[34.11752727121983,1.832740951088806],[34.11752794999919,1.832740887595454],[34.11752805314977,1.832740788197264],[34.12259002218498,1.8322673788998258],[34.124002076543015,1.8321352946480232],[34.131103032964646,1.8300874867896861],[34.14487980824014,1.82611445976045],[34.15049462427244,1.8253982125267285],[34.15049465821701,1.825398208196545],[34.15049465821777,1.825398208196534],[34.150494760625875,1.825398195132967],[34.186659958663576,1.8248760287425407],[34.222579110752704,1.824357403347629],[34.22201232511346,1.802629609210614],[34.2185179120211,1.800967043825967],[34.2166113992663,1.796527726231736],[34.21329606005925,1.793083714868206],[34.210377458540755,1.791303783888408],[34.20796399795504,1.790997602734581],[34.207646631068116,1.787470374409327],[34.20565007842231,1.787009081545437],[34.20614568677283,1.780090432658174],[34.202962836941715,1.77914310883154],[34.2012788053254,1.777732820810898],[34.19843971645423,1.779317192706153],[34.19754551298402,1.777336756701107],[34.19877108014401,1.774622882784866],[34.19656060568927,1.774181105828736],[34.19498429376522,1.775556584281087],[34.19065561957361,1.772601835851129],[34.190384492716376,1.769427071284273],[34.19196192701217,1.76777109043806],[34.19094279423707,1.766885193277864],[34.18677233126468,1.768579151014594],[34.18573249757373,1.766906641148093],[34.17552170567422,1.765321202757513],[34.15198899577319,1.76596016811352],[34.141241277957725,1.767160777584281],[34.13539661333502,1.765391553790803],[34.127057733924126,1.765387597265785],[34.11653824747348,1.763938854592907],[34.11589962319275,1.774070759210004],[34.112911751911454,1.774111956278219],[34.10850304979355,1.776505855626896],[34.09882385641111,1.787103322253443],[34.09835008884126,1.789884975493925],[34.09390684129562,1.791202756692451],[34.0911705232938,1.797793734144231],[34.08943345569157,1.799292922825146],[34.089023442013016,1.8012860416073597],[34.090946804734266,1.804378446471044],[34.09575402633284,1.806726676326913],[34.101807216793716,1.81919669521075],[34.10541767540695,1.819349820819705],[34.105418522677326,1.8193558485428745],[34.10541953537857,1.819355892235064]]]}},{"type":"Feature","properties":{"n":"Palam","c":"207107","d":"Katakwi","od":"Katakwi","dc":"207","k":"PALAM","a":["PALAM"],"lat":1.992215,"lon":34.156336},"geometry":{"type":"Polygon","coordinates":[[[34.02389212308796,1.908856733591954],[34.02556957260736,1.909221107492659],[34.025569493673466,1.9092218881601066],[34.025569775622465,1.909221948981217],[34.025296009962084,1.9119331184643482],[34.02715075526022,1.912132794474932],[34.026708882299395,1.915180631158228],[34.02731243016741,1.9165727478895904],[34.027685479247005,1.917432393313932],[34.027685368122576,1.917432950028727],[34.02768547474116,1.917433195950424],[34.02768360154006,1.9174418003116214],[34.026677644764895,1.922481475487309],[34.02751659833325,1.923277034617142],[34.02887440933758,1.923142080164716],[34.029160241827704,1.925510305716578],[34.03391766004508,1.927760514983522],[34.03742841586797,1.931068603803046],[34.04214019635099,1.931782228641282],[34.04670399829387,1.936964818231004],[34.048320125842686,1.937566612204939],[34.053842476229235,1.945259708664245],[34.05786857027643,1.94524575211276],[34.05997514101344,1.950688053538074],[34.06406051555204,1.950003720656134],[34.068912395746544,1.955727751596129],[34.07475069241271,1.956870093996769],[34.07673606583719,1.964522240917172],[34.07970562522059,1.965435951908889],[34.080550465701,1.964380287493318],[34.08511517811714,1.966184255882605],[34.087625493156565,1.967544010895751],[34.08976000810915,1.970581406308312],[34.09408122839261,1.977891340737455],[34.09699482451715,1.989591649810621],[34.09699542076699,1.994838857325838],[34.09606738527639,1.997516462705779],[34.09720233793369,1.999805178584025],[34.09696787278861,2.00338209177719],[34.09351255802015,2.017210449376198],[34.0946459535133,2.020574638129046],[34.100297961972174,2.028413307406853],[34.10283775794581,2.030066997882279],[34.10424750498548,2.032128506521119],[34.106565978837025,2.03712005457669],[34.10830661656286,2.0462335041522],[34.11249671703705,2.05201143321879],[34.12360730084359,2.05643914470178],[34.138979289710896,2.070097704859468],[34.158482182301064,2.107652748346931],[34.1855864154062,2.134863485959412],[34.20835880989747,2.120817928015725],[34.20305890201112,2.121990329241867],[34.19106099870027,2.117542637109925],[34.18877547785494,2.113330568884494],[34.18486153035685,2.110772800238311],[34.183850128642405,2.105478879919396],[34.184224213319084,2.102645262275849],[34.182481477246476,2.09942503570144],[34.17953952147197,2.097530923806842],[34.17088329125677,2.094615334191708],[34.165728195853305,2.090790742608288],[34.17721876453571,2.075933531392081],[34.19681697906372,2.057301490907602],[34.19991816192306,2.038296047546914],[34.204343770537804,2.024305580052289],[34.21133962951442,2.021163565548586],[34.214052523383266,2.017308538580262],[34.2187200377779,2.013752895780955],[34.21859905795415,2.005226493293029],[34.214247466824055,1.985851846215938],[34.21567511877587,1.978713803965265],[34.2231294909582,1.963114094206689],[34.22287604310739,1.8991818738395863],[34.16718181411376,1.899475058427242],[34.167181804986946,1.899475056972316],[34.16718152861414,1.899475058427242],[34.15897205359317,1.898166405090094],[34.14867823537652,1.8988263633522993],[34.13227299816499,1.899878183600022],[34.13227280732214,1.8998781497314292],[34.132272390494435,1.899878176455127],[34.11524358037786,1.896856287746059],[34.11462342206812,1.8951406391001933],[34.111539788736934,1.8919530394753583],[34.10151435813834,1.886195290109787],[34.091386842728134,1.8850737031216735],[34.09116506233811,1.885049154193776],[34.09116503092443,1.8850491382385042],[34.0911648136566,1.88504911417685],[34.08516262555713,1.88200046649917],[34.08271520118241,1.880757399250494],[34.08271510588074,1.8807573156591983],[34.08271483057546,1.880757175825397],[34.077087011121556,1.875820960558475],[34.07250710333768,1.8699104719638697],[34.071978595258074,1.8697826988172943],[34.06351383297556,1.867737201101073],[34.056522088699936,1.8643429512582517],[34.05616066531308,1.864167535780749],[34.056160592938994,1.8641674575786484],[34.05616028470366,1.864167307941063],[34.052383291829564,1.860086196916113],[34.052383205833785,1.8600858917299004],[34.05238304127153,1.860085713916068],[34.05235723654895,1.859993730603182],[34.051886537310075,1.8583232890612593],[34.04639298324726,1.856389424162528],[34.044214941558295,1.855622925317298],[34.04421490406049,1.8556226872126789],[34.044214689377554,1.855622611639054],[34.043843627041504,1.8532652878548475],[34.04188995953269,1.850938950056017],[34.04205788411992,1.850772602976046],[34.04205788411992,1.8507726029760458],[34.04006322372116,1.852748525253616],[34.04006286791677,1.8527485650602369],[34.04006269529672,1.852748737401382],[34.039575863161836,1.852803050091252],[34.03688554999199,1.853104036467701],[34.035095304500395,1.854190976009181],[34.03508848978327,1.8542033007586642],[34.03416107593004,1.855881257215188],[34.03416060269634,1.8558814299722577],[34.03416040813457,1.855881781846739],[34.032288256550615,1.8565649422276906],[34.031777408507416,1.8567514306603943],[34.02813604605606,1.8633233816272863],[34.027906983618486,1.863736851285033],[34.0279069461278,1.8637368624370627],[34.02790676654008,1.863737186557967],[34.02790338144717,1.863737922791683],[34.02513114061389,1.8645625572202658],[34.024988914242854,1.8648829927213735],[34.023957927597515,1.8686691662334884],[34.02474119259214,1.871762916771411],[34.02474097949195,1.871763338599833],[34.024741042350236,1.871763586936112],[34.02412653517828,1.8729796213226901],[34.022556073348404,1.8760883254771594],[34.02713597067569,1.881430499686431],[34.02713572307778,1.8814310271256633],[34.02713598932145,1.881431337700744],[34.0259973285946,1.8838560633676154],[34.02567031864884,1.884552668087396],[34.02539707536614,1.8861225849069136],[34.02455899279778,1.890938932264716],[34.02455875769062,1.8909391315604482],[34.024558622203735,1.89093990999915],[34.02276370300653,1.892460785770098],[34.02377231083751,1.896367970637664],[34.023772021188364,1.8963685091956453],[34.02377206703281,1.896368686861817],[34.02114454674658,1.9012540534575046],[34.022631911720524,1.902781047509789],[34.022556985198584,1.902805834399502],[34.02255703647056,1.9028058907165897],[34.02263205229065,1.902781074947522],[34.02266084336443,1.902919912110999],[34.02306225192486,1.903360818895534],[34.02389212308796,1.908856733591954]]]}},{"type":"Feature","properties":{"n":"Amusia","c":"207201","d":"Katakwi","od":"Katakwi","dc":"207","k":"AMUSIA","a":["AMUSIA"],"lat":1.759531,"lon":34.013078},"geometry":{"type":"Polygon","coordinates":[[[33.96167461320852,1.779873626645119],[33.96125993682728,1.782332327938893],[33.9628037399682,1.782364512248722],[33.963982666360565,1.784357436786396],[33.966600855382666,1.784972199575075],[33.96736149805332,1.787317483711798],[33.9692533656013,1.787688591749466],[33.97103775829266,1.800539126691273],[33.97320782238809,1.800781648983352],[33.97964774189587,1.794953704127992],[33.99425496682193,1.792350614326438],[33.995180858168155,1.796560362772963],[33.99924942815278,1.803269925524693],[34.00015376286485,1.806338656636384],[34.009331942085566,1.80308973314826],[34.01947438270151,1.802019105640623],[34.04576788285994,1.808221786698816],[34.05573181665077,1.812283513642426],[34.05769416865318,1.805745368234131],[34.056507897933194,1.794665162964727],[34.05764390451731,1.790693429597655],[34.057007381038474,1.789445468867066],[34.057692673932834,1.782651748892636],[34.0569799890017,1.774702076862251],[34.05987955802531,1.770113075156651],[34.062998122957474,1.761852579642292],[34.060109525855864,1.758760171469717],[34.05342768214615,1.731672290617344],[34.04726904089603,1.719825652041004],[34.04312249036328,1.706784193041056],[34.03560760800096,1.709140195190929],[34.0293690719049,1.713422241532387],[34.02524190272623,1.721321799562649],[34.020622988238685,1.72682269499294],[34.017073946770054,1.736472688034574],[34.01508647540097,1.738650308670031],[34.01292945178104,1.743343917461005],[34.00421105929085,1.744092178239466],[33.99838647721023,1.743199778858514],[33.994995291553465,1.747209443752861],[33.98922898876123,1.751952030532296],[33.98164266967804,1.75534819379814],[33.978476421843624,1.756503004291413],[33.96783429642061,1.755969638511701],[33.964574988851226,1.76059669743221],[33.96185270310686,1.759585173692549],[33.95497552215367,1.759477241591122],[33.95234025869457,1.770038616330245],[33.955013581239434,1.775781442480801],[33.96167461320852,1.779873626645119]]]}},{"type":"Feature","properties":{"n":"Angodingod","c":"207202","d":"Katakwi","od":"Katakwi","dc":"207","k":"ANGODINGOD","a":["ANGODINGOD"],"lat":1.791327,"lon":33.921074},"geometry":{"type":"Polygon","coordinates":[[[33.90614703053711,1.8078207267014137],[33.90888280811966,1.806083916722611],[33.91430122115311,1.804269622896519],[33.93535199993768,1.801995638533258],[33.94763983436893,1.806843863460436],[33.94785856511397,1.8103546226064169],[33.950333489374124,1.817695253745892],[33.952496486086446,1.821352178968343],[33.95537663178438,1.824316860487923],[33.96519089175304,1.819715491657484],[33.964382764385874,1.817386278077996],[33.96485859440044,1.815711022996506],[33.9636641433069,1.81400934585043],[33.964312188139196,1.812040347470601],[33.96316554606652,1.808775723750183],[33.965012034117066,1.804118710321573],[33.96495253177256,1.800240454426955],[33.96404302716321,1.795777453977154],[33.96225858523058,1.793030259314634],[33.963115036203526,1.791887032319915],[33.9622478239078,1.790767799594354],[33.96333556421371,1.790045348144835],[33.96435872746089,1.786726006976551],[33.96314639057327,1.785214007144947],[33.96393960532153,1.7842846439454891],[33.962803787156304,1.7823645920181805],[33.96280371417021,1.7823645117109004],[33.96125993682728,1.782332327938893],[33.96167461320852,1.779873626645119],[33.955013581239434,1.775781442480801],[33.95446454154041,1.7746019964961373],[33.952340900538466,1.770040142311275],[33.952340924439994,1.77004004648324],[33.95234025869457,1.770038616330245],[33.9549454215024,1.759597876306704],[33.954975510405525,1.759477241328327],[33.94640001539641,1.758849342360831],[33.94211386025044,1.761565565721424],[33.93496536228912,1.763902752901],[33.92164258696541,1.758997487905682],[33.91255341166465,1.757500377269227],[33.90863346139506,1.757891258724702],[33.904987365730186,1.759060010739411],[33.902731210762916,1.76070777960771],[33.896721580793916,1.761108465465815],[33.8852383653698,1.765148575265616],[33.87534538752779,1.7676229475261],[33.87107034278069,1.76925328053873],[33.87167062223295,1.774526938419597],[33.87050869226152,1.7813825374918928],[33.870743786788545,1.7863195225594863],[33.87308487782904,1.788041508113967],[33.89298119263495,1.798286114162506],[33.903070826249966,1.805599600462489],[33.904839622216805,1.8086507233881206],[33.90614703053711,1.8078207267014137]]]}},{"type":"Feature","properties":{"n":"Kapujan","c":"207203","d":"Katakwi","od":"Katakwi","dc":"207","k":"KAPUJAN","a":["KAPUJAN"],"lat":1.70488,"lon":33.882868},"geometry":{"type":"Polygon","coordinates":[[[33.81469565085958,1.710946380781566],[33.81170936209941,1.7105918805101743],[33.81065705679066,1.7149629948695766],[33.810827049789744,1.7157628942704009],[33.8154,1.7271],[33.815688787850746,1.7273397127911452],[33.819729167561974,1.730061094017661],[33.822632728024395,1.7331036369875734],[33.82276521831704,1.7332136125899613],[33.826527274707864,1.734553023059438],[33.827155864586466,1.736858135963931],[33.83028726886683,1.7394574061835806],[33.84318375204549,1.744587875963873],[33.85816884008855,1.754206295846725],[33.86072314759283,1.75651191387044],[33.8616,1.757],[33.86278561265525,1.758373575637181],[33.86636296274126,1.761602631975009],[33.86832443191535,1.7647905003897315],[33.8698,1.7665],[33.869835544211305,1.7672464284374616],[33.871070337844465,1.769253270897114],[33.87107051835947,1.769253213579929],[33.87534538752779,1.7676229475261],[33.87939408810942,1.7666103108286186],[33.89672117617579,1.7611086078215576],[33.896721580793916,1.761108465465815],[33.90220202989595,1.7607430621943028],[33.9049859643898,1.759061034199719],[33.904987365730186,1.759060010739411],[33.904987988991664,1.7590598109536189],[33.90498800752486,1.759059799756033],[33.904988053471754,1.7590597902845966],[33.90863346139506,1.757891258724702],[33.9125524667212,1.7575004714951348],[33.9125526746172,1.75750042863971],[33.91255275829191,1.7575004424208927],[33.91255341166465,1.757500377269227],[33.92164258696541,1.758997487905682],[33.921642806918115,1.7589975688892818],[33.92164300931721,1.758997602224311],[33.92164560017888,1.7589985973299698],[33.9344561295372,1.763715260315427],[33.936042189643466,1.7635506863408899],[33.94211293620246,1.761565867837071],[33.942113974982504,1.76156549301339],[33.94211482811335,1.7615649523670895],[33.94412899765821,1.760026476803635],[33.946516948708044,1.756263139345341],[33.948678493381024,1.750251956961332],[33.953478601522555,1.745857658251549],[33.94385280861658,1.728540038349285],[33.94501712725624,1.728976330994042],[33.94762650877,1.727999264884972],[33.948732696346504,1.723942772360758],[33.9506229504912,1.722823290622544],[33.95195364576215,1.716149598342426],[33.951977429550546,1.711319408034375],[33.951168629758754,1.70920117435827],[33.952036858520536,1.702526327280004],[33.9501809469152,1.69921426609128],[33.940331490461446,1.689848822036205],[33.93541817597319,1.682695685233792],[33.92923672975339,1.666813905730839],[33.92288722312997,1.640668892850278],[33.91394321755125,1.6422850126701944],[33.912199669693635,1.642650927534972],[33.911354257229064,1.6431737202422714],[33.8951,1.6542],[33.89327893030509,1.6556037412231641],[33.88951635208094,1.658971365841191],[33.880979081780815,1.6650848744606175],[33.8807,1.6653],[33.88054448174548,1.6653756384237874],[33.86791277948765,1.672324197280979],[33.85868198262934,1.676028291451148],[33.843699152584406,1.679997147455042],[33.82888035041213,1.681577623379493],[33.82316709177903,1.681473988563771],[33.8217,1.6817],[33.82074558331053,1.6814300639666162],[33.81864700196046,1.681391997058489],[33.812040542734174,1.6789680322884533],[33.8118,1.6789],[33.815779420384025,1.693524369911292],[33.81580231960105,1.693587719262319],[33.81559806565472,1.696655251158265],[33.81494393372592,1.6971559676000187],[33.81345875269744,1.7033251811029269],[33.814550332477964,1.706434419641752],[33.81469565085958,1.710946380781566]]]}},{"type":"Feature","properties":{"n":"Magoro","c":"207204","d":"Katakwi","od":"Katakwi","dc":"207","k":"MAGORO","a":["MAGORO"],"lat":1.731363,"lon":34.070219},"geometry":{"type":"Polygon","coordinates":[[[34.026711271448136,1.657113418878921],[34.0299816473546,1.672389972221211],[34.04074718715856,1.692339373243225],[34.042556770119475,1.704812386061776],[34.043085251933206,1.7067958677176625],[34.04312249036328,1.706784193041056],[34.04726892395534,1.7198252842468016],[34.047269125541376,1.719825814863091],[34.047269604068426,1.7198267353481087],[34.05263326941144,1.729384627298404],[34.05300562202926,1.7308604242560486],[34.05342768214615,1.731672290617344],[34.05992852428932,1.7580263996124763],[34.062997921365586,1.7618523638266594],[34.062998122957474,1.761852579642292],[34.06020135925663,1.7692606838530676],[34.05987957464526,1.770113038277286],[34.05987956794831,1.7701130488724774],[34.05987955802531,1.770113075156651],[34.0569799890017,1.774702076862251],[34.057692673932834,1.782651748892636],[34.057007381038474,1.789445468867066],[34.05764390451731,1.790693429597655],[34.05764366768593,1.7906942576131992],[34.05764380039668,1.790694517990962],[34.05657163217627,1.7944423337809887],[34.056507897933194,1.794665162964727],[34.05650791640042,1.7946653354554012],[34.057586720246746,1.800689215801272],[34.0575165515534,1.8040863591295628],[34.05769416865318,1.805745368234131],[34.057466625102315,1.8065034956345396],[34.05744883018213,1.807365017938674],[34.05461230982224,1.816321739635431],[34.05000543012014,1.820240160702336],[34.050162507685485,1.8203323836284493],[34.05448695204357,1.8228709719160756],[34.05559354881883,1.822795041383413],[34.061503424605455,1.822389057758118],[34.06632855983046,1.8189082438337199],[34.06652883752574,1.818726549317323],[34.08036642832297,1.806172883271672],[34.087938301156036,1.8018985826610279],[34.08902343572692,1.80128601527176],[34.08902345607269,1.8012859732618467],[34.08943345569157,1.799292922825146],[34.09038747396019,1.7984695505005048],[34.09390633520466,1.791203809344399],[34.093906413979084,1.7912037859710772],[34.09390684129562,1.791202756692451],[34.09835008884126,1.789884975493925],[34.09882385641111,1.787103322253443],[34.10850304979355,1.776505855626896],[34.112800194651655,1.7741725312148855],[34.11291158665061,1.774112014659218],[34.11291164581948,1.7741120138855389],[34.112911751911454,1.774111956278219],[34.11589962319275,1.774070759210004],[34.11653824747348,1.763938854592907],[34.11654194732204,1.763939364135699],[34.11654195274726,1.763939278498401],[34.12705777362859,1.7653875972846236],[34.13539661333502,1.765391553790803],[34.141241277957725,1.767160777584281],[34.15198899577319,1.76596016811352],[34.17552170567422,1.765321202757513],[34.17552179207177,1.765321216172534],[34.1755218677045,1.76532121411898],[34.177699462060204,1.7656593448539977],[34.18573249757373,1.766906641148093],[34.18677232238012,1.768579136724327],[34.18690339252542,1.7685259165804086],[34.19094279423707,1.766885193277864],[34.19094322677724,1.7668855692702023],[34.190943504062126,1.766885456680556],[34.19117436015389,1.7670864855855228],[34.19196192701217,1.76777109043806],[34.19196129887758,1.7677717498499],[34.19196183514231,1.767772216827877],[34.19038533155392,1.769426190677767],[34.190384492716376,1.769427071284273],[34.19065561957361,1.772601835851129],[34.19498429376522,1.775556584281087],[34.19656060568927,1.774181105828736],[34.19656176453495,1.7741813374311937],[34.196562371336476,1.774180808387581],[34.19798281430415,1.7744653429939814],[34.19877108014401,1.774622882784866],[34.19877093068872,1.7746232137359854],[34.19877108355619,1.774623244357479],[34.19765972830056,1.7770838403546945],[34.19754551298402,1.777336756701107],[34.19798272528602,1.7783050720941531],[34.198440114963475,1.7793169703154934],[34.200877574427025,1.7779567303071264],[34.201278539498844,1.777732841225344],[34.201278631162424,1.7777329180036734],[34.2012788053254,1.777732820810898],[34.20296276909177,1.7791430520107714],[34.20614422814411,1.780089155815017],[34.20614416924298,1.7800899809899347],[34.20614568677283,1.780090432658174],[34.20570778642787,1.7862034828745181],[34.20565027934272,1.7870091279670288],[34.207646631068116,1.787470374409327],[34.20764678804379,1.7874721190432328],[34.20764727744985,1.787472232224598],[34.207964179215594,1.790997625730012],[34.210377458540755,1.791303783888408],[34.210378003871654,1.7913041164625358],[34.21037840371611,1.791304167186492],[34.213094166863534,1.7929605887917648],[34.21329606005925,1.793083714868206],[34.2166113992663,1.796527726231736],[34.21661149975145,1.7965279602115483],[34.21661150737809,1.796527968134202],[34.21851817125954,1.800967167165953],[34.218528123482145,1.8009719022159771],[34.22248374270961,1.802701641686661],[34.222545944401475,1.778462445789857],[34.22246420262656,1.745792983082101],[34.216136129746296,1.744904748984064],[34.209665800738236,1.745500857882267],[34.174590889396804,1.744265425455896],[34.16922204371685,1.743380881567042],[34.14628164633924,1.745466887052407],[34.115588754835336,1.74522836154744],[34.105260174268665,1.749479637705299],[34.10415518772139,1.748266116761862],[34.1003480697702,1.747028758109222],[34.09773089289917,1.74522056960536],[34.09169046048467,1.739485587724501],[34.08465558025581,1.737805765059392],[34.08729210661545,1.731053332332052],[34.09285391381402,1.72299309765065],[34.09398414787271,1.718739923243108],[34.09400815501066,1.715110010424802],[34.09644725052745,1.71193016258594],[34.11744891980084,1.713220428329308],[34.124818213640786,1.712968904058347],[34.138717911906404,1.716475310001623],[34.16982195752349,1.717048324048342],[34.200773958391686,1.716083512761067],[34.22240352269226,1.721541236006245],[34.2222,1.6402],[34.028033740400865,1.648125153453026],[34.02679778798284,1.652744238337187],[34.026711271448136,1.657113418878921]]]}},{"type":"Feature","properties":{"n":"Magoro Town Council","c":"207205","d":"Katakwi","od":"Katakwi","dc":"207","k":"MAGOROTOWNCOUNCIL","a":["MAGORO","MAGOROTOWNCOUNCIL"],"lat":1.727023,"lon":34.156245},"geometry":{"type":"Polygon","coordinates":[[[34.09169002020258,1.7394854825918176],[34.09169046048467,1.739485587724501],[34.09773089289722,1.745220569603506],[34.097730934026366,1.7452205980198376],[34.1003480697702,1.747028758109222],[34.10415518772139,1.748266116761862],[34.10415533051291,1.748266273578707],[34.10415540390592,1.748266297433905],[34.10417530426637,1.748288209201543],[34.10526013831774,1.7494795982231885],[34.10734383170715,1.7486219977680202],[34.115588754835336,1.74522836154744],[34.1462816093949,1.7454668867652994],[34.16922160429831,1.743380912755233],[34.16922163859552,1.743380918405345],[34.16922204371685,1.743380881567042],[34.174590889396804,1.744265425455896],[34.209665800738236,1.745500857882267],[34.216136129746296,1.744904748984064],[34.220363855281384,1.7454981697692633],[34.22246420259974,1.745792972361711],[34.222403522718395,1.7215412464508095],[34.220457037516375,1.721050085225619],[34.200773958391686,1.716083512761067],[34.17395708576026,1.716919427101933],[34.1698222590153,1.717048318119048],[34.16982218907481,1.7170483168306077],[34.16982195752349,1.717048324048342],[34.14865232133845,1.716658326584755],[34.13871829169998,1.716475322387031],[34.1387182686555,1.7164753165738307],[34.138717911906404,1.716475310001623],[34.124818213640786,1.712968904058347],[34.11744891980084,1.713220428329308],[34.09644725052745,1.71193016258594],[34.09400815501066,1.715110010424802],[34.09398414787271,1.718739923243108],[34.09398409618988,1.7187401177303474],[34.09398409530856,1.718740251769074],[34.09334226720771,1.7211553790472296],[34.09285391381402,1.72299309765065],[34.08729210661545,1.731053332332052],[34.08465558025581,1.737805765059392],[34.091609940522865,1.7394663607792746],[34.09168994963979,1.739485415600509],[34.09169002020258,1.7394854825918176]]]}},{"type":"Feature","properties":{"n":"Omodoi","c":"207206","d":"Katakwi","od":"Katakwi","dc":"207","k":"OMODOI","a":["OMODOI"],"lat":1.812162,"lon":34.009853},"geometry":{"type":"Polygon","coordinates":[[[33.979562925451404,1.8366180092118585],[33.988034134961765,1.836966278783573],[33.99730852636212,1.8398870819944624],[34.00658148353729,1.837718430744853],[34.00658187519182,1.837718314951965],[34.01305180701678,1.833608943003623],[34.01305191149603,1.833608909422187],[34.01305197344987,1.833608870072303],[34.01904788571399,1.831681682114254],[34.01904793001457,1.8316816854703122],[34.019048021073566,1.831681656202379],[34.030826214244314,1.832573954274246],[34.0308274139384,1.832574319196552],[34.04457867527637,1.8366015007852425],[34.04535649021832,1.8362790060103438],[34.04634347553709,1.835034722731696],[34.04636091222377,1.834750835757494],[34.04511030523336,1.8320732552699572],[34.045106895056385,1.832066937037019],[34.045107226724944,1.8320666641073404],[34.04510722461761,1.832066659595479],[34.045117126733935,1.832058517401317],[34.04665899087156,1.83078971917339],[34.04639265079644,1.8292463678774282],[34.046121888333886,1.827679152068799],[34.047748999555296,1.8265469391870917],[34.04792396207561,1.82493300316213],[34.04805968736123,1.823679791544957],[34.050005424542384,1.820240170758024],[34.05000804693818,1.8202417101889197],[34.0500080525119,1.8202417003534082],[34.05000543012014,1.820240160702336],[34.050012177116514,1.820234421986665],[34.05036211263923,1.819616918174757],[34.054611241787654,1.8163226480614132],[34.05461228964547,1.8163217567969558],[34.055731814933644,1.812283525395242],[34.05100276099955,1.8103557476456191],[34.04576788285994,1.808221786698816],[34.03314596682474,1.8052442554063703],[34.01947434106678,1.8020191100355498],[34.0126277439588,1.802741831072337],[34.00933184914726,1.8030897660468819],[34.00015376286485,1.806338656636384],[33.999249437653354,1.80326995776353],[33.99906162599597,1.8029602171109782],[33.995180858168155,1.796560362772963],[33.99425496682193,1.792350614326438],[33.97964774189587,1.794953704127992],[33.975099064780025,1.7990701281553367],[33.97320856415171,1.800781058601918],[33.9732084845727,1.8007810497250243],[33.97320782238809,1.800781648983352],[33.97103775829266,1.800539126691273],[33.9692533656013,1.787688591749466],[33.96736149805332,1.787317483711798],[33.96736115851186,1.7873164368060404],[33.96736039565521,1.787316287356443],[33.9664939542466,1.7849470986981082],[33.963983126545244,1.784357544839869],[33.963982659723435,1.784357446178255],[33.96315501266167,1.7852039051496442],[33.96314639057327,1.785214007144947],[33.96435872746089,1.786726006976551],[33.96333556421371,1.790045348144835],[33.962283543507745,1.7907440754787607],[33.96224784291767,1.7907678241286793],[33.963115036203526,1.791887032319915],[33.96311491471638,1.7918871944860981],[33.963115000071426,1.791887304428505],[33.96298688774335,1.7920580903064596],[33.96225888693243,1.7930298565902325],[33.963760069212476,1.79534183286909],[33.96404302716321,1.795777453977154],[33.9640430757111,1.7957776922049542],[33.964043086970484,1.795777709545568],[33.96432618102346,1.7971669090636626],[33.96495253177256,1.800240454426955],[33.964952533164215,1.8002405451324923],[33.96495254071613,1.800240582191277],[33.96501210866338,1.804118296927929],[33.96501203078738,1.8041184932982863],[33.965012034117066,1.804118710321573],[33.96316554606652,1.808775723750183],[33.964312188139196,1.812040347470601],[33.9636641433069,1.81400934585043],[33.964701517333076,1.8154872428374444],[33.96485829151002,1.815709946056666],[33.96485816111309,1.8157104057128188],[33.96485859440044,1.815711022996506],[33.964382764385874,1.817386278077996],[33.96519089175304,1.819715491657484],[33.95545361875305,1.8242807655160043],[33.95537664100426,1.82431686803119],[33.95866498931441,1.8278066262970825],[33.95866899056237,1.827810585974805],[33.97350277706919,1.8352011863327],[33.97825025769431,1.8363111257145996],[33.979562925451404,1.8366180092118585]]]}},{"type":"Feature","properties":{"n":"Toroma","c":"207207","d":"Katakwi","od":"Katakwi","dc":"207","k":"TOROMA","a":["TOROMA"],"lat":1.695777,"lon":33.993906},"geometry":{"type":"Polygon","coordinates":[[[33.935418213216124,1.6826957394545803],[33.93993077101526,1.6892654274611554],[33.940331507608086,1.6898488383402444],[33.9501809469152,1.69921426609128],[33.95018095429776,1.699214279266201],[33.95018098381835,1.699214307336007],[33.95203676258799,1.702526002584297],[33.952036746383754,1.7025261271606216],[33.952036858520536,1.702526327280004],[33.951168629758754,1.70920117435827],[33.951977429550546,1.711319408034375],[33.951972975473055,1.71222397553095],[33.95214395972783,1.712866277148163],[33.95195911028774,1.7150398214607676],[33.95195364576215,1.716149598342426],[33.95179859885404,1.7169271883559336],[33.951549014759514,1.719861912361117],[33.95062414580572,1.7228172958907386],[33.9506229504912,1.722823290622544],[33.95061157441923,1.722830027973108],[33.948677665090976,1.7241445770830133],[33.94850277950016,1.7247858987782],[33.94810219863388,1.727452184562268],[33.94772486036284,1.727638600464615],[33.94762650877,1.727999264884972],[33.94501712725624,1.728976330994042],[33.94501708938476,1.7289763168028676],[33.94501700742581,1.728976357292934],[33.95135484444161,1.73417808420052],[33.956208871286826,1.735434467279222],[33.959859702664836,1.73502861814358],[33.96890848860468,1.732131680551443],[33.971584145549365,1.741671045067711],[33.97525350124853,1.743210432581552],[33.97391608665932,1.745018295992152],[33.972413422778935,1.745578812578059],[33.970559744435405,1.749183932744531],[33.96790887042099,1.748237979778645],[33.966953335713555,1.752975636321558],[33.96523135405244,1.755446611573488],[33.978476504126064,1.7565029742809308],[33.97848692456174,1.7564991736850517],[33.98922811725884,1.751952420677291],[33.98922898876123,1.751952030532296],[33.994995291553465,1.747209443752861],[33.99838647721023,1.743199778858514],[33.99838713117845,1.743199879054686],[33.998387241934694,1.743199748090045],[34.00421127837106,1.7440921594367877],[34.01292945178104,1.743343917461005],[34.01508647540097,1.738650308670031],[34.017073946770054,1.736472688034574],[34.020622988238685,1.72682269499294],[34.02062310470406,1.7268225562885222],[34.020623161129755,1.726822402866857],[34.02524197064794,1.7213216695579194],[34.02835192449422,1.7153691001776712],[34.029368818857584,1.713422702984409],[34.02936883750366,1.7134226901852339],[34.0293690719049,1.713422241532387],[34.03560760800096,1.709140195190929],[34.040887048247946,1.7074850298839663],[34.043085249017295,1.7067958567737513],[34.042556770119475,1.704812386061776],[34.04074718715856,1.692339373243225],[34.04074698961209,1.692339007173917],[34.03260283066814,1.678169029518231],[34.03069304653007,1.6737082514432988],[34.0299816473546,1.672389972221211],[34.02983462108724,1.6717031843165946],[34.02961753147342,1.671196117276758],[34.026711623473226,1.6571150632556682],[34.026711271448136,1.657113418878921],[34.02679778798284,1.652744238337187],[34.02756398893436,1.6498807403725553],[34.028033730697764,1.6481251538490709],[34.0115,1.6488],[34.01111959708979,1.6486663817734748],[34.01001707033082,1.648727479002899],[34.0050355763452,1.647246401889257],[34.002110940824636,1.645502050898975],[33.99046771690932,1.6414123163337402],[33.98249588567805,1.6388682186131862],[33.95403826932412,1.6354716644032024],[33.95087301766021,1.6356120537396157],[33.9228872344011,1.6406688908136626],[33.929236735963514,1.6668139216862954],[33.93188707631212,1.6736233509893628],[33.935418213216124,1.6826957394545803]]]}},{"type":"Feature","properties":{"n":"Toroma Town Council","c":"207208","d":"Katakwi","od":"Katakwi","dc":"207","k":"TOROMATOWNCOUNCIL","a":["TOROMA","TOROMATOWNCOUNCIL"],"lat":1.744074,"lon":33.963551},"geometry":{"type":"Polygon","coordinates":[[[33.944129014724346,1.760026472157157],[33.94542544134674,1.759466949682585],[33.94640001539641,1.758849342360831],[33.94679024788835,1.7588779152395408],[33.94725557009521,1.758677087650723],[33.94880024485079,1.759025087503771],[33.954975510405525,1.759477241328327],[33.9549454215024,1.759597876306704],[33.95497552215367,1.759477241591122],[33.96185270310686,1.759585173692549],[33.964574988851226,1.76059669743221],[33.96766580121312,1.7562088418505355],[33.965250386625556,1.7554481295102689],[33.96523135405244,1.755446611573488],[33.966953227512654,1.75297579158555],[33.96790828914488,1.748240731440373],[33.96790831367856,1.7482407401749256],[33.96790887042099,1.748237979778645],[33.970559744435405,1.749183932744531],[33.972413422778935,1.745578812578059],[33.973915952880176,1.7450183458938169],[33.97397567800703,1.744937742797973],[33.97525350124853,1.743210432581552],[33.971584145549365,1.741671045067711],[33.96890848860468,1.732131680551443],[33.959897594103545,1.7350164873302374],[33.95985978825621,1.735028593713849],[33.959859774035216,1.7350285952945987],[33.959859702664836,1.73502861814358],[33.956208871286826,1.735434467279222],[33.956208730826184,1.7354344309233505],[33.95620869350315,1.735434435072032],[33.95562743649601,1.73528397267838],[33.95135484444161,1.73417808420052],[33.95135466378994,1.7341779359321696],[33.951354532653816,1.734177901986677],[33.94386628448367,1.7285450880165245],[33.94385280861658,1.728540038349285],[33.953478601522555,1.745857658251549],[33.948678493381024,1.750251956961332],[33.946516948708044,1.756263139345341],[33.94439712413092,1.7596039177237979],[33.944129014724346,1.760026472157157]]]}},{"type":"Feature","properties":{"n":"Guyaguya","c":"207301","d":"Katakwi","od":"Katakwi","dc":"207","k":"GUYAGUYA","a":["GUYAGUYA"],"lat":2.022765,"lon":34.056163},"geometry":{"type":"Polygon","coordinates":[[[34.00363619978671,2.069260187219811],[34.0126263634523,2.071877650972492],[34.01721406820982,2.072163174467249],[34.03048078398309,2.069604522173867],[34.03075854211667,2.078927124522759],[34.03249088847726,2.079669559744162],[34.03846025875947,2.078660815380623],[34.043814044129384,2.081016450564288],[34.043631777509695,2.076810421690371],[34.081854237030406,2.071745771420789],[34.09081448828392,2.063712215694731],[34.10023764932901,2.078299602019145],[34.10786504797836,2.088323997615849],[34.114931669326175,2.095961970619463],[34.11521744894772,2.100316195605281],[34.11314745322472,2.1045281350275],[34.11261430867448,2.110060608524099],[34.120400488888826,2.12133769726353],[34.1306780137738,2.109843213875963],[34.13952953942371,2.105674304966052],[34.152366861700465,2.095877001234886],[34.138979289710896,2.070097704859468],[34.12360730084359,2.05643914470178],[34.11249671703705,2.05201143321879],[34.11249600594263,2.0520104526568357],[34.11249599607143,2.052010448722616],[34.11227769894944,2.0517094187486684],[34.10830661656286,2.0462335041522],[34.10661176479809,2.037359775939284],[34.10656596851514,2.037120032354232],[34.10472071927328,2.033147311135447],[34.104247490314414,2.032128485067248],[34.10283775794581,2.030066997882279],[34.100297961972174,2.028413307406853],[34.0946459535133,2.020574638129046],[34.09351255802015,2.017210449376198],[34.09696787278861,2.00338209177719],[34.09700500205744,2.002815661438487],[34.09720222195594,1.9998049447063235],[34.09606738527639,1.997516462705779],[34.09684375771711,1.9952764416665305],[34.096995420753125,1.9948387353238526],[34.09699482451715,1.989591649810621],[34.09408122839261,1.977891340737455],[34.09408064542587,1.9778903545695676],[34.087628033589624,1.9675476259089506],[34.087625493156565,1.967544010895751],[34.08762076771024,1.9675414512770477],[34.08360426379323,1.9655871445137436],[34.080550465701,1.964380287493318],[34.07970562522059,1.965435951908889],[34.07970317775537,1.9654351988423284],[34.07970284165729,1.965435618860571],[34.076827278637445,1.9645503064068355],[34.07673606583719,1.964522240917172],[34.07475069241271,1.956870093996769],[34.068912395746544,1.955727751596129],[34.06822371124112,1.9549152724624903],[34.06405933606544,1.9500039182295656],[34.05997514101344,1.950688053538074],[34.05997478913371,1.9506871444608163],[34.059974448560155,1.950687201533172],[34.05819632655082,1.9460925067020656],[34.05786857027643,1.94524575211276],[34.053842476229235,1.945259708664245],[34.05384179020448,1.945258752974325],[34.05384154736279,1.945258753777033],[34.04832007439978,1.9375665930492536],[34.04670399829387,1.936964818231004],[34.0467032537538,1.936963972741718],[34.046703148002564,1.936963933375083],[34.04633434178542,1.9365450414754675],[34.04214019635099,1.931782228641282],[34.03742841586797,1.931068603803046],[34.033917944539496,1.9277607830548036],[34.03333275769361,1.9274838622632011],[34.029160241827704,1.925510305716578],[34.029160119973156,1.925509296107577],[34.02915951370068,1.92550900920869],[34.028873570754946,1.9231421635124426],[34.027749373626634,1.9232538988035741],[34.02751752616225,1.923277290990565],[34.02751719318909,1.9232769754937118],[34.02751659833325,1.923277034617142],[34.02669841596668,1.9225011723094412],[34.02667764065685,1.922481487404836],[34.026621493285646,1.927772045760454],[34.02688984779043,1.9285026099725213],[34.031125549780086,1.934077940013917],[34.03112813334606,1.934081007981387],[34.03112837863311,1.934083873368526],[34.03273547606327,1.947717078888557],[34.032564887303714,1.9508648383535492],[34.03264563313182,1.951808092607368],[34.03251405062134,1.951802893407812],[34.032427672307996,1.95339677423616],[34.0306592385248,1.957667039804017],[34.031880783501535,1.972156061879549],[34.02984034147738,1.976858795388938],[34.03093224942019,1.977450221339186],[34.02988459814082,1.982257638293959],[34.03021749156015,1.993143217713353],[34.028702697321684,1.998921688284187],[34.026211101931544,2.001595375191462],[34.02427672469106,2.006381189735527],[34.02113626105745,2.010307135914641],[34.01521522251796,2.024954687699148],[34.013997042338346,2.03220678290626],[34.01243629122764,2.035671144910597],[34.0071249987994,2.042429581764413],[34.00195622917348,2.063631087176243],[34.003201305571864,2.065364028496694],[34.00363619978671,2.069260187219811]]]}},{"type":"Feature","properties":{"n":"Okulonyo","c":"207302","d":"Katakwi","od":"Katakwi","dc":"207","k":"OKULONYO","a":["OKULONYO"],"lat":2.14977,"lon":34.078804},"geometry":{"type":"Polygon","coordinates":[[[33.9842825182,2.0989595397],[33.9832182268,2.1006286804],[33.9909025957,2.1030527797],[33.9907730113,2.1038052584],[33.9916109067,2.1039213872],[33.9915336614,2.1061151658],[33.9948617877,2.1066550476],[33.994134607,2.1101172327],[33.9956053113,2.1111643836],[33.9948609244,2.1224438787],[33.9989152297,2.1313096314],[33.9993190381,2.1457052435],[33.9981357975,2.1478907522],[33.9913093068,2.1538205372],[33.9923175552,2.153855809],[33.9941072287,2.1747017495],[33.9953922295,2.1776795321],[33.9983542122,2.1788695203],[34.0046739681,2.1857143004],[34.0041338525,2.1878510623],[34.004727704,2.1903329355],[34.0069980267,2.1891900687],[34.0136585104,2.1919142809],[34.0160309062,2.1967262738],[34.0156388294,2.1974744857],[34.020917277,2.1995542615],[34.0263430512,2.2034251985],[34.0155797535,2.2141917467],[34.008802029,2.2179384758],[34.0090360888,2.2200216076],[34.0154606317,2.2321568579],[34.0204105355,2.2368773725],[34.0661926933,2.2084857921],[34.06637731955488,2.209040337392172],[34.0754,2.2035],[34.16116230367755,2.150196781974935],[34.1621086637,2.1493437149],[34.1855864061,2.1348634919],[34.17639194190604,2.125632883310475],[34.158482182301064,2.107652748346931],[34.15236686715635,2.095877011740819],[34.14787848584296,2.0993024805200218],[34.13952953942371,2.105674304966052],[34.1306780137738,2.109843213875963],[34.120400488888826,2.12133769726353],[34.12039797041844,2.1213340496451516],[34.1203978589,2.1213341743],[34.11799826155776,2.1178584391370823],[34.11261430867448,2.110060608524099],[34.11314745322472,2.1045281350275],[34.11521744894772,2.100316195605281],[34.114931669326175,2.095961970619463],[34.10786504797836,2.088323997615849],[34.10023764932901,2.078299602019145],[34.100237471117566,2.07829932614153],[34.1002374039,2.0782992378],[34.10015083791593,2.0781652148836725],[34.09081448828392,2.063712215694731],[34.08202113441195,2.0715961350571157],[34.0818544473,2.0717456645],[34.08185434050046,2.0717456786519115],[34.081854237030406,2.071745771420789],[34.064443383701885,2.0740527889207003],[34.04363178158144,2.076810515650915],[34.043814044129384,2.081016450564288],[34.03846025875947,2.078660815380623],[34.03249088847726,2.079669559744162],[34.03075854211667,2.078927124522759],[34.03048078398309,2.069604522173867],[34.01791330521512,2.072028317853313],[34.0172143901,2.0721631257],[34.01721433790887,2.072163122452409],[34.01721406820982,2.072163174467249],[34.0126263634523,2.071877650972492],[34.009035405429046,2.0708321524907194],[34.0036381828,2.0692607883],[34.00363817857006,2.069260763337652],[34.00363619978671,2.069260187219811],[34.003632568957244,2.0692276591074155],[34.00290890116617,2.064957049714059],[34.00210538714934,2.063838690516877],[34.0005767703,2.0629689593],[33.997430752,2.0629870683],[33.9923343645,2.0651445071],[33.9857808717,2.0665625292],[33.9854343119,2.0751722411],[33.9878185025,2.0768283637],[33.9909605727,2.0836804173],[33.9887937987,2.0845233895],[33.9821659558,2.0912511385],[33.9822142774,2.0976588326],[33.9842825182,2.0989595397]]]}},{"type":"Feature","properties":{"n":"Ongongoja","c":"207303","d":"Katakwi","od":"Katakwi","dc":"207","k":"ONGONGOJA","a":["ONGONGOJA"],"lat":2.171666,"lon":33.946093},"geometry":{"type":"Polygon","coordinates":[[[33.878567861077244,2.248820221165692],[33.87981925491609,2.24840984645681],[33.87853761903937,2.2502210381860874],[33.878871668366706,2.2506306322376273],[33.879602965329404,2.250814042901496],[33.87943776332122,2.2513247486659504],[33.879783420358216,2.251748575492233],[33.881388379761404,2.251676218798644],[33.88245827681706,2.253710012096612],[33.88344669161612,2.252929065249913],[33.884004926535894,2.256089473736098],[33.88536422618169,2.25424941038349],[33.88619936660026,2.256581106312579],[33.88749107470544,2.257625561596148],[33.886491464913206,2.257933569126039],[33.88624162414347,2.25940882364461],[33.88846302208136,2.259873287950233],[33.8885972581961,2.26074017134356],[33.88762402691347,2.261204882027059],[33.88736271495221,2.2610419155067767],[33.89065393019437,2.2650774338425648],[33.89095178469653,2.265025548927874],[33.89088878961897,2.2653654063525943],[33.902383840273345,2.279460044434101],[33.90392864644988,2.278996120137667],[33.903158979378674,2.280289340920554],[33.90461107544653,2.28166355480073],[33.907085984302974,2.280338127614119],[33.9080087455132,2.281348536500941],[33.90997059694223,2.281318271508718],[33.910596120130634,2.282389197820644],[33.91252859169994,2.286254604149325],[33.91062615672323,2.288695130583203],[33.91246999223327,2.291104950168197],[33.91178614585724,2.294138144747287],[33.91297566481946,2.296189985749258],[33.912618969243134,2.297558737867326],[33.91345935042986,2.299504505436881],[33.910471338340756,2.300891801082209],[33.910822470495845,2.303043753566894],[33.908541483164925,2.303932521057958],[33.90904990823392,2.3056465449439982],[33.98582969147532,2.258500255474643],[34.02041052533891,2.236877379322354],[34.019861946962266,2.2363542067363014],[34.0154606317,2.2321568579],[34.0090360888,2.2200216076],[34.008802029,2.2179384758],[34.0155797535,2.2141917467],[34.0263430512,2.2034251985],[34.020918389444695,2.199555055156936],[34.016714289716475,2.197898230806433],[34.0156388294,2.1974744857],[34.0160309062,2.1967262738],[34.01365864497355,2.1919145538590876],[34.008985000032816,2.1900027629783945],[34.0069980267,2.1891900687],[34.004727704,2.1903329355],[34.00472684600754,2.1903293497071172],[34.00472682560416,2.190329359950968],[34.0041339255006,2.187851507265433],[34.00413394271764,2.187851439345009],[34.0041338525,2.1878510623],[34.004673923352634,2.1857144774259356],[34.001328418980464,2.182090814240199],[33.9983542122,2.1788695203],[33.9953922295,2.1776795321],[33.9941072287,2.1747017495],[33.994107204667074,2.174701469566823],[33.99410717415581,2.174701398878758],[33.99231739379963,2.153855803353691],[33.9913093068,2.1538205372],[33.99807651888796,2.147942244165628],[33.9981358570373,2.1478906422314274],[33.9993190381,2.1457052435],[33.998980890783336,2.1336504234334064],[33.99891518598153,2.131309535798626],[33.9948609244,2.1224438787],[33.9956053113,2.1111643836],[33.994134607,2.1101172327],[33.99413508200631,2.1101149711441507],[33.994135045771834,2.110114945343982],[33.99486166065607,2.106655026991194],[33.9915336614,2.1061151658],[33.99160209209538,2.1041717233497064],[33.99161053758436,2.1039213360421156],[33.9907730113,2.1038052584],[33.99077347008424,2.1038025943033145],[33.99077343725533,2.103802589715085],[33.990774616573475,2.1037959367988144],[33.9909025957,2.1030527797],[33.9832182268,2.1006286804],[33.9842825182,2.0989595397],[33.9822142774,2.0976588326],[33.98221426209195,2.0976568026742646],[33.98221416724602,2.097656743026957],[33.982206483832115,2.0966253651874625],[33.9821659558,2.0912511385],[33.98858804720886,2.0847322424269135],[33.98879317348165,2.084523978233347],[33.98879324667745,2.084523949843568],[33.9887937987,2.0845233895],[33.9909605727,2.0836804173],[33.9878185025,2.0768283637],[33.9854343119,2.0751722411],[33.98574308638121,2.067501243698323],[33.98578086000786,2.066562528647279],[33.9770394233482,2.066385741251222],[33.97523493030866,2.065290774376709],[33.966340894162336,2.067033858429025],[33.95495887944425,2.067159784808434],[33.95309376485321,2.067857374863078],[33.945257481468055,2.066296966577749],[33.94123821176806,2.062834986114047],[33.93612120954628,2.050644078747949],[33.933895362651626,2.048067103490465],[33.92917504624143,2.045220433100271],[33.920316584584064,2.044610398710945],[33.9139172892804,2.039919283005942],[33.91225469654829,2.039594487808004],[33.90228069651901,2.0432311919074424],[33.9028700073624,2.044601213697211],[33.905214186709024,2.047345344698492],[33.90447911360733,2.048342041890546],[33.90473768977408,2.0489431762269152],[33.905110312788025,2.049240402968161],[33.90500332992478,2.0495607328165857],[33.90531194087672,2.050278187337335],[33.9068991007861,2.051323860700168],[33.90699465882168,2.052999466969895],[33.90817446312452,2.054579418355178],[33.9071955551143,2.054657187958022],[33.9073,2.0549],[33.90515394784326,2.056634360518508],[33.90496941289131,2.057109511205138],[33.904627604156325,2.0570597321512154],[33.894400970352144,2.0653245219194925],[33.894566217764435,2.066435759168025],[33.89298805648122,2.067638482985541],[33.8920667149167,2.0672109814142585],[33.88299977427996,2.0745385497655873],[33.88585323198687,2.076183597561718],[33.88719859324941,2.078190767286781],[33.88723212739377,2.079764465673184],[33.88802956459762,2.079322498800927],[33.890060518133716,2.08190673157858],[33.89270110255619,2.08247413340958],[33.89214846696852,2.083379949003115],[33.888823331678246,2.084331990871646],[33.88999017372124,2.086819945842604],[33.88951757776264,2.0872021586138056],[33.89196464911584,2.0917564302989256],[33.89401251130592,2.094958128845181],[33.89604139396525,2.09422423224189],[33.895927997512864,2.092341521274857],[33.89790998552088,2.092122408942426],[33.90029532479659,2.095975326520965],[33.89974352677055,2.097813404140271],[33.90127491615102,2.097775865819886],[33.901521759469176,2.099015673167809],[33.90409421699493,2.1003846417926244],[33.90529426979533,2.098786792264209],[33.90708598753317,2.098550936076175],[33.909848175745715,2.099869624507865],[33.90967143348707,2.101679354272481],[33.911284784915125,2.102230430946622],[33.910693258802965,2.103896412579357],[33.9107,2.1039],[33.91697032077695,2.1190057727808327],[33.91744736648496,2.11926252735404],[33.91718122299163,2.119513855388939],[33.9173,2.1198],[33.909931640316366,2.128368822778159],[33.91060754432005,2.128491314472164],[33.91086300163393,2.130825164102386],[33.909648027071086,2.13090731747622],[33.90831191872557,2.13238262327393],[33.90794586681633,2.132997967676261],[33.909231935730965,2.132862345285433],[33.90853250891666,2.134191900082842],[33.90685440901078,2.13384896168095],[33.90370952886584,2.136311355644871],[33.903420439581815,2.135940837115535],[33.899521739251966,2.1404747189598],[33.89965376905119,2.140872994512148],[33.90084321175512,2.140726663891898],[33.90092484893936,2.142238206672152],[33.8999488850557,2.142908201069391],[33.901363937674304,2.143692019124738],[33.89983545063764,2.144020948625489],[33.89989375139174,2.146653325436186],[33.90212644669738,2.146670881704994],[33.90367549424207,2.148523541832884],[33.90006691471105,2.149647497018577],[33.899261083161846,2.150568638179514],[33.899206929965786,2.1528508085847706],[33.900360616180954,2.152894411369738],[33.901136804213785,2.154316037164187],[33.89909448020491,2.1575897627933207],[33.89891208277309,2.1652765117055535],[33.898948027161445,2.165360726488279],[33.90007747076666,2.165635775820646],[33.89925808957269,2.168630273917215],[33.8988229728404,2.1690318588688884],[33.8988,2.17],[33.89875083823612,2.1701255515816],[33.899102369545155,2.170202743436524],[33.89757476250988,2.173129068051689],[33.89372585460763,2.182958586694359],[33.895045883793166,2.182708982465766],[33.8939697574912,2.185489863921484],[33.894272082773504,2.186669120212226],[33.888716259081605,2.187977414720249],[33.88811876513324,2.188786503814576],[33.88713447022932,2.1883218432568916],[33.885097950339166,2.189000683220278],[33.88494467578555,2.189274012593431],[33.88460843553773,2.1891638548207553],[33.88277612782513,2.189774624058288],[33.88247017787726,2.19016651439848],[33.88245808130488,2.190281677146369],[33.883021658352,2.1939851834560335],[33.88383806986283,2.194497547237344],[33.88324061451578,2.1954240382465415],[33.8852,2.2083],[33.8851560551338,2.208496253777462],[33.88542024291123,2.209342245433549],[33.884758863371395,2.2102700760800205],[33.882210070805755,2.221652751969745],[33.882422393244596,2.222488434330452],[33.881972382327774,2.2227142471043715],[33.88067698134111,2.2284993901470753],[33.8819965426125,2.228569098494115],[33.882134062934085,2.231198296587722],[33.88292224802886,2.23188726961941],[33.881536496873615,2.232770600349337],[33.881887209444386,2.233912899348405],[33.88303357557809,2.23326478293114],[33.883611921168146,2.2338657879329],[33.88274436122255,2.236244139156307],[33.88144845585873,2.236078372576157],[33.88163426424207,2.237148374654121],[33.88002054097515,2.237295188750124],[33.879215968842914,2.238478587245164],[33.87926979519204,2.23926668221351],[33.88031777818743,2.238423849073711],[33.880566162674924,2.238922280604462],[33.87756548525898,2.242395048786586],[33.877548730958004,2.2424698719716205],[33.878293802228406,2.243205271297481],[33.87753263188178,2.246691126659063],[33.876407042425754,2.2476086350591418],[33.876680406680855,2.2479438202058546],[33.87823676962763,2.247926111626092],[33.878567861077244,2.248820221165692]]]}},{"type":"Feature","properties":{"n":"Usuk","c":"207304","d":"Katakwi","od":"Katakwi","dc":"207","k":"USUK","a":["USUK"],"lat":2.009197,"lon":33.911995},"geometry":{"type":"Polygon","coordinates":[[[33.88579930475914,2.0064297123906556],[33.8833,2.0152],[33.88366102144258,2.0155668917099363],[33.88576565562543,2.016939688396552],[33.887525855096,2.015754041705745],[33.890940153239576,2.0170092133538],[33.8922253206337,2.016385990534971],[33.89265215012629,2.017532947619884],[33.89405405371465,2.017207365881955],[33.894580593916714,2.01925969428664],[33.89790801200668,2.019337953944721],[33.895856360669065,2.020525454627253],[33.896068169356745,2.021855018384114],[33.893698211446385,2.02305945976356],[33.89583318858458,2.024053644469582],[33.89578616218384,2.026939510233796],[33.89546914461594,2.02756701688611],[33.8956,2.0277],[33.89912303204134,2.035890296711491],[33.90003262426888,2.035789838209173],[33.89948819975737,2.0367392336239676],[33.90002252564884,2.0379814271494507],[33.90008232090014,2.038087379979141],[33.901330675062745,2.038134191289219],[33.90089134068936,2.039610239577242],[33.90178381473782,2.040301514341589],[33.90181602333266,2.0421509260383206],[33.90228069651901,2.0432311919074424],[33.91225469654829,2.039594487808004],[33.91292296353865,2.039725036862632],[33.913264559078875,2.039612016557379],[33.913614655996845,2.0398601621910024],[33.9139172892804,2.039919283005942],[33.920316584584064,2.044610398710945],[33.92917504624143,2.045220433100271],[33.929593492982605,2.0454727848166483],[33.92989254315693,2.04550058382215],[33.930783644797124,2.0461905269415044],[33.933895362651626,2.048067103490465],[33.93528443469461,2.04967530228178],[33.935648393408485,2.049957100450519],[33.93577017954908,2.0502376736085934],[33.93612120954628,2.050644078747949],[33.94123821176806,2.062834986114047],[33.945257481468055,2.066296966577749],[33.95070425618119,2.067381561400697],[33.953093920313805,2.067857316717714],[33.95495887944425,2.067159784808434],[33.95495897739076,2.06715978372479],[33.95495898836114,2.067159779619557],[33.95697036387575,2.067137530492483],[33.966340894162336,2.067033858429025],[33.97523493030866,2.065290774376709],[33.9770393525022,2.0663856982618487],[33.97710783290418,2.0663871247706296],[33.98578086000786,2.066562528647279],[33.98578064839833,2.066567787370438],[33.98578066003734,2.0665677876128887],[33.9857808717,2.0665625292],[33.992334327988125,2.0651445150003136],[33.99254044037542,2.0650572696029736],[33.997430752,2.0629870683],[33.997431181379234,2.0629870658284224],[33.99743121175885,2.062987052969023],[33.99743129741713,2.062987065160489],[34.0005767703,2.0629689593],[34.001668537520175,2.0635901378728763],[34.001956218480935,2.063631082575817],[34.007124852545836,2.042429987485752],[34.00712492117864,2.042429900152942],[34.0071249987994,2.042429581764413],[34.01243629122764,2.035671144910597],[34.01243637004913,2.035670969952408],[34.013997009358995,2.032206856109734],[34.0147892155207,2.0274908012845954],[34.01521522251796,2.024954687699148],[34.02113626105745,2.010307135914641],[34.021136315492825,2.010307067864071],[34.02113648289867,2.0103066537299],[34.022519241672576,2.008578248688048],[34.02427672469106,2.006381189735527],[34.026042485287064,2.0020125471745946],[34.026210896444965,2.001595803108001],[34.02621095389119,2.001595741455954],[34.026211101931544,2.001595375191462],[34.02779448530927,1.9998962745176605],[34.02870274071224,1.9989215227626642],[34.02870346100698,1.998918775061465],[34.03015639474438,1.9911453583334011],[34.02988463009726,1.982258683266082],[34.0298845925999,1.982258291273062],[34.02988461497007,1.9822581886088861],[34.02988459814082,1.982257638293959],[34.03093224942019,1.977450221339186],[34.02984034147738,1.976858795388938],[34.031880783501535,1.972156061879549],[34.0306592385248,1.957667039804017],[34.03078470290604,1.9573640789398281],[34.03073490490953,1.956692050031978],[34.031248304215914,1.9562446133824751],[34.03217291227791,1.9540119473881747],[34.03246918942922,1.9526306867657361],[34.03251405001377,1.9518029046188319],[34.027033300118525,1.9515863333537753],[34.0191535307883,1.951274981236748],[34.0039210048174,1.953319797873321],[34.005158160135636,1.957999222301975],[34.004977018211335,1.960691668338429],[34.004976772092924,1.9606922603731642],[34.00497676890114,1.960692307805517],[34.00311181192614,1.9651783985574582],[34.00185516610761,1.968201244241254],[34.000950416471994,1.9686500438423273],[34.000306520616824,1.970312797619092],[33.999399560290996,1.972655595143676],[33.99939916097138,1.9726559027427195],[33.99939913638667,1.972655966228632],[33.9991526547078,1.9728457884574975],[33.997608845904175,1.97403499652832],[33.99699006347769,1.9757339645448757],[33.99712095054143,1.9810395462781953],[33.99860632641623,1.98359676938802],[33.98655290520925,1.988974664234436],[33.98636768013186,1.98893126016779],[33.9860653531614,1.989063060670391],[33.9774233180518,1.99510973104924],[33.97582231134104,2.006147634425965],[33.98598415105365,2.001657984730067],[33.98749853458705,2.003946356967174],[33.98663782884727,2.005594465960178],[33.98455374377987,2.006660420326661],[33.98546621669037,2.011173432121164],[33.98263106567341,2.012399776580879],[33.980793341947745,2.017573890380171],[33.97727751440648,2.0170472986038],[33.975709555321856,2.021153741696451],[33.97144558062124,2.017626033126109],[33.968874342309384,2.020079620698468],[33.96558262536719,2.021782875817771],[33.96041905805915,2.021893173444661],[33.9547307627426,2.019229924536433],[33.95141099283935,2.018544020081365],[33.94945976625854,2.015947369730083],[33.93820928276571,2.01147689955294],[33.93848839959904,2.009816282330432],[33.94250120049937,2.0047649388245],[33.935807513770314,2.001897588707009],[33.93648736192134,1.998939206349583],[33.93785649520576,1.998630680284908],[33.94032743541747,1.995375112798418],[33.941403998516094,1.994893479452631],[33.94615129908819,1.995504068842493],[33.94945365441938,1.992957890330288],[33.948480704126894,1.992409233072329],[33.9451311070358,1.986286181494813],[33.94404880067988,1.981304009393878],[33.9356138418638,1.9811509481970564],[33.928668846597546,1.98326427819694],[33.92866851623907,1.9832642995927101],[33.92866840304461,1.983264342948194],[33.921786088858475,1.98371004215556],[33.921624259461225,1.98372052308711],[33.91226819736261,1.979808745170101],[33.90321004938815,1.9785218360300936],[33.897616712539715,1.977727191797754],[33.89742063288878,1.978641885387412],[33.89545066329047,1.979293460491657],[33.89161491573899,1.989951036611864],[33.89033793830899,1.9905032346611837],[33.88982189886111,1.9923140639964672],[33.89374497513859,1.99306435778383],[33.89384147571534,1.994346647528098],[33.889044368490836,1.996674501614373],[33.888441499901965,1.9971580094349115],[33.88585172604943,2.006245761317449],[33.88587414332795,2.006346018699206],[33.88579930475914,2.0064297123906556]]]}},{"type":"Feature","properties":{"n":"Usuk Town Council","c":"207305","d":"Katakwi","od":"Katakwi","dc":"207","k":"USUKTOWNCOUNCIL","a":["USUK","USUKTOWNCOUNCIL"],"lat":2.000299,"lon":33.956423},"geometry":{"type":"Polygon","coordinates":[[[33.94249971758799,2.0047643035951714],[33.94250120049937,2.0047649388245],[33.93848839959904,2.009816282330432],[33.93820928276571,2.01147689955294],[33.94945976625854,2.015947369730083],[33.95141099283935,2.018544020081365],[33.9547307627426,2.019229924536433],[33.957162384715794,2.020368405259558],[33.96187389619364,2.0218620970232317],[33.964207320476646,2.0218122533501295],[33.96887373400193,2.0200799354590644],[33.968874342309384,2.020079620698468],[33.97144558062124,2.017626033126109],[33.975709555321856,2.021153741696451],[33.97633907822318,2.0195050379801662],[33.977275773933485,2.017049110950769],[33.97727676576595,2.0170492592734215],[33.97727751440648,2.0170472986038],[33.98079233865676,2.01757374010978],[33.982630127849745,2.012401131215605],[33.98263066759434,2.0124008973730603],[33.98263106567341,2.012399776580879],[33.9839922341957,2.0118110031906546],[33.985466025782635,2.0111724879080812],[33.98477802448009,2.007769693197923],[33.98455354093352,2.006661902230241],[33.98455399625885,2.006661669065802],[33.98455374377987,2.006660420326661],[33.98663782884727,2.005594465960178],[33.98749853458705,2.003946356967174],[33.98598415105365,2.001657984730067],[33.97582231134104,2.006147634425965],[33.97716455593582,1.9968937280896935],[33.977422846844306,1.995111189029881],[33.97742313591976,1.9951109867315702],[33.9774233180518,1.99510973104924],[33.9860653531614,1.989063060670391],[33.986065366612124,1.9890630548065025],[33.986065444515575,1.989063000288774],[33.98189420525402,1.9878829841758376],[33.98189388170827,1.987882908358882],[33.97451899252578,1.983509261517817],[33.968243775034765,1.9825629596528256],[33.96750463164835,1.9825618215497842],[33.95970187505486,1.982549877411944],[33.9541145284619,1.980481634154303],[33.95410927283738,1.980482063541984],[33.9457398677177,1.981282488696598],[33.94478269334741,1.981244050689692],[33.944048812382164,1.981304009205466],[33.94417961972124,1.9819062076296676],[33.9451311070358,1.986286181494813],[33.948480704126894,1.992409233072329],[33.94945365441938,1.992957890330288],[33.949449871085164,1.9929608073526304],[33.949450163030605,1.992960973307932],[33.94753465879307,1.9944374723070022],[33.94615129908819,1.995504068842493],[33.941403998516094,1.994893479452631],[33.94033791397873,1.9953704248943596],[33.94032742895334,1.9953751213151842],[33.93810732933579,1.9983001957857773],[33.93785704972106,1.998630052352602],[33.93785695590427,1.9986300732952678],[33.93785649520576,1.998630680284908],[33.93648736192134,1.998939206349583],[33.93580778163226,2.00189642309662],[33.9425003536671,2.004763502946138],[33.94249971758799,2.0047643035951714]]]}}]}
