{"type":"FeatureCollection","name":"Kazo sub-counties","metadata":{"source":"Uganda Bureau of Statistics NPHC 2024 Map Explorer","retrieved":"2026-07-26","display_only":true,"clipped_to_dashboard_district":true,"positive_area_overlaps_removed":true,"source_gap_ratio":0.0059384},"features":[{"type":"Feature","properties":{"n":"Buremba Town Council","c":"433101","d":"Kazo","od":"Kazo","dc":"433","k":"BUREMBATOWNCOUNCIL","a":["BUREMBA","BUREMBATOWNCOUNCIL"],"lat":0.127649,"lon":30.681401},"geometry":{"type":"Polygon","coordinates":[[[30.61966511923934,0.1655549307509457],[30.621054399908243,0.164229018866059],[30.623129269949743,0.164391452946106],[30.625462929224096,0.16569430118327155],[30.6257,0.1657],[30.626138480711134,0.16607145181261912],[30.626222141500843,0.166118158422101],[30.626285621440093,0.16619609969129004],[30.6414,0.179],[30.641431090671617,0.1791765950147829],[30.641961626635183,0.179489290708862],[30.64346404909777,0.186106794301915],[30.643729986284338,0.19223432209504446],[30.6439,0.1932],[30.6567,0.1959],[30.665,0.2082],[30.6847,0.2085],[30.6974,0.2022],[30.7124,0.2059],[30.7298,0.1957],[30.7452,0.1995],[30.75375697988216,0.19647375101728629],[30.75390197401072,0.194701133557395],[30.753322154232475,0.186582712553814],[30.748607174849898,0.181680240768397],[30.74532397900415,0.175542102550195],[30.744377241511827,0.170639339048109],[30.744710350518666,0.16468492265543],[30.742597428683194,0.160159296191274],[30.738885641431636,0.154915165387825],[30.738276326763476,0.152107199547613],[30.735153603486925,0.149167861391137],[30.733086448182892,0.131411753220807],[30.732033372517016,0.13046106007661],[30.728395824321296,0.130593539545065],[30.728254734053653,0.129826055233707],[30.728562330990755,0.120001508100133],[30.726491845580682,0.111590619765262],[30.72819771803127,0.107323511991922],[30.725812246104464,0.106345928005519],[30.728937888749055,0.102230961730756],[30.72904135024042,0.100866666615907],[30.73208685253317,0.101251841218185],[30.73790735087621,0.09446052282729],[30.734306607652737,0.087425953106498],[30.734312413306196,0.085665047584996],[30.736768721936212,0.08299753246108],[30.73677406528529,0.081162255046614],[30.732917809231523,0.079942121904973],[30.732335555322607,0.076180831577917],[30.731341684905754,0.074906112375886],[30.72460223494898,0.073881612011194],[30.720604617065433,0.074750167281117],[30.71958314389619,0.075259101345072],[30.717455350200048,0.081294129641996],[30.715951207703664,0.081449634827487],[30.712583674163668,0.079849196986091],[30.70594933872893,0.078472256340913],[30.702804996815598,0.068966640888794],[30.702432416620674,0.059261491347776],[30.701670385278682,0.057701335549497],[30.700625155607717,0.057918302544129],[30.69893966478213,0.057285613543164],[30.697850671045515,0.055829894157279],[30.695973828275054,0.055685174916904],[30.696576746773065,0.060094836949303],[30.694932325300694,0.061334676607142],[30.69408049661721,0.060610710804148],[30.694845346226924,0.059255918353783],[30.691438252144867,0.058450598384658],[30.69006544160766,0.056724525040291],[30.689466411095815,0.057465131068237],[30.688189031857828,0.056462288004794],[30.687285333088624,0.056670168921658],[30.685068975377398,0.059119329674494],[30.68407459573481,0.057519786782705],[30.682932921355565,0.058260935863872],[30.68152430948511,0.057601033706108],[30.680918451261267,0.058441710374736],[30.682343501040066,0.059948633460909],[30.68124077007861,0.061487145445141],[30.679136476003322,0.061234961493701],[30.677087342730655,0.06170494087937],[30.676693715353426,0.062491292318639],[30.674272015960476,0.062066406029598],[30.67377108043829,0.063104047183357],[30.669175350552678,0.064253481182351],[30.66415121865666,0.062029778192827],[30.660266140625005,0.061992566048874],[30.645359593270356,0.047502173231822],[30.641784668875363,0.055564728768014],[30.638789256886586,0.059235885157403],[30.63578806255301,0.061684849558269],[30.634433960258452,0.061612569838246],[30.6348537470254,0.063800861202016],[30.630549313705348,0.068717464146219],[30.62617829694558,0.071098197567471],[30.62672833379579,0.071990283496522],[30.625956268980467,0.07232957807908],[30.62574158730397,0.071730128466412],[30.625188431452635,0.07243526243315068],[30.628869184984666,0.09355434007594164],[30.629251182256667,0.093649587022117],[30.62989024651625,0.094478164718679],[30.629593561583036,0.096181059886457],[30.630643158592328,0.0971782132987576],[30.63293487939466,0.09824412995100426],[30.63366748305154,0.09838175497014],[30.633853893020124,0.09867157814889436],[30.634763947248974,0.09909485918556904],[30.63501641725013,0.098942819920179],[30.637713697294014,0.099728605775313],[30.63749190453452,0.100273171108695],[30.638282532474594,0.099967136315082],[30.63819042226899,0.102641686498156],[30.63973995052507,0.104615335610081],[30.639216390180373,0.105856504227828],[30.639991599845054,0.106934641724611],[30.639800484245914,0.108568647453126],[30.638631996167714,0.110043859981679],[30.639149063748746,0.110456029386346],[30.638744435668322,0.111250043891282],[30.63773432179331,0.1111739926263046],[30.637538176689585,0.1189805677544814],[30.63796949422557,0.120954939236399],[30.637045301854997,0.12126228806662495],[30.636912546623805,0.12148484830714747],[30.636919182261583,0.123573796806483],[30.633951964752814,0.127282341645418],[30.635006459120188,0.128016053924483],[30.634616271512876,0.129850749598631],[30.63272354185537,0.130218463292539],[30.632194758514647,0.129609191215752],[30.631819938891994,0.131274122061334],[30.631054963727408,0.1313049137511117],[30.630768109436442,0.13178581653302462],[30.630604241920626,0.132216693489879],[30.630109870316637,0.13208884149867678],[30.629013694428288,0.13243961778294788],[30.62906069778669,0.13272133514139],[30.62866194548188,0.13255217744579856],[30.624177616108994,0.1339871628451226],[30.624041569974498,0.134548865244621],[30.622752864756897,0.134536819863194],[30.623099885493566,0.13513761610087],[30.622472499290854,0.135497538550681],[30.621688570675836,0.13478365738373269],[30.6211894640163,0.13494337151478475],[30.619945108885428,0.135879537949827],[30.61929642278449,0.13554914470896337],[30.619137234158647,0.13560008506923388],[30.617874075521183,0.137781926394473],[30.61932301915079,0.138937231661863],[30.619315115477228,0.140520968039466],[30.62048275943929,0.141706736156567],[30.619323658386943,0.142890751205848],[30.6177488635133,0.141282409929827],[30.616735669529984,0.142194201623482],[30.61529105474932,0.142308428259019],[30.613823270532297,0.1455419679250898],[30.61335061877135,0.147265426909983],[30.61290408148506,0.14756694830735592],[30.612197754453362,0.14912299206891083],[30.613584072750463,0.150265617902843],[30.612716878477137,0.151068737879526],[30.61372639525458,0.151833630716474],[30.61091536310657,0.153266608802844],[30.61096920336984,0.156783904561025],[30.608792210065477,0.157233729499396],[30.60861071881006,0.15702525856130353],[30.605245669986186,0.16443848642141506],[30.60584804545896,0.16522278955430186],[30.61966511923934,0.1655549307509457]]]}},{"type":"Feature","properties":{"n":"Burunga","c":"433102","d":"Kazo","od":"Kazo","dc":"433","k":"BURUNGA","a":["BURUNGA"],"lat":0.110093,"lon":30.970009},"geometry":{"type":"Polygon","coordinates":[[[30.85026720571741,0.1991507713352518],[30.850932143242787,0.199098800809593],[30.85312826165377,0.1991975206152576],[30.8594,0.1993],[30.859931852278294,0.19950335528287705],[30.86101856482025,0.199552205131054],[30.870120524797848,0.201795535669543],[30.873372574247767,0.203530627047906],[30.874106321673388,0.2049230053457073],[30.8798,0.2071],[30.880390560339666,0.2068144973192345],[30.885446326310383,0.203995129579659],[30.886049919692546,0.2040785156453247],[30.8939042138396,0.20028140655436447],[30.89401085260509,0.200082316217491],[30.89494567760927,0.19976513839745],[30.895160489300984,0.199899558738072],[30.91346756392586,0.20689650348998812],[30.91517374714777,0.20641810879986772],[30.92001748992973,0.20360412489796673],[30.92139886337781,0.202543525266733],[30.922834644048947,0.2019674925048967],[30.9245,0.201],[30.9253338786861,0.2009648038216906],[30.927841461995566,0.199958765665359],[30.936549618904532,0.199878486385643],[30.946705334763585,0.197953981748801],[30.95527676573603,0.199663878709616],[30.956053892768676,0.1994855901300101],[30.9771,0.1935],[30.977601828446613,0.1934758154965488],[30.981975975698667,0.192958348604034],[30.993660668947697,0.19268848521255],[30.99933844007403,0.193511862020131],[31.003471851281038,0.19542818182973143],[31.0134,0.1982],[31.013423103155947,0.19797435917693784],[31.013212589993053,0.189670826267048],[31.014673821378896,0.184046761688579],[31.016371573524214,0.168910628027862],[31.018871360159014,0.166071501682227],[31.031071822386156,0.156452584795806],[31.03385943506607,0.151806159592686],[31.039368530793297,0.151697389500054],[31.04161043391758,0.15078764941843736],[31.04656587428428,0.14722743012585718],[31.047256359430005,0.146652765378532],[31.047386379178516,0.14642282725135142],[31.049189749891354,0.14063618716181153],[31.04874985051747,0.139219940686056],[31.0489727239695,0.137041454666995],[31.051439848846737,0.127013741984679],[31.0499918642566,0.125431357287241],[31.04975322482984,0.123830689137959],[31.047628446314157,0.121931509301296],[31.05308149058458,0.118062363320919],[31.056392867727205,0.11748460617788471],[31.055376235991012,0.1152903760139362],[31.054880002563817,0.114770358736074],[31.05467078481841,0.1137677772330692],[31.052425996591897,0.10892277597750771],[31.05049209950299,0.107417904706528],[31.05140276899732,0.10671430975254997],[31.05049490398801,0.10475483444078898],[31.05032973188294,0.104661475907234],[31.050238732990664,0.1042019320381829],[31.049506846184546,0.10262227634831185],[31.047941893765387,0.101505274097483],[31.047461213624317,0.099780733145875],[31.048025110313574,0.09942419642680159],[31.047869696956695,0.09908876259820522],[31.047028685142973,0.09862670779234],[31.047401078166008,0.09807732704163301],[31.0444,0.0916],[31.044419997584125,0.09156421484946053],[31.044407509731872,0.091550376061951],[31.045137523661936,0.089533844621656],[31.04463439871584,0.087273307393876],[31.042775653206103,0.085447785829782],[31.044541880747953,0.085374465309005],[31.045585447064322,0.084135872908392],[31.045442135635035,0.083061265328706],[31.04679968166948,0.082137886161625],[31.049461396753873,0.082264251888671],[31.051371830529447,0.07912409273677436],[31.052,0.078],[31.052025720240113,0.07783578615927017],[31.051944196685934,0.074190307029179],[31.05335949452915,0.067751894253335],[31.052109609825706,0.063919642776393],[31.054554050069992,0.06136389648356471],[31.038159392800168,0.048482380057273095],[31.03724361369732,0.047894923442965],[31.02014059988056,0.041990199862585],[31.00845184587961,0.035389672748587],[30.99918297510479,0.024761452623635154],[30.9838,0.0282],[30.983652259221024,0.028150292822026777],[30.983499057458733,0.028236508255467],[30.979742979972407,0.027232529281592],[30.97898098868647,0.026578650399186245],[30.970248707933607,0.023640686781401313],[30.967752112031697,0.023371853782478],[30.96600420686994,0.022214590465955],[30.963509998685183,0.0256484880651],[30.952754123911024,0.019185469395237],[30.950806637717896,0.020279464761053],[30.948315794750215,0.023244361577862],[30.944072924379537,0.014833881099657121],[30.94133655432299,0.013913233230165887],[30.94030667558271,0.014423991975558936],[30.929143369548814,0.024470967406064775],[30.92900906087518,0.024646271351746],[30.92428188373196,0.025532076528597],[30.91338992727641,0.024763407819549],[30.906903676969307,0.033533325928685],[30.906920716098995,0.039111429521341],[30.90465973686695,0.047971645888332],[30.9036867154272,0.049210908796493],[30.903627403974784,0.050265136315903],[30.905204738166756,0.052412781154939],[30.902905563464326,0.054282803660362],[30.90212463653833,0.057311685998276],[30.902626285822663,0.058685458146129],[30.901700784070286,0.059834286558086],[30.90492883247164,0.069382017433351],[30.896813423584977,0.081053708866759],[30.896308564752516,0.08850499057703],[30.892464646125685,0.093638806891144],[30.89323015647314,0.099026672945339],[30.887237562928213,0.107281589971056],[30.886586039925014,0.109351966116527],[30.887514050126207,0.110833755476341],[30.885775077136895,0.119215801594555],[30.886251905826065,0.121557864015632],[30.883271197466428,0.122307675050403],[30.879912638735217,0.126529710203335],[30.881235012510487,0.130779960492806],[30.881214479762466,0.134285222491205],[30.879944686985905,0.13597745249644],[30.8811264644641,0.142324538605175],[30.881887229543967,0.142921319755016],[30.88316836949772,0.141321485542315],[30.884286086429782,0.14165660162559],[30.883290580444708,0.144648314064481],[30.885951640224036,0.145768382885894],[30.88556290744988,0.148174579792556],[30.88774962675357,0.149748318456345],[30.885755948938836,0.151492698398679],[30.88696779189383,0.152026609303447],[30.887078248293744,0.15533365408553],[30.883705017394327,0.156817729634053],[30.883898041948896,0.15927569392182],[30.880976163440312,0.16090403491429],[30.881706800424112,0.162869854766461],[30.877924186866117,0.161654460918501],[30.875450592261707,0.15960148932861],[30.872907269068616,0.159220981545651],[30.870680105529736,0.154516615916353],[30.866246522266046,0.153695257928934],[30.863647068661695,0.154123995827958],[30.86313110159483,0.156522285409981],[30.85916401539982,0.16195977395425],[30.856969412331253,0.162089353130695],[30.85555561732551,0.163641156047692],[30.856706647991647,0.170811935175733],[30.856111285791744,0.174474721585625],[30.846244643804827,0.175850913356379],[30.846948842818808,0.177303842950941],[30.845463005776395,0.177973794423307],[30.845692883734532,0.180311207454751],[30.848023766485124,0.184076145882522],[30.841860887904566,0.192570558065609],[30.84266619778024,0.19902657185915426],[30.85026720571741,0.1991507713352518]]]}},{"type":"Feature","properties":{"n":"Engari","c":"433103","d":"Kazo","od":"Kazo","dc":"433","k":"ENGARI","a":["ENGARI"],"lat":-0.024576,"lon":30.64301},"geometry":{"type":"Polygon","coordinates":[[[30.583282829523146,0.011108914899836],[30.586015236832232,0.011530016494305],[30.58603783456936,0.012139647666371],[30.584737475131572,0.011928177364606],[30.585357088821414,0.014625438110735],[30.58274458314321,0.014958270088556729],[30.582802424164186,0.0160903014990906],[30.583176368025146,0.01621884158746],[30.583030780467972,0.018115118136480413],[30.583669157546325,0.01867704287011975],[30.585896171103588,0.019250907391414],[30.58648716990485,0.020536652883981],[30.58904294338807,0.017994187038776],[30.59237925537268,0.018184372593748],[30.591610388446664,0.020909678736459],[30.590484304171806,0.021729515026914],[30.591275617671055,0.021695245999522],[30.59079207037409,0.023499611359739],[30.59192535117659,0.02504428628931],[30.591719046707347,0.02576287344898259],[30.5996,0.0327],[30.599934163306564,0.03346050959424991],[30.600869925500803,0.034091246878696],[30.60044294747728,0.03461843218967399],[30.601875636483456,0.03787903475545056],[30.60257832101379,0.037949206790936],[30.604047354235764,0.039350667957815],[30.605071130712005,0.039010307671652],[30.603512047304076,0.04160328007134711],[30.604137322755623,0.04302632075417722],[30.604697924710365,0.043031537214669],[30.605246169468,0.044236410863065],[30.605437413784777,0.045720282487163],[30.60535037983902,0.045787071357773164],[30.6054,0.0459],[30.608026442272422,0.0482036393115662],[30.60805935993872,0.047860041947886],[30.610355325767852,0.048605665453753],[30.613135855850256,0.047415224183029],[30.61418009695075,0.049946800672379],[30.61402084913449,0.05346130343081184],[30.6233,0.0616],[30.623320879831596,0.06171980231243507],[30.623575507488138,0.061817217687206],[30.624481075550797,0.063750993772623],[30.626534021286,0.065088101189384],[30.626167642028822,0.065773321018051],[30.627983534421457,0.06863375650907],[30.62748330918965,0.070339907644535],[30.630859616724223,0.06836303032816116],[30.6348537470254,0.063800861202016],[30.634722704725476,0.0631177555022042],[30.634432479762715,0.06161463387083],[30.634434375063616,0.06161473216118798],[30.634433960258452,0.061612569838246],[30.63578806255301,0.061684849558269],[30.638789256886586,0.059235885157403],[30.641784307847093,0.055565171241788114],[30.641997648347598,0.05508439446350415],[30.645359593270356,0.047502173231822],[30.660266140625005,0.061992566048874],[30.66415121865666,0.062029778192827],[30.669175350552678,0.064253481182351],[30.67377108043829,0.063104047183357],[30.674214654280675,0.062185225392517654],[30.674271548836934,0.062066603372051],[30.674271891683336,0.062066663458090546],[30.674272015960476,0.062066406029598],[30.6757171884211,0.06231996101896054],[30.67669380217781,0.06249111886912533],[30.677087342730655,0.06170494087937],[30.679136476003322,0.061234961493701],[30.68030379546033,0.06137485602494438],[30.681401987382063,0.06126221773194524],[30.68194584634778,0.06050343470532311],[30.682210995577528,0.059808515169243216],[30.680918451261267,0.058441710374736],[30.681522311417158,0.05760380618495179],[30.681524296597185,0.057601032693206],[30.68021519940289,0.057951269328536],[30.68024280911385,0.056572179432142],[30.68147665235914,0.056308315791979],[30.682699994785196,0.053046401200478],[30.684581039638516,0.051616735483667],[30.684192084731368,0.050372827216785],[30.6851207030949,0.050107090658622],[30.684602110496893,0.049085463457347],[30.686107018140916,0.046418951152773],[30.685801057542935,0.045505801242052],[30.684066638199692,0.045595946237338],[30.6832499754161,0.044700036479216],[30.684968644614464,0.042558663370395],[30.687819566470928,0.042287644963901],[30.68897127951864,0.038852508778074],[30.688284213092256,0.038282976601334],[30.68676583095323,0.03887108487027],[30.688060965730713,0.033729818705899],[30.687566608570215,0.031330664512423],[30.688841427466695,0.030646041672483],[30.68736781694982,0.02980279682201],[30.686693785247396,0.030545328958324],[30.686274645118356,0.027903541884627],[30.68699496617808,0.027105400853394],[30.6861026129239,0.026343188131756],[30.68632901386584,0.025278291474534],[30.68737568427701,0.025563503034893],[30.688171507690416,0.02452152728126],[30.68647046537203,0.022545617568607],[30.686382825311576,0.020067472693384],[30.68571654454853,0.019009794377518],[30.684801302032355,0.019036085528504],[30.685036722196,0.015276264423325],[30.685750414291174,0.014607345365053],[30.684279277683093,0.013315532943454],[30.6846059516822,0.00784918812038],[30.68398729071811,0.005664842658934],[30.681780017346732,0.003885456890627],[30.683791546429628,0.000116867537452],[30.685136382041275,9.7848143471e-05],[30.684603751863676,-0.00393434144592],[30.686278520864242,-0.005498640643428],[30.6852565181367,-0.011282721625514],[30.686703548556032,-0.014627762741116],[30.68361556041856,-0.016860794011827],[30.6840033582973,-0.020205363118221],[30.68301517097023,-0.022835959126209],[30.680863020915286,-0.023975179429518],[30.68082688909498,-0.025176280408],[30.684126861402444,-0.027310739050208],[30.684726288496485,-0.030897233387484],[30.68589151032257,-0.031713208990662],[30.684691371857966,-0.039640635726915],[30.687540214935982,-0.043492212040727],[30.686657717487357,-0.045989215048536],[30.687763438736074,-0.047858563062639],[30.68677629102461,-0.050163451015329],[30.68664695514461,-0.053960217707573],[30.687825064301215,-0.055632928287639],[30.691035073635774,-0.05488428578822],[30.692105827807474,-0.056407135816315],[30.69053538688462,-0.058643825688677],[30.68813357292074,-0.059513734242145],[30.688368515172602,-0.060180163985608],[30.690598523329008,-0.060406111343615],[30.690629736762137,-0.062448998998739],[30.687967278511763,-0.068885988046696],[30.688425851759764,-0.071651581630195],[30.687672837906728,-0.074499238524599],[30.68284142922822,-0.080374834546534],[30.679126004370115,-0.082193075014826],[30.680594142628657,-0.086928725433529],[30.67865554501073,-0.093219381501702],[30.6807085202877,-0.097704142702113],[30.67996083625927,-0.099675171859006],[30.68030543698099,-0.103616330546849],[30.679296949400793,-0.105487508918454],[30.678466860382656,-0.105388685744499],[30.67831905125908,-0.106708357885833],[30.680292487707856,-0.109944251588155],[30.677216939421047,-0.11414091701616],[30.66769686493968,-0.116111993512613],[30.660014630369012,-0.116194024005358],[30.65232407704396,-0.118426494629362],[30.65159156049937,-0.114134646087727],[30.647680561389592,-0.104771559388829],[30.644994612162762,-0.102836687764736],[30.642898686696224,-0.099205860807392],[30.64345901271949,-0.097132257264027],[30.63847635193144,-0.098598862622091],[30.626880425608174,-0.098069507358591],[30.62437221301999,-0.103343380940394],[30.617226663393502,-0.098296194043143],[30.61929579096245,-0.094414313548899],[30.618772296200646,-0.089798518949324],[30.619741924151032,-0.083082600616117],[30.625131769675086,-0.076872375479544],[30.623882872088444,-0.074646980793859],[30.62071634365416,-0.073206493760094],[30.62066738623432,-0.064581109561133],[30.61941566060344,-0.061001539144763],[30.619247270188055,-0.058255239646057],[30.622540619365324,-0.047533808836094],[30.61962684894181,-0.047649237824471],[30.616444856730144,-0.051396464112093],[30.607705667367714,-0.051270477583308],[30.60355662455713,-0.05317388740776],[30.60027474558444,-0.052793533124729],[30.60026539350084,-0.047745232268711],[30.60296589754819,-0.038061482946356],[30.60271539519875,-0.034936037217208],[30.601204579490528,-0.032302980449751],[30.61047270042147,-0.029420006858597],[30.611169482289416,-0.027770253090055],[30.6060769136858,-0.025562253999809],[30.602684499182644,-0.021849654704898],[30.601109298394167,-0.018254534686541],[30.597017554712707,-0.018133537363009],[30.59602995878265,-0.016786969711003],[30.593026139782694,-0.015728449254561],[30.590922968350338,-0.013006065062053],[30.59022121249443,-0.009829465705577],[30.588068657420752,-0.0079141995558],[30.58771666443167,-0.005896612215619],[30.586766620159203,-0.006048857616932],[30.585613086699684,-0.004637127779663],[30.581764648395513,-0.004220452830664092],[30.58240415066871,0.008295520230516258],[30.58384190697766,0.010525391484654],[30.583282829523146,0.011108914899836]]]}},{"type":"Feature","properties":{"n":"Kanoni","c":"433104","d":"Kazo","od":"Kazo","dc":"433","k":"KANONI","a":["KANONI"],"lat":-0.083992,"lon":30.597715},"geometry":{"type":"Polygon","coordinates":[[[30.57055654168924,-0.0407350060909375],[30.57153978568783,-0.03914446432850909],[30.571840668956504,-0.039318770288065],[30.572625495315517,-0.038017525534601],[30.57372402859778,-0.038681226025923],[30.57626486333427,-0.038124341819042],[30.575380914821864,-0.037025287316974],[30.576173245638124,-0.036760665047214],[30.57569738234598,-0.03291976402881],[30.57634935236983,-0.03177286703199],[30.578519025058185,-0.031972648639503],[30.578000700952312,-0.030616446699173],[30.579130368345478,-0.031003017911265],[30.58012647822312,-0.029291505045529],[30.578909074879014,-0.028199042302426],[30.578210091606337,-0.028917503753782],[30.578261380582738,-0.027798915461244],[30.57725825663387,-0.026807562916735],[30.577989099667295,-0.026547797348015],[30.57740446398069,-0.02517788466453746],[30.57741597552479,-0.025133536912683867],[30.57933064988741,-0.02397281482452],[30.57929616834427,-0.021172215658306],[30.580123333882273,-0.020464879909345],[30.57951337130856,-0.020156904027215],[30.580686770685723,-0.019087105210748],[30.579803631460976,-0.019069449073195],[30.580252421814883,-0.018240833450099],[30.579571293447295,-0.016830262948944293],[30.581229854336055,-0.010440725098800705],[30.5820572480229,-0.009162848584059],[30.581854401143573,-0.005570921525987],[30.581702251287716,-0.005441653368964298],[30.58175586184532,-0.004392418170171541],[30.585613141826578,-0.004637195245656885],[30.586406085610797,-0.00560762431316465],[30.586763328289145,-0.00604575345718],[30.586763998739606,-0.006045649442753709],[30.586766620159203,-0.006048857616932],[30.58747406552309,-0.005935488896701331],[30.58771687499906,-0.005897819166076489],[30.588068657420752,-0.0079141995558],[30.59022121249443,-0.009829465705577],[30.590922968350338,-0.013006065062053],[30.593026139782694,-0.015728449254561],[30.593026390034144,-0.015728537441059467],[30.59302656955133,-0.015728769823427],[30.595117926932275,-0.01646557738657721],[30.59602995878265,-0.016786969711003],[30.597017554712707,-0.018133537363009],[30.597018569316077,-0.0181335673659373],[30.597018656950905,-0.018133686812634],[30.597484620350908,-0.018147349003359847],[30.601109298394167,-0.018254534686541],[30.602684499182644,-0.021849654704898],[30.6060769136858,-0.025562253999809],[30.610620067160855,-0.027532041649336148],[30.611068011673325,-0.028010502641588487],[30.61047270042147,-0.029420006858597],[30.60494709116136,-0.031138821890320925],[30.60296349980316,-0.031267142301839],[30.60120819573886,-0.03230185556710037],[30.601204579490528,-0.032302980449751],[30.60271539519875,-0.034936037217208],[30.60296589754819,-0.038061482946356],[30.6003334347811,-0.04750124274303943],[30.600265431221533,-0.047745071955405],[30.60026543127618,-0.047745096809949567],[30.60026539350084,-0.047745232268711],[30.60027474558444,-0.052793533124729],[30.60355662455713,-0.05317388740776],[30.60512389283458,-0.052454889322408965],[30.60770607592939,-0.05127048347324414],[30.609947491557218,-0.0513027963300554],[30.61644294763556,-0.051396888355539],[30.616443326826094,-0.05139644205658046],[30.616444856730144,-0.051396464112093],[30.619218420616377,-0.04813021742965538],[30.619627084934354,-0.04764922847562859],[30.622540619365324,-0.047533808836094],[30.619247270188055,-0.058255239646057],[30.61941566060344,-0.061001539144763],[30.62066738623432,-0.064581109561133],[30.62071634365416,-0.073206493760094],[30.62296270278873,-0.07422838611750814],[30.623882971638558,-0.07464715818093962],[30.625131769675086,-0.076872375479544],[30.619741924151032,-0.083082600616117],[30.619479514701357,-0.08490012292781587],[30.61877235135744,-0.089797751766012],[30.618772375815727,-0.08979796751267083],[30.618772296200646,-0.089798518949324],[30.619108084757986,-0.0927592572845462],[30.61929572544638,-0.09441443646328648],[30.617226663393502,-0.098296194043143],[30.620642702541048,-0.10070907883539008],[30.624370718989162,-0.103342412602869],[30.62437074996461,-0.10334234752598512],[30.62437221301999,-0.103343380940394],[30.626754820659862,-0.09833360962080558],[30.62688052647599,-0.09806951196321739],[30.63847635193144,-0.098598862622091],[30.638476387250726,-0.09859885222614874],[30.638476445756456,-0.098598854897154],[30.638553456301292,-0.09857616758288112],[30.64345901271949,-0.097132257264027],[30.642898686696224,-0.099205860807392],[30.643935593924702,-0.10100212254356862],[30.64499452334441,-0.102836581183271],[30.644994570064252,-0.10283661483637838],[30.644994612162762,-0.102836687764736],[30.647680551328286,-0.10477155214098739],[30.649810578278576,-0.10987090414495766],[30.651591541354982,-0.11413460025530883],[30.651594307957712,-0.11415074357408334],[30.65232407704396,-0.118426494629362],[30.652607738268575,-0.11834415135387091],[30.660128808480515,-0.11619280481754735],[30.667691097311888,-0.11611205509903623],[30.667696482101395,-0.116112027916086],[30.66769659397983,-0.11611199640590789],[30.66769686493968,-0.116111993512613],[30.675927264820942,-0.1144079367014904],[30.676690924956567,-0.114470070198394],[30.6769588653039,-0.11419434977318836],[30.677216939421047,-0.11414091701616],[30.67784925446486,-0.11327810673437712],[30.67821557239131,-0.112901152179205],[30.678661415242747,-0.114984131862782],[30.677838670773475,-0.116151681252079],[30.67893773428542,-0.116539994125132],[30.67803518068516,-0.117623261051216],[30.679548303977967,-0.118251784476721],[30.68086562215798,-0.12126262818541694],[30.680290604371873,-0.12170316600541906],[30.679179265320904,-0.121407079024912],[30.677962124755634,-0.122518760934746],[30.67788932674737,-0.12354285450806339],[30.67026901957349,-0.12938099306869805],[30.66830049959454,-0.13001629921296953],[30.655356494816953,-0.1273728052795184],[30.655022904739116,-0.127246417534615],[30.6526176145042,-0.128388246427509],[30.651055267115417,-0.131130886806355],[30.6486298302893,-0.132768483628375],[30.64833208847565,-0.13396791152434814],[30.6418,-0.1405],[30.639558052551713,-0.14861739593345014],[30.636595019393393,-0.150258884040309],[30.634543008766748,-0.153626164195654],[30.63400412335478,-0.153489281876626],[30.632829446152325,-0.15680075145444503],[30.62600125217469,-0.1633254701441856],[30.625724780167825,-0.161672113609312],[30.624677651564983,-0.161530729418433],[30.623908304878462,-0.16281123402048833],[30.608,-0.1512],[30.607293892112605,-0.15105662784012258],[30.60613970627803,-0.149624098026435],[30.601652427354303,-0.14931893446913],[30.596400540128855,-0.146717965788457],[30.58831171156359,-0.14715031457870123],[30.588574789880333,-0.14603422475010916],[30.591321535863738,-0.135481745377005],[30.591620168553067,-0.133150311247564],[30.59071449610863,-0.130911756096751],[30.584666761881678,-0.13022861223500562],[30.5811,-0.1287],[30.57724624616297,-0.12307016830764385],[30.57704786804058,-0.121579767431949],[30.575405239880034,-0.12038069825952612],[30.572133691564833,-0.11560139289471373],[30.57116249560131,-0.113101161297879],[30.56989174174796,-0.11232619664049318],[30.569743381670687,-0.11210946191891515],[30.570444626511296,-0.111193856196408],[30.570381431899193,-0.11063962596904432],[30.575605317507943,-0.10221400401944666],[30.57599031873183,-0.102097506180125],[30.57564843195242,-0.097221010398473],[30.575343305789268,-0.09684591740120506],[30.575133646444005,-0.09452568731365033],[30.57581051168623,-0.093274220081475],[30.575181678115506,-0.093583884380025],[30.575017342218235,-0.09323858721513711],[30.574709947380377,-0.08983675100950643],[30.574854609449993,-0.088797959839514],[30.574617195960005,-0.08881030195739702],[30.57454942022595,-0.08806025050049568],[30.57531207864347,-0.088387378533889],[30.575668003742358,-0.085790453087828],[30.575005606000122,-0.086210371322538],[30.57455007792176,-0.085161279837249],[30.57680681181361,-0.083083479140612],[30.57717268094338,-0.082265462325596],[30.5764491047993,-0.082428593782388],[30.576526387907332,-0.081841270980271],[30.577275962287942,-0.081380539940205],[30.57660976639935,-0.081231422263131],[30.576696018300627,-0.080262412747459],[30.57577025035066,-0.080865051336371],[30.575663198088748,-0.08079551935891983],[30.57803550552202,-0.07295659044898044],[30.57880897131519,-0.072414370610391],[30.578413148585668,-0.071916911010894],[30.57926420460048,-0.071213080092428],[30.57867169107043,-0.07085441211510755],[30.578754437898773,-0.0705809878127511],[30.57957138982667,-0.06969893509356],[30.578488321402393,-0.06905281754783267],[30.578398275116772,-0.0688237677727536],[30.577813104823832,-0.065934275580438],[30.57843218790197,-0.06504988365417],[30.577651296776942,-0.063763989556466],[30.576495087258532,-0.063628733704798],[30.576484642892527,-0.062616615362839],[30.575989097445632,-0.06269556825975808],[30.569358533145348,-0.04582947266098093],[30.569475206032255,-0.044846616737084],[30.570077903602172,-0.044785808265025],[30.56976858242731,-0.043492907089498],[30.568727936746264,-0.04397092421409],[30.56866173787988,-0.043800129900194586],[30.569417562211065,-0.04257747289386799],[30.57085410994784,-0.041928739864732],[30.57055654168924,-0.0407350060909375]]]}},{"type":"Feature","properties":{"n":"Kazo","c":"433105","d":"Kazo","od":"Kazo","dc":"433","k":"KAZO","a":["KAZO"],"lat":-0.06363,"lon":30.834151},"geometry":{"type":"Polygon","coordinates":[[[30.678215581135454,-0.112901144177403],[30.680292217994346,-0.109944784068049],[30.680292163268195,-0.10994469429448726],[30.680292487707856,-0.109944251588155],[30.678877631517732,-0.1076242760763231],[30.678319087677767,-0.10670803273185704],[30.678466860382656,-0.105388685744499],[30.679296949400793,-0.105487508918454],[30.67929761970884,-0.10548626520862041],[30.679297755052612,-0.105486281204914],[30.68015329984902,-0.10389861038494586],[30.68030543698099,-0.103616330546849],[30.67996083625927,-0.099675171859006],[30.6807085202877,-0.097704142702113],[30.68070843824265,-0.09770396347323763],[30.68070852271429,-0.097703740809972],[30.679961766420128,-0.09607284552620095],[30.678655742666997,-0.09321981328534676],[30.68059399025616,-0.086929770809444],[30.680593905141663,-0.08692949606740645],[30.680594142628657,-0.086928725433529],[30.679924353451224,-0.08476824267238477],[30.679126497276926,-0.08219283379796792],[30.68284142922822,-0.080374834546534],[30.682841630061677,-0.08037459030798103],[30.682841720058533,-0.08037454629256],[30.68632814343177,-0.07613455485437298],[30.687672837906728,-0.074499238524599],[30.688425851759764,-0.071651581630195],[30.68842571960311,-0.07165078461119191],[30.688425859545525,-0.071650255164431],[30.687967281201157,-0.06888598154458894],[30.690629736762137,-0.062448998998739],[30.6906297309168,-0.06244861642738668],[30.69062974456325,-0.062448583436274],[30.690629044243966,-0.06240367438428188],[30.690598523329008,-0.060406111343615],[30.690597892915047,-0.06040604746924361],[30.69059788547856,-0.060405570593142],[30.68836848871682,-0.0601800889419724],[30.68828780688647,-0.059951229419794944],[30.688134839659185,-0.059513275444493016],[30.690504194218576,-0.05865512330264932],[30.690535193805335,-0.058643926563752],[30.69053522294393,-0.05864388506605224],[30.69053538688462,-0.058643825688677],[30.692105827807474,-0.056407135816315],[30.691035073635774,-0.05488428578822],[30.691034316172022,-0.054884462444889356],[30.69103412453106,-0.054884190108807],[30.68782496853837,-0.055632792321011995],[30.686646998523816,-0.05396027929851959],[30.686694255263994,-0.052571681766759346],[30.68677628885928,-0.0501635145804401],[30.68681319698706,-0.050077279404693864],[30.687763438736074,-0.047858563062639],[30.68776306467292,-0.04785793066617334],[30.687763136958928,-0.047857761771222],[30.687716195998952,-0.04777869382170468],[30.68665851139524,-0.04599055724045561],[30.686797112402957,-0.04559480085043449],[30.687540214935982,-0.043492212040727],[30.684691405091712,-0.03964068065824716],[30.685891544882438,-0.031713998503921],[30.685891405546375,-0.03171390108213598],[30.68589151032257,-0.031713208990662],[30.684726356960685,-0.03089728133124426],[30.684246696085864,-0.028027734357514038],[30.684126861402444,-0.027310739050208],[30.68082688909498,-0.025176280408],[30.680863020915286,-0.023975179429518],[30.68301517097023,-0.022835959126209],[30.6840033582973,-0.020205363118221],[30.68361556041856,-0.016860794011827],[30.686703548556032,-0.014627762741116],[30.685256536931224,-0.011282765072047554],[30.685788621538656,-0.008271252981834164],[30.686278520864242,-0.005498640643428],[30.686203014384645,-0.0054281146631886155],[30.684603812892913,-0.003933879434079541],[30.685136382041275,9.7848143471e-05],[30.683791546429628,0.000116867537452],[30.68331468008871,0.0010102741655502758],[30.681780161167538,0.003885572831271681],[30.68398729071811,0.005664842658934],[30.684076722111627,0.005980603745981647],[30.684106948765294,0.006008169903742],[30.684199618911105,0.006414523262081361],[30.6846059516822,0.00784918812038],[30.684589516562376,0.008124202453978411],[30.68470587051328,0.008634407960747],[30.68428215981331,0.01326730529866175],[30.684279277683093,0.013315532943454],[30.685298078548986,0.014210147084971507],[30.685749770807416,0.014605396995316],[30.68574900960768,0.014606111905443737],[30.685750414291174,0.014607345365053],[30.685036722196,0.015276264423325],[30.684811661251057,0.01887064171726292],[30.685020448586467,0.019029790349859604],[30.68571654454853,0.019009794377518],[30.686382825311576,0.020067472693384],[30.686382854114495,0.0200682871360843],[30.686383312658137,0.020068636662043],[30.68642421963263,0.02123795482285013],[30.68647045428473,0.022545304059807935],[30.686471025193217,0.022546267849972903],[30.68804285940576,0.024372091025369906],[30.692798039911807,0.022411768616163],[30.695302412128985,0.022999737070681],[30.69839059340852,0.022579660325429],[30.70248039483865,0.019806840697011],[30.706319918062714,0.014344976711567],[30.707906478255758,0.00938706524929],[30.70949157034691,0.007791027477062],[30.709936639672645,0.00041951319303],[30.712242264587104,0.000172799436155],[30.713832485913354,-0.002665618270644],[30.720638400789703,-0.004165811873589],[30.72287791695539,-0.006102463024765],[30.72365490879177,-0.011837804246839],[30.724796042823986,-0.01305082817696],[30.7281044413118,-0.012433516118079],[30.73441555141025,-0.013899752463504],[30.73703698422503,-0.015023143889961],[30.738337628831136,-0.017324010160428],[30.736689981215275,-0.022667567362679],[30.730653014316157,-0.025709254147789],[30.724368780305415,-0.026684955108993],[30.717890029761154,-0.033406600780081],[30.719470367234536,-0.039934480133772],[30.72247001682152,-0.047182932786602],[30.718638619718753,-0.053467577653013],[30.72359631498689,-0.054978008490584],[30.724265431749444,-0.058018909217198],[30.71985813254696,-0.058824015037077],[30.71982120744484,-0.06009050873283],[30.718060613075973,-0.062431978491946],[30.71786994162865,-0.064811409987754],[30.711255153479506,-0.066667337908285],[30.705831993309566,-0.065630557361324],[30.698121980627906,-0.070478025752073],[30.698042980530104,-0.071786684079345],[30.699041254575352,-0.071625097922787],[30.699749749475828,-0.07842314261213],[30.70324886480031,-0.081062560937371],[30.704743955882854,-0.081206938694558],[30.70434048212367,-0.082858168401784],[30.705534785237237,-0.083363388726757],[30.7077859947581,-0.087502871976239],[30.709876551053654,-0.088415350445115],[30.710154088775695,-0.091817349409632],[30.70841352799342,-0.095272904193489],[30.710130208563317,-0.096907286729934],[30.709058610573525,-0.097688655592934],[30.709413252405252,-0.098466576726082],[30.713252013047352,-0.100551075095084],[30.71388849738899,-0.104915416102605],[30.71818442334758,-0.107676954093301],[30.722433643592208,-0.108439242090017],[30.725850432184973,-0.104146037120638],[30.730630369019288,-0.10231145939984],[30.738552277326683,-0.102646877661958],[30.741685407254387,-0.101892008630046],[30.746635984016397,-0.104808546830751],[30.75148891051083,-0.100852969905894],[30.75480252851821,-0.104183221367923],[30.76034264098563,-0.10379800147446],[30.76280564932944,-0.102798641158337],[30.770263969105663,-0.103691209779839],[30.77399804094532,-0.100775206603956],[30.778446253409367,-0.099902637730549],[30.78726282179352,-0.094402883264946],[30.788104756410846,-0.092739067254764],[30.798259890616098,-0.089502942706295],[30.801421873235952,-0.08689058098782],[30.80916232341342,-0.084720477702477],[30.811912513889613,-0.073167019549703],[30.809467334311012,-0.049480810733334],[30.81018734442163,-0.03006184017774],[30.80621859361989,-0.017658234412489],[30.806214663019137,-0.013495658282115],[30.81459111859213,-0.009466609931411],[30.82754751596347,-0.00418097674388],[30.82903287025499,-0.004180616505636],[30.830694396186153,-0.002704604057818],[30.840598049478995,-0.007201016504887],[30.84159270403913,-0.010976499876378],[30.84441642710798,-0.014475354954792],[30.844376597439762,-0.015725782868672],[30.841142076959144,-0.018082334518712],[30.84117758859596,-0.019582093254788],[30.84340057244325,-0.02364978291224],[30.84905684833913,-0.024653958101423],[30.850936904200964,-0.027342815514141],[30.85281639486453,-0.028580068025349],[30.852840189482258,-0.030983314623169],[30.84969032269694,-0.033754203321198],[30.855905131744976,-0.036869933951643],[30.85804573289136,-0.041055863626613],[30.85871397791719,-0.045377564057635],[30.855136771510615,-0.052952302843489],[30.854653475836777,-0.056418795247391],[30.855557657059094,-0.05994044467093],[30.85938846611773,-0.067721008017065],[30.857594383898785,-0.076777239425086],[30.85752530924901,-0.081559520424765],[30.852137859339024,-0.090256323365273],[30.850050175109224,-0.098443570154512],[30.848841940215465,-0.098396234804767],[30.84883435564026,-0.09840391039807846],[30.8488,-0.0984],[30.83842250897867,-0.1083783567512775],[30.83236686234993,-0.10822332074314],[30.821880733460087,-0.113138183001466],[30.82023653709658,-0.1147908657258553],[30.81970782087334,-0.11492304478166504],[30.81352155054682,-0.115452697032315],[30.812382602985117,-0.118289576781689],[30.808678326231554,-0.121180620419618],[30.80595480003138,-0.12486781146792386],[30.800544687495243,-0.12940733118215486],[30.799340085417928,-0.130252031412463],[30.799350951776454,-0.13067595882722605],[30.790622693082163,-0.14735663099853705],[30.790571483699804,-0.147380425014732],[30.788754009777062,-0.147364589192288],[30.78873498528162,-0.14739314332824124],[30.7634,-0.1473],[30.7547,-0.1423],[30.7419,-0.1511],[30.7275,-0.1401],[30.6942,-0.123],[30.6816,-0.1207],[30.680936835209923,-0.12120806979884856],[30.68079785594104,-0.120754237284741],[30.679912216665375,-0.11908353814263013],[30.679548303977967,-0.118251784476721],[30.679449560480183,-0.11821076825433591],[30.679320053807597,-0.11796646259544],[30.6780378366336,-0.11762436428306743],[30.678035185370902,-0.11762326299758637],[30.6780352030077,-0.11762323425916009],[30.67893773428542,-0.116539994125132],[30.678742352619356,-0.11647096334095411],[30.678909131411288,-0.116199204227256],[30.677847815685666,-0.1161549122638341],[30.677840080772047,-0.11615217942219407],[30.67856466393734,-0.11512143078335879],[30.678661415242747,-0.114984131862782],[30.678661360489652,-0.11498387605610078],[30.678661386068644,-0.114983839668961],[30.678215581135454,-0.112901144177403]]]}},{"type":"Feature","properties":{"n":"Kazo Town Council","c":"433106","d":"Kazo","od":"Kazo","dc":"433","k":"KAZOTOWNCOUNCIL","a":["KAZO","KAZOTOWNCOUNCIL","TOWNCOUNCIL"],"lat":-0.051474,"lon":30.764763},"geometry":{"type":"Polygon","coordinates":[[[30.705832270640194,-0.06563061038041094],[30.711255153479506,-0.066667337908285],[30.71125533270308,-0.06666728762307166],[30.71125535766819,-0.066667292399469],[30.71786770449778,-0.064812327071507],[30.71786772847203,-0.06481203093873061],[30.71786994162865,-0.064811409987754],[30.718060613075973,-0.062431978491946],[30.71982120744484,-0.06009050873283],[30.71985813254696,-0.058824015037077],[30.724265431749444,-0.058018909217198],[30.72359631498689,-0.054978008490584],[30.718638619718753,-0.053467577653013],[30.72240576865738,-0.04728831912065075],[30.72246986047012,-0.047183435355967],[30.722469799808515,-0.04718328875327697],[30.72247001682152,-0.047182932786602],[30.7194984534119,-0.04000234850336954],[30.719470362379397,-0.03993446007871497],[30.71928848785438,-0.03918319335447549],[30.717890167864727,-0.03340645749885944],[30.724368780305415,-0.026684955108993],[30.730653014316157,-0.025709254147789],[30.73065308899368,-0.025709216522001418],[30.73065313427351,-0.025709209492156],[30.731729745756354,-0.025166749965226803],[30.736689981215275,-0.022667567362679],[30.73670291806844,-0.02262561129498892],[30.739890804087945,-0.01312620435428],[30.73981571539353,-0.009906920496276],[30.74138422773398,-0.004653462604347],[30.746949291025775,-0.007215199048905],[30.746395996674735,-0.016530242072207],[30.750310199544455,-0.02124180425214],[30.751976167425248,-0.021985598419667],[30.7566163540095,-0.02162820068684],[30.761130977711176,-0.015697926078316],[30.759558961219515,-0.007926802586541],[30.760515666467345,-0.001129420954478],[30.764913401070277,0.002791598373575],[30.767918158664706,-0.002712151023294],[30.769837854680937,-0.004434831460659],[30.773635864308797,-0.006073632036867],[30.778368689726115,-0.006905367226824],[30.781369970835758,-0.000792530284029],[30.782580053890083,0.005353822596643],[30.79060937789015,-0.001357985102249],[30.798501452817803,-0.003672289997994],[30.806214596997826,-0.013495554237274],[30.80621602954733,-0.01494283594979473],[30.80621859361989,-0.017658234412489],[30.81018732547484,-0.030061780963002566],[30.80978514292184,-0.04090938102016309],[30.809467334311012,-0.049480810733334],[30.80946734660253,-0.04948092980005158],[30.80946734478818,-0.049480978736408],[30.81191250612992,-0.07316705214791484],[30.80916232341342,-0.084720477702477],[30.801421873235952,-0.08689058098782],[30.798259890616098,-0.089502942706295],[30.788104756410846,-0.092739067254764],[30.78810465838895,-0.09273926096386949],[30.788104596302784,-0.092739280747887],[30.78805633507041,-0.09283475663466588],[30.78726282179352,-0.094402883264946],[30.778446253409367,-0.099902637730549],[30.774081767229998,-0.1007587827144753],[30.773998291611647,-0.100775144781603],[30.77399826998244,-0.10077516167564782],[30.77399804094532,-0.100775206603956],[30.770264453656555,-0.10369083138542029],[30.764549803613626,-0.10300737146648022],[30.76280564932944,-0.102798641158337],[30.76034264098563,-0.10379800147446],[30.75480252851821,-0.104183221367923],[30.75148891051083,-0.100852969905894],[30.746635984016397,-0.104808546830751],[30.745191376272395,-0.1039574836369132],[30.741686502631385,-0.101892181584207],[30.74168593346572,-0.10189231863745171],[30.741685407254387,-0.101892008630046],[30.738552277326683,-0.102646877661958],[30.730630369019288,-0.10231145939984],[30.730630187379276,-0.10231152911471926],[30.730630147715537,-0.102311527435645],[30.725851801463136,-0.104145084920979],[30.725851312234727,-0.10414569935055337],[30.725850432184973,-0.104146037120638],[30.724543816657242,-0.10578780339455914],[30.722432780013854,-0.10843908716855492],[30.71818442334758,-0.107676954093301],[30.71388849738899,-0.104915416102605],[30.713252013047352,-0.100551075095084],[30.709413252405252,-0.098466576726082],[30.709058610573525,-0.097688655592934],[30.710130208563317,-0.096907286729934],[30.710128746256743,-0.09690589452664947],[30.710129171301105,-0.096905584547445],[30.7097221515995,-0.09651879210418254],[30.708414137949486,-0.09527348490812959],[30.709777521884693,-0.09256495186907965],[30.710154088775695,-0.091817349409632],[30.710154054035144,-0.09181692356727317],[30.71015412027663,-0.09181679197026],[30.7098976593184,-0.08867409111028297],[30.709876551053654,-0.088415350445115],[30.70852469049024,-0.08782529522409015],[30.707785774605753,-0.08750246716409653],[30.705534785237237,-0.083363388726757],[30.705534109055527,-0.08336310268484763],[30.705533665511343,-0.083362286879668],[30.70522709527281,-0.08323322811505615],[30.704340929539377,-0.08285835766990789],[30.704424435146375,-0.08251458787901304],[30.704743955882854,-0.081206938694558],[30.70324886480031,-0.081062560937371],[30.699749749475828,-0.07842314261213],[30.699041254575352,-0.071625097922787],[30.69903683335799,-0.07162581356547482],[30.69805813715224,-0.07153561046900371],[30.698092289415325,-0.07096986884686096],[30.698237216289215,-0.07040557435040301],[30.705801348123977,-0.06564982471854003],[30.705832270640194,-0.06563061038041094]]]}},{"type":"Feature","properties":{"n":"Kyampangara","c":"433107","d":"Kazo","od":"Kazo","dc":"433","k":"KYAMPANGARA","a":["KYAMPANGARA"],"lat":0.029465,"lon":30.72776},"geometry":{"type":"Polygon","coordinates":[[[30.68722506797973,0.05673676419133176],[30.687285333088624,0.056670168921658],[30.688189031857828,0.056462288004794],[30.688639953464055,0.056816296893865276],[30.689467094221346,0.05746428649208091],[30.69006544160766,0.056724525040291],[30.691438252144867,0.058450598384658],[30.694845346226924,0.059255918353783],[30.694535156911353,0.05980536250277599],[30.69408089530161,0.06061104964443018],[30.694594329158335,0.061047415032889234],[30.694932758223953,0.061334350197255895],[30.696576746773065,0.060094836949303],[30.696336187753094,0.05833542173743527],[30.69597360943327,0.055685994298792],[30.695973943856714,0.05568602026509933],[30.695973828275054,0.055685174916904],[30.697850671045515,0.055829894157279],[30.69893966478213,0.057285613543164],[30.70062468335597,0.057918125273221925],[30.700820388208225,0.057877776493478875],[30.701670385278682,0.057701335549497],[30.702432416620674,0.059261491347776],[30.702733229420414,0.06709720898679541],[30.70280501592323,0.06896669865280394],[30.70594933872893,0.078472256340913],[30.712583674163668,0.079849196986091],[30.714694178226317,0.08085222502609812],[30.715951535788914,0.08144960090852152],[30.717430267950224,0.08129672276061406],[30.71745535223045,0.0812941238832008],[30.71958314389619,0.075259101345072],[30.720604617065433,0.074750167281117],[30.722568159808635,0.07432355186988746],[30.723674614702077,0.073976744022656],[30.723988976210187,0.07401485363781293],[30.72460223494898,0.073881612011194],[30.731341684905754,0.074906112375886],[30.732335555322607,0.076180831577917],[30.73291776007169,0.07994180433835782],[30.732921714570054,0.07994335756798526],[30.73661299489853,0.081111291802918],[30.740863254048275,0.080891245718659],[30.74880753416128,0.078622651167208],[30.750822512151608,0.078607746771929],[30.750763417980615,0.07920130270121],[30.755610567346668,0.078695298939645],[30.761002734122364,0.077457056789075],[30.765170308259098,0.075314807455916],[30.76609569040516,0.073976804022147],[30.766070252957917,0.072042155764214],[30.76258499280265,0.066916341239819],[30.760751790275656,0.054784129016518],[30.76415238518046,0.044920378216712],[30.767866909742608,0.041322833870773],[30.769573464384205,0.036920293785633],[30.76897240919539,0.029127098469039],[30.773753553950772,0.022753875199247],[30.77684725097706,0.013022020076079],[30.776360520308895,0.010863680074627],[30.77876916597178,0.007830489144883],[30.782580044391693,0.005353829307004],[30.7824293756219,0.0045884852056298185],[30.781369970835758,-0.000792530284029],[30.778368821852776,-0.006905098118831739],[30.773882402412227,-0.00611695804156934],[30.773635864308797,-0.006073632036867],[30.769837854680937,-0.004434831460659],[30.767918158664706,-0.002712151023294],[30.764913401070277,0.002791598373575],[30.76490950517785,0.002788124796634934],[30.764909437332626,0.002788248828781],[30.764637382436316,0.002545500212503908],[30.760515666467345,-0.001129420954478],[30.759558961219515,-0.007926802586541],[30.761130977711176,-0.015697926078316],[30.757636425532827,-0.02028826525624953],[30.756616184124237,-0.02162821377178958],[30.751976167425248,-0.021985598419667],[30.750310199544455,-0.02124180425214],[30.74639606716866,-0.016530326926394768],[30.746489422147263,-0.01495736807766013],[30.746949291025775,-0.007215199048905],[30.74138422773398,-0.004653462604347],[30.73981571539353,-0.009906920496276],[30.739890804087945,-0.01312620435428],[30.73988941513545,-0.013130343217745082],[30.7383376352223,-0.017323995326462],[30.738262437137966,-0.017190994554299382],[30.73703698422503,-0.015023143889961],[30.73441555141025,-0.013899752463504],[30.73441517827702,-0.013899665774870682],[30.73441500119206,-0.013899589863566],[30.729750939298214,-0.012816040769478086],[30.7281044413118,-0.012433516118079],[30.724796042823986,-0.01305082817696],[30.72365490879177,-0.011837804246839],[30.72287791695539,-0.006102463024765],[30.722876293653975,-0.0061010592534509085],[30.72287629365323,-0.00610105924794],[30.72287626792869,-0.006101037007171162],[30.720638400789703,-0.004165811873589],[30.713832485913354,-0.002665618270644],[30.712242264587104,0.000172799436155],[30.709936639672645,0.00041951319303],[30.70949157034691,0.007791027477062],[30.707906478255758,0.00938706524929],[30.706373014640437,0.014179052889422094],[30.706319988305605,0.014344821140189],[30.70631995075152,0.014344874560881266],[30.706319918062714,0.014344976711567],[30.70248039483865,0.019806840697011],[30.69839059340852,0.022579660325429],[30.695302412128985,0.022999737070681],[30.692798039911807,0.022411768616163],[30.692797089916812,0.022412160251448595],[30.688171500302424,0.024521409722451],[30.688171456210004,0.0245214674822512],[30.688171507690416,0.02452152728126],[30.687980463441537,0.024771662514589888],[30.687376562009682,0.02556275601769],[30.687376307625005,0.025562686882109636],[30.68737568427701,0.025563503034893],[30.68632901386584,0.025278291474534],[30.6861026129239,0.026343188131756],[30.68699496617808,0.027105400853394],[30.686274645118356,0.027903541884627],[30.686693649633888,0.03054447420359097],[30.686853826017977,0.030369023578546598],[30.68736781694982,0.02980279682201],[30.687369749214444,0.02980390252271993],[30.68737021628368,0.029803390914286],[30.68775980740879,0.030027105709721644],[30.688841427466695,0.030646041672483],[30.688839481576235,0.03064708668448986],[30.68884078852662,0.030647837174219],[30.687566675344627,0.03133098857388996],[30.687999669328597,0.033432342443934296],[30.68806096725314,0.033729348412577],[30.688060913027027,0.033729562930762215],[30.688060965730713,0.033729818705899],[30.686766466627148,0.038868561450429294],[30.68794535618403,0.038414224555713083],[30.688284213092256,0.038282976601334],[30.688284752118662,0.03828342341822061],[30.68828579150963,0.038283022843236],[30.68873877863243,0.038659781072669624],[30.68897127951864,0.038852508778074],[30.687819566470928,0.042287644963901],[30.684968644614464,0.042558663370395],[30.684964432948235,0.04256391088912402],[30.684419242243834,0.043632810542419],[30.684134919287814,0.04359744209310157],[30.683429173109392,0.04447676540299823],[30.683355687290664,0.04481600637753349],[30.6834910664903,0.044964522446143615],[30.68580019922298,0.045505640614591],[30.685800224390558,0.04550584454445018],[30.685801057542935,0.045505801242052],[30.686107018140916,0.046418951152773],[30.68594774270702,0.0467011677432607],[30.6860096450376,0.047202754892404],[30.68460464610976,0.04908097066143662],[30.684602110496893,0.049085463457347],[30.6851207030949,0.050107090658622],[30.684193971286213,0.050372287353897816],[30.68446465829732,0.05124453883628323],[30.684581039638516,0.051616735483667],[30.68458032998103,0.05161727485037743],[30.684580435485085,0.051617614822604],[30.684266672695987,0.05185566633076591],[30.682699994785196,0.053046401200478],[30.681617033454128,0.05593400428903731],[30.681477264691754,0.056307171582861],[30.681477065591118,0.05630721395214599],[30.68147665235914,0.056308315791979],[30.68024280911385,0.056572179432142],[30.68021519940289,0.057951269328536],[30.681524296597185,0.057601032693206],[30.681522311417158,0.05760380618495179],[30.68152430948511,0.057601033706108],[30.68274410609492,0.05817248027114829],[30.683030971238285,0.05819728410658757],[30.68407459573481,0.057519786782705],[30.685068558444023,0.05911865900226022],[30.68722506797973,0.05673676419133176]]]}},{"type":"Feature","properties":{"n":"Migina","c":"433108","d":"Kazo","od":"Kazo","dc":"433","k":"MIGINA","a":["MIGINA"],"lat":0.120246,"lon":30.856652},"geometry":{"type":"MultiPolygon","coordinates":[[[[30.8248631395207,0.122022442224168],[30.823221314885956,0.123664267911824],[30.82309264954756,0.124802665134363],[30.824417309933477,0.125459063017675],[30.82614484739871,0.128643522907763],[30.828176369261648,0.129741224634741],[30.83131797506892,0.130074958336898],[30.835692335145925,0.135049134946176],[30.84127178418773,0.136159532078911],[30.843621896015204,0.135785057886123],[30.84449541482883,0.137737333677363],[30.84486626794155,0.142482682075957],[30.848548123092847,0.143150620843398],[30.849821485014232,0.145428106174294],[30.855255480281347,0.148737541622013],[30.861700355094577,0.150041781106321],[30.864920568245495,0.15391394137935],[30.864920610003992,0.15391394574723993],[30.866246522266046,0.153695257928934],[30.870677208346,0.15451607918909122],[30.87067839452823,0.154516203262363],[30.8706784442229,0.15451630814551406],[30.870680105529736,0.154516615916353],[30.872543678733734,0.15845298142141254],[30.87290758730371,0.159221029156954],[30.87514019658064,0.1595550508843086],[30.875450297298027,0.159601381129314],[30.875450391467844,0.15960145928774516],[30.875450592261707,0.15960148932861],[30.87792398015902,0.1616542893609647],[30.881706767952785,0.16286976740053002],[30.88107964475614,0.16118245720811591],[30.880975864522714,0.16090557086368],[30.88097658501558,0.16090516918623085],[30.880976163440312,0.16090403491429],[30.883897286741004,0.15927611479351855],[30.883794491771713,0.1579570915394741],[30.883705017394327,0.156817729634053],[30.883705675714477,0.15681744000168915],[30.88370565779559,0.156817210073822],[30.88415713877041,0.15661881580359874],[30.88707790488702,0.15533380516962045],[30.887009604600628,0.15327847423793814],[30.88696779189383,0.152026609303447],[30.885755948938836,0.151492698398679],[30.885758648643016,0.15149033627688416],[30.88575695401396,0.151489585304843],[30.8877065211976,0.1497860339120148],[30.88774962675357,0.149748318456345],[30.88611008792706,0.14856837476731752],[30.885563196008995,0.148175019579672],[30.88556322969185,0.1481748117037329],[30.88556290744988,0.148174579792556],[30.88595152747682,0.14576908077406775],[30.88329096826037,0.144648715850303],[30.88329103783434,0.14464850658472045],[30.883290580444708,0.144648314064481],[30.883894614247875,0.14283306084698374],[30.884285779145106,0.14165650949489578],[30.88316851972219,0.1413215305829102],[30.882885091140743,0.14167523175550803],[30.881887229543967,0.142921319755016],[30.8811264644641,0.142324538605175],[30.879944686985905,0.13597745249644],[30.879944753012946,0.13597736450338985],[30.879944705600796,0.135977109862914],[30.88014108829545,0.1357157120020753],[30.88121446932061,0.1342852364068784],[30.881234966251277,0.13077981181076936],[30.8812339145021,0.1307764313767897],[30.87979466725766,0.127224468523305],[30.88002669699458,0.1268963056084638],[30.879912638735217,0.126529710203335],[30.88327048497811,0.12230857071755413],[30.88327084930441,0.122308055445751],[30.88327090627777,0.12230804110288557],[30.883271197466428,0.122307675050403],[30.884794004422268,0.1219246058864495],[30.88625185154711,0.12155759741108438],[30.885775077136895,0.119215801594555],[30.88579597154089,0.11911508820855549],[30.887466136455156,0.11075724988635646],[30.886586039925014,0.109351966116527],[30.887237562928213,0.107281589971056],[30.893229907659965,0.09902701569044957],[30.89321397248011,0.0989127656846727],[30.892476924025466,0.09372522202540785],[30.88679780938479,0.093321021674777],[30.882237233128865,0.089757480908551],[30.876790750346352,0.081669229153882],[30.87441663777477,0.080345833636871],[30.873920031511663,0.07704857003176],[30.87214147347321,0.076531967328375],[30.871003740155327,0.081737524703299],[30.864059777364286,0.086397589157344],[30.864059698630793,0.086397655761764],[30.85697930886725,0.092908113172467],[30.856979180979934,0.092908226790081],[30.84749775556259,0.101076346892602],[30.841822743329892,0.098518489786356],[30.838015608534516,0.098518488906566],[30.83444641768196,0.099232325113811],[30.82864052032911,0.102087645265628],[30.82110183986072,0.103738892406835],[30.827707113434357,0.121275725096668],[30.8248631395207,0.122022442224168]]],[[[30.858319772356893,0.091675539792913],[30.858319777136046,0.091675544990437],[30.858319772356893,0.091675539792912],[30.858319772356893,0.091675539792913]]]]}},{"type":"Feature","properties":{"n":"Nkungu","c":"433109","d":"Kazo","od":"Kazo","dc":"433","k":"NKUNGU","a":["NKUNGU"],"lat":0.130391,"lon":30.779984},"geometry":{"type":"Polygon","coordinates":[[[30.726491864314898,0.11159069586886404],[30.728562330990755,0.120001508100133],[30.72826887736708,0.12937432235659238],[30.7283900430706,0.13056209145666597],[30.728395750443422,0.13059313767390954],[30.731602689062168,0.13047674556367458],[30.732033372517016,0.13046106007661],[30.733086448182892,0.131411753220807],[30.735153603486925,0.149167861391137],[30.735566997318887,0.14955697824726874],[30.738275805536112,0.152106566235517],[30.738275844469374,0.1521067455767269],[30.738276326763476,0.152107199547613],[30.738885641431636,0.154915165387825],[30.742597428683194,0.160159296191274],[30.743373157455938,0.16182081466488704],[30.744709834463993,0.164683745406768],[30.74470983087717,0.16468380964534826],[30.744710350518666,0.16468492265543],[30.74440680024302,0.17011096848485735],[30.744377285457446,0.17063956662437027],[30.74532397900415,0.175542102550195],[30.748607174849898,0.181680240768397],[30.753322154232475,0.186582712553814],[30.75386383280726,0.1941670946044357],[30.75390198192564,0.194701015370401],[30.76004872981579,0.19424861994319628],[30.7616,0.1937],[30.76191200472434,0.19411148449152046],[30.762851797208246,0.194042316562424],[30.765582749553285,0.196131494227904],[30.768539993176482,0.202794199727783],[30.768581918397327,0.20283108510612885],[30.77523336235097,0.2053550705349672],[30.77577089173752,0.205453088633917],[30.77593967947602,0.20562309265831127],[30.79073226444793,0.21123635034854452],[30.790875543794726,0.211268350141298],[30.79780044831387,0.20834923241784],[30.801307770309652,0.20786735807729176],[30.8288,0.1988],[30.829803620237158,0.19881639902348297],[30.831898988487275,0.19797515953122],[30.83770662322837,0.197975945918512],[30.84062106778028,0.19899315470229215],[30.84266619778024,0.1990265718591542],[30.841860887904566,0.192570558065609],[30.841861534201648,0.19256966726211217],[30.84186149988525,0.192569391917444],[30.84377448758373,0.1899330074120041],[30.848023766485124,0.184076145882522],[30.845692883734532,0.180311207454751],[30.845692813730547,0.18031049564997298],[30.845692799297833,0.180310472347612],[30.84568789634668,0.18026049539233746],[30.845463005776395,0.177973794423307],[30.84546353775697,0.17797355455772318],[30.845463474316492,0.17797290789374],[30.845763236040202,0.1778384231130315],[30.846947950993226,0.17730424506762302],[30.846774808608547,0.17694476909605605],[30.846244643804827,0.175850913356379],[30.856111285791744,0.174474721585625],[30.85665092731605,0.1711547398303711],[30.85670661766152,0.1708117462227857],[30.85647319259685,0.16935753685119645],[30.855555351344933,0.163642069726055],[30.855555702162462,0.16364168457143424],[30.85555561732551,0.163641156047692],[30.856969412331253,0.162089353130695],[30.8591635968694,0.16195979866615695],[30.86313110167857,0.1565222850207566],[30.863647068661695,0.154123995827958],[30.864911258715395,0.15391548809130015],[30.864920556150043,0.15391394290576],[30.86482744385099,0.1538019635182741],[30.861700355094577,0.150041781106321],[30.855255480281347,0.148737541622013],[30.849821485014232,0.145428106174294],[30.84982140050513,0.1454279550246245],[30.849821293272903,0.145427889726911],[30.84974926259146,0.14529893197357016],[30.848548123092847,0.143150620843398],[30.84486626794155,0.142482682075957],[30.84449541482883,0.137737333677363],[30.843621896015204,0.135785057886123],[30.84127178418773,0.136159532078911],[30.841271560875544,0.1361594876363131],[30.8412714758138,0.136159501241296],[30.841105695626847,0.13612647787223228],[30.835692335145925,0.135049134946176],[30.831534781902683,0.13032149393576367],[30.831317758495985,0.13007493533029185],[30.828176369261648,0.129741224634741],[30.82614484739871,0.128643522907763],[30.824531740750736,0.12566999930999295],[30.824417269760175,0.12545904311093495],[30.82309264954756,0.124802665134363],[30.823221314885956,0.123664267911824],[30.8248631395207,0.122022442224168],[30.827707113434357,0.121275725096668],[30.82110183986072,0.103738892406835],[30.82124135756079,0.10370833292041648],[30.819822961655547,0.099854725147084],[30.81957884887273,0.092684908704281],[30.81704550803516,0.089393919901035],[30.8091674557911,0.087558174572615],[30.80427072952054,0.087310999393298],[30.80552304257106,0.084649132916905],[30.810412820046405,0.078724081085049],[30.811840429950024,0.075440560760629],[30.8124830172443,0.06769517944932],[30.813732175362873,0.064625955544431],[30.817158524960345,0.060235805732941],[30.81736245113366,0.057901990468915],[30.815097102946876,0.057605432654442],[30.80661417639817,0.059740091390084],[30.800836427823853,0.059637958910372],[30.79292037917602,0.057720000291265],[30.78848100286955,0.054450361058248],[30.785510564100125,0.054233183033634],[30.783799363545928,0.053247789437157],[30.780948732517583,0.054115531705526],[30.77800619752329,0.053735510952756],[30.777067533496687,0.054681312016844],[30.769109096607945,0.051815429878139],[30.765815109459773,0.049589705097116],[30.762414717557885,0.049960649369780646],[30.76075181778389,0.05478404922625189],[30.76075181640715,0.05478430195585825],[30.76237126028881,0.06550185038091876],[30.76271370105556,0.06710563403369496],[30.766070252957917,0.072042155764214],[30.76609569040516,0.073976804022147],[30.766094983249406,0.07397782649359644],[30.766094983383315,0.073977836841866],[30.766094963493885,0.07397785505796711],[30.765170308259098,0.075314807455916],[30.763950695044798,0.075941722661099],[30.763460897358264,0.076390312859347],[30.761946438745955,0.07697196629415987],[30.761002734122364,0.077457056789075],[30.760208555385844,0.07763942978077813],[30.75955355495249,0.077890993771215],[30.758297697634482,0.07807823382929947],[30.755610567346668,0.078695298939645],[30.750768845597268,0.07920073610129022],[30.750768721445287,0.079200754611533],[30.750768721998792,0.07920074900398562],[30.750763417980615,0.07920130270121],[30.750822512151608,0.078607746771929],[30.74880753416128,0.078622651167208],[30.743341232402365,0.08018362613416102],[30.74086341015958,0.080891212560568],[30.7408633580736,0.08089121601284754],[30.740863254048275,0.080891245718659],[30.74086168174614,0.08089132712050201],[30.736774077566032,0.081162255160191],[30.736773005661323,0.081526203556536],[30.736768721936212,0.08299753246108],[30.736768672128385,0.08299758655165106],[30.73676867194808,0.082997647770434],[30.736618724308908,0.08316042768299563],[30.734312413306196,0.085665047584996],[30.73430996018788,0.08640909984663271],[30.734306653931135,0.08742604351800212],[30.73790735087621,0.09446052282729],[30.7379066143052,0.09446138225339966],[30.737906629296926,0.09446141154806],[30.737247508432002,0.09523042256135422],[30.73208685253317,0.101251841218185],[30.729042466729467,0.10086680782191625],[30.7289724767097,0.10177486753456169],[30.728937888749055,0.102230961730756],[30.725812246104464,0.106345928005519],[30.72819771803127,0.107323511991922],[30.72653400520725,0.11148516072570999],[30.726491864314898,0.11159069586886404]]]}},{"type":"Feature","properties":{"n":"Rwemikoma","c":"433110","d":"Kazo","od":"Kazo","dc":"433","k":"RWEMIKOMA","a":["RWEMIKOMA"],"lat":-0.003188,"lon":30.876177},"geometry":{"type":"Polygon","coordinates":[[[30.76910911019966,0.0518154347725993],[30.777067533496687,0.054681312016844],[30.77800619752329,0.053735510952756],[30.780927501288186,0.054112789747386626],[30.780948763294525,0.05411552233691472],[30.783799363545928,0.053247789437157],[30.78379959059439,0.05324792018284953],[30.783799619787313,0.053247911297332],[30.785510653655134,0.05423318958127947],[30.78848100286955,0.054450361058248],[30.79232490341919,0.05728142722098692],[30.792920475280493,0.05772002357616466],[30.800836427823853,0.059637958910372],[30.806614151864405,0.05974009095640397],[30.80709938939399,0.05961799152817578],[30.815097102946876,0.057605432654442],[30.815836642669638,0.057702246153213295],[30.81736056154179,0.057901347875889],[30.81736052767803,0.05790173866841844],[30.81736245113366,0.057901990468915],[30.817158524960345,0.060235805732941],[30.813732175362873,0.064625955544431],[30.8124830172443,0.06769517944932],[30.811840429950024,0.075440560760629],[30.810424027171237,0.07869830456019304],[30.810413003581754,0.078723661021816],[30.81041300167937,0.0787236633270045],[30.810412820046405,0.078724081085049],[30.80552304257106,0.084649132916905],[30.80427072952054,0.087310999393298],[30.8091674557911,0.087558174572615],[30.81704550803516,0.089393919901035],[30.81957884887273,0.092684908704281],[30.81982295897172,0.09985464632060048],[30.819823182274728,0.09985532454235509],[30.821241353780263,0.10370832264918713],[30.823607309048036,0.10319010288719896],[30.82864052032911,0.102087645265628],[30.83444641768196,0.099232325113811],[30.838015608534516,0.098518488906566],[30.841822743329892,0.098518489786356],[30.84749775556259,0.101076346892602],[30.847501068970768,0.10107349243614892],[30.86405908623843,0.08639821885991718],[30.864059698630793,0.086397655761764],[30.864059777364286,0.086397589157344],[30.871003740155327,0.081737524703299],[30.87214147347321,0.076531967328375],[30.873920031511663,0.07704857003176],[30.87441663777477,0.080345833636871],[30.876790750346352,0.081669229153882],[30.882237233127512,0.08975748090654288],[30.882237247570988,0.08975749219332907],[30.88679780938479,0.093321021674777],[30.89222633422785,0.09370738676578207],[30.89247692243642,0.09372521084127473],[30.892464646125685,0.093638806891144],[30.89629500570292,0.08852309961542898],[30.89630859721874,0.08850451140348611],[30.896813423584977,0.081053708866759],[30.896813661460467,0.08105336675099567],[30.896813663662698,0.081053334224418],[30.897399587086515,0.08021068054680122],[30.90492883247164,0.069382017433351],[30.901700784070286,0.059834286558086],[30.9026262142152,0.058685547032711685],[30.902142885901952,0.057361662083651704],[30.90212463653833,0.057311685998276],[30.902905563464326,0.054282803660362],[30.902905819346916,0.05428259553950922],[30.902905887589434,0.054282330809535],[30.90298937781672,0.05421463366654286],[30.905204738166756,0.052412781154939],[30.903627403974784,0.050265136315903],[30.903686633368412,0.049212367344995414],[30.90368663418313,0.049212352718107],[30.903686634191963,0.0492123527068508],[30.9036867154272,0.049210908796493],[30.90465973686695,0.047971645888332],[30.906920683531673,0.03911155714458905],[30.90691108091665,0.03595715778064783],[30.906903676969307,0.033533325928685],[30.906904270777186,0.033532523053953434],[30.913891698105385,0.023570072969747],[30.913932637991696,0.023391537988535466],[30.914627573681468,0.01895291648610753],[30.913850373348293,0.017674164998149],[30.913538612141146,0.014347828092574],[30.916485046384974,0.007089058573413692],[30.917,0.0038],[30.91700796900529,0.003787126991454313],[30.917009644233065,0.00377046545588],[30.923114494502062,-0.008082959141102],[30.92515723481856,-0.009377071629984706],[30.92716582215623,-0.012621712713910447],[30.930702230090954,-0.026021395379391],[30.933383677840734,-0.029159741429750738],[30.935679534418238,-0.03536001651804386],[30.933688430593964,-0.038308188654592],[30.93371475697177,-0.039974893957817],[30.93868191108093,-0.043468345849132645],[30.939139874191962,-0.04470513794517541],[30.942947960063616,-0.05554041904952648],[30.9274,-0.0699],[30.918726730896005,-0.07227815443173996],[30.91502223709322,-0.073286286870138],[30.915021830871257,-0.07329401411594512],[30.915,-0.0733],[30.91501342100883,-0.07345398841709316],[30.914844475095492,-0.076667715709705],[30.913729383384503,-0.077469114163402],[30.915196983150853,-0.079442664475256],[30.915771879731878,-0.08215630429208177],[30.9169,-0.0951],[30.892420351196158,-0.10841022729638608],[30.891616616201137,-0.108055635003916],[30.890579735322245,-0.10939033893269848],[30.8869475550894,-0.10765871812401585],[30.886378711718272,-0.107111178227569],[30.88567644136974,-0.10705272204836501],[30.881531499662334,-0.10507664518785605],[30.875539928074364,-0.101541304616916],[30.874024347923005,-0.10149765424236312],[30.8734,-0.1012],[30.861100616230335,-0.09980007014003822],[30.86026284789341,-0.09947913475463],[30.85932045172803,-0.09959744979018256],[30.857058853040552,-0.09934003205339613],[30.854651321025752,-0.097923795385137],[30.853157168754958,-0.09889593790706835],[30.85037179549239,-0.09857890355197926],[30.850050186232345,-0.098443573186916],[30.850331021421432,-0.0973421784617153],[30.852137859339024,-0.090256323365273],[30.85752530924901,-0.081559520424765],[30.857594383898785,-0.076777239425086],[30.85938846611773,-0.067721008017065],[30.855639982468865,-0.06010765166452556],[30.855557647724,-0.05994040831215074],[30.854653475836777,-0.056418795247391],[30.855136771510615,-0.052952302843489],[30.85871397791719,-0.045377564057635],[30.85804573289136,-0.041055863626613],[30.85798824886768,-0.04094345404439871],[30.85792257890435,-0.040541947259087],[30.855915911802537,-0.03689101427429774],[30.855905131744976,-0.036869933951643],[30.84969032269694,-0.033754203321198],[30.852840189482258,-0.030983314623169],[30.85283580502389,-0.030540486132352544],[30.852816742922176,-0.028580810753195],[30.852816399982363,-0.028580584924285158],[30.85281639486453,-0.028580068025349],[30.850936904200964,-0.027342815514141],[30.84905684833913,-0.024653958101423],[30.84905557042514,-0.024653731229617427],[30.843400263939525,-0.02364921840187687],[30.84117758859596,-0.019582093254788],[30.841142076959144,-0.018082334518712],[30.844376597439762,-0.015725782868672],[30.84441642710798,-0.014475354954792],[30.84159270403913,-0.010976499876378],[30.840598049478995,-0.007201016504887],[30.830694396186153,-0.002704604057818],[30.82903287025499,-0.004180616505636],[30.82754751596347,-0.00418097674388],[30.81459111859213,-0.009466609931411],[30.814591045391484,-0.00946664514068768],[30.814591006046435,-0.009466661190701],[30.80621465878235,-0.013495646854365],[30.806214597011635,-0.013495568187290417],[30.806214596997826,-0.013495554237274],[30.798501452817803,-0.003672289997994],[30.79060937789015,-0.001357985102249],[30.790609113799803,-0.0013577643459787717],[30.78461778748612,0.004251014634979],[30.778029242136565,0.008762270145408806],[30.776360520308895,0.010863680074627],[30.77684725097706,0.013022020076079],[30.773753553950772,0.022753875199247],[30.76897240919539,0.029127098469039],[30.769573464384205,0.036920293785633],[30.767866909742608,0.041322833870773],[30.767866498791438,0.04132323188000226],[30.767866423487945,0.041323426118324],[30.76415231684489,0.044920576430567405],[30.762414717638535,0.04996064913584668],[30.762416794735472,0.049960422773214296],[30.765815109459773,0.049589705097116],[30.765815578880666,0.04959002228163046],[30.765815768136722,0.04959000165645],[30.76910911019966,0.0518154347725993]]]}}]}
