{"type":"FeatureCollection","name":"Kiboga sub-counties","metadata":{"source":"Uganda Bureau of Statistics NPHC 2024 Map Explorer","retrieved":"2026-07-26","display_only":true,"clipped_to_dashboard_district":true,"positive_area_overlaps_removed":true,"source_gap_ratio":0.01282784},"features":[{"type":"Feature","properties":{"n":"Bukomero","c":"103101","d":"Kiboga","od":"Kiboga","dc":"103","k":"BUKOMERO","a":["BUKOMERO"],"lat":0.706321,"lon":32.119416},"geometry":{"type":"MultiPolygon","coordinates":[[[[32.05476649921374,0.716126824778908],[32.05835431685293,0.720144092025553],[32.06427023038163,0.726133811522459],[32.071423313788614,0.72959031191883],[32.07368237943422,0.736701893289812],[32.07452450759475,0.744476876589347],[32.08737630354873,0.742389029750399],[32.09151024182252,0.738629045957764],[32.10126601035088,0.733037283989604],[32.114923421361574,0.720969562884494],[32.116811866043,0.720769018972464],[32.11700623178441,0.715975778744991],[32.119979967882735,0.709100354456186],[32.1248112879421,0.706719805415436],[32.13420961958128,0.70779051070699],[32.144702535695856,0.71371496852123],[32.15617175977397,0.72461420850637],[32.17136255684708,0.726824302635572],[32.17561470290722,0.728760717288922],[32.17692209450343,0.730127325270083],[32.19530921997131,0.730184967780708],[32.193061457762795,0.724366625410415],[32.19315926551921,0.7238456596151569],[32.18972460225518,0.715672433144278],[32.189376581253626,0.714885577759007],[32.18939824836468,0.7145409147594446],[32.18930078744262,0.6945614257369517],[32.18927564740049,0.694432392196673],[32.1891217862739,0.6942764654853157],[32.1717,0.6822],[32.161077782975525,0.6858017862324376],[32.15936454024438,0.687253948080181],[32.157032763781075,0.6871733732006701],[32.14549107912136,0.6910869329416056],[32.14363748297402,0.692743367352722],[32.138040710694035,0.694142464258399],[32.13738073796297,0.6938369911504869],[32.1369,0.694],[32.1215,0.6816],[32.120935672774564,0.6816136972627532],[32.117372608865864,0.682121440243594],[32.11512802560649,0.6817546595726581],[32.101724903941104,0.6820799780596821],[32.10168141106696,0.682089923299557],[32.1016284122807,0.6820823200902744],[32.1009,0.6821],[32.10055895546931,0.6819288957474018],[32.09949633664457,0.681776452382532],[32.09229796001013,0.678465981091083],[32.09091702138403,0.677091474892328],[32.08042342935683,0.6718267717250987],[32.077509150507275,0.671515755305233],[32.0753636575061,0.670708273160498],[32.071281021194665,0.667413785734906],[32.06561860547805,0.667433034495497],[32.061164256872765,0.669788697235126],[32.0586724888338,0.676864018625491],[32.063945307392835,0.680289876173958],[32.06748243475778,0.692558739443483],[32.06393112277378,0.694876026035012],[32.060019087916395,0.699511201818009],[32.05762984092504,0.700995960414027],[32.05267234991838,0.700682005372488],[32.04974002377749,0.697713285706875],[32.049025865848606,0.700123215790153],[32.04915808804333,0.705921667147105],[32.05181935929393,0.709278545287465],[32.05476649921374,0.716126824778908]]],[[[32.00537123237354,0.662946039061358],[32.00525594265638,0.665401083195325],[32.006709273993806,0.666336908515659],[32.00793135147379,0.670055896141899],[32.012416443019966,0.675645974597782],[32.01483921503534,0.675908870212424],[32.02296130050556,0.670582431886074],[32.028103382040925,0.662586977441537],[32.03432429938025,0.663646280014926],[32.03615414112994,0.665057663623919],[32.04362086951235,0.676491230638423],[32.05229964515041,0.676557064600867],[32.05173901100308,0.671215185650883],[32.05436422934402,0.666631042645687],[32.06348848330823,0.6604291653430076],[32.05717379755144,0.655002482270773],[32.05528030350901,0.654134111178337],[32.05240391180507,0.651057734385616],[32.04554272770918,0.654221197346104],[32.039620769367744,0.655290615457368],[32.03937997329822,0.652805558004578],[32.038559802983364,0.6516208435946165],[32.035842096512624,0.6517623908066343],[32.03546550793247,0.652011328134608],[32.032988006236636,0.652190509709268],[32.03201820196975,0.6504047969672472],[32.02116403499412,0.6366721768710174],[32.01949152938744,0.636142224718522],[32.014875223110835,0.628956096129282],[32.013697270166105,0.62121169066637],[32.01524792036903,0.6185469605884669],[32.0154,0.6078],[32.00697005644816,0.6102353170260861],[32.00643842328693,0.6112239660419443],[32.0073,0.6297],[32.007218759690694,0.6300143067704309],[32.00599118911971,0.638952870235555],[32.0036746889841,0.643725793438565],[32.0012,0.6533],[32.00102396084137,0.6533481100806187],[32.000831741897834,0.654204547615789],[31.99774208556944,0.657469701622482],[31.997754814495163,0.662001314858855],[32.00537123237354,0.662946039061358]]]]}},{"type":"Feature","properties":{"n":"Bukomero Town Council","c":"103102","d":"Kiboga","od":"Kiboga","dc":"103","k":"BUKOMEROTOWNCOUNCIL","a":["BUKOMERO","BUKOMEROTOWNCOUNCIL"],"lat":0.693717,"lon":32.030481},"geometry":{"type":"Polygon","coordinates":[[[31.98239559826779,0.722714222368064],[31.98726095378317,0.721033294107682],[31.988408792999714,0.719151920587794],[31.990701717634245,0.719132481802833],[31.99774352827185,0.722275453121622],[31.99864442525731,0.718720302798714],[32.000669552256056,0.716639894865394],[32.00329290469982,0.711755676514664],[32.00884950474919,0.705325386728875],[32.01231579604956,0.702722699621306],[32.01639176497102,0.708167230136673],[32.020932641925,0.70927564841256],[32.02585044424004,0.714374540482722],[32.029966903115,0.716239058664502],[32.0311691052923,0.714654466160968],[32.036679038958944,0.714595029024675],[32.03787168058444,0.720070325506143],[32.039095036455564,0.719788483229686],[32.03720379870799,0.724938068226275],[32.039794255060976,0.727583327518007],[32.04221810323012,0.721956848430639],[32.04364429151152,0.715258188529816],[32.047087325753985,0.715084763098362],[32.052306255329746,0.7104099473339526],[32.0523027441101,0.7104017883003968],[32.05111172064006,0.7083859430290828],[32.04915808804333,0.705921667147105],[32.049138109781765,0.7050455436027241],[32.04884904396142,0.704556290467337],[32.04908546396855,0.7027368223802417],[32.049025865848606,0.700123215790153],[32.04973680736156,0.6977241395211244],[32.04973760252029,0.69771802004779],[32.04973838620757,0.6977188116960817],[32.04974002377749,0.697713285706875],[32.05267220976949,0.700681863484191],[32.057629961780776,0.7009958853101985],[32.060019087916395,0.699511201818009],[32.0631022562272,0.6958581088344032],[32.06393086085517,0.694876264718694],[32.0639309954242,0.6948761769251999],[32.06393112277378,0.694876026035012],[32.06748243475778,0.692558739443483],[32.063945307392835,0.680289876173958],[32.0586724888338,0.676864018625491],[32.058673579479226,0.6768609217614251],[32.05867333437545,0.676860762365902],[32.05942490523134,0.6747275485573524],[32.061164256872765,0.669788697235126],[32.06116511401057,0.6697882439415525],[32.06116519274637,0.669788020462563],[32.06561837481552,0.667433142996029],[32.0656184004792,0.6674331429082412],[32.06561860547805,0.667433034495497],[32.07067253477409,0.6674158542176911],[32.07128101227484,0.667413772797095],[32.07084221814225,0.6667487812160008],[32.066359930954256,0.662896815663817],[32.066271187984384,0.662847419452893],[32.06615685984872,0.6627223014324957],[32.06348848330823,0.6604291653430093],[32.05436441716342,0.66663091498233],[32.05348763930812,0.6681617397381205],[32.05173901100308,0.671215185650883],[32.05229964515041,0.676557064600867],[32.04595716594718,0.6765089529137949],[32.04527340736248,0.676960345227837],[32.04362315740544,0.6764912479935286],[32.04362086951235,0.676491230638423],[32.03615414112994,0.665057663623919],[32.03432429938025,0.663646280014926],[32.03413088902684,0.6636133459516826],[32.02810333847024,0.6625870451898728],[32.02296130050556,0.670582431886074],[32.01483921503534,0.675908870212424],[32.01483828931388,0.6759087697621501],[32.01483826837644,0.67590878349158],[32.01478811146689,0.6759033249510658],[32.012416443019966,0.675645974597782],[32.0124157778793,0.6756451455871656],[32.0124154447088,0.675645109328459],[32.00890704760647,0.6712719734225125],[32.00793135147379,0.670055896141899],[32.00707218634171,0.6674413119216314],[32.00670907630106,0.6663367812178604],[32.00525594265638,0.665401083195325],[32.00525610186358,0.6653976929476696],[32.00525455693715,0.665396694997126],[32.00537033073348,0.6629459272238507],[31.99786311559439,0.662014748295837],[31.99775481551325,0.662001325478457],[31.99753974977674,0.663321991573953],[31.995095419525818,0.665782373260592],[31.99226074825184,0.667473507204423],[31.9898847726365,0.672419093190987],[31.98862467871557,0.673005521977065],[31.99012709110073,0.674119274358797],[31.989980739032106,0.678524303920294],[31.991653080717068,0.678723195402881],[31.991783179873906,0.68098109996361],[31.993305038443086,0.682824586200027],[31.992159632139934,0.684958863443791],[31.993465718256545,0.687157056283566],[31.996168179004687,0.697063103589022],[31.995702224945415,0.699985590864029],[31.99529831263468,0.700745397051557],[31.980160639175455,0.699712075723918],[31.97778755862463,0.705694706871573],[31.981773682308418,0.711575276831398],[31.98239559826779,0.722714222368064]]]}},{"type":"Feature","properties":{"n":"Ddwaniro","c":"103103","d":"Kiboga","od":"Kiboga","dc":"103","k":"DDWANIRO","a":["DDWANIRO"],"lat":0.835901,"lon":32.084547},"geometry":{"type":"Polygon","coordinates":[[[31.955004631443472,0.917057869993134],[31.956542698069715,0.917001367317105],[31.958573669468613,0.918636424248098],[31.957150583269172,0.927310032932822],[31.958149953656747,0.929986919727601],[31.963760050229226,0.929094657227272],[31.97522218031123,0.932343572663341],[31.98214126062661,0.941344860494499],[31.98709777691175,0.945245096977387],[31.98981080561064,0.948466433456567],[31.9941432884493,0.95498983522791],[32.002042660560384,0.960121156889368],[32.00529372936435,0.9632920795531672],[32.00541382839499,0.9584640985211532],[32.00529817680774,0.95693813342495],[32.005479310697204,0.9558317099722147],[32.0055,0.955],[32.00572995825859,0.9543006748848291],[32.00627405466022,0.950977160874905],[32.01246674336113,0.9338134653949218],[32.0128,0.9328],[32.01286226952648,0.9327440476718574],[32.01534479958636,0.928490972584253],[32.02088156249579,0.921907653348909],[32.028022161914194,0.91691576483822],[32.03323545938171,0.9144377031642597],[32.0335,0.9142],[32.03428244438202,0.9139400347655804],[32.03517353515934,0.913516468315164],[32.062366496579024,0.9046091770323752],[32.0642,0.904],[32.064227014109335,0.9039997483157516],[32.06423041588065,0.903998634035938],[32.07025195396307,0.903330850322172],[32.080717353368506,0.9038461116145792],[32.09542500993445,0.9037090837583747],[32.09643130295683,0.903672215572611],[32.12622355172044,0.897962302753041],[32.126407654121245,0.8978897726411189],[32.1554,0.8825],[32.1759,0.8628],[32.1937,0.8199],[32.194385841424406,0.8193646012106248],[32.19484144674663,0.818079901680695],[32.19749110365872,0.815203639322471],[32.20237438498078,0.8131283833375865],[32.20368019589918,0.8121090083625769],[32.205070811322535,0.810193267583655],[32.209070449908644,0.8079011326519652],[32.2092,0.8078],[32.209635658134566,0.8035131239558975],[32.208743212416906,0.799845520818811],[32.21047767241451,0.79522770344124],[32.21166428932429,0.7835513930489669],[32.2112628384211,0.7827628384210957],[32.20617356820589,0.7776735682058851],[32.206040230981074,0.777545140556306],[32.20603959971553,0.77753959971553],[32.206,0.7775],[32.20400427927711,0.7648030871250123],[32.20219589651972,0.760826562468836],[32.20099124571702,0.746152992378328],[32.199097193016975,0.742948650283676],[32.19958120091716,0.742054941390875],[32.200409051166815,0.7419299979405758],[32.2002,0.7406],[32.199270556770394,0.7383882693517728],[32.19840071557563,0.737069793315527],[32.195834677706856,0.735485767711643],[32.195309224153576,0.730184979321262],[32.1827945260702,0.7301457349828776],[32.17692209450343,0.730127325270083],[32.17561479942038,0.7287608181735049],[32.172724028296926,0.7274443126795157],[32.17136259987365,0.726824322229746],[32.15617255821063,0.724614379086954],[32.15617249059344,0.7246143148325769],[32.15617175977397,0.72461420850637],[32.14470253569674,0.7137149685220701],[32.14470250246053,0.7137149497560666],[32.13420961958128,0.70779051070699],[32.1248112879421,0.706719805415436],[32.119979967882735,0.709100354456186],[32.11700623178441,0.715975778744991],[32.116811866043,0.720769018972464],[32.114923421361574,0.720969562884494],[32.10126601035088,0.733037283989604],[32.09151024182252,0.738629045957764],[32.08737630354873,0.742389029750399],[32.08737484932549,0.7423892659971775],[32.08737484262759,0.742389272087479],[32.08734038615861,0.7423948647332831],[32.07452450759475,0.744476876589347],[32.07368753704884,0.7367495111815423],[32.073682364647055,0.7367018467395423],[32.07142344355676,0.7295907204313993],[32.06721384339641,0.7275562190317036],[32.06427023038163,0.726133811522459],[32.064269773427085,0.7261333488670231],[32.06426975303297,0.726133339010538],[32.0642694864492,0.7261330583088511],[32.05835431685293,0.720144092025553],[32.05476649921374,0.716126824778908],[32.052306259881384,0.7104099579106029],[32.05203549163476,0.7106524818175811],[32.047087325753985,0.715084763098362],[32.04364429151152,0.715258188529816],[32.04223055304834,0.7218983729129409],[32.042218150950035,0.721956687085587],[32.04221812452722,0.7219567484003571],[32.04221810323012,0.721956848430639],[32.039794255060976,0.727583327518007],[32.039766766063906,0.7275552569717367],[32.03640245725282,0.724786003153803],[32.03195276222837,0.724530197306685],[32.028080193153265,0.725725877977805],[32.02789155790969,0.727118853618036],[32.02510322847236,0.729193997858097],[32.021614940331965,0.734947533166401],[32.02105888530859,0.738857449187557],[32.02285978461093,0.739527062526606],[32.02508421322693,0.746193952721376],[32.02656659951968,0.746916532158619],[32.0212584315135,0.753718955886527],[32.020943228794934,0.756767694740149],[32.01875702252511,0.762197728905652],[32.018220817356344,0.767869694392294],[32.02022601004849,0.772955709803935],[32.018585266303326,0.776368452695326],[32.017701285165394,0.78114433136497],[32.01381968400105,0.778587160832361],[32.00795903128694,0.786459689018718],[32.00657187513678,0.78973501356658],[32.00304828340479,0.783987695134802],[32.00121960178429,0.782928729966404],[31.987920294133353,0.782328541710973],[31.98763508087628,0.793518265112827],[31.992283554417632,0.807087532479466],[31.99227773516129,0.8096935137998],[31.98680546222917,0.825739381038971],[31.983124894359026,0.831338075027939],[31.980939740139515,0.840464665496802],[31.97380375589665,0.861648265506421],[31.9724442828695,0.878418294948901],[31.967608759497686,0.887318821119761],[31.9690611263753,0.89593356707247],[31.965708047956443,0.894434968726998],[31.956650218175156,0.89706084580447],[31.9556222922029,0.898545625404058],[31.95538933336885,0.904710983205725],[31.95467551516236,0.904772250480964],[31.954255102611075,0.915784863939334],[31.955004631443472,0.917057869993134]]]}},{"type":"Feature","properties":{"n":"Kyomya","c":"103104","d":"Kiboga","od":"Kiboga","dc":"103","k":"KYOMYA","a":["KYOMYA"],"lat":0.758621,"lon":31.985224},"geometry":{"type":"Polygon","coordinates":[[[31.952595127311277,0.768801866129255],[31.958079303939055,0.774009804632476],[31.959433423281013,0.776973545820872],[31.963412482304307,0.77948387298899],[31.96144791530165,0.783582846337667],[31.958074574360044,0.787482970485513],[31.9651101597056,0.793618180185677],[31.965308673966227,0.80081291574493],[31.97853822250018,0.803593158928413],[31.98696873188676,0.811429035133351],[31.989648582071144,0.816151639748485],[31.99227722373207,0.8096950134189673],[31.99227773516129,0.8096935137998],[31.992283554070934,0.8070876877389279],[31.988709522182525,0.7966546455234028],[31.98763508087628,0.793518265112827],[31.987920294133353,0.782328541710973],[32.000967910504,0.7829173713186915],[32.00121944010633,0.782928671161674],[32.00121953655074,0.7829287270224603],[32.00121960178429,0.782928729966404],[32.00304828340479,0.783987695134802],[32.00304851687118,0.783988075941043],[32.00304863137656,0.783988142262776],[32.00313374918489,0.7841270980766393],[32.00657187513678,0.78973501356658],[32.00795903128694,0.786459689018718],[32.01381968400105,0.778587160832361],[32.017701285165394,0.78114433136497],[32.018585266303326,0.776368452695326],[32.02022601004849,0.772955709803935],[32.018220817356344,0.767869694392294],[32.01875702252511,0.762197728905652],[32.01875712930926,0.7621974636783511],[32.01875713968749,0.762197353878767],[32.01921440184486,0.7610617037431918],[32.020943185244334,0.7567678029098276],[32.02096419754405,0.7565648784686501],[32.0212584315135,0.753718955886527],[32.02125895489943,0.7537182851668276],[32.02125896728887,0.753718165516863],[32.02656608085182,0.7469162793373872],[32.02515472817784,0.7462283247698722],[32.02508444962365,0.746194323267884],[32.02508434787182,0.7461940183531393],[32.02508421322693,0.746193952721376],[32.02437080649909,0.7440557837172177],[32.02285951199016,0.7395269611603038],[32.02105888530859,0.738857449187557],[32.021614940331965,0.734947533166401],[32.02161503286543,0.7349473805429597],[32.0216150765902,0.734947071758159],[32.02476584882171,0.7297504672935885],[32.02510322847236,0.729193997858097],[32.02789155790969,0.727118853618036],[32.028080193153265,0.725725877977805],[32.03195276222837,0.724530197306685],[32.03195320886231,0.7245302229829556],[32.03195323908643,0.724530213636821],[32.031953788075555,0.7245302562809982],[32.03640245725282,0.724786003153803],[32.03652294191302,0.7248851773449959],[32.03720378846842,0.72493806389521],[32.03721192051326,0.7249159536472958],[32.039095036455564,0.719788483229686],[32.03787168058444,0.720070325506143],[32.036679038958944,0.714595029024675],[32.0311691052923,0.714654466160968],[32.029966903115,0.716239058664502],[32.02585044424004,0.714374540482722],[32.02309988726816,0.7115226989010515],[32.02093238582022,0.7092755858979342],[32.017159223377156,0.7083545650792326],[32.01639201984745,0.708167371609824],[32.01639194729096,0.7081672746405785],[32.01639176497102,0.708167230136673],[32.01231579604956,0.702722699621306],[32.00884950474919,0.705325386728875],[32.00329290469982,0.711755676514664],[32.000669552256056,0.716639894865394],[32.000668723333796,0.7166407464151703],[32.000668635639656,0.716640909664908],[32.00024638181913,0.7170746168036543],[31.99864442525731,0.718720302798714],[31.99774352827185,0.722275453121622],[31.990701717634245,0.719132481802833],[31.98846645707813,0.7191514317275831],[31.988408789296198,0.7191519266580667],[31.98726095378317,0.721033294107682],[31.986653128755655,0.7212432911496023],[31.98645804820219,0.721476030175641],[31.979620033917662,0.723603151414817],[31.973728722603223,0.730452619242761],[31.96849080487708,0.734275969919743],[31.96419215222073,0.735162998777664],[31.959493332955798,0.740963789741599],[31.956588658713642,0.747476394161304],[31.951253088852322,0.756077535964356],[31.949520205003765,0.760473526490132],[31.949252768009046,0.76452582063668],[31.95064430563059,0.764885773711162],[31.952595127311277,0.768801866129255]]]}},{"type":"Feature","properties":{"n":"Lwamata","c":"103105","d":"Kiboga","od":"Kiboga","dc":"103","k":"LWAMATA","a":["LWAMATA"],"lat":0.786496,"lon":31.870109},"geometry":{"type":"Polygon","coordinates":[[[31.8080370406978,0.783752125111956],[31.80820895868681,0.785122755990864],[31.806752726198273,0.794916474058043],[31.806892121047255,0.806358185037579],[31.811936735577035,0.805578348210945],[31.81385885769928,0.808128335263619],[31.813097713600897,0.813667886227626],[31.81203956549842,0.815866672623318],[31.81937149827476,0.814627296173303],[31.828313965225856,0.814905719331603],[31.82898893594737,0.814059711446959],[31.83280784709877,0.820641067196371],[31.83344705930645,0.826529317069554],[31.835822366164226,0.827368186989591],[31.836922171550952,0.831329975374426],[31.86092914331042,0.819056711335672],[31.865107427176927,0.815683666419334],[31.869942015469128,0.815558594735038],[31.872208326532856,0.812339807269936],[31.878462649645254,0.81366276228643],[31.882172854009845,0.815969173930691],[31.88772203005551,0.816893371958457],[31.893341704607153,0.816243720338184],[31.897946134463957,0.818425011448574],[31.89984066814898,0.821102969548786],[31.900956228479092,0.821492240737606],[31.90291619872109,0.816716519945552],[31.90417773964876,0.8154058668876],[31.907708470779387,0.814203483350256],[31.909276065112095,0.814710276171169],[31.913585018170405,0.811038901893599],[31.914080413065484,0.807610311290997],[31.918492499788535,0.800529052729374],[31.925744647062736,0.797962041574632],[31.927049080750418,0.794099197341451],[31.93192212667198,0.787868491073697],[31.93445653284527,0.77591898367079],[31.931889817720528,0.774527572284022],[31.93188836262798,0.773099355299388],[31.92483746091215,0.768070059835739],[31.929105777113513,0.766153918452759],[31.92410254861953,0.764938938768914],[31.91793217911542,0.764678508910091],[31.915207685208127,0.763449115064722],[31.91638508003361,0.761971158152662],[31.9180865382637,0.761893589087184],[31.919123017595812,0.760109520380175],[31.918115493232893,0.759835544671777],[31.919167537160828,0.7555741007231],[31.91633419800199,0.749121841275704],[31.915958128154035,0.745934983120945],[31.918998012643705,0.745033758362319],[31.918811379539328,0.743604619478018],[31.917036052557993,0.740184776096755],[31.915536756566883,0.739270793030942],[31.911951676101683,0.742023262380904],[31.910698959200367,0.742010950997062],[31.909465878908378,0.7407269325059626],[31.9044,0.7472],[31.888669963194076,0.7458468785543293],[31.887927160465452,0.74622416923496],[31.886133251375583,0.7456286667849964],[31.8858,0.7456],[31.880634167040636,0.7479597014752645],[31.88036532422998,0.748170423152529],[31.880249349924913,0.748135482133064],[31.8615,0.7567],[31.8587,0.7642],[31.85626484685137,0.7653398589206337],[31.855868983399148,0.766237641499254],[31.85428853963962,0.767057032360011],[31.84973249922924,0.7683975535522705],[31.8399,0.773],[31.83275418972767,0.7734466131420206],[31.82330802386375,0.774252836437077],[31.81832475497693,0.777172833563584],[31.812216254173123,0.778066822466391],[31.804979506562947,0.78037842363328],[31.805739149618052,0.782295901262003],[31.8080370406978,0.783752125111956]]]}},{"type":"Feature","properties":{"n":"Lwamata Town Council","c":"103106","d":"Kiboga","od":"Kiboga","dc":"103","k":"LWAMATATOWNCOUNCIL","a":["LWAMATA","LWAMATATOWNCOUNCIL"],"lat":0.832678,"lon":31.89708},"geometry":{"type":"Polygon","coordinates":[[[31.870190174294084,0.86346761999645],[31.881412280024325,0.868160905109888],[31.88936327044386,0.87010911107315],[31.887770719029934,0.857365248954594],[31.894364124721402,0.857030347099797],[31.896886656423277,0.860216780405546],[31.902618178102582,0.861918093750106],[31.905455274178514,0.860101009413905],[31.9088076481485,0.859791484115982],[31.910586397243566,0.858741516677278],[31.91250632038877,0.852490974312417],[31.90900187535369,0.844515606963349],[31.916237886205796,0.839931611684999],[31.923391408755947,0.828626447188624],[31.92708792142195,0.817700206353518],[31.93030215888388,0.804765828091728],[31.930163594996653,0.803164520688563],[31.926908263437923,0.798269914398258],[31.924650298270457,0.798349403475976],[31.918492499788535,0.800529052729374],[31.91441425503309,0.8070745055737208],[31.914080407475318,0.8076103499801096],[31.913585018170405,0.811038901893599],[31.913584258183302,0.8110395494284101],[31.913584244939734,0.811039640995669],[31.912573712800814,0.8119005683983028],[31.909276065112095,0.814710276171169],[31.907708603498655,0.8142035262575124],[31.906755452479334,0.8145280318566064],[31.904177835147944,0.81540583436554],[31.90370858888719,0.8158932818154894],[31.90291619872109,0.816716519945552],[31.900956228479092,0.821492240737606],[31.89984066814898,0.821102969548786],[31.897946134463957,0.818425011448574],[31.893341716729896,0.8162437260811825],[31.88772212616658,0.816893371985337],[31.887722086693213,0.8168933654109647],[31.88772203005551,0.816893371958457],[31.882172854009845,0.815969173930691],[31.878462649645254,0.81366276228643],[31.872208326532856,0.812339807269936],[31.8721981594686,0.8123542473084234],[31.870559843812764,0.815224317290831],[31.87011956513846,0.8153064251810797],[31.869942015469128,0.815558594735038],[31.868578191259374,0.8155938771170502],[31.867571476150165,0.815781620150094],[31.87351915031153,0.822140942781244],[31.87198411528779,0.823692893358325],[31.873477168398903,0.825855551457028],[31.87179762245757,0.82967574913732],[31.874865373769733,0.835679764457231],[31.861999363406387,0.852095863495352],[31.856854142719026,0.855334350634046],[31.86069494717188,0.855412148570442],[31.870190174294084,0.86346761999645]]]}},{"type":"Feature","properties":{"n":"Muwanga","c":"103107","d":"Kiboga","od":"Kiboga","dc":"103","k":"MUWANGA","a":["MUWANGA"],"lat":0.68222,"lon":31.969492},"geometry":{"type":"Polygon","coordinates":[[[31.913516751100406,0.643502555686877],[31.916087835172824,0.645863335880793],[31.918883701104193,0.646815117122726],[31.922701782139864,0.645669425309445],[31.923362083569717,0.650257334315065],[31.921681961930542,0.653300957895777],[31.922838670692876,0.655073377701601],[31.91752408982044,0.668131375370561],[31.925306486232113,0.66886923496529],[31.92758978766858,0.666534372430331],[31.927935188059667,0.664701035558594],[31.930890250181065,0.664856003457199],[31.93160437798875,0.665890994708764],[31.93472610063413,0.664600876014238],[31.936454967793615,0.665027829868033],[31.939859777076048,0.664264028861908],[31.942615392699928,0.664892200643405],[31.945313697369656,0.664264022693647],[31.94696780205797,0.662804455119979],[31.949525349025077,0.664049870322937],[31.953748655773314,0.663521912534133],[31.956279285106852,0.666659777789523],[31.958619758562705,0.666851464427558],[31.956402312660916,0.672690585357022],[31.955289244282206,0.673732788262264],[31.946285320653747,0.678124042142406],[31.945170697157238,0.679919005345434],[31.94673417416783,0.681615208813987],[31.943242857027577,0.68541166095431],[31.940968911242702,0.690687860209961],[31.941949731494276,0.695040074633731],[31.94592482294739,0.698107191582356],[31.946011855071003,0.700649983971373],[31.948863801305986,0.699576363022064],[31.94884080111824,0.70460546243825],[31.947319325160933,0.708347374984978],[31.94582368295121,0.709598072038734],[31.946364570195783,0.711134977140029],[31.94492968701805,0.712484296626562],[31.943305412287057,0.716194073721835],[31.94384063379935,0.720630071857016],[31.94701720979131,0.721677034527082],[31.9521590442475,0.722028916870799],[31.949571340051694,0.730989504876223],[31.95124672245388,0.736921449434714],[31.952811110963044,0.739508926365175],[31.955716387967485,0.738439628904483],[31.957496812558496,0.738921309515913],[31.9590353673132,0.740470432128343],[31.964187559213727,0.735168668941171],[31.96419215222073,0.735162998777664],[31.96849080037635,0.7342759708484704],[31.968560630621287,0.7342250015158214],[31.973728722603223,0.730452619242761],[31.979620033917662,0.723603151414817],[31.979643970411153,0.7235957054193018],[31.98239558714555,0.72271422544902],[31.981773660951035,0.7115752453236984],[31.97778755862463,0.705694706871573],[31.977788072026353,0.7056934125652577],[31.97778736785352,0.705692373404597],[31.980021399142423,0.7000631054259321],[31.980160639175455,0.699712075723918],[31.99529831263468,0.700745397051557],[31.995702187574484,0.6999856611631106],[31.995763554637787,0.6996009279515142],[31.996168176451697,0.6970631196015161],[31.996002932149548,0.6964573803920315],[31.993465745590406,0.6871571564776314],[31.99344136966284,0.6871160766700003],[31.992159632139934,0.684958863443791],[31.993305038443086,0.682824586200027],[31.991783179873906,0.68098109996361],[31.991701410111368,0.6795619645575515],[31.9916524452648,0.6787231198285864],[31.989980739032106,0.678524303920294],[31.99011219498188,0.6745676304668262],[31.990126953733878,0.6741191725274611],[31.989711380830034,0.6738111044390923],[31.98862477929229,0.673006848492947],[31.988625815847996,0.6730063649439901],[31.98862467871557,0.673005521977065],[31.989861016580374,0.6724301489027281],[31.989884788977264,0.6724190591777404],[31.992209628412798,0.6675799129932556],[31.992260650859794,0.667473625544535],[31.99226071601323,0.667473574308989],[31.99226074825184,0.667473507204423],[31.992260968241556,0.6674733759609592],[31.997538654746766,0.663323093794777],[31.99753956249289,0.663322180087663],[31.9977340090375,0.657597728600855],[31.98873220175317,0.659413795188352],[31.986786777310627,0.658623226036295],[31.98562614336489,0.6575562092667379],[31.9851,0.6577],[31.98302022502209,0.6551604852901355],[31.978093094014913,0.650630778546871],[31.976868008797148,0.648974819744805],[31.977125237871064,0.6479623957162484],[31.975657769972848,0.6461705401773714],[31.975570113350784,0.646139706481631],[31.966608036974378,0.646581052588816],[31.964874905519306,0.645269048749859],[31.95991138457499,0.637723855551354],[31.959775323947785,0.6377045131602612],[31.95687496009269,0.637809503707052],[31.954514320641355,0.638527527112544],[31.953121037963832,0.6379453922909021],[31.952763139685448,0.6379583478846897],[31.95145859745312,0.638653747151328],[31.947801354233057,0.638642127404149],[31.94766755413122,0.639198795733919],[31.937914257011716,0.638717156857089],[31.933259841542448,0.6331411244435444],[31.9317,0.6313],[31.9094,0.6241],[31.908764000973367,0.6364565525174213],[31.90888996862824,0.636880871992789],[31.913516751100406,0.643502555686877]]]}},{"type":"Feature","properties":{"n":"Nakasozi","c":"103108","d":"Kiboga","od":"Kiboga","dc":"103","k":"NAKASOZI","a":["NAKASOZI"],"lat":0.71936,"lon":31.920772},"geometry":{"type":"Polygon","coordinates":[[[31.90341499402112,0.725274030120117],[31.903439971666185,0.7253266924822095],[31.91057647909945,0.7327593205558619],[31.913940174000526,0.735310856816113],[31.918970916087954,0.734696460044059],[31.919049565436616,0.736524356709182],[31.920655325068868,0.736520654045442],[31.915603293822002,0.7393113546844016],[31.917036052557993,0.740184776096755],[31.918811379539328,0.743604619478018],[31.918857721302935,0.7439594805116934],[31.91895271643746,0.744156320114828],[31.91899401480379,0.7450031449912533],[31.918998012643705,0.745033758362319],[31.915958128154035,0.745934983120945],[31.91633418484008,0.7491217297401774],[31.9164661188314,0.7494222597466881],[31.919167537160828,0.7555741007231],[31.91841864330089,0.7586075949745263],[31.918116094333282,0.7598357081287722],[31.919123017595812,0.760109520380175],[31.918428924102244,0.7613042479962956],[31.91808727488887,0.761892867023303],[31.918086949074954,0.7618928819669571],[31.9180865382637,0.761893589087184],[31.91638508003361,0.761971158152662],[31.916293027063315,0.7620867101499854],[31.915207949251204,0.763449234210863],[31.91793217911542,0.764678508910091],[31.92410254861953,0.764938938768914],[31.924102667496296,0.7649389676368451],[31.924102718923063,0.764938969807416],[31.92909718238682,0.766149365448515],[31.92909362110356,0.7661509664978072],[31.929105777113513,0.766153918452759],[31.92483746091215,0.768070059835739],[31.93188836262798,0.773099355299388],[31.931889817720528,0.774527572284022],[31.93429647961747,0.7758322191204491],[31.93441761062701,0.775897872147793],[31.935799847442137,0.770972197029811],[31.94925275644261,0.764525825185764],[31.949520170271207,0.760473680538075],[31.949520199776916,0.7604736056890495],[31.949520205003765,0.760473526490132],[31.951253088852322,0.756077535964356],[31.951254436924877,0.7560753628200627],[31.958626824553576,0.7429065984628366],[31.959493332955798,0.740963789741599],[31.960209342213513,0.7400798612910513],[31.960616665249937,0.739352289525422],[31.959288473383136,0.7402099782341667],[31.9590353673132,0.740470432128343],[31.95897666739554,0.7404113290190674],[31.95867627443785,0.740605309764197],[31.957497354761713,0.7389218554433588],[31.957496858450675,0.7389213557233095],[31.95749599282209,0.7389210877423341],[31.956103774980015,0.7385444335752329],[31.952866502220182,0.7394885394173852],[31.952811110963044,0.739508926365175],[31.952808935384862,0.7395053279889923],[31.952808208384877,0.739505540008487],[31.951407942633786,0.7371881053796979],[31.95124672245388,0.736921449434714],[31.951246636088502,0.736921143645038],[31.951246601410702,0.736921086253408],[31.950910457073164,0.7357308510419177],[31.949571340051694,0.730989504876223],[31.9521590442475,0.722028916870799],[31.94701720979131,0.721677034527082],[31.94384063379935,0.720630071857016],[31.943305412287057,0.716194073721835],[31.94492968701805,0.712484296626562],[31.946364570195783,0.711134977140029],[31.94582368295121,0.709598072038734],[31.945825037824925,0.7095969390561582],[31.9458248676688,0.709596455689444],[31.946649158680792,0.7089077865839489],[31.947319325160933,0.708347374984978],[31.948840573239945,0.7046060228813226],[31.94886040230228,0.700319571196779],[31.948863799635905,0.6995767281934459],[31.94849139106933,0.6997165576116069],[31.946011855071003,0.700649983971373],[31.94601177305056,0.7006475876037889],[31.94601073926449,0.700647975762702],[31.94597318580649,0.6995201952518546],[31.94592483992856,0.6981076877162674],[31.9447089884349,0.6971690731305002],[31.941949731494276,0.695040074633731],[31.94143824938761,0.6927704642759007],[31.94096916836003,0.690689778314426],[31.94096928335648,0.6906895113982943],[31.940968911242702,0.690687860209961],[31.943242857027577,0.68541166095431],[31.943243425009758,0.685411043331484],[31.943243500688233,0.685410867675574],[31.943661472572277,0.6849564591445606],[31.94673417416783,0.681615208813987],[31.945170697157238,0.679919005345434],[31.9461882829063,0.678280309425951],[31.946284535822908,0.678125112064843],[31.946284708587616,0.6781250277991667],[31.946285320653747,0.678124042142406],[31.955289244272215,0.6737327882671366],[31.955289254685873,0.6737327785209636],[31.956402312660916,0.672690585357022],[31.958619758562705,0.666851464427558],[31.956279285106852,0.666659777789523],[31.956279124329967,0.6666595784334984],[31.95627897610428,0.66665956636663],[31.955556343788004,0.6657633634407135],[31.953748655773314,0.663521912534133],[31.95003486474077,0.6639861754964297],[31.94952643328841,0.664049850208156],[31.94952624475693,0.6640497583470287],[31.949525349025077,0.664049870322937],[31.94696780205797,0.662804455119979],[31.945313697369656,0.664264022693647],[31.942615392699928,0.664892200643405],[31.939859826610945,0.6642640401539128],[31.939273093730904,0.6643956395608129],[31.936454967793615,0.665027829868033],[31.93472610063413,0.664600876014238],[31.93160437798875,0.665890994708764],[31.930890250181065,0.664856003457199],[31.930327375038903,0.6648264854388377],[31.927935129169526,0.6647013481392036],[31.92758978766858,0.666534372430331],[31.927588968061883,0.6665352105452383],[31.927588931288238,0.666535406105817],[31.92739906141081,0.6667294056338255],[31.925306486232113,0.66886923496529],[31.92530492711049,0.6688690871428469],[31.925304686725923,0.668869332755751],[31.917524084545736,0.668131385316774],[31.912453399729532,0.676700635394771],[31.906103090929914,0.6827620433847666],[31.90458675648515,0.6852741795544562],[31.904321809630616,0.685753903798347],[31.902818177754213,0.690520504815846],[31.90556194987005,0.696517954538407],[31.899408972272564,0.696996439034841],[31.896674525446056,0.6983825026192192],[31.889301444022575,0.7105976076640873],[31.889300963695593,0.7106010036829643],[31.89708894401344,0.718712136711093],[31.898625008781856,0.72000800059652],[31.90341499402112,0.725274030120117]]]}},{"type":"Feature","properties":{"n":"Kapeke","c":"103201","d":"Kiboga","od":"Kiboga","dc":"103","k":"KAPEKE","a":["KAPEKE"],"lat":0.944484,"lon":31.841479},"geometry":{"type":"MultiPolygon","coordinates":[[[[31.790303851366108,0.962973686385975],[31.799846557142043,0.97131710856814],[31.812967293532235,0.9850866262298608],[31.8136,0.9857],[31.813930629889548,0.9862804952259192],[31.818182806021127,0.992815232641395],[31.82083742898646,0.996034023595079],[31.821598099890334,0.995956424863113],[31.823330450321976,0.998843468342397],[31.825757363439074,1.004853237638433],[31.825562152350994,1.0067022522193043],[31.8267,1.0087],[31.83377413550155,1.0183164029474188],[31.833819027601294,1.018318302276403],[31.836939289263785,1.020485182079644],[31.840349157547937,1.024212699413747],[31.84424693743649,1.030191765751323],[31.84591472577886,1.034798135977359],[31.857478845204394,1.0333343233918488],[31.857714881028784,1.033192861078882],[31.86170263902981,1.032770123020336],[31.86195673456639,1.0329318841950645],[31.87491588910526,1.0395889841294135],[31.876047732472216,1.037966719616874],[31.876656873995262,1.035235226170296],[31.87497226160443,1.026755055740675],[31.876009658405195,1.01605664412366],[31.875482881621494,1.013611275137025],[31.878869656886824,1.011783142659314],[31.879385575967362,1.009412424840161],[31.884770718111266,1.007128918739858],[31.883804520003867,0.994988397147056],[31.904604124512215,0.989910634859795],[31.908857358713067,0.991790969784427],[31.912988175912957,0.996047843715103],[31.912278040542688,0.993585626793517],[31.912818821546246,0.985155517639035],[31.91054383056911,0.958146303103308],[31.90673662316293,0.947771498387804],[31.903203386743435,0.931611091775359],[31.899173174312562,0.923199740547466],[31.901679170576482,0.911424431339251],[31.88319098630788,0.9091859648166],[31.87455994770051,0.902930013474289],[31.86153890307564,0.891580923750756],[31.856367511916744,0.882337884460222],[31.852109104571007,0.876692529157434],[31.851207904785543,0.874310773339911],[31.855364416748763,0.869589180186891],[31.851461178641152,0.865194419316837],[31.85262750170673,0.864133839212726],[31.8517757081089,0.860840778523308],[31.84577878717229,0.854465182548244],[31.845228128119743,0.852621789775514],[31.845752798477477,0.851715605222073],[31.8428783937157,0.853307743547132],[31.837154808720886,0.861440287087379],[31.833479084809344,0.861297381956951],[31.831411334527292,0.862513762265153],[31.829755399600366,0.864816899480935],[31.826959299921153,0.865939408878341],[31.824248053768933,0.865288460101902],[31.81965590936885,0.86953528905612],[31.819654467028936,0.869535421532613],[31.814350986135842,0.869250032993659],[31.814350597610957,0.869249996838637],[31.807802558395412,0.867790879226663],[31.807451524480282,0.870902206517888],[31.806281624233957,0.871606910463892],[31.803331150656284,0.870931119108639],[31.796722743224244,0.873755662924314],[31.797667227790175,0.875961041760943],[31.797588530227348,0.879344720790379],[31.791941958455155,0.880314035812748],[31.790038484754923,0.880861290704069],[31.789441969226026,0.881932124927982],[31.782644404165083,0.883309244521575],[31.783610069939567,0.88648223292863],[31.782537156547455,0.886619903555442],[31.782102434609886,0.890147673038548],[31.783873842133733,0.896527489264416],[31.785773964498397,0.896535636747773],[31.787375898602185,0.899442470787136],[31.787149199639554,0.901809477628206],[31.789216132809884,0.901341153809791],[31.791209608625543,0.904613759708943],[31.79565214505652,0.907740143961919],[31.79411220698865,0.908708076065759],[31.794527401903306,0.910604869477017],[31.792577007338977,0.914425458903292],[31.789814107664416,0.916674714145015],[31.790119741734426,0.919330784614378],[31.786370167192867,0.920822483718958],[31.784290411897583,0.923181488007494],[31.78097206225342,0.92441591666287],[31.77953299585984,0.927755480387616],[31.779957781594636,0.929830355270605],[31.778718301683487,0.932811289901717],[31.777722881382097,0.941196196884681],[31.775677260157313,0.9497811122201154],[31.7776,0.9508],[31.77863935166208,0.9518075936946284],[31.78193533304426,0.953699352797289],[31.790303851366108,0.962973686385975]]],[[[31.819549252020803,0.869529753567555],[31.819549251696685,0.869529759590762],[31.81954925202081,0.869529753567555],[31.819549252020803,0.869529753567555]]]]}},{"type":"Feature","properties":{"n":"Kayera","c":"103202","d":"Kiboga","od":"Kiboga","dc":"103","k":"KAYERA","a":["KAYERA"],"lat":1.001588,"lon":31.942275},"geometry":{"type":"Polygon","coordinates":[[[31.8858494341764,1.038117306262216],[31.890283056848414,1.041509653358311],[31.892560398289472,1.041762646420008],[31.89676577761959,1.043577768710521],[31.89922024744453,1.045764813790277],[31.90162153463727,1.04607024371717],[31.90672480713349,1.051501992340757],[31.904143692715305,1.059820896918677],[31.90506296277979,1.065412205060721],[31.905138081352113,1.076034624651268],[31.90642315409882,1.0834854257773625],[31.9065,1.0835],[31.909172779266644,1.0959366055672406],[31.91044072013054,1.099694730637155],[31.911424745037525,1.1062700396406648],[31.92232936908079,1.0930671316062195],[31.925032569503024,1.087823334125846],[31.92861242349306,1.083211203377549],[31.933587909150777,1.079435715377984],[31.9337,1.0793],[31.956108412829185,1.0674632980620031],[31.958479324205005,1.066206432231551],[31.969729891460105,1.055715455318223],[31.9811,1.0451],[31.98132981491756,1.0448264641956837],[31.99791468110494,1.023839391981331],[32.00159886771596,1.0206843097783103],[31.9995,0.9916],[31.99950803207237,0.9915759037828967],[31.99950729280211,0.991573139596392],[32.00073116366617,0.986201736421718],[32.001926427341665,0.9843207179750045],[32.00486892690191,0.9754932192942604],[32.004976052435104,0.975102275144034],[32.00501190330566,0.9746214871125657],[32.005293729164535,0.9632920875856127],[32.00445891087697,0.9624778412145143],[32.002042660560384,0.960121156889368],[32.00100491295223,0.9594470505545898],[31.994143659792545,0.954990210330454],[31.994143503398966,0.9549899748562058],[31.9941432884493,0.95498983522791],[31.989990047522426,0.9487363172733917],[31.989810780660765,0.9484664038321302],[31.98709777691175,0.945245096977387],[31.98214126062661,0.941344860494499],[31.982141187776907,0.9413447657216248],[31.982141152091693,0.941344737641359],[31.97522158936898,0.9323434051620662],[31.963760050229226,0.929094657227272],[31.958149953656747,0.929986919727601],[31.957150583269172,0.927310032932822],[31.957471851403465,0.9253519266137458],[31.958573277640237,0.9186361088021496],[31.956542698069715,0.917001367317105],[31.955004631443472,0.917057869993134],[31.95500368477713,0.9170562621670755],[31.955003636500294,0.917056263889621],[31.954255185290023,0.91578505990246],[31.954255187280758,0.9157850077430355],[31.954255102611075,0.915784863939334],[31.954630185776274,0.9059596436873637],[31.954675503965266,0.90477225837644],[31.952451068660633,0.907316593320425],[31.947437619244063,0.909523568027012],[31.942726407103834,0.913425777377053],[31.93311321339806,0.923848009162023],[31.92854009134199,0.932503015334392],[31.927671202739685,0.935967346162335],[31.929857952367158,0.947106553324368],[31.905311835820036,0.941009326524138],[31.906736686888852,0.9477716720436894],[31.91054383056911,0.958146303103308],[31.912818821546246,0.985155517639035],[31.912278040542688,0.993585626793517],[31.912988175912957,0.996047843715103],[31.908857358713067,0.991790969784427],[31.904604124512215,0.989910634859795],[31.883804520003867,0.994988397147056],[31.884770718111266,1.007128918739858],[31.879385575967362,1.009412424840161],[31.878892792255225,1.011676832518464],[31.878869843629587,1.011782665973056],[31.878869749583565,1.011782716705278],[31.878869656886824,1.011783142659314],[31.875482881621494,1.013611275137025],[31.87599939832498,1.0160090154453625],[31.876009627604805,1.016056371446163],[31.876009618932304,1.016056460885174],[31.876009658405195,1.01605664412366],[31.87497226648456,1.026755005413146],[31.875079714084464,1.0272959607872758],[31.876656873995262,1.035235226170296],[31.876656758505604,1.0352357440454307],[31.876656833364606,1.035236120930352],[31.876253740101365,1.0370429466221394],[31.876047732472216,1.037966719616874],[31.87491588910526,1.0395889841294135],[31.874915873479406,1.0395889761024337],[31.874915873479406,1.0395889761024342],[31.876251240992875,1.0402749525648336],[31.87842658527498,1.040180714377197],[31.8858494341764,1.038117306262216]]]}},{"type":"Feature","properties":{"n":"Kibiga","c":"103203","d":"Kiboga","od":"Kiboga","dc":"103","k":"KIBIGA","a":["KIBIGA"],"lat":0.861969,"lon":31.76277},"geometry":{"type":"Polygon","coordinates":[[[31.68261268587057,0.886350058286375],[31.688981985043704,0.883168689014122],[31.69465910112497,0.8829304854776047],[31.6999,0.8812],[31.700341409251028,0.8813243049040247],[31.70909009710266,0.883220542732864],[31.71124911984023,0.8843960165067312],[31.71689892191886,0.8859870527242762],[31.717274626268946,0.886063850006571],[31.72345291303472,0.884510276845966],[31.734916916456967,0.885635832286413],[31.73518880547383,0.884352150917983],[31.738038575904035,0.88182869957796],[31.7460668175231,0.879045897226673],[31.748985053271536,0.885113453294779],[31.746385814390823,0.884889019317599],[31.745141506610892,0.885946871597939],[31.748229426093303,0.89156532641942],[31.752179214070708,0.901932343338096],[31.757966897822268,0.894006338851003],[31.762408670247414,0.900122685854939],[31.764630192101794,0.898363868990048],[31.76665517247947,0.898814102303699],[31.76829200898519,0.896368262151091],[31.78387383060978,0.896527488516834],[31.78385802723533,0.8964705310861883],[31.782102434609886,0.890147673038548],[31.782537156547455,0.886619903555442],[31.783609791442043,0.8864822686639734],[31.78347522601378,0.8860391622259277],[31.782644404165083,0.883309244521575],[31.789441969226026,0.881932124927982],[31.790038484754923,0.880861290704069],[31.79194186457852,0.8803140628025873],[31.79194186715863,0.880314062060502],[31.791941867161167,0.8803140620600665],[31.791941958455155,0.880314035812748],[31.797588530227348,0.879344720790379],[31.797655782459604,0.8764531449931819],[31.7976671474161,0.875960854086847],[31.796722743224244,0.873755662924314],[31.803331150656284,0.870931119108639],[31.806196176150067,0.8715873390036174],[31.806281650865277,0.8716068944221865],[31.807451524480282,0.870902206517888],[31.807802558395412,0.867790879226663],[31.807818021835764,0.8677943249876637],[31.81965539833145,0.8695353359940451],[31.81965590936885,0.86953528905612],[31.823994583098827,0.8655228705400485],[31.82424781096591,0.865288622342307],[31.8242478644334,0.865288635199973],[31.824248053768933,0.865288460101902],[31.826959066588365,0.8659393528569828],[31.828634192311267,0.8652670142346441],[31.829755324146028,0.864816929772489],[31.830044660797085,0.8644145840176783],[31.831411334527292,0.862513762265153],[31.833479084809344,0.861297381956951],[31.836276751813926,0.8614061499106399],[31.837154924928548,0.8614401219699113],[31.8428783937157,0.853307743547132],[31.845673604568898,0.8517594708803252],[31.84575280254471,0.851715590840969],[31.846349605269943,0.850494634637423],[31.845051335109055,0.847011734887009],[31.84350845650345,0.846432361659376],[31.841952542848333,0.846278118944999],[31.841354121047353,0.847661479715244],[31.83370880769249,0.846375233019043],[31.830628179170034,0.842746889242775],[31.825800132672956,0.840385084505114],[31.825947652387942,0.837893066293394],[31.82521614890215,0.836562495789507],[31.81628869783598,0.835574293906976],[31.811101767513524,0.83897086570583],[31.804231059607254,0.839392828900224],[31.799184449958,0.834660036859059],[31.794349232418057,0.83458353619497],[31.79576309129693,0.838005520067661],[31.797211558676103,0.839119612793831],[31.78914036703646,0.842579634550129],[31.780656015203565,0.840524060024038],[31.77835419516139,0.839493701870286],[31.783926267490465,0.836964903450301],[31.779664260361635,0.831768162997995],[31.772609764162812,0.825943692281905],[31.770592462218765,0.828286158288471],[31.768439337921222,0.829390070052121],[31.767386369683834,0.827430934929456],[31.767485239573258,0.825785581293958],[31.764594874366033,0.822437948868279],[31.758412439401386,0.826046918415371],[31.7501351541186,0.825610120431039],[31.743655018488532,0.826884913592306],[31.73973499878362,0.825089098413857],[31.733638705358345,0.825353238984706],[31.727052382885645,0.827439944396142],[31.734079210477653,0.833329138242261],[31.734611439433213,0.83759859658544],[31.7208050796078,0.854232099800141],[31.718004577630442,0.852940515144435],[31.706126310495954,0.85326412097681],[31.703994956416523,0.854577126638654],[31.70243933831307,0.854355103660133],[31.699250843033024,0.858233601080664],[31.691470469212028,0.86303992325559],[31.688471898300417,0.861207951770716],[31.684664509906458,0.862302486052287],[31.682428069035435,0.861636255355458],[31.680100850204415,0.862371869254993],[31.68126797012933,0.8711300455842012],[31.6813,0.8713],[31.678701295060158,0.88819158210896],[31.68121850441056,0.885156549058575],[31.68261268587057,0.886350058286375]]]}},{"type":"Feature","properties":{"n":"Kiboga Town Council","c":"103204","d":"Kiboga","od":"Kiboga","dc":"103","k":"KIBOGATOWNCOUNCIL","a":["KIBOGA","KIBOGATOWNCOUNCIL","TOWNCOUNCIL"],"lat":0.92167,"lon":31.768969},"geometry":{"type":"Polygon","coordinates":[[[31.749181358964876,0.913750143873749],[31.749530589312283,0.915304901859498],[31.749423179642413,0.9155370477263314],[31.75362603409995,0.9244521935453466],[31.75446636711999,0.92468901520044],[31.75389786869069,0.9250288123741923],[31.7561,0.9297],[31.75424010592764,0.9382163570681789],[31.76062702178452,0.940024651828401],[31.764006191262798,0.942413429409819],[31.765100364523153,0.9441762615421844],[31.775677250422067,0.9497811070612662],[31.776517410684136,0.9462552292001201],[31.777722876297574,0.9411962182230347],[31.778716904766583,0.932819708585648],[31.778717461400188,0.9328183680146378],[31.778718301683487,0.932811289901717],[31.77995746526854,0.9298311160311433],[31.77971595328625,0.9286491397966299],[31.77953299585984,0.927755480387616],[31.78097206225342,0.92441591666287],[31.784290349864538,0.9231815110838355],[31.78487634049381,0.9225168867082895],[31.786370167192867,0.920822483718958],[31.790119741734426,0.919330784614378],[31.789814107664416,0.916674714145015],[31.79257696921728,0.9144254899378705],[31.792617727147185,0.9143456936744859],[31.794527401903306,0.910604869477017],[31.794244555180917,0.9093127009545067],[31.794111748316897,0.908709136103978],[31.794112355549498,0.9087087547571958],[31.79411220698865,0.908708076065759],[31.79565214505652,0.907740143961919],[31.791209608625543,0.904613759708943],[31.789216132809884,0.901341153809791],[31.787149199639554,0.901809477628206],[31.787375898602185,0.899442470787136],[31.78587140619253,0.8967124522813795],[31.785773946565268,0.8965356366708781],[31.783873842133733,0.896527489264416],[31.783870424140776,0.8965151791852054],[31.78387041524685,0.8965151791016517],[31.78387383060978,0.896527488516834],[31.768978861629954,0.8963752809100693],[31.768291632469374,0.8963688247592042],[31.76687715580866,0.8984824040932522],[31.76665734769522,0.898811783183081],[31.76665680487066,0.8988116631059542],[31.76665517247947,0.898814102303699],[31.76463038386629,0.8983639116268877],[31.762412030101267,0.900122159649389],[31.762411046355954,0.9001208046491503],[31.762408670247414,0.900122685854939],[31.757966897822268,0.894006338851003],[31.752179214070708,0.901932343338096],[31.75207342299697,0.9016546732814802],[31.75204709514179,0.9016888525949791],[31.7528,0.9034],[31.7462,0.9087],[31.746297152701178,0.9089060814873413],[31.747737180643476,0.909702503769682],[31.749181358964876,0.913750143873749]]]}},{"type":"Feature","properties":{"n":"Kyekumbya","c":"103205","d":"Kiboga","od":"Kiboga","dc":"103","k":"KYEKUMBYA","a":["KYEKUMBYA"],"lat":0.856222,"lon":31.943505},"geometry":{"type":"Polygon","coordinates":[[[31.83062729689236,0.842746249050832],[31.830627599791963,0.8427466058200955],[31.830628179170034,0.842746889242775],[31.83370880769249,0.846375233019043],[31.841354121047353,0.847661479715244],[31.841952542848333,0.846278118944999],[31.841957575974273,0.8462786178949275],[31.84195766443528,0.84627841468947],[31.841959194378614,0.8462787783325443],[31.84350845650345,0.846432361659376],[31.845051335109055,0.847011734887009],[31.845052151402196,0.8470139247757318],[31.84505265246318,0.847014043869918],[31.84573794980968,0.8488537322165952],[31.846349605269943,0.850494634637423],[31.846348177001456,0.850497556630227],[31.845399700905656,0.8531961488677422],[31.845701593218546,0.854206767153508],[31.846484425901433,0.8552153787720973],[31.851775290527144,0.8608403345733887],[31.851775489377225,0.860840490424676],[31.851775509184673,0.8608405670380307],[31.8517757081089,0.860840778523308],[31.85262750170673,0.864133839212726],[31.851461178641152,0.865194419316837],[31.855364416748763,0.869589180186891],[31.851207904785543,0.874310773339911],[31.851285574708506,0.874516045016457],[31.852193610283315,0.8768045580763153],[31.856367511916744,0.882337884460222],[31.86153890307564,0.891580923750756],[31.87455993616103,0.9029300034165253],[31.87469884669333,0.9030306902734666],[31.88319098630788,0.9091859648166],[31.901679170576482,0.911424431339251],[31.899173174312562,0.923199740547466],[31.903203386743435,0.931611091775359],[31.903203431897104,0.9316112983003592],[31.903203502977544,0.931611446651754],[31.905311833903895,0.941009314535726],[31.90546806543486,0.9410481337787466],[31.929857952367158,0.947106553324368],[31.927671202739685,0.935967346162335],[31.92854009134199,0.932503015334392],[31.928540243995133,0.9325027264258786],[31.928540261776046,0.932502655528518],[31.929462736176326,0.9307568347955424],[31.93311321339806,0.923848009162023],[31.933113395725858,0.9238478114896727],[31.933113415456365,0.923847774148879],[31.936345520928135,0.9203436734220142],[31.942726407103834,0.913425777377053],[31.94272653016646,0.9134256754465692],[31.94272653016715,0.913425675445822],[31.942726569984504,0.9134256424660252],[31.947437619244063,0.909523568027012],[31.952451068660633,0.907316593320425],[31.954675503965266,0.90477225837644],[31.954652864229857,0.9053654438029862],[31.954652869873282,0.9053654388016014],[31.95467551516236,0.904772250480964],[31.95538933336885,0.904710983205725],[31.955600683691266,0.8991175041496391],[31.955622249020845,0.898546563349546],[31.955622257209605,0.8985465515169592],[31.9556222922029,0.898545625404058],[31.956650218175156,0.89706084580447],[31.965708047956443,0.894434968726998],[31.9690611263753,0.89593356707247],[31.967608759497686,0.887318821119761],[31.97244425273373,0.8784183504184325],[31.972707657342834,0.8751693907161694],[31.97380375589665,0.861648265506421],[31.97380389641778,0.8616478483609593],[31.973803904526886,0.861647748339356],[31.980067233668404,0.8430547536277171],[31.980939727577635,0.8404647027875046],[31.981091964398686,0.839828880406453],[31.983124894359026,0.831338075027939],[31.986805397807668,0.8257394790337098],[31.98680574393249,0.8257385550249677],[31.98975409578392,0.8170933607941212],[31.98964856855546,0.8161516159302781],[31.98696873188676,0.811429035133351],[31.97853826548639,0.8035931988826555],[31.978211766353887,0.8035245528476302],[31.965308673966227,0.80081291574493],[31.9651101597056,0.793618180185677],[31.958074574360044,0.787482970485513],[31.96144791530165,0.783582846337667],[31.963412482304307,0.77948387298899],[31.959433423281013,0.776973545820872],[31.95937780672076,0.7768518186693055],[31.959231190034483,0.776756192746999],[31.958101778711175,0.7740589948373311],[31.958079303939055,0.774009804632476],[31.95807796536212,0.7740085334796964],[31.95430414010729,0.771033549551972],[31.953522261076916,0.7696823001421284],[31.952595127311277,0.768801866129255],[31.95080517755083,0.7652087090739256],[31.950190147273478,0.7647682952510664],[31.949413268699704,0.764567337816068],[31.935866344041795,0.7709403331550361],[31.935799847442137,0.770972197029811],[31.93579388879268,0.7709934309971399],[31.931922256012278,0.787868138384062],[31.931922184242314,0.7878682196345301],[31.93192212667198,0.787868491073697],[31.927823430348038,0.7931091092181346],[31.926638214440477,0.7953159035419709],[31.925744647062736,0.797962041574632],[31.925439483604954,0.7980700589618313],[31.926900203475768,0.7982701981399948],[31.926908263437923,0.798269914398258],[31.930163594996653,0.803164520688563],[31.930187435823463,0.8034400361437766],[31.93032856309972,0.80366251523178],[31.930239915360634,0.8040465135822453],[31.93030215888388,0.804765828091728],[31.92708792142195,0.817700206353518],[31.923391408755947,0.828626447188624],[31.916237886205796,0.839931611684999],[31.90900187535369,0.844515606963349],[31.91250632038877,0.852490974312417],[31.91250066093649,0.8525093993448478],[31.910630979290328,0.858690657116499],[31.91059542559264,0.8587121237932396],[31.910586397243566,0.858741516677278],[31.908812628160064,0.8597885444939739],[31.90880832142143,0.859791144824519],[31.908808204675026,0.859791155607182],[31.9088076481485,0.859791484115982],[31.905455362715113,0.8601010012393049],[31.90541255440636,0.8601283702881043],[31.902618178102582,0.861918093750106],[31.896886656423277,0.860216780405546],[31.89436444492473,0.857030751576991],[31.891931093699277,0.8571539291513522],[31.887770719029934,0.857365248954594],[31.88936327044386,0.87010911107315],[31.88935635121041,0.8701074156753245],[31.88935640071117,0.870107812863816],[31.88141256487273,0.86816099440168],[31.88141245230602,0.8681609473235252],[31.881412280024325,0.868160905109888],[31.870190174294084,0.86346761999645],[31.86069545346853,0.8554125780976287],[31.85686366635024,0.855335483536195],[31.856865110241994,0.8553345727881975],[31.856854142719026,0.855334350634046],[31.861999363406387,0.852095863495352],[31.874865373769733,0.835679764457231],[31.87179762245757,0.82967574913732],[31.873477168398903,0.825855551457028],[31.87198411528779,0.823692893358325],[31.873519102016655,0.8221409916083114],[31.867571462636032,0.815781619391229],[31.865107149721098,0.815683890403869],[31.86092914331042,0.819056711335672],[31.859263821930227,0.8199080860618665],[31.83692628217506,0.83132828419804],[31.836926144048352,0.8313279444848175],[31.836922171550952,0.831329975374426],[31.836911845463284,0.8312927780896389],[31.83523123037015,0.8271594198424403],[31.83344705930645,0.826529317069554],[31.833435308514414,0.8264210719533274],[31.82586397618616,0.824536786479336],[31.823985205416587,0.83187183802261],[31.825945612025805,0.8378893549704428],[31.825947652387942,0.837893066293394],[31.82580013723019,0.8403850075207966],[31.83062729689236,0.842746249050832]]]}},{"type":"Feature","properties":{"n":"Nkandwa","c":"103206","d":"Kiboga","od":"Kiboga","dc":"103","k":"NKANDWA","a":["NKANDWA"],"lat":0.8198,"lon":31.749867},"geometry":{"type":"MultiPolygon","coordinates":[[[[31.66045737290074,0.827644909643719],[31.663075944990826,0.832940244314782],[31.663647001617825,0.833964419043855],[31.67343114570605,0.8426790583186216],[31.6764,0.8453],[31.676429146521,0.8454546550093732],[31.678702468214592,0.851317934026284],[31.680100848225557,0.86237185770141],[31.680157145397807,0.8623540748275057],[31.682428069035435,0.861636255355458],[31.682618690660536,0.8616930411081098],[31.68466462630254,0.8623024525911619],[31.688471898300417,0.861207951770716],[31.69135257615815,0.8629678967071642],[31.699249757548642,0.8582342716381179],[31.699250843033024,0.858233601080664],[31.70243933831307,0.854355103660133],[31.703994956416523,0.854577126638654],[31.704492042768052,0.8542709000945611],[31.70612491854155,0.85326482125042],[31.70612510892165,0.8532648611981918],[31.706126310495954,0.85326412097681],[31.708532352460622,0.8531985719195367],[31.709743580833262,0.85273128372581],[31.71800205778717,0.8529405837938406],[31.718004577630442,0.852940515144435],[31.7208050796078,0.854232099800141],[31.72671374913807,0.8471135055530571],[31.734611423592835,0.8375984695163834],[31.734079210477653,0.833329138242261],[31.72959837270981,0.8295737419610361],[31.727055606906863,0.827443652760769],[31.72705646945745,0.82744336935758],[31.727052382885645,0.827439944396142],[31.72745848430313,0.8273112816971975],[31.732896786715855,0.825524450564287],[31.73314897093291,0.8255083986325916],[31.733638705358345,0.825353238984706],[31.73973499878362,0.825089098413857],[31.743654738334673,0.8268847852499536],[31.747542660548355,0.8261201241196413],[31.7501351541186,0.825610120431039],[31.758412439401386,0.826046918415371],[31.764594874366033,0.822437948868279],[31.767485239573258,0.825785581293958],[31.767386369683834,0.827430934929456],[31.767841857883592,0.8282784086693303],[31.76843999877904,0.829389731228803],[31.770592462218765,0.828286158288471],[31.772609764162812,0.825943692281905],[31.772615639443238,0.8259485431455],[31.777646749969378,0.829788711295702],[31.77863507769713,0.8309184291372103],[31.779664260361635,0.831768162997995],[31.783926267490465,0.836964903450301],[31.77835419516139,0.839493701870286],[31.778398138344198,0.83951337205122],[31.789126990283517,0.8425763936528707],[31.789139920525262,0.8425795263701451],[31.79721131224005,0.839119423246853],[31.79576309129693,0.838005520067661],[31.794349232418057,0.83458353619497],[31.799184449958,0.834660036859059],[31.799184630422644,0.8346602061017174],[31.799184793352975,0.834660208556548],[31.80002375711747,0.8354471526695755],[31.804231059607254,0.839392828900224],[31.811101688987065,0.8389708705285173],[31.811239277106207,0.8388808199223813],[31.81628869783598,0.835574293906976],[31.82482512447646,0.8365192123180303],[31.823985805359804,0.8318736795632647],[31.823985205416587,0.83187183802261],[31.82398536211385,0.8318712262489453],[31.823985334108393,0.831871071242044],[31.825863135641168,0.824539589334256],[31.825863250031396,0.8245396215152543],[31.82586397618616,0.824536786479336],[31.83338899360241,0.8264095455122553],[31.833408962484228,0.8261783794530372],[31.832807896335506,0.8206415207518702],[31.83280776526006,0.8206409261588745],[31.82898893594737,0.814059711446959],[31.828313965225856,0.814905719331603],[31.819371539705813,0.8146272974632564],[31.819358274542914,0.8146295314886461],[31.81203956549842,0.815866672623318],[31.813097713600897,0.813667886227626],[31.81385885769928,0.808128335263619],[31.811936735577035,0.805578348210945],[31.806892121047255,0.806358185037579],[31.806752726198273,0.794916474058043],[31.807598509040865,0.7892282623393565],[31.808208951617875,0.7851226996331743],[31.8080370406978,0.783752125111956],[31.806593429209155,0.7828372769286104],[31.805739728292437,0.782296532273287],[31.805739588405313,0.7822961793310901],[31.805739149618052,0.782295901262003],[31.805007111762038,0.7804481041909295],[31.804979495623986,0.780378427295875],[31.80483943013336,0.7803848214331607],[31.8036,0.7808],[31.802254469466845,0.7805028276123095],[31.79745621002947,0.780721873213314],[31.787582997583517,0.7772625025337829],[31.787446025118577,0.7772322509464348],[31.78498545703216,0.784923615473894],[31.78091952133092,0.791390561522231],[31.77632458595183,0.795441366429329],[31.77420284676561,0.798705536630206],[31.77413332705862,0.798712031207467],[31.771800325744945,0.7991330239257243],[31.76508246619785,0.802692183444443],[31.757479926816373,0.8017171560632106],[31.75462204571496,0.8022328639311348],[31.751474045390736,0.803538343281942],[31.747552627109624,0.803528126418435],[31.746077777981583,0.8031514538369052],[31.723244781186775,0.797923337748374],[31.72205658329199,0.798688668030166],[31.718035575206535,0.7967305756314034],[31.705405466735936,0.7938386349068264],[31.70466868408942,0.7938780859609229],[31.6975,0.8036],[31.6970613417007,0.8038362006227011],[31.689316905227837,0.809035391628046],[31.687732242977308,0.8088595614737573],[31.679561613979374,0.8132591309341828],[31.67863988447332,0.814657777136007],[31.67661243681956,0.8148471494048518],[31.66932266866223,0.8187724091818771],[31.669254948537947,0.818888665793006],[31.66897438387902,0.8189599471420658],[31.665,0.8211],[31.66499980705274,0.8210999016711082],[31.66496120813658,0.8211384447336],[31.664558249155668,0.8208748769735629],[31.65467750920928,0.8158394998854994],[31.65462041482483,0.815817401230249],[31.65946245369769,0.821833737773471],[31.66045737290074,0.827644909643719]]],[[[31.704798886972203,0.793711397684713],[31.704798886459514,0.793711403658392],[31.704798886972455,0.793711397684735],[31.704798886972203,0.793711397684713]]]]}}]}
