{"type":"FeatureCollection","name":"Kibuku sub-counties","metadata":{"source":"Uganda Bureau of Statistics NPHC 2024 Map Explorer","retrieved":"2026-07-26","display_only":true,"clipped_to_dashboard_district":true,"positive_area_overlaps_removed":true,"source_gap_ratio":0.01159607},"features":[{"type":"Feature","properties":{"n":"Bulangira","c":"227101","d":"Kibuku","od":"Kibuku","dc":"227","k":"BULANGIRA","a":["BULANGIRA"],"lat":1.142419,"lon":33.917845},"geometry":{"type":"MultiPolygon","coordinates":[[[[33.91782021157964,1.1590802203757637],[33.92434221376044,1.1619465780221048],[33.92663622627859,1.162660192556309],[33.927003244309155,1.1631160755244052],[33.9322,1.1654],[33.93155033867641,1.1639743543176782],[33.930348000127005,1.161942073894384],[33.929889736151935,1.160330254333404],[33.9286,1.1575],[33.92880827908592,1.1565265216636351],[33.92820698347799,1.154411627027538],[33.93067129926018,1.146508612805909],[33.931349014368905,1.140492323177041],[33.93313712849121,1.136293855965004],[33.9332,1.136],[33.933084874743,1.1358236379041706],[33.93171110417694,1.135433661819475],[33.9303908977352,1.133839724601153],[33.92573466081444,1.132483762211031],[33.92705649364415,1.129348847858828],[33.92843000661835,1.1283395172259767],[33.92749085984668,1.1221609200439513],[33.92620443392381,1.119142760305324],[33.91009146526016,1.122494191758106],[33.90753156729902,1.128816104694307],[33.9050396688342,1.132732056369883],[33.9055977320531,1.135162823311604],[33.905211399654746,1.141458191571118],[33.903904395346686,1.143379655371462],[33.900987384788316,1.143849058994586],[33.8981854878433,1.145928053989921],[33.910823454323015,1.153237110173138],[33.91782021157964,1.1590802203757637]]],[[[33.914014015994994,1.121561305610993],[33.91401401743303,1.121561311405458],[33.914014015994994,1.121561305610992],[33.914014015994994,1.121561305610993]]]]}},{"type":"Feature","properties":{"n":"Bulangira Town Council","c":"227102","d":"Kibuku","od":"Kibuku","dc":"227","k":"BULANGIRATOWNCOUNCIL","a":["BULANGIRA","BULANGIRATOWNCOUNCIL"],"lat":1.124049,"lon":33.890039},"geometry":{"type":"Polygon","coordinates":[[[33.87825987507507,1.140508793592595],[33.87903455719254,1.139029525232781],[33.88444520614284,1.139111076424596],[33.88730753996834,1.140531168356434],[33.8878,1.1405],[33.889902246676094,1.141818482235878],[33.89818547741617,1.145928048017043],[33.90098680143857,1.143849346997142],[33.90098705075752,1.1438493068439382],[33.900987384788316,1.143849058994586],[33.9024559533199,1.1436127378103669],[33.90390454155181,1.143379440431193],[33.90391491149225,1.143364195290038],[33.90522499009746,1.1412367324286017],[33.90540977305628,1.138225654976073],[33.90503974206423,1.1327323753393868],[33.9050396688342,1.132732056369883],[33.90503971562516,1.1327319828391489],[33.90503971364101,1.132731953383599],[33.90626513671608,1.130806266425723],[33.90753156729902,1.128816104694307],[33.91009146526016,1.122494191758106],[33.91009152465481,1.1224941794042618],[33.91009155932784,1.122494093775578],[33.90311479795293,1.115553370487961],[33.898930177158604,1.113066391399588],[33.898738240080384,1.111581552386661],[33.8969778687237,1.109523620408515],[33.88765439049117,1.102202486023696],[33.88407859775463,1.101089941014175],[33.881214361728226,1.109127946158298],[33.874812444117644,1.112069094835888],[33.871523634380395,1.116358157130658],[33.870924592509255,1.118084155743653],[33.87208252809208,1.11879995966454],[33.87026046790278,1.121684263349602],[33.87085056611393,1.125603746617628],[33.86902185227391,1.128606003133153],[33.8715602799297,1.130406754139844],[33.872249603080306,1.133717172440002],[33.87067407277895,1.138519188899526],[33.86839136462082,1.141620099523994],[33.868822476566386,1.143820017203852],[33.86666220783179,1.143782224302843],[33.86703702009486,1.146403105284842],[33.86685939748409,1.1466406025159093],[33.872,1.1415],[33.87476542838981,1.1413249728867207],[33.87773925292437,1.13979027135162],[33.87825987507507,1.140508793592595]]]}},{"type":"Feature","properties":{"n":"Goli Goli","c":"227103","d":"Kibuku","od":"Kibuku","dc":"227","k":"GOLIGOLI","a":["GOLIGOLI"],"lat":1.14007,"lon":33.845424},"geometry":{"type":"Polygon","coordinates":[[[33.81468969851773,1.1218327128327161],[33.81597767727386,1.123737242924381],[33.81568972567264,1.125341004818788],[33.8185,1.1352],[33.82036587763729,1.1384727693317256],[33.8274102715155,1.150321652559841],[33.82819268570742,1.152201074395897],[33.83569727343159,1.165364201527065],[33.83742444092891,1.1678973146076872],[33.84368743161793,1.1650318940310138],[33.84362215648974,1.164937419812271],[33.85058114296484,1.15810861550353],[33.85577567398358,1.154302805937431],[33.8609760945606,1.1525239054394045],[33.866635861218406,1.1468641387815932],[33.86702099840768,1.1462910733708171],[33.86668196777308,1.1439203960209192],[33.86666045620933,1.143787460165609],[33.86666296211142,1.1437874986157222],[33.86666220783179,1.143782224302843],[33.868822476566386,1.143820017203852],[33.86840803920778,1.1417051881396791],[33.868391322743044,1.141620227247681],[33.86839137558444,1.1416201554701668],[33.86839136462082,1.141620099523994],[33.870674063458196,1.1385192015611587],[33.87069510868681,1.1384550741213404],[33.87224956969299,1.1337172742003034],[33.872008508044644,1.1325593331632555],[33.871560289890624,1.130406801976351],[33.87156007780078,1.1304066107503463],[33.86920232878263,1.1287340324878685],[33.861615605558946,1.12582915224115],[33.85690700821354,1.124897087003202],[33.85414801601302,1.125400450365905],[33.848251236717054,1.124708135160625],[33.84045907502877,1.121992242969723],[33.83528982799825,1.119206846959635],[33.83055765652903,1.119345033847606],[33.82136509777337,1.115851515863639],[33.812841445332445,1.1151911658021],[33.812868690226644,1.1154442575164332],[33.81468969851773,1.1218327128327161]]]}},{"type":"Feature","properties":{"n":"Kabweri","c":"227104","d":"Kibuku","od":"Kibuku","dc":"227","k":"KABWERI","a":["KABWERI"],"lat":1.046417,"lon":33.880776},"geometry":{"type":"Polygon","coordinates":[[[33.8752416688234,1.067145253176386],[33.89151289949712,1.065286082537075],[33.89506129305355,1.064102936207253],[33.895807592649874,1.051933088384344],[33.89457023986056,1.048368035957748],[33.89487809875181,1.044465704734702],[33.89273654513847,1.03891391141547],[33.89293324867227,1.030214841559973],[33.88471422710488,1.029721184153689],[33.88445937468274,1.028001405951005],[33.88293298350235,1.026116042632996],[33.88076134727892,1.026757092656229],[33.879547457874324,1.024952186719991],[33.87947450611295,1.02847665675194],[33.877845041556085,1.032260973304084],[33.86844999234604,1.042803912530724],[33.8638426541442,1.053071309116643],[33.87106685190253,1.068321591872686],[33.8752416688234,1.067145253176386]]]}},{"type":"Feature","properties":{"n":"Kadama","c":"227105","d":"Kibuku","od":"Kibuku","dc":"227","k":"KADAMA","a":["KADAMA"],"lat":1.059795,"lon":33.855641},"geometry":{"type":"Polygon","coordinates":[[[33.855490020139946,1.07450551742492],[33.862450919936045,1.073906538341125],[33.87106684263938,1.068321595672051],[33.87101344401644,1.0682088478156255],[33.8638426541442,1.053071309116643],[33.868439647555476,1.042826965769411],[33.86844994990524,1.042803999309489],[33.86844995712794,1.042803991013805],[33.86844999234604,1.042803912530724],[33.86845143430656,1.0428022943910178],[33.87298321072881,1.037597294079683],[33.86857653670539,1.037866665124638],[33.86056752956439,1.041349458326864],[33.85739787463923,1.043222872881598],[33.85314288887933,1.047774447337957],[33.84963415063648,1.050263106641981],[33.8459564261636,1.055402362692115],[33.842550328516545,1.06418739367939],[33.841029139002444,1.070031788121509],[33.840465038421165,1.077630731826244],[33.84699969533033,1.078126435594077],[33.855490020139946,1.07450551742492]]]}},{"type":"Feature","properties":{"n":"Kadama Town Council","c":"227106","d":"Kibuku","od":"Kibuku","dc":"227","k":"KADAMATOWNCOUNCIL","a":["KADAMA","KADAMATOWNCOUNCIL"],"lat":1.011575,"lon":33.884422},"geometry":{"type":"Polygon","coordinates":[[[33.86632517154295,1.010282598097709],[33.869651698259,1.012987449583487],[33.872585554294986,1.017088136977144],[33.87549993378253,1.018983269881679],[33.86818056951051,1.023677616287904],[33.868574042942896,1.026221237290448],[33.86626452519886,1.029276310906914],[33.866700861279305,1.03303934045796],[33.86847063705043,1.0379127166004232],[33.86857653670539,1.037866665124638],[33.872982464617934,1.0375973396879274],[33.87298322151169,1.037597281409188],[33.873723865038926,1.0368856764420118],[33.87733153311411,1.0328372223662283],[33.87907683786612,1.0294002132186288],[33.879379035409535,1.0286983807297005],[33.87954593998658,1.0250255194234612],[33.879547457874324,1.024952186719991],[33.88076134727892,1.026757092656229],[33.88258285448068,1.0262193979809382],[33.88496959667115,1.022625063152458],[33.887134258583266,1.022407704077544],[33.891399479562594,1.019923974826747],[33.893986094928394,1.01997554194779],[33.89420124597324,1.017703242270347],[33.90186177090148,1.012149061728262],[33.9,1.011],[33.88590826418742,0.9901053572434149],[33.87363174554323,0.985253881578695],[33.87611578270988,0.99032625011539],[33.87602207104057,0.99496906394221],[33.87668800468439,0.995330685158905],[33.876735668685114,0.997123654491241],[33.87495291572402,1.000500038974819],[33.87072744376955,1.002019722586462],[33.865108919109595,0.999232408002816],[33.86226188417614,0.999313498144236],[33.85840362397872,1.000526725689125],[33.856079637354526,1.00231319797749],[33.860575960666914,1.007452913090613],[33.86632517154295,1.010282598097709]]]}},{"type":"Feature","properties":{"n":"Kagumu","c":"227107","d":"Kibuku","od":"Kibuku","dc":"227","k":"KAGUMU","a":["KAGUMU"],"lat":1.100923,"lon":33.840574},"geometry":{"type":"Polygon","coordinates":[[[33.7987421207554,1.1026885050213457],[33.803029372310256,1.105721220463465],[33.80377783382664,1.106785356333543],[33.81229761749779,1.1137167057609172],[33.81239104933535,1.113778011933475],[33.81239737725532,1.1137978662416217],[33.8124,1.1138],[33.81241644602332,1.113857695885103],[33.81284144292815,1.115191154517611],[33.821364936601064,1.11585148444867],[33.821364999159805,1.1158515082237832],[33.82136509777337,1.115851515863639],[33.83055762707544,1.1193450226541344],[33.83065497110947,1.1193421921080131],[33.83528982799825,1.119206846959635],[33.83993226686338,1.1217083777658932],[33.8404592906293,1.1219923181154678],[33.848251236717054,1.124708135160625],[33.85200201595025,1.1251484978339512],[33.85414804184035,1.1254004456538478],[33.85690700821354,1.124897087003202],[33.861615605558946,1.12582915224115],[33.863266807998386,1.12646138109783],[33.86584863238587,1.127096409779168],[33.86902184241059,1.128605998795023],[33.86902810604428,1.1285957361233911],[33.87085056611393,1.125603746617628],[33.87026046790278,1.121684263349602],[33.87026202580938,1.121681797198503],[33.87026198155557,1.121681503574437],[33.87208246035645,1.1187999177922372],[33.870924592509255,1.118084155743653],[33.871523634380395,1.116358157130658],[33.87194265939991,1.1158116906107416],[33.87263819291457,1.114259787394119],[33.87425686961114,1.1127936407531551],[33.874812444117644,1.112069094835888],[33.87530829495267,1.111841292618425],[33.87592578633352,1.111281988270756],[33.87726304860149,1.1109432458988355],[33.881213987699276,1.1091281179934918],[33.88121444123551,1.1091277230342584],[33.88121963885925,1.10911313676204],[33.88429213607868,1.099862923299664],[33.882503137473876,1.094535142932964],[33.87229245664737,1.08483158822375],[33.86505039706269,1.080192642615483],[33.86045312719003,1.074268934233511],[33.85548994305579,1.0745055502994487],[33.85416115190195,1.0750722475860468],[33.84700009430875,1.078126364221204],[33.846999897653454,1.0781263493081585],[33.84699969533033,1.078126435594077],[33.84280478751403,1.0778082197123315],[33.840464896426965,1.077630777742737],[33.83205959667986,1.081948107382718],[33.82413212878763,1.081941324982487],[33.82064682871063,1.084403110780477],[33.81389335141367,1.086820128299397],[33.810050470139934,1.091760365065555],[33.8029718349791,1.090975390732741],[33.794176179429705,1.096107072707937],[33.79787496467425,1.1019830221078675],[33.7987421207554,1.1026885050213457]]]}},{"type":"Feature","properties":{"n":"Kakutu","c":"227108","d":"Kibuku","od":"Kibuku","dc":"227","k":"KAKUTU","a":["KAKUTU"],"lat":1.090918,"lon":33.898458},"geometry":{"type":"Polygon","coordinates":[[[33.883749409838344,1.097140779196701],[33.883872031410654,1.098611818130417],[33.88429213607868,1.099862923299664],[33.88403967687494,1.1006229895774575],[33.88407859965402,1.101089929630096],[33.88441477207141,1.1011945357393218],[33.88765439049117,1.102202486023696],[33.8969778687237,1.109523620408515],[33.898738240080384,1.111581552386661],[33.89893014761752,1.1130661628676244],[33.902758299196854,1.115341498255096],[33.90311479795293,1.115553370487961],[33.907205057866,1.1196225023824753],[33.91009156804378,1.122494085386642],[33.926204428928955,1.11914274958173],[33.92567358658848,1.112515332803072],[33.92585127315786,1.111374165512257],[33.9247,1.1038],[33.9244779039237,1.1033584837037373],[33.92243722713607,1.100549856342655],[33.921266934262036,1.097700634510114],[33.92150151553853,1.097441567034428],[33.9164,1.0873],[33.91636363292629,1.087253767390332],[33.91151379759112,1.082875155438273],[33.90496986310585,1.075034214928774],[33.902908057472665,1.070782832631825],[33.89755400581749,1.063357480820643],[33.891514285777056,1.0652856203076218],[33.89151289949712,1.065286082537075],[33.89151213895567,1.0652861694374682],[33.87238678298017,1.0679496747245791],[33.871467624542056,1.0682086661149282],[33.863335238946775,1.073480960219805],[33.86294131103893,1.0735886610470338],[33.862450919936045,1.073906538341125],[33.86146986857932,1.0739909569163122],[33.8604531395271,1.074268933058166],[33.865050516545686,1.0801927191510479],[33.87229245664737,1.08483158822375],[33.882503137473876,1.094535142932964],[33.88250348153605,1.0945361675775303],[33.883749409838344,1.097140779196701]]]}},{"type":"Feature","properties":{"n":"Kenkebu","c":"227109","d":"Kibuku","od":"Kibuku","dc":"227","k":"KENKEBU","a":["KENKEBU"],"lat":1.037086,"lon":33.908031},"geometry":{"type":"Polygon","coordinates":[[[33.88445902503923,1.0280009740793687],[33.88445937468274,1.028001405951005],[33.88471422710488,1.029721184153689],[33.88472157965898,1.0297216257686377],[33.88987108517576,1.029544486547664],[33.89230790178283,1.0301772814780412],[33.89293324867227,1.030214841559973],[33.8929304424778,1.0303389434572765],[33.8929872274955,1.030353689446458],[33.892736770770476,1.0389039330050571],[33.8927365494968,1.0389137186714688],[33.893052476277866,1.0397329356874268],[33.89487809875181,1.044465704734702],[33.894570265405925,1.0483677121520691],[33.89478464234345,1.0489857709307497],[33.895807592649874,1.051933088384344],[33.895432893063465,1.0580432845688161],[33.89506130476835,1.064102932752496],[33.8953870923299,1.0640492531929255],[33.89755400581749,1.063357480820643],[33.89776973514742,1.0636566684777513],[33.897798207898525,1.063651977062488],[33.8976,1.0634],[33.89919816066414,1.063421308808855],[33.90068918263307,1.063175635210326],[33.91207152969356,1.0635929537292474],[33.927016608603275,1.0637922214480438],[33.927756315907125,1.0635888929501673],[33.934733514898284,1.0541660778177817],[33.93478442560429,1.054047079401126],[33.937273854273585,1.0506730571477803],[33.92826740970199,1.0413920258514382],[33.924866652551884,1.039675907230517],[33.92215205325261,1.035267612105244],[33.9181092900452,1.031740257300405],[33.91872392495778,1.02979709652728],[33.9128,1.0189],[33.9018617759998,1.0121490648748783],[33.90182862416365,1.0121730944111444],[33.89420124597324,1.017703242270347],[33.893986094928394,1.01997554194779],[33.891399479562594,1.019923974826747],[33.887134258583266,1.022407704077544],[33.88713377077457,1.0224077530596265],[33.88713351669567,1.022407901060929],[33.88684824471849,1.0224364234395429],[33.884970427863074,1.0226249796904139],[33.88377817357997,1.025212730167307],[33.88301266477871,1.025572121484125],[33.88288307917901,1.0257672720270359],[33.88445900430642,1.028000833962332],[33.88445902503923,1.0280009740793687]]]}},{"type":"Feature","properties":{"n":"Kirika","c":"227110","d":"Kibuku","od":"Kibuku","dc":"227","k":"KIRIKA","a":["KIRIKA"],"lat":0.98106,"lon":33.817932},"geometry":{"type":"Polygon","coordinates":[[[33.78765888719185,0.977726816013431],[33.79921838646657,0.989429798601815],[33.801121347503724,0.992758713554072],[33.80221156472548,0.997100723879686],[33.8171630889331,1.012995997828584],[33.82915438859811,1.007281094445721],[33.83124713515169,1.00696994173623],[33.83510031630404,1.009472394499994],[33.83699296703208,1.006604921692262],[33.83747170498854,0.999789073218858],[33.839019273303954,0.99578973409034],[33.84372737542222,0.990356496073829],[33.84336321127982,0.987256742110253],[33.84494321140817,0.982769581525239],[33.84488281257819,0.979350083308227],[33.84416758020264,0.977534224616452],[33.8307402165415,0.963817246900569],[33.82750443670107,0.955871560070077],[33.826484383698,0.948999823728952],[33.78200656195282,0.95626981802788],[33.783923133757,0.966238686924733],[33.78765888719185,0.977726816013431]]]}},{"type":"Feature","properties":{"n":"Nabiswa","c":"227111","d":"Kibuku","od":"Kibuku","dc":"227","k":"NABISWA","a":["NABISWA"],"lat":1.018036,"lon":33.846006},"geometry":{"type":"Polygon","coordinates":[[[33.82454212186289,1.030331664915542],[33.82926280240976,1.032619095383731],[33.83790657564865,1.0320520470774],[33.84093582183132,1.039405412373931],[33.84498800880634,1.044648880256357],[33.84610468452411,1.045535440021401],[33.854047684356814,1.04658904345562],[33.85561853769945,1.0451262363759517],[33.85739787463923,1.043222872881598],[33.85812225303928,1.0427947313110442],[33.85823604215853,1.042688768822554],[33.85853857714581,1.04254866425987],[33.86056752956439,1.041349458326864],[33.86847062678807,1.0379127210631092],[33.86670090587553,1.033039507695303],[33.86670089830643,1.0330394424183942],[33.866700861279305,1.03303934045796],[33.86626452519886,1.029276310906914],[33.86626454590986,1.0292762835100135],[33.866264529816675,1.029276144720351],[33.86808530307104,1.0268677516078566],[33.868574042942896,1.026221237290448],[33.86818056951051,1.023677616287904],[33.87549993378253,1.018983269881679],[33.872585554294986,1.017088136977144],[33.87258479004765,1.017087068779051],[33.87258450464483,1.017086883268133],[33.87176028495823,1.0159346476702003],[33.869651698259,1.012987449583487],[33.866325295300676,1.0102826987270739],[33.861176425888594,1.007913172678528],[33.860908288278765,1.0076164803141794],[33.860575960666914,1.007452913090613],[33.856127373484135,1.0023677648068228],[33.85007243403624,0.998499584272941],[33.84372738035175,0.990356506770293],[33.841420320732155,0.9930188803920436],[33.839019273303954,0.99578973409034],[33.83747170498854,0.999789073218858],[33.83699296703208,1.006604921692262],[33.83510031630404,1.009472394499994],[33.83124713515169,1.00696994173623],[33.829154390021166,1.0072810942341386],[33.829154388596905,1.0072810944462967],[33.81936819942907,1.0119450697569756],[33.817163094089146,1.012996008139044],[33.81816433680729,1.019251252949788],[33.82454212186289,1.030331664915542]]]}},{"type":"Feature","properties":{"n":"Nandere","c":"227112","d":"Kibuku","od":"Kibuku","dc":"227","k":"NANDERE","a":["NANDERE"],"lat":0.970676,"lon":33.852619},"geometry":{"type":"Polygon","coordinates":[[[33.84496673445421,0.982407246554005],[33.84493793981268,0.9824711285356201],[33.84494321140817,0.982769581525239],[33.84360058514501,0.9865826063094598],[33.84360125941056,0.9892830004670441],[33.843715175195314,0.9902526481181871],[33.844784105583635,0.9917126805538624],[33.849668271086735,0.9979808920151256],[33.85607962859339,1.002313190354334],[33.85840258843573,1.00052725668988],[33.85840317195932,1.000527073161062],[33.85840362397872,1.000526725689125],[33.86138477940374,0.9995893032001876],[33.86226156090096,0.999313539416502],[33.86226177185039,0.9993135334650001],[33.86226188417614,0.999313498144236],[33.865108919109595,0.999232408002816],[33.87072744376955,1.002019722586462],[33.87495291572402,1.000500038974819],[33.87656848128828,0.9974402933889728],[33.876735667426374,0.9971236071414378],[33.87668800468439,0.995330685158905],[33.87602207104057,0.99496906394221],[33.87611578270988,0.99032625011539],[33.876110970766305,0.990316424195103],[33.87378444605711,0.985993719256251],[33.873668561686245,0.9853290596186934],[33.87363174554323,0.985253881578695],[33.87365720871892,0.9852639442015592],[33.872890093844255,0.9808641248751554],[33.869,0.9782],[33.8632836583259,0.9428178161895948],[33.82648439416607,0.948999822019237],[33.82686954329702,0.9515945077362975],[33.82750443670107,0.955871560070077],[33.8307402165415,0.963817246900569],[33.84416758020264,0.977534224616452],[33.84488281257819,0.979350083308227],[33.84493319893955,0.9822027225544022],[33.84496673445421,0.982407246554005]]]}},{"type":"Feature","properties":{"n":"Buseta","c":"227201","d":"Kibuku","od":"Kibuku","dc":"227","k":"BUSETA","a":["BUSETA"],"lat":1.086413,"lon":33.750014},"geometry":{"type":"Polygon","coordinates":[[[33.73181532103289,1.078310795351451],[33.73411500303956,1.083480724372063],[33.73329343314894,1.087376555006456],[33.73477195670465,1.092998048363201],[33.74288215195041,1.111532801082311],[33.74580999156948,1.1118619396693639],[33.7624,1.1131],[33.77265291769092,1.101446683795201],[33.77436594117411,1.094619643015467],[33.76561270328271,1.085449902329048],[33.76242479846601,1.083951157428835],[33.760889441415316,1.07990606852047],[33.76175113105413,1.077102692170861],[33.76128475695689,1.074357253273341],[33.740909782302765,1.065273281458526],[33.73526671063913,1.061068323903758],[33.733403917768705,1.061781867052289],[33.73095538969029,1.060606440763415],[33.73306438500208,1.066803321881857],[33.73181532103289,1.078310795351451]]]}},{"type":"Feature","properties":{"n":"Kasasira","c":"227202","d":"Kibuku","od":"Kibuku","dc":"227","k":"KASASIRA","a":["KASASIRA"],"lat":1.078787,"lon":33.722197},"geometry":{"type":"Polygon","coordinates":[[[33.690307459642774,1.077767066317379],[33.692815077962884,1.080318561292681],[33.70155681462003,1.083376541290193],[33.705883536538664,1.07765812080421],[33.709867531564704,1.076309665949697],[33.71284757963386,1.079262593160193],[33.713193400912814,1.082075088894493],[33.71198829240135,1.084156252910676],[33.71457278488821,1.085762497353227],[33.71743732963268,1.084407236776373],[33.71875642729759,1.086770940498591],[33.72076011020582,1.086172905622196],[33.721476776061536,1.08989818742149],[33.718643106562666,1.094586841461618],[33.71684390707234,1.095523825990196],[33.71838611223067,1.097819235872205],[33.71820518181804,1.100576684639937],[33.71384588962019,1.107344647687228],[33.713165490237344,1.116621382123221],[33.72338033925237,1.114598055609574],[33.73005639957825,1.116005405770144],[33.730340488663586,1.117301536912691],[33.730513169788736,1.1172457926222037],[33.7423,1.1116],[33.74271155474977,1.1116307130410272],[33.742882139019734,1.111532799338198],[33.73734753531092,1.0988841844091517],[33.73477195670465,1.092998048363201],[33.73329343314894,1.087376555006456],[33.73411500303956,1.083480724372063],[33.73181532103289,1.078310795351451],[33.73291952946429,1.068137858221972],[33.73306437780292,1.0668033007284963],[33.731072215625254,1.0609497115267446],[33.7309553746336,1.060606432565388],[33.7249072623366,1.056310654685148],[33.709471110409865,1.050008891937426],[33.69466777598237,1.039907068763705],[33.69443949347858,1.040357723185644],[33.6944,1.0407],[33.69409925894096,1.0410293830646646],[33.69283451687779,1.043526121070986],[33.68929208230826,1.047254056600043],[33.68699243313146,1.0488130494274512],[33.686,1.0499],[33.678764190740516,1.0543911919541638],[33.676740699128345,1.055762970285184],[33.6877239375136,1.071511067483255],[33.690307459642774,1.077767066317379]]]}},{"type":"Feature","properties":{"n":"Kasasira Town Council","c":"227203","d":"Kibuku","od":"Kibuku","dc":"227","k":"KASASIRATOWNCOUNCIL","a":["KASASIRA","KASASIRATOWNCOUNCIL"],"lat":1.096672,"lon":33.706923},"geometry":{"type":"Polygon","coordinates":[[[33.69304812401955,1.091847066982802],[33.69497993233828,1.095353946711418],[33.69991810037813,1.100553660626798],[33.70328394994724,1.105998167771727],[33.70747050846914,1.118113354839902],[33.71316547877094,1.116621382423797],[33.71384586141428,1.107344870482156],[33.71384587480413,1.1073448496930531],[33.71384588962019,1.107344647687228],[33.71663230746525,1.1030186304913732],[33.718205189200035,1.1005765721355552],[33.71838611223067,1.097819235872205],[33.71684390707234,1.095523825990196],[33.718643106562666,1.094586841461618],[33.721476776061536,1.08989818742149],[33.72082081142903,1.0864884350424935],[33.72076009127894,1.086172911271261],[33.71875642729759,1.086770940498591],[33.71743732963268,1.084407236776373],[33.71457278488821,1.085762497353227],[33.71198829240135,1.084156252910676],[33.71319340046289,1.0820750896714926],[33.71319322757635,1.0820736791834744],[33.71284757963386,1.079262593160193],[33.709867531564704,1.076309665949697],[33.705883536538664,1.07765812080421],[33.70155681462003,1.083376541290193],[33.7015547001543,1.0833758016209305],[33.701554674091035,1.083375836047592],[33.701553581141916,1.0833754101749724],[33.69532228285199,1.0811956161275789],[33.694122420928636,1.081179427340649],[33.69342769715248,1.0805328639308591],[33.692815077962884,1.080318561292681],[33.690307459642774,1.077767066317379],[33.69030498099881,1.0777610642810203],[33.6895800552669,1.084884410847869],[33.69114260376158,1.085338136968246],[33.69304812401955,1.091847066982802]]]}},{"type":"Feature","properties":{"n":"Kibuku","c":"227204","d":"Kibuku","od":"Kibuku","dc":"227","k":"KIBUKU","a":["KIBUKU"],"lat":1.061275,"lon":33.823457},"geometry":{"type":"MultiPolygon","coordinates":[[[[33.7829,1.0898],[33.7835314369497,1.0903137114167067],[33.78879364731215,1.092444560016975],[33.79417617150715,1.096107063087167],[33.79506944996328,1.0955859085638473],[33.8029718349791,1.090975390732741],[33.80297201645559,1.0909754108572967],[33.802972089033915,1.090975368513811],[33.804666496687766,1.0911633176302125],[33.810050385294815,1.0917603556567865],[33.81389316587455,1.086820297912749],[33.81389324015677,1.0868202713263024],[33.81389335141367,1.086820128299397],[33.819318238894915,1.0848786028446145],[33.82064690125474,1.0844030595401102],[33.82296197398772,1.0827678450537084],[33.824131718338464,1.081941559270396],[33.824131796999,1.081941559336066],[33.82413212878763,1.081941324982487],[33.83205959667986,1.081948107382718],[33.840464896426965,1.077630777742737],[33.840464935712845,1.0776307807219199],[33.840465027053575,1.077630733804722],[33.84046505653045,1.0776304878778555],[33.841029139002444,1.070031788121509],[33.841671773824494,1.06756279175551],[33.841762954086036,1.066802070772995],[33.842128204797405,1.0658091886596754],[33.842550328516545,1.06418739367939],[33.8459564261636,1.055402362692115],[33.84595669159908,1.0554019917723056],[33.84595672184416,1.055401909555345],[33.847951175684386,1.0526148976117973],[33.84963415063648,1.050263106641981],[33.84963419963033,1.0502630718918864],[33.84963421971807,1.050263043821656],[33.854047677297544,1.046589052551465],[33.853860667637136,1.0465642365234462],[33.84610468452411,1.045535440021401],[33.84498800880634,1.044648880256357],[33.84498768863196,1.0446484659556146],[33.84498766275143,1.044648445408071],[33.842881708624745,1.0419233600814413],[33.84093582183132,1.039405412373931],[33.83790657564865,1.0320520470774],[33.83789378383405,1.0320528862452731],[33.83144179832603,1.032854118319674],[33.829262995138585,1.032619082740346],[33.82926280240976,1.032619095383731],[33.82926271365107,1.0326190523752443],[33.82926230236235,1.032619008008005],[33.826288895097406,1.031624865735872],[33.8252631141166,1.0306810254859273],[33.82454212186289,1.030331664915542],[33.824157848948296,1.0296640503496894],[33.82374357344773,1.029282867719755],[33.82120110739533,1.034448905461771],[33.82173024227909,1.041884344795431],[33.81897073332136,1.044454465923484],[33.81671682323859,1.050986911381723],[33.815153031135075,1.052795664099961],[33.8069189723072,1.055267847338242],[33.80711333132159,1.056067180567972],[33.80406313511165,1.05836271519928],[33.80206624267091,1.065374404677532],[33.798976331801676,1.071092314888721],[33.79320961802825,1.07348213141032],[33.78899519324893,1.074273099567195],[33.78212244546338,1.089743162668249],[33.782732619021886,1.089990242770243],[33.7829,1.0898]]],[[[33.832566100958964,1.03257097077566],[33.83256610244371,1.032570976669263],[33.83256610095897,1.032570970775658],[33.832566100958964,1.03257097077566]]]]}},{"type":"Feature","properties":{"n":"Kibuku Town Council","c":"227205","d":"Kibuku","od":"Kibuku","dc":"227","k":"KIBUKUTOWNCOUNCIL","a":["KIBUKU","KIBUKUTOWNCOUNCIL","TOWNCOUNCIL"],"lat":1.046848,"lon":33.801681},"geometry":{"type":"Polygon","coordinates":[[[33.789196576998,1.041722219884291],[33.788853986458335,1.043055948247197],[33.79085660274002,1.043373923824609],[33.79049020686679,1.044997025736718],[33.78824593155442,1.046415613142753],[33.78654685564755,1.04602218898628],[33.78452128634145,1.047280172090679],[33.7850702306533,1.048186244340913],[33.78365603368728,1.049142924492308],[33.78360880787328,1.050920623704568],[33.78581087116551,1.063234431246121],[33.787313465173305,1.06514331422691],[33.78899519272311,1.074273087839974],[33.79027420796828,1.074033052593253],[33.79320961715998,1.073482131573278],[33.79321471897714,1.073480017497194],[33.798976331801676,1.071092314888721],[33.80206624267091,1.065374404677532],[33.80297938494586,1.062168087726858],[33.80406280241091,1.058363619448877],[33.80406289810032,1.0583635474172912],[33.80406313511165,1.05836271519928],[33.80711333132159,1.056067180567972],[33.8069189723072,1.055267847338242],[33.815153031135075,1.052795664099961],[33.81671682323859,1.050986911381723],[33.81897073332136,1.044454465923484],[33.82173024227909,1.041884344795431],[33.821203162281414,1.034477780860577],[33.821201125167924,1.034449187508441],[33.82120112717643,1.034449183427089],[33.82120110739533,1.034448905461771],[33.82356218110177,1.0296514388967277],[33.8237435664425,1.029282857511502],[33.818164394140005,1.019251410461263],[33.80737072948501,1.026256090408634],[33.80148161752819,1.033846592123944],[33.79522697758651,1.033230593214362],[33.79243946369185,1.034000723388503],[33.79068132891434,1.032302241965605],[33.787037790835804,1.032484907039786],[33.78419674215463,1.034991757214496],[33.78194627313012,1.038529485047013],[33.78758275312417,1.040500500228176],[33.789196576998,1.041722219884291]]]}},{"type":"Feature","properties":{"n":"Kituti","c":"227206","d":"Kibuku","od":"Kibuku","dc":"227","k":"KITUTI","a":["KITUTI"],"lat":1.067618,"lon":33.766969},"geometry":{"type":"MultiPolygon","coordinates":[[[[33.75358499060264,1.070687800158517],[33.75514031594846,1.071617817770432],[33.75589305546323,1.0719534189013367],[33.75946305829811,1.073354044846683],[33.7612801968283,1.0743552201871536],[33.76128475695689,1.074357253273341],[33.761733606287876,1.0769995278329803],[33.76175111656166,1.077102476484191],[33.76175110229677,1.0771025228827547],[33.76175113105413,1.077102692170861],[33.76088945880861,1.0799060119340074],[33.76242493587365,1.0839512220289478],[33.76561270328271,1.085449902329048],[33.77341381939285,1.0936222166979888],[33.774365946572026,1.094619632514527],[33.776382355403264,1.091615311246651],[33.77875001475867,1.090267024771568],[33.78212243396863,1.089743161690529],[33.782122774923835,1.0897424210763584],[33.78876746477935,1.074785700044358],[33.78890176394255,1.0737658810599193],[33.787313465173305,1.06514331422691],[33.78581087116551,1.063234431246121],[33.78360880787328,1.050920623704568],[33.78362637019896,1.0502595332990838],[33.783582534025946,1.049999170254877],[33.78363498484572,1.0499352561831934],[33.78365603368728,1.049142924492308],[33.7850702306533,1.048186244340913],[33.78452128634145,1.047280172090679],[33.78654685564755,1.04602218898628],[33.786547415031876,1.0460223185127504],[33.78654801990479,1.046021942973671],[33.78687103195805,1.0460972526082117],[33.78824593155442,1.046415613142753],[33.79049020686679,1.044997025736718],[33.79085660274002,1.043373923824609],[33.788853986458335,1.043055948247197],[33.789175871018514,1.0418028296762354],[33.78919611144886,1.0417218674477302],[33.78758275312417,1.040500500228176],[33.782619139022025,1.038764778863232],[33.78194626731723,1.038529494933751],[33.78065692539783,1.041830283636061],[33.778233662999085,1.043927934626619],[33.772317494777674,1.04562641329959],[33.771556852139895,1.045650526864146],[33.76946416877652,1.045244178949742],[33.768631914915304,1.04526822168649],[33.75911958616791,1.042901029024708],[33.75728838966181,1.042925223201211],[33.75432384357066,1.041503245925021],[33.75072407763285,1.044136943575776],[33.746052759350604,1.049701296020274],[33.740631764419135,1.053674344264325],[33.735266718413065,1.061068315376191],[33.74090981034564,1.0652732939611524],[33.75142652027498,1.0699620603623121],[33.75358499060264,1.070687800158517]]],[[[33.771271261851005,1.045593134188743],[33.77127126066023,1.04559314011135],[33.77127126185101,1.045593134188745],[33.771271261851005,1.045593134188743]]],[[[33.75963082060854,1.073475119761466],[33.75963082100566,1.073475119181467],[33.7596308205941,1.073475119751319],[33.75963082060854,1.073475119761466]]]]}},{"type":"Feature","properties":{"n":"Lwatama","c":"227207","d":"Kibuku","od":"Kibuku","dc":"227","k":"LWATAMA","a":["LWATAMA"],"lat":1.030083,"lon":33.732293},"geometry":{"type":"Polygon","coordinates":[[[33.72262612053284,1.055189549902586],[33.72342952302752,1.0557073720423624],[33.7249072623366,1.056310654685148],[33.73021941724849,1.0600837059193708],[33.73124948743035,1.0607476236308735],[33.73296651811121,1.0615718914915875],[33.73368648917386,1.061673628024042],[33.73459848176937,1.0613242890941121],[33.74063161490724,1.0536745503178568],[33.740631764419135,1.053674344264325],[33.746052759350604,1.049701296020274],[33.75072407763285,1.044136943575776],[33.75072539013715,1.0441359833079336],[33.76467356772234,1.033724667232274],[33.77280403327833,1.026442154070713],[33.77165730745275,1.019578299184275],[33.76868383967455,1.01467232738119],[33.76678152561044,1.013595643392377],[33.764949397880095,1.009933940843127],[33.75517506924318,1.005053359549792],[33.753048030061926,1.003196034286304],[33.74888656540184,1.002048153486427],[33.740087947211265,1.002768107291344],[33.70977062597176,0.9930074331301],[33.708648343863416,0.994975415974103],[33.70646169886218,1.002631738075836],[33.70133747553212,1.007970914878457],[33.70080272217229,1.0087331412144713],[33.69777188707596,1.0140478757435853],[33.69466777893988,1.039907057511836],[33.697174800377226,1.0416178669121285],[33.709471110409865,1.050008891937426],[33.70947164047167,1.0500091083335679],[33.72262612053284,1.055189549902586]]]}},{"type":"Feature","properties":{"n":"Nankodo","c":"227208","d":"Kibuku","od":"Kibuku","dc":"227","k":"NANKODO","a":["NANKODO"],"lat":1.090374,"lon":33.664116},"geometry":{"type":"Polygon","coordinates":[[[33.668499447924944,1.12205410176969],[33.67497562701282,1.1242782877161768],[33.684983017236725,1.1248478139890818],[33.68765831271565,1.1243553898668341],[33.704547091748445,1.1191243521133134],[33.707470497431956,1.118113357704388],[33.70545262364968,1.1122739399739678],[33.70328394994724,1.105998167771727],[33.69991810037813,1.100553660626798],[33.69497993233828,1.095353946711418],[33.69304812401955,1.091847066982802],[33.69114260376158,1.085338136968246],[33.6895800552669,1.084884410847869],[33.69030498099881,1.0777610642810203],[33.688546996836294,1.073504105632623],[33.6839781211233,1.0661402033964185],[33.676740785617376,1.0557630942957512],[33.67674068901301,1.055762976022004],[33.67372375988513,1.0575197352437147],[33.659661636244316,1.0662479499173199],[33.65410152140743,1.0708837279629306],[33.6366,1.0889],[33.62655871367776,1.103913185374996],[33.62632334399554,1.104271815624736],[33.62866459545509,1.1052948298003462],[33.668499447924944,1.12205410176969]]]}},{"type":"Feature","properties":{"n":"Tirinyi","c":"227209","d":"Kibuku","od":"Kibuku","dc":"227","k":"TIRINYI","a":["TIRINYI"],"lat":1.008549,"lon":33.799506},"geometry":{"type":"Polygon","coordinates":[[[33.764065067071904,1.043809223980228],[33.76863062524378,1.0452679007449999],[33.768631914915304,1.04526822168649],[33.76946416877652,1.045244178949742],[33.77054652180132,1.0454543454288059],[33.77231740541305,1.0456264161325888],[33.772317494777674,1.04562641329959],[33.77758110995308,1.0441152767355875],[33.780655869673716,1.0418311975035526],[33.78065690988159,1.041830297067396],[33.7806570012183,1.0418300895313308],[33.78194626731723,1.038529494933751],[33.782087811942304,1.038578989028015],[33.7820878155321,1.038578980871249],[33.78194627313012,1.038529485047013],[33.78247626867255,1.0376963342854786],[33.78263525506323,1.037335084033386],[33.78293748002648,1.036971311978708],[33.78419674215463,1.034991757214496],[33.78564049845293,1.033717832993273],[33.7863190515784,1.032901094819146],[33.786611627623905,1.0328609397805435],[33.787037790835804,1.032484907039786],[33.79068132891434,1.032302241965605],[33.79243946369185,1.034000723388503],[33.79522697758651,1.033230593214362],[33.80148161752819,1.033846592123944],[33.80643570865203,1.0274612427794128],[33.8073702289117,1.026256612223187],[33.80737042171084,1.026256487100081],[33.80737072948501,1.026256090408634],[33.81747139743762,1.0197011390993043],[33.818164389377614,1.019251400039312],[33.81816437217863,1.0192513144019943],[33.81816433680729,1.019251252949788],[33.81816424639384,1.0192506880934806],[33.81683885714076,1.0126513003187734],[33.80221156472548,0.997100723879686],[33.801121347503724,0.992758713554072],[33.79921847323006,0.9894299503801716],[33.78865810190678,0.979336911867746],[33.788070330250946,0.9781433661461153],[33.78765888719185,0.977726816013431],[33.78725781930506,0.9764934584760214],[33.78624371157984,0.974434182693186],[33.78777914471269,1.001764902189865],[33.78704250243326,1.0041109435421],[33.78587751242448,1.004446386965943],[33.786260404771014,1.014618628749873],[33.784574561466165,1.019953304444367],[33.7767268186433,1.022065130819258],[33.77411133660489,1.025656156578019],[33.77005238014356,1.028906828452766],[33.76467356772234,1.033724667232274],[33.75530208054931,1.0407198115413767],[33.75432385987498,1.041503233207422],[33.75490544261873,1.0417822163322201],[33.75728838966181,1.042925223201211],[33.75911958616791,1.042901029024708],[33.761341825931716,1.0434540449897034],[33.764065067071904,1.043809223980228]]]}},{"type":"Feature","properties":{"n":"Tirinyi Town Council","c":"227210","d":"Kibuku","od":"Kibuku","dc":"227","k":"TIRINYITOWNCOUNCIL","a":["TIRINYI","TIRINYITOWNCOUNCIL"],"lat":0.986952,"lon":33.750085},"geometry":{"type":"Polygon","coordinates":[[[33.75304844274561,1.003196243169574],[33.754723569306655,1.0046591109407579],[33.7551750552316,1.0050533473149137],[33.75517524490276,1.0050534472612749],[33.764949397880095,1.009933940843127],[33.76513283150794,1.0103005524999387],[33.76566242674035,1.010579620313105],[33.76678027609537,1.0135931461033265],[33.76678152561044,1.013595643392377],[33.76868383967455,1.01467232738119],[33.76868420287886,1.0146729266377532],[33.76868443124831,1.014673055923317],[33.7716569076829,1.019577637308355],[33.771656908211106,1.0195776404691326],[33.77165730745275,1.019578299184275],[33.77276046025498,1.026181342896381],[33.77280404324244,1.026442145349379],[33.77672638773014,1.0220657224579026],[33.7767268186433,1.022065130819258],[33.78457452446949,1.0199533144001656],[33.78507321185233,1.0183753771913018],[33.786260404771014,1.014618628749873],[33.78587751242448,1.004446386965943],[33.78704250243326,1.0041109435421],[33.78777914471269,1.001764902189865],[33.78660678205738,0.9808968394947174],[33.78624371202833,0.974434304573325],[33.78536943798795,0.970686338515365],[33.783923133757,0.966238686924733],[33.78200661746075,0.956270106747187],[33.782006549699474,0.956269816258222],[33.781402229014404,0.9557884428009237],[33.7783,0.9563],[33.777897748555915,0.9560695207942],[33.77230974865914,0.956661038007951],[33.768486502988495,0.955703020410755],[33.765723306707336,0.953686095017909],[33.75978790023997,0.9457138671407066],[33.7509,0.9559],[33.719968973755485,0.976711616423776],[33.717544948737775,0.9793747344408715],[33.70977063187685,0.9930074227751925],[33.740088006340656,1.0027681024530355],[33.74888656540184,1.002048153486427],[33.753048030061926,1.003196034286304],[33.75304818918347,1.0031961732308339],[33.75304844274561,1.003196243169574]]]}}]}
