{"type":"FeatureCollection","name":"Kiruhura sub-counties","metadata":{"source":"Uganda Bureau of Statistics NPHC 2024 Map Explorer","retrieved":"2026-07-26","display_only":true,"clipped_to_dashboard_district":true,"positive_area_overlaps_removed":true,"source_gap_ratio":0.00712735},"features":[{"type":"Feature","properties":{"n":"Kashongi","c":"419101","d":"Kiruhura","od":"Kiruhura","dc":"419","k":"KASHONGI","a":["KASHONGI"],"lat":-0.255597,"lon":30.717212},"geometry":{"type":"Polygon","coordinates":[[[30.616186237037134,-0.271971697720505],[30.617241576790672,-0.27144184311404085],[30.6184,-0.2709],[30.61839808115908,-0.2708611967724794],[30.618417470709968,-0.270851461857424],[30.618441850711367,-0.26745343009263],[30.61821042632534,-0.26706639902356527],[30.618118044269675,-0.26519822856452113],[30.61871436087477,-0.264622990012008],[30.619236828694664,-0.262634517810309],[30.626214895979338,-0.262351503983276],[30.62744055799365,-0.263720326896062],[30.63033048639929,-0.26319547876971],[30.630727183466764,-0.265043890258211],[30.632346597992882,-0.266018161479987],[30.63584026884904,-0.266414762900262],[30.640261746857288,-0.263959639363005],[30.646790791683568,-0.264757187093278],[30.64942771646233,-0.263696470744752],[30.65018776306178,-0.260907057557979],[30.650253140435403,-0.259579614114012],[30.64801211266072,-0.257454519944446],[30.6528924613318,-0.256658656136546],[30.65487263082768,-0.258184242738424],[30.658564462981044,-0.255265402700086],[30.661861930923532,-0.254468956728521],[30.662917812425032,-0.251548104763356],[30.665688854046,-0.250882639657057],[30.668062612365738,-0.247565394336636],[30.669117125362778,-0.247431383131857],[30.669250077652894,-0.245905787238358],[30.670367879767504,-0.245507253230382],[30.669184389222426,-0.244445031768557],[30.669053297382874,-0.239730907675043],[30.669581082671204,-0.238403261032302],[30.673769208486288,-0.236808765920451],[30.6731758661708,-0.233159014221418],[30.672187078083567,-0.232295352243877],[30.672088764533534,-0.228842848696373],[30.673341495381543,-0.226387316445523],[30.67195763735442,-0.223730359140068],[30.671431061601382,-0.217489222100816],[30.672684844731823,-0.211912566088702],[30.6711029294547,-0.206202088638393],[30.671532250974696,-0.201620934545846],[30.67291523132703,-0.201024450600247],[30.674500564989653,-0.197637659924872],[30.675225059818146,-0.1975014127449],[30.674764634974533,-0.195845064227208],[30.67555499424048,-0.194649068060692],[30.673709986783248,-0.192060393780294],[30.67371042553591,-0.188475084747385],[30.676480569050455,-0.18030981610293],[30.675954034896957,-0.178715382359937],[30.67687735559125,-0.175528525146795],[30.675229082999653,-0.174067601385964],[30.678560039593073,-0.171876174921685],[30.680077439711056,-0.165702403487233],[30.682649457608957,-0.165766382879669],[30.682320313479924,-0.163446539736418],[30.68047347564137,-0.16311294750335],[30.682518239199872,-0.160258323325523],[30.683638957114752,-0.160189945286566],[30.68509028966502,-0.155611649819219],[30.683112261459723,-0.153154161276733],[30.679551174539007,-0.153352917148694],[30.67902379200891,-0.151693008476419],[30.680670478315722,-0.150498622777827],[30.680869627419945,-0.147382289259265],[30.68001343233249,-0.147510180369689],[30.678694628623855,-0.145850987413301],[30.677639360346046,-0.145717158091621],[30.678166792012046,-0.143856999727236],[30.676782553238777,-0.140870396731637],[30.678866518997527,-0.135416629479964],[30.67796717557237,-0.133000320487082],[30.67981672613201,-0.130082537488117],[30.67771767258158,-0.127665326173984],[30.67775369500174,-0.12364676592608465],[30.680051167342828,-0.12188660566476861],[30.68092566038956,-0.12303565897211],[30.682848836087064,-0.127585743157208],[30.68428154496064,-0.127226434375525],[30.68627723352566,-0.128236908382404],[30.690344101276438,-0.133996255519385],[30.694083159201092,-0.135133404942957],[30.699691097291865,-0.14119609041482],[30.70810351116287,-0.14293932879675],[30.7137116575189,-0.145692843673306],[30.726606215742216,-0.146134789190133],[30.726283575404555,-0.147111802311488],[30.727473710510836,-0.150445696073067],[30.728349610841082,-0.150718536836952],[30.73029572610444,-0.149218670386203],[30.735385538083626,-0.147917395170564],[30.736786082932266,-0.147989858378453],[30.736589436130945,-0.149227698185743],[30.738007584005253,-0.150186442247019],[30.739313948631615,-0.150195936125827],[30.737273642319753,-0.156198427256453],[30.740215289025944,-0.158368424822785],[30.741602484637276,-0.160537359102552],[30.743570332578862,-0.161243596548241],[30.744413803546866,-0.163151188101986],[30.743741556276508,-0.166350417498933],[30.745269461606725,-0.169000354857896],[30.74308867216883,-0.176314219274824],[30.746003519947468,-0.181286208650176],[30.74743396591154,-0.186349162929152],[30.75052844776093,-0.190842392598586],[30.750588997429258,-0.196158543011851],[30.75405899620833,-0.201067488438422],[30.75486198745937,-0.20319207964066],[30.754720646561513,-0.20743115878697],[30.757775919664518,-0.211618109147974],[30.757667431599074,-0.216870412565342],[30.75616583091756,-0.220459946036978],[30.757066287014748,-0.226959292529435],[30.759072520491845,-0.230774850777083],[30.764291896462325,-0.235562716766055],[30.76356574579293,-0.23659495246132],[30.764104004916,-0.238047285692748],[30.76905346084336,-0.240008275442593],[30.77419803240451,-0.244450901049764],[30.776082499889988,-0.250237653142123],[30.776291893857454,-0.255929322366553],[30.77528300287645,-0.258061314240745],[30.769133825209522,-0.257492523493982],[30.76351894816641,-0.270453545778196],[30.75263564060894,-0.26625945180468],[30.751034641802498,-0.269610897372728],[30.751062235802085,-0.273452898329139],[30.748452917854024,-0.27616514858577],[30.74987755916427,-0.280874884272056],[30.746093144816005,-0.28805183496247],[30.757201544802562,-0.299341030333638],[30.75401797175324,-0.303235572382825],[30.75991607019924,-0.306198929441289],[30.760233080648188,-0.308703176835147],[30.757679836395734,-0.315736145933223],[30.754499852250884,-0.31995742918235],[30.754271361500017,-0.321873709866027],[30.751129120538284,-0.327561909383308],[30.74261376315146,-0.328484621667611],[30.736739978859454,-0.331074134698598],[30.731989039620956,-0.330940233677269],[30.726512986798134,-0.332134441995776],[30.721927969799232,-0.335453462440076],[30.721572643372667,-0.334440257886582],[30.719766643393186,-0.337776788221374],[30.717029285111664,-0.340596430586028],[30.7162867458682,-0.345071246728912],[30.712279347938875,-0.351869280160856],[30.7126914850014,-0.357265463224823],[30.71186338971893,-0.362345780312052],[30.708398206901283,-0.366765490803018],[30.705974973702602,-0.367741258079558],[30.70400658369611,-0.370552139966095],[30.70122564361525,-0.372251704279274],[30.70028536028192,-0.373742122291744],[30.702222625527238,-0.378479778219383],[30.70106729653404,-0.381001418414115],[30.70166524565507,-0.384102518135347],[30.699812227468804,-0.384418324872105],[30.697045568418662,-0.386768638997732],[30.69648868069831,-0.3897964109531218],[30.696295506839736,-0.3897351607052817],[30.69109713248992,-0.387089831362021],[30.680217661104418,-0.3846373071794495],[30.6801,-0.3846],[30.680082516599782,-0.3840033789675515],[30.680388014173808,-0.378193731479883],[30.679741774683794,-0.3723755610845308],[30.6793,-0.3573],[30.679268058449654,-0.3572523646243393],[30.674749795352177,-0.346083088534079],[30.669274505752924,-0.34234868488008474],[30.662094120377223,-0.3316403644932013],[30.662496213954423,-0.330242794630189],[30.660076241086365,-0.329834656215537],[30.65303620301796,-0.326398037250468],[30.647877243208878,-0.3260504579773394],[30.644067828441276,-0.32458052075723137],[30.64127134451684,-0.314688916677202],[30.63817221856129,-0.3103864551946058],[30.6381,-0.3102],[30.624031987033426,-0.30277353821936226],[30.621789218133006,-0.29978711539362],[30.614904453185744,-0.2979551405229463],[30.6148,-0.2979],[30.612242668108937,-0.27419550054821124],[30.615319225562757,-0.274420894518184],[30.616186237037134,-0.271971697720505]]]}},{"type":"Feature","properties":{"n":"Kitura","c":"419102","d":"Kiruhura","od":"Kiruhura","dc":"419","k":"KITURA","a":["KITURA"],"lat":-0.197145,"lon":30.644194},"geometry":{"type":"Polygon","coordinates":[[[30.61241521497686,-0.1978004410601633],[30.61372322613738,-0.196789037533371],[30.615697823136973,-0.196669485048793],[30.61620976492997,-0.195789662732673],[30.619325775202526,-0.195513558088023],[30.619301534908843,-0.193136806777478],[30.61725673094556,-0.192256153755818],[30.618066527412196,-0.19038898172520133],[30.6257,-0.1853],[30.62564022293034,-0.18103590236429107],[30.628893352183965,-0.180896302309579],[30.629772224478547,-0.174210685387489],[30.6264058901019,-0.165745259556293],[30.627926230507022,-0.161803816671335],[30.632040503579905,-0.159024611733709],[30.632828921621325,-0.1568012526729547],[30.6389,-0.151],[30.63955805988818,-0.14861736937037787],[30.642045186127948,-0.14723953691478],[30.64157354348291,-0.145240464998501],[30.642188601670664,-0.143329173171632],[30.644366752248878,-0.142570676742147],[30.644787805890008,-0.139364729427968],[30.647502841493978,-0.137308327407991],[30.648332158493805,-0.133967841506197],[30.655,-0.1273],[30.65538958067262,-0.12737956225004132],[30.660042316455993,-0.129148040090235],[30.666562570014435,-0.129910254208641],[30.667214918090473,-0.12979459594805393],[30.6692,-0.1302],[30.670486186179605,-0.12921461542691542],[30.675288313224193,-0.128363220778111],[30.67902764012919,-0.12917384813454771],[30.679332176478564,-0.1295245436702239],[30.679546096533315,-0.13050947279841654],[30.67796717557237,-0.133000320487082],[30.678866518997527,-0.135416629479964],[30.676782553238777,-0.140870396731637],[30.677661884196194,-0.1427676217785467],[30.6781667240581,-0.14385723938879805],[30.677974076147656,-0.1445366745556656],[30.67763893714959,-0.145713993061847],[30.677640211149534,-0.14571415745793698],[30.677639360346046,-0.145717158091621],[30.678694628623855,-0.145850987413301],[30.679616970696255,-0.14701139017823406],[30.680012475216948,-0.147509285613099],[30.680012694382885,-0.14750925195192519],[30.68001343233249,-0.147510180369689],[30.680869627419945,-0.147382289259265],[30.680670478315722,-0.150498622777827],[30.67902379200891,-0.151693008476419],[30.679282990383943,-0.15250882167841542],[30.67955015401914,-0.153350483814891],[30.679550397167613,-0.1533504704132692],[30.679551174539007,-0.153352917148694],[30.683112261459723,-0.153154161276733],[30.68509028966502,-0.155611649819219],[30.683638957114752,-0.160189945286566],[30.682518239199872,-0.160258323325523],[30.682517319939603,-0.1602596066732142],[30.682517196282742,-0.160259614116546],[30.680474950130122,-0.163107755922682],[30.680476934355557,-0.16310811891126087],[30.68047347564137,-0.16311294750335],[30.682320214390053,-0.1634465218379268],[30.682649156175437,-0.1657663753814578],[30.680805674622512,-0.16572051845728192],[30.680079481955985,-0.16570137019225],[30.68007921681217,-0.1657024476929323],[30.680077439711056,-0.165702403487233],[30.678568721967416,-0.1718408493710483],[30.678560027316074,-0.17187618299868665],[30.677319529156538,-0.17269230305893077],[30.675230992465604,-0.174065224290505],[30.675231717204145,-0.1740658683506416],[30.675229082999653,-0.174067601385964],[30.67687735559125,-0.175528525146795],[30.675954034896957,-0.178715382359937],[30.676480569050455,-0.18030981610293],[30.67371042553591,-0.188475084747385],[30.673709986783248,-0.192060393780294],[30.67555499424048,-0.194649068060692],[30.674764634974533,-0.195845064227208],[30.675225059818146,-0.1975014127449],[30.674500564989653,-0.197637659924872],[30.67291523261596,-0.20102444784666723],[30.67291339802872,-0.20102524130779964],[30.671532250974696,-0.201620934545846],[30.6711029294547,-0.206202088638393],[30.672684832783624,-0.21191252295749194],[30.672598047031713,-0.21229863039631353],[30.671431061601382,-0.217489222100816],[30.67195763735442,-0.223730359140068],[30.673341495381543,-0.226387316445523],[30.672088764533534,-0.228842848696373],[30.672187078083567,-0.232295352243877],[30.6731758661708,-0.233159014221418],[30.67354980389755,-0.23545917016498252],[30.67376897749672,-0.23680885386234943],[30.669581082671204,-0.238403261032302],[30.669579643656203,-0.23840688088203132],[30.669579636811722,-0.238406883490198],[30.669579635666594,-0.2384069009799391],[30.669053297382874,-0.239730907675043],[30.669184389222426,-0.244445031768557],[30.670367879767504,-0.245507253230382],[30.669250077652894,-0.245905787238358],[30.669117125362778,-0.247431383131857],[30.668062612365738,-0.247565394336636],[30.668061866779325,-0.24756643626791466],[30.668061717243415,-0.247566455195826],[30.667512608878436,-0.24833400522650645],[30.665688854046,-0.250882639657057],[30.662917812425032,-0.251548104763356],[30.661861930923532,-0.254468956728521],[30.658564462981044,-0.255265402700086],[30.65487263082768,-0.258184242738424],[30.652902883508485,-0.25666668571843254],[30.65289267833576,-0.256658806111054],[30.652892659891666,-0.2566588091134878],[30.6528924613318,-0.256658656136546],[30.65225248898265,-0.2567630197517446],[30.648016678266927,-0.257452548957155],[30.64801777946538,-0.25745359582917493],[30.64801211266072,-0.257454519944446],[30.650253140435403,-0.259579614114012],[30.65018776306178,-0.260907057557979],[30.649427792507254,-0.26369619165565994],[30.648250122476416,-0.2641701638902086],[30.646790791683568,-0.264757187093278],[30.640261746857288,-0.263959639363005],[30.64026114091513,-0.26395997582580083],[30.640260770936845,-0.263959930632786],[30.639749124068665,-0.26424428451372955],[30.63584026884904,-0.266414762900262],[30.632346597992882,-0.266018161479987],[30.630727183466764,-0.265043890258211],[30.63033048639929,-0.26319547876971],[30.62744055799365,-0.263720326896062],[30.62633688564696,-0.2624877423999157],[30.626215149493085,-0.26235160154231],[30.626215002076734,-0.262351622473159],[30.626214895979338,-0.262351503983276],[30.620357629336844,-0.2625890607996291],[30.61795640602105,-0.2619295439812439],[30.61771592006681,-0.25706638357326395],[30.61839632249267,-0.254952023044813],[30.61775110138379,-0.252398027342561],[30.6232000177907,-0.244921457546064],[30.62308585482576,-0.24209020165143],[30.62475076708762,-0.23510480520071145],[30.625,-0.2345],[30.6166,-0.2321],[30.61454160390894,-0.22624721111458315],[30.614683550930604,-0.222968008034714],[30.611506376085725,-0.216296903810459],[30.6101895386314,-0.21025095375392],[30.60880107173236,-0.209287962908506],[30.608866974134816,-0.20702586724948102],[30.61241521497686,-0.1978004410601633]]]}},{"type":"Feature","properties":{"n":"Akayanja","c":"419201","d":"Kiruhura","od":"Kiruhura","dc":"419","k":"AKAYANJA","a":["AKAYANJA"],"lat":-0.47042,"lon":30.969839},"geometry":{"type":"MultiPolygon","coordinates":[[[[30.93218227478778,-0.492779120857966],[30.930532340803346,-0.488481251178267],[30.930678656663044,-0.468616161405511],[30.923159766478594,-0.391004554473776],[30.927251719096365,-0.392730304277855],[30.928033148655985,-0.393910413274999],[30.931303245739354,-0.394424224854539],[30.934275892014014,-0.39124552322225],[30.946990898226414,-0.390502977550376],[30.949523479349825,-0.388580526376522],[30.95624976568596,-0.388886057523309],[30.95704335698303,-0.389569209310603],[30.956272317877087,-0.382130360394334],[30.98631510453797,-0.382947808371084],[30.991639119549237,-0.450456366036228],[31.009045894155317,-0.445948437778703],[31.007582549720606,-0.452480052711806],[31.007190119981498,-0.463902171576358],[31.010094547688023,-0.474294369586195],[31.01398605659039,-0.472223795092527],[31.01773370451485,-0.481860602093755],[31.010327634042582,-0.491765104279817],[31.002862633732107,-0.496285711822525],[31.001275955786653,-0.498124357170939],[31.005815259956275,-0.503205883106322],[31.01006002958783,-0.506238981043749],[31.012782541040735,-0.506952570988838],[31.015418609655477,-0.509323430303952],[31.016075040289728,-0.517949637043383],[31.018239835328707,-0.520415577701089],[31.020919795396424,-0.521507744659805],[31.021017841006003,-0.520050300091541],[31.02606705302492,-0.521982728439249],[31.02998398049787,-0.526414516949843],[31.031763472320755,-0.530785391141323],[31.027651797857356,-0.531468668812786],[31.022959009992572,-0.53360447685613],[31.01222946462445,-0.550132354705055],[31.007869179916806,-0.560252500663402],[31.002508234753883,-0.556202036126455],[30.998935376848014,-0.551928520322222],[30.992901707664092,-0.553499693257962],[30.98407782886555,-0.548660784783587],[30.967807771558206,-0.534382970885137],[30.964325126058828,-0.528883354381655],[30.955606926691452,-0.522439216617763],[30.93775777851464,-0.53408372801211],[30.93870100438811,-0.531630317789347],[30.924739885180756,-0.52294206185352],[30.925620209224828,-0.521116788138796],[30.926588164428946,-0.512089878364918],[30.91730243829111,-0.507592330213889],[30.914896167626157,-0.507282387225754],[30.913544608340917,-0.503456093293651],[30.912872907423797,-0.496064929412293],[30.92653181793626,-0.494343136552057],[30.93218227478778,-0.492779120857966]]],[[[30.78590018033516,-0.5057654666799316],[30.78687368582371,-0.504188107718223],[30.7868681587039,-0.5038540157239443],[30.7912,-0.4953],[30.7905906341012,-0.4947085566276354],[30.79053113512763,-0.493443990104299],[30.787310456885486,-0.490197901920065],[30.79907311182205,-0.480085333832149],[30.807207026054314,-0.477321474280919],[30.81625446340016,-0.472822109471147],[30.84437420026066,-0.473036374157224],[30.84283231502266,-0.481266870895338],[30.842927559415145,-0.487091762328535],[30.84801933049664,-0.494144289311727],[30.852910747049627,-0.496419068429068],[30.85274546459784,-0.497749189089197],[30.85033743655329,-0.502070392996869],[30.839793893849123,-0.509205937339578],[30.809372735519396,-0.5114577055726074],[30.805015637155,-0.5113645056075936],[30.78403141494133,-0.51057414519861],[30.784690020686945,-0.5081551490232459],[30.78590018033516,-0.5057654666799316]]]]}},{"type":"Feature","properties":{"n":"Kanyaryeru","c":"419202","d":"Kiruhura","od":"Kiruhura","dc":"419","k":"KANYARYERU","a":["KANYARYERU"],"lat":-0.540054,"lon":30.847015},"geometry":{"type":"Polygon","coordinates":[[[30.795005713267834,-0.5444322906510036],[30.7964456841841,-0.5374484317071158],[30.79734914613229,-0.5359228774561299],[30.8207,-0.5117],[30.820159182010833,-0.5116884317007665],[30.82064996338804,-0.511179218528157],[30.82180008768846,-0.510548418748925],[30.83887681252341,-0.5092738195212478],[30.839793893849123,-0.509205937339578],[30.83979483777377,-0.5092052985205052],[30.839794895758867,-0.509205294192523],[30.83979658234477,-0.5092041178486865],[30.85033743655329,-0.502070392996869],[30.85053634616513,-0.5017134498981815],[30.851184516496204,-0.501261370242923],[30.852564593419363,-0.498739145041366],[30.8540780084628,-0.49194452201574],[30.862054946328016,-0.485671332554847],[30.866320129131857,-0.48977254933887],[30.8672124274057,-0.492824206736094],[30.866439105643543,-0.495548990920837],[30.866980428960712,-0.501726955695361],[30.864754489888156,-0.503111547276407],[30.871660130488806,-0.521273961940686],[30.876594626970835,-0.519703742933359],[30.880611274959694,-0.521359853298984],[30.882648140765188,-0.52451988675991],[30.88359987650847,-0.529259651130946],[30.88062957530215,-0.528841401218969],[30.879069486934014,-0.52995797497332],[30.88033814348346,-0.531437567822727],[30.889975509430364,-0.534144990087133],[30.89227448139687,-0.537115235314037],[30.898411549476034,-0.539010818249636],[30.897830068858934,-0.541097160672467],[30.895622624922062,-0.543228658265536],[30.89548868025024,-0.54444743940034],[30.89463164642143,-0.544449696716123],[30.893624649629952,-0.54686372510471],[30.897182182617215,-0.553012531910657],[30.89849631291825,-0.55371782567535],[30.897791524717423,-0.554233419429773],[30.895706772779373,-0.56316846543552],[30.890667093394985,-0.563205789864262],[30.889840128663735,-0.573101576048162],[30.890733010481167,-0.574708503835458],[30.896764168222166,-0.57717103438769],[30.899797977772476,-0.580097770380562],[30.901315803297354,-0.588365073263397],[30.898060621139113,-0.590301918627292],[30.888768438462847,-0.592929736623704],[30.877447553518344,-0.59317816897697],[30.87727596682709,-0.596206699219217],[30.876611840308254,-0.596450550523609],[30.863428471773894,-0.594809034950984],[30.844449931176296,-0.590100380247055],[30.840016973489547,-0.588191039937282],[30.80852029857476,-0.581316823057372],[30.789698941031258,-0.572232752039143],[30.78610388049723,-0.588079399757951],[30.784513955493765,-0.584416423948975],[30.777923529346502,-0.5686946844651486],[30.794628588492593,-0.546388021213109],[30.795005713267834,-0.5444322906510036]]]}},{"type":"Feature","properties":{"n":"Kenshunga","c":"419203","d":"Kiruhura","od":"Kiruhura","dc":"419","k":"KENSHUNGA","a":["KENSHUNGA"],"lat":-0.195183,"lon":30.774448},"geometry":{"type":"MultiPolygon","coordinates":[[[[30.741566123582665,-0.150856105728898],[30.743761507608735,-0.153459105039823],[30.750666918279848,-0.149411731911714],[30.755009941829172,-0.145366306480544],[30.756140181252114,-0.145544764283075],[30.75840145311295,-0.148518941041099],[30.7620293481924,-0.148102686241078],[30.767264165954675,-0.149589827568461],[30.771428351168844,-0.149411394364606],[30.78171910825361,-0.150720012033759],[30.787191794401018,-0.149708674220325],[30.7887338761117,-0.14739313925041064],[30.7906,-0.1474],[30.790793768982333,-0.14702968594488042],[30.79251477472304,-0.146747770111602],[30.796065030644744,-0.143764851892878],[30.797182325579826,-0.141043631452898],[30.799547073881808,-0.138312151530165],[30.799350212970644,-0.13067737076721544],[30.7996,-0.1302],[30.80054912530906,-0.12940360749929464],[30.80481211379303,-0.126414793480074],[30.805954746943655,-0.12486785601279549],[30.817,-0.1156],[30.819708634953216,-0.1149228412616963],[30.82014148480165,-0.114885895087687],[30.820235875139844,-0.11479103121503872],[30.8358,-0.1109],[30.838422897496866,-0.10837798317608936],[30.838964591442256,-0.108391836554163],[30.848833787641567,-0.09840384574782057],[30.848890852064162,-0.09841034088535168],[30.851790814666305,-0.099469212744715],[30.852904987354908,-0.09886723433307895],[30.857060049752647,-0.09934016826452878],[30.857818780275057,-0.09978645047336],[30.859320650791,-0.09959747244775571],[30.86118833573711,-0.09981005447414262],[30.865293421754906,-0.101278392109425],[30.87403481448772,-0.10150264411623908],[30.881236618185127,-0.10493606215802681],[30.88125442705641,-0.104950169692088],[30.880017039426576,-0.110728440764224],[30.881384436811196,-0.115433553003281],[30.881384227126734,-0.119679514372502],[30.884917188108727,-0.127138977911375],[30.88411927516489,-0.138039469787276],[30.88605609018683,-0.13895900547675],[30.88822176890804,-0.143205248489842],[30.89289481378613,-0.145845034628225],[30.8939191934775,-0.161681618084992],[30.890613280457472,-0.167189491368232],[30.889734406450383,-0.172165929186499],[30.893307969211392,-0.178576961749836],[30.884596063256105,-0.185099897485035],[30.885488200028117,-0.18667282095953],[30.895316783674204,-0.194208395203671],[30.89620936522283,-0.202530152955769],[30.8957623564559,-0.204104455816107],[30.890371902625194,-0.206700562184567],[30.886241569791732,-0.205843986044311],[30.882680802123136,-0.206339222878008],[30.881910705794166,-0.209275521381349],[30.88258084152191,-0.212312559448335],[30.88849957822477,-0.221758927570819],[30.89848578254349,-0.231544886924222],[30.897122438011326,-0.233957366143322],[30.895528313099938,-0.234825817703036],[30.883810229778234,-0.238147758678972],[30.88774498107366,-0.262232222750355],[30.892494382426293,-0.267952729721923],[30.892132785816777,-0.268457072558868],[30.890923152740164,-0.269239678561268],[30.88959787120317,-0.268270419884397],[30.87892289148782,-0.269353463445403],[30.878476090585618,-0.268247434423583],[30.874809810666523,-0.270509344966345],[30.874338778985752,-0.269235964532167],[30.863373528938446,-0.273220308140861],[30.85106395605772,-0.274176442066165],[30.84767440475942,-0.275134290139088],[30.840516283833793,-0.280638623311422],[30.837414226671196,-0.283893350236911],[30.835103870668362,-0.288144479511863],[30.831773534235968,-0.290871390317617],[30.821184585328442,-0.273728260199803],[30.81529828642963,-0.266260091269694],[30.811748689405484,-0.263356675411528],[30.80952479154984,-0.258193001695072],[30.80781497590884,-0.256331569946733],[30.8057908477724,-0.255951323005648],[30.800787525565607,-0.25213535036304],[30.793945070427387,-0.249467224620176],[30.786568800806027,-0.248245483158842],[30.781275984443027,-0.243607143084406],[30.777864082050442,-0.242069679097356],[30.771671589340148,-0.241517594611588],[30.77139375603104,-0.24202925137917763],[30.76905346084336,-0.240008275442593],[30.768856819153946,-0.2399303653969256],[30.768692152280323,-0.239780081317296],[30.76400683726662,-0.23778510749610035],[30.76387764321456,-0.2374365155130468],[30.764286957759737,-0.2355697372169251],[30.764291896462325,-0.235562716766055],[30.759072520491845,-0.230774850777083],[30.757066315942033,-0.22695934754483985],[30.75616588094933,-0.22045982643746823],[30.757667431599074,-0.216870412565342],[30.757667441293336,-0.21686994323067954],[30.757667531536796,-0.216869727505632],[30.757700027954847,-0.21529230394920537],[30.757775919664518,-0.211618109147974],[30.75777572533115,-0.21161784283326585],[30.757775728723683,-0.211617678154755],[30.75708104681006,-0.21066585445560032],[30.754720844807107,-0.2074314304630002],[30.75484684181497,-0.20364632597921187],[30.75486198745937,-0.20319207964066],[30.75405899620833,-0.201067488438422],[30.75226824971166,-0.19853415128626098],[30.75058899564033,-0.19615838594727533],[30.75052844776093,-0.190842392598586],[30.74743396591154,-0.186349162929152],[30.746003519947468,-0.181286208650176],[30.74557607326474,-0.18055709326355485],[30.743088717508343,-0.17631406721656323],[30.743091773579078,-0.17630381786070623],[30.745216666210727,-0.169903387580258],[30.745094201452524,-0.16958813696250194],[30.745269461606725,-0.169000354857896],[30.744032415936005,-0.16685487275717095],[30.743774867697326,-0.1661918882174715],[30.744413803546866,-0.163151188101986],[30.743570332578862,-0.161243596548241],[30.743404731291513,-0.16118416419693488],[30.743263863176136,-0.16090948487747],[30.741607376813,-0.16053911484679165],[30.741602974201655,-0.16053753480144084],[30.74051530455524,-0.15883751076902386],[30.740215289025944,-0.158368424822785],[30.737273642319753,-0.156198427256453],[30.73730659779478,-0.15610147370324728],[30.73937792609716,-0.150367709673685],[30.741566123582665,-0.150856105728898]],[[30.792545553148138,-0.211285936580114],[30.79384005580576,-0.212561390872996],[30.794163826256653,-0.215083781799892],[30.796864963594093,-0.218284472021393],[30.80037329764764,-0.219310385888962],[30.803742593292263,-0.23833961372313],[30.803084261281143,-0.242313937811511],[30.804281705492034,-0.245065099574242],[30.84042195380351,-0.24245268747431],[30.84392453394496,-0.239637032570688],[30.84588659881407,-0.244807871482215],[30.850589827204306,-0.247794253987979],[30.859419461431592,-0.239985808364742],[30.8573101009736,-0.235287540486857],[30.85781094424119,-0.229420825180172],[30.861295733046855,-0.228997726358997],[30.861741814436815,-0.227178181637743],[30.86463880662871,-0.224887953154528],[30.868238027548106,-0.224096387342341],[30.87208466937926,-0.213240435369247],[30.875561321631764,-0.208270977586252],[30.875903706461383,-0.205746825906414],[30.87444149716845,-0.202258183960668],[30.87276986801919,-0.200759086677527],[30.860614848811373,-0.197515894286482],[30.851765676693873,-0.189334404087938],[30.84476236243124,-0.184349145395454],[30.842670364629864,-0.18179655634464],[30.83671233501732,-0.181349439373488],[30.824396709936842,-0.170285466215625],[30.823017396988103,-0.169492047708638],[30.82252573037902,-0.170111234619738],[30.82197574186544,-0.169270367053514],[30.819162282124044,-0.173609600297423],[30.818448232298906,-0.176239280922829],[30.817829606333618,-0.179903093261424],[30.81824642600921,-0.184639403960509],[30.804953091695875,-0.190260498311093],[30.799217521084262,-0.193906287841356],[30.797438527087113,-0.196431103540564],[30.791186735585207,-0.199824541239044],[30.788029399104403,-0.199809807249827],[30.787560432447663,-0.202577580557422],[30.784847859364383,-0.204789332124962],[30.785841050375083,-0.208598705502015],[30.792545553148138,-0.211285936580114]]],[[[30.85650584806339,-0.273980508732419],[30.85650584816642,-0.273980502698009],[30.856505848063392,-0.273980508732419],[30.85650584806339,-0.273980508732419]]]]}},{"type":"Feature","properties":{"n":"Kikatsi","c":"419204","d":"Kiruhura","od":"Kiruhura","dc":"419","k":"KIKATSI","a":["KIKATSI"],"lat":-0.364556,"lon":30.814952},"geometry":{"type":"Polygon","coordinates":[[[30.692354537325325,-0.409773490833109],[30.694182184882145,-0.410108163565142],[30.69448429522175,-0.40890928242324176],[30.6948,-0.4088],[30.69495864705559,-0.40702688584929464],[30.696143447558896,-0.402325176592343],[30.69567393428104,-0.399279030245182],[30.696814676927318,-0.397878353707882],[30.695996261596783,-0.3954300174477457],[30.6965,-0.3898],[30.69627359916713,-0.3897282143700663],[30.696274475560543,-0.3897244583863967],[30.696295506839736,-0.3897351607052817],[30.69648868069831,-0.3897964109531218],[30.697016119910888,-0.38692874912892916],[30.699809840140585,-0.3844203529395811],[30.699812138951334,-0.38441840006888733],[30.699983569095195,-0.38438912341023973],[30.70166524565507,-0.384102518135347],[30.701067309426907,-0.38100148527945626],[30.70113502448445,-0.38085359426785786],[30.702222625527238,-0.378479778219383],[30.70222229592227,-0.3784789721578756],[30.702222355720398,-0.378478841557587],[30.701734625081997,-0.3772863545476986],[30.70028536028192,-0.373742122291744],[30.700624517749567,-0.3732045328429804],[30.70122607072996,-0.37225144324922677],[30.703192151739415,-0.3710498779427723],[30.70400595750442,-0.370552647830258],[30.704006110711912,-0.3705524290291591],[30.70400658369611,-0.370552139966095],[30.705974973702602,-0.367741258079558],[30.708398206901283,-0.366765490803018],[30.71186338971893,-0.362345780312052],[30.712689352459236,-0.357278546248748],[30.712691449492873,-0.35726568423298],[30.712691449328275,-0.35726568207740167],[30.7126914850014,-0.357265463224823],[30.71245269445624,-0.354138936608295],[30.712279381605658,-0.35186922304950513],[30.7162867458682,-0.345071246728912],[30.717029285111664,-0.340596430586028],[30.71836159423132,-0.3392240726955899],[30.719766289931144,-0.337777246532337],[30.719766404951493,-0.33777703383054697],[30.719766643393186,-0.337776788221374],[30.721572643372667,-0.334440257886582],[30.721927969799232,-0.335453462440076],[30.726512986795104,-0.3321344419979687],[30.726513283064076,-0.33213437738660156],[30.731989039620956,-0.330940233677269],[30.736739978859454,-0.331074134698598],[30.742613658547803,-0.3284846677831166],[30.744189025216535,-0.32831392846092433],[30.751129120538284,-0.327561909383308],[30.754271361500017,-0.321873709866027],[30.754469353703318,-0.320213210991272],[30.754499920504255,-0.3199573385791253],[30.754500463760536,-0.31995661743130754],[30.75682446258274,-0.317344558494652],[30.75721604248605,-0.3163518110978316],[30.757679836395734,-0.315736145933223],[30.760233080648188,-0.308703176835147],[30.75991607019924,-0.306198929441289],[30.75401797175324,-0.303235572382825],[30.757201544802562,-0.299341030333638],[30.746093144816005,-0.28805183496247],[30.74987755916427,-0.280874884272056],[30.748644340348775,-0.2767979740894326],[30.74845302519182,-0.276165037013715],[30.751062235802085,-0.273452898329139],[30.751062233564003,-0.2734525867139909],[30.751062430306604,-0.273452382228901],[30.751049126823904,-0.27162769330420633],[30.751034641802498,-0.269610897372728],[30.75263564060894,-0.26625945180468],[30.76351894816641,-0.270453545778196],[30.769133825209522,-0.257492523493982],[30.7751753281695,-0.25805135447371746],[30.775280624868415,-0.258061134877063],[30.775280651116677,-0.2580610967060975],[30.77528300287645,-0.258061314240745],[30.775288522857018,-0.2580496493989145],[30.775777799801272,-0.257338129044224],[30.775848617386462,-0.25686605572225674],[30.776291893857454,-0.255929322366553],[30.776232268840644,-0.25430861725599524],[30.776406097745742,-0.253149865676653],[30.77613711931727,-0.251722298173073],[30.776082499889988,-0.250237653142123],[30.77554831555,-0.24859729990125007],[30.77516866950981,-0.246582378656764],[30.77419816394723,-0.244451275713976],[30.774198151446353,-0.24445126659899624],[30.77419803240451,-0.244450901049764],[30.77139375603104,-0.24202925137917763],[30.771671589340148,-0.241517594611588],[30.777864082050442,-0.242069679097356],[30.781275984443027,-0.243607143084406],[30.786568800806027,-0.248245483158842],[30.793945070427387,-0.249467224620176],[30.800787525565607,-0.25213535036304],[30.8057908477724,-0.255951323005648],[30.80781497590884,-0.256331569946733],[30.808816287352204,-0.2574216716313594],[30.809524985575575,-0.2581934522038873],[30.811748689405484,-0.263356675411528],[30.81529828642963,-0.266260091269694],[30.821184566174654,-0.2737282358986718],[30.821305062935735,-0.2739233091433915],[30.831773534235968,-0.290871390317617],[30.83177701993995,-0.2908685361904009],[30.833019738421125,-0.290568693200286],[30.8343105751013,-0.2943883204138],[30.83531987997834,-0.295260197050861],[30.83125347618344,-0.302549237971406],[30.83085870897936,-0.30932338968504],[30.83154765706947,-0.310275101074662],[30.832261495556192,-0.320233141786642],[30.828603822461925,-0.328281095463814],[30.84230890193146,-0.318956093076249],[30.843199247368734,-0.325162016385093],[30.841963843075302,-0.330540900999961],[30.848082416541818,-0.334945952845173],[30.853686705065233,-0.33685376876028],[30.86198536394226,-0.336481084016697],[30.86766043875843,-0.337412416481647],[30.873466509390475,-0.342994271590124],[30.875444527702538,-0.35096698239128],[30.878741946527814,-0.3585403536774],[30.881247562862864,-0.360665700106331],[30.886926480798138,-0.354158527904151],[30.889302363481892,-0.353494708406475],[30.891413801375155,-0.355355225606165],[30.895901058237943,-0.356153666262365],[30.89890540465939,-0.357755526351048],[30.90541465741699,-0.354864082157431],[30.90516400496907,-0.358346435616472],[30.912570704092076,-0.356982639138972],[30.91602514090231,-0.357058097507365],[30.919082744630916,-0.358360852678417],[30.92611272468711,-0.42148562629989683],[30.926790520062507,-0.42848197642142277],[30.911051270281906,-0.428350837175539],[30.910434864522607,-0.41657636526757],[30.899356390441646,-0.415160340651484],[30.885212055055746,-0.414946246274121],[30.8844368744025,-0.407732367680816],[30.877324988238442,-0.408050336469951],[30.8759239071561,-0.407421508156515],[30.872204721089233,-0.415923018749507],[30.868994652381996,-0.419575515129293],[30.875021329237466,-0.42071939138266],[30.87571174935681,-0.424869265132635],[30.87884759738698,-0.423018025130757],[30.883448949609576,-0.425505234946044],[30.884597022033947,-0.432884435686873],[30.885634678261496,-0.434975397417273],[30.885672028947273,-0.440051405727586],[30.884975075424872,-0.44138929234383],[30.879347050333497,-0.441794536572977],[30.87376304627147,-0.440783620092224],[30.84462686035788,-0.440144748101625],[30.845230315523896,-0.467464715006799],[30.844495480138146,-0.47285805810238],[30.81629115592229,-0.4728223890581067],[30.81625446340016,-0.472822109471147],[30.816253995698855,-0.47282234206284296],[30.816253707382426,-0.472822341698219],[30.808517893040463,-0.4766695693754398],[30.807207026054314,-0.477321474280919],[30.801142599425912,-0.4793821332676043],[30.799073326314183,-0.480085253045957],[30.799073311113695,-0.4800852661139387],[30.79907311182205,-0.480085333832149],[30.78885202303402,-0.4888725895035084],[30.787310448322007,-0.490197893654812],[30.73664886143772,-0.44231038980368287],[30.7313,-0.4356],[30.72943755444719,-0.43549395327813184],[30.728782584671375,-0.434874847766624],[30.726628008397935,-0.4353339791258611],[30.722700140668028,-0.4351103282942648],[30.72091915211185,-0.434470118458985],[30.719860678820023,-0.4349486507513181],[30.70773201812375,-0.4342580508540214],[30.704117409491143,-0.431391603633546],[30.699281919335142,-0.428759766365784],[30.69326575817011,-0.4285489032010342],[30.68373655416187,-0.423320057924719],[30.683699014813474,-0.423276594321325],[30.679469187159775,-0.41410681982930986],[30.68651342385778,-0.41166843020307725],[30.686881164263998,-0.411814812974522],[30.692354537325325,-0.409773490833109]]]}},{"type":"Feature","properties":{"n":"Kinoni","c":"419205","d":"Kiruhura","od":"Kiruhura","dc":"419","k":"KINONI","a":["KINONI"],"lat":-0.132506,"lon":31.03257},"geometry":{"type":"Polygon","coordinates":[[[30.949625732889466,-0.046544049911773],[30.956950382104704,-0.044219133550723],[30.96685023699524,-0.040099953364991],[30.982425280819356,-0.030267157722321],[30.986747734719366,-0.026568029690055],[30.98829923212505,-0.041428497406631],[31.003873594320414,-0.046877823345037],[31.00387355545193,-0.048339522259335],[31.000443810461757,-0.054453550224125],[31.013772542472037,-0.063754234009935],[31.018612921569737,-0.069067338464644],[31.019528115049738,-0.065440197883771],[31.01860026880983,-0.061181196957024],[31.025428021981853,-0.055280672193547],[31.025024814317007,-0.053519332860888],[31.026976864126173,-0.051595938356565],[31.02735238737073,-0.046389263085852],[31.02643175347084,-0.045867603213991],[31.021982647760694,-0.046783594107556],[31.015748462740174,-0.046783591658804],[31.01517637105733,-0.046167493144831],[31.017154077718384,-0.043458175981715],[31.018938313697316,-0.038433694429913],[31.026367709030065,-0.035984197900930215],[31.0264,-0.0361],[31.0399,-0.0353],[31.039911523545292,-0.03529246886410021],[31.039933802445432,-0.035291353598544],[31.039955169368465,-0.0352639444284836],[31.052585659790044,-0.027009371948239477],[31.053197231969747,-0.027050911577748683],[31.053933162648793,-0.027113646652027982],[31.05853915486969,-0.030680411574455],[31.069474322300522,-0.030183382590207],[31.071044776322736,-0.028572341588167568],[31.08300906330802,-0.029592248019699834],[31.083130957800783,-0.02968617781374],[31.08338629716755,-0.03009325897541458],[31.08796423086568,-0.03798054233484633],[31.088272424376292,-0.0405819280919],[31.091282952873847,-0.043698340493493665],[31.0914,-0.0439],[31.096118393800232,-0.050780990958668636],[31.096750020256064,-0.052617491293264],[31.098553765677877,-0.054390067054641],[31.097699933313017,-0.06346839294388],[31.0987215201139,-0.073106187632741],[31.09954638108026,-0.074491110259209],[31.098943963943682,-0.077429951378886],[31.100108412894837,-0.078587430360383],[31.101138088696135,-0.08175495594723245],[31.101351361987057,-0.08405356808271183],[31.101208029117103,-0.084989962869533],[31.101477926330627,-0.08541765045233427],[31.101766144421024,-0.08852400098215517],[31.101643406377796,-0.088842283780149],[31.10182875989762,-0.08919885667438418],[31.102108309154087,-0.0922117764385086],[31.100013192704616,-0.098788015234943],[31.10082914644176,-0.101962047296322],[31.09935008798083,-0.106030695271438],[31.099543746057467,-0.109394652554498],[31.097908667223294,-0.117071026573936],[31.098441937225747,-0.12571128248414695],[31.09821528261587,-0.12673122822858704],[31.095193053831938,-0.135959966253985],[31.094370365249606,-0.139930460318413],[31.094646944998654,-0.1427887475060522],[31.094213371025024,-0.14473983038740074],[31.092934085299856,-0.146874879478035],[31.091352944367053,-0.157390633139004],[31.087884817150485,-0.162381448363866],[31.086459222317554,-0.16696072564524989],[31.0837,-0.1723],[31.083537535438513,-0.173132630877616],[31.083068969358834,-0.17400054993087],[31.08147331785116,-0.180899083295493],[31.081555494020883,-0.18329059314297153],[31.07977949170427,-0.1923926050156122],[31.07966327131038,-0.192798954130179],[31.075050499460513,-0.201053965618612],[31.072173230310504,-0.204634397177847],[31.070653772502357,-0.209454470630009],[31.071616146381814,-0.215692408899379],[31.072432718659886,-0.21647530332313714],[31.074567314140925,-0.2250684184647507],[31.0745501681346,-0.225187557835208],[31.073500463821357,-0.227086276883715],[31.066329558970363,-0.22758297099619],[31.05802351789023,-0.234571159503181],[31.057068992794832,-0.237663357214595],[31.05164687390555,-0.238575813653567],[31.04667285054327,-0.241061706299557],[31.041252391651614,-0.239578039957429],[31.028765357737473,-0.232596999830858],[31.023466074093573,-0.224541862967332],[31.022966531198314,-0.220816638766672],[31.024867087681038,-0.212964549434554],[31.02056792980756,-0.208533375016186],[31.019651805229635,-0.205410353779053],[31.02347532858187,-0.198588417960068],[31.026103393115005,-0.191382768831302],[31.02324342526311,-0.191418135389834],[31.01887659902888,-0.189483514964492],[31.012213288733804,-0.191524285947503],[31.007786994259035,-0.195093620617774],[31.004574724017964,-0.19522211127915],[30.997069908352504,-0.193566006501507],[30.995099679225607,-0.189154378215015],[30.99242008707323,-0.176212391545869],[30.988820772171636,-0.169869510021797],[30.98212071972779,-0.165438558791969],[30.979262218890423,-0.16117278925904],[30.97720945838009,-0.162127675732792],[30.973900499056636,-0.161914861940378],[30.9727056376834,-0.159984576291264],[30.972144854438742,-0.156085595331557],[30.96862592815262,-0.149393232177367],[30.967536596267056,-0.143554426258364],[30.969214886821423,-0.129051559186658],[30.965871396713293,-0.123210659181657],[30.96463856282436,-0.116429188475566],[30.961201566813195,-0.111140226351801],[30.95685219082474,-0.106455973865047],[30.95501733537822,-0.095913231999942],[30.957669000877413,-0.083988040192167],[30.95759167326021,-0.080642393201131],[30.95117472644028,-0.069982101013798],[30.946112379353135,-0.06601256236934],[30.94285451702363,-0.05562671994633177],[30.9431,-0.0554],[30.94102876284951,-0.04980634043434174],[30.940993926469773,-0.049695284436899],[30.94500593679843,-0.047075525105849],[30.949625732889466,-0.046544049911773]]]}},{"type":"Feature","properties":{"n":"Kiruhura Town Council","c":"419206","d":"Kiruhura","od":"Kiruhura","dc":"419","k":"KIRUHURATOWNCOUNCIL","a":["KIRUHURA","KIRUHURATOWNCOUNCIL","TOWNCOUNCIL"],"lat":-0.208435,"lon":30.830622},"geometry":{"type":"Polygon","coordinates":[[[30.80495310346738,-0.1902604933335048],[30.81824642600921,-0.184639403960509],[30.817829621035607,-0.1799032603197397],[30.81842074678407,-0.1764020638870771],[30.818448231429535,-0.1762392860716688],[30.818452855918554,-0.17622225319929447],[30.819162254028278,-0.17360970376764284],[30.81919327578811,-0.1735617983916441],[30.82197574186544,-0.169270367053514],[30.82252573037902,-0.170111234619738],[30.82301684857934,-0.16949273835454046],[30.824367053596784,-0.17026840707826693],[30.824396709936842,-0.170285466215625],[30.828594385161118,-0.17405652661274906],[30.83671178112138,-0.181348992635267],[30.836711842899483,-0.1813489972701835],[30.83671233501732,-0.181349439373488],[30.84267005360198,-0.18179653300372806],[30.84390451259324,-0.18330242436052693],[30.84476236243124,-0.184349145395454],[30.844762849613126,-0.1843494921923608],[30.844762987468698,-0.184349660359565],[30.850409240975925,-0.18836883511586117],[30.851765651213878,-0.18933438595018728],[30.8529241027731,-0.19040542536394725],[30.860614848811373,-0.197515894286482],[30.864969481798173,-0.1986777939369157],[30.87276994486405,-0.20075915559109042],[30.87444149716845,-0.202258183960668],[30.875903706461383,-0.205746825906414],[30.875561333595783,-0.20827088938433164],[30.872085048646234,-0.213239792591727],[30.87208497636432,-0.21323999657089057],[30.87208466937926,-0.213240435369247],[30.869892343212197,-0.2194275951370855],[30.86823790357064,-0.2240964146083309],[30.86463880662871,-0.224887953154528],[30.864235863990505,-0.22520650102970025],[30.861742505537865,-0.227177450093343],[30.86174244980828,-0.22717767934235367],[30.861741814436815,-0.227178181637743],[30.86129614440052,-0.22899604846701888],[30.85950461050718,-0.229215192001071],[30.85781094424119,-0.229420825180172],[30.8573101009736,-0.235287540486857],[30.85941941380181,-0.2399857022769073],[30.857650445789087,-0.2415502290525737],[30.850589827204306,-0.247794253987979],[30.84588659881407,-0.244807871482215],[30.845309989780425,-0.24328827216883747],[30.84392532492368,-0.239637540019981],[30.84392486633667,-0.23963790855802677],[30.84392453394496,-0.239637032570688],[30.84042195380351,-0.24245268747431],[30.804281705492034,-0.245065099574242],[30.803084261281143,-0.242313937811511],[30.803742593292263,-0.23833961372313],[30.803742492435152,-0.23833904409874843],[30.803742503275952,-0.238338978656459],[30.803421239287452,-0.23652465913975446],[30.80037329764764,-0.219310385888962],[30.800373073230983,-0.21931032026460667],[30.800373001377128,-0.219309914474188],[30.799580086454686,-0.21907843352914066],[30.796865178434967,-0.21828453484557891],[30.794339333660147,-0.215291747837895],[30.794163826256653,-0.215083781799892],[30.79384005580576,-0.212561390872996],[30.792545553148138,-0.211285936580114],[30.7925454406756,-0.21128589150000682],[30.792545306099857,-0.211285758879286],[30.792449808191858,-0.2112475610538749],[30.785841050375083,-0.208598705502015],[30.78484866863964,-0.20479243609145217],[30.78740866820332,-0.20270132461703605],[30.787560432447663,-0.202577580557422],[30.788029399104403,-0.199809807249827],[30.791186735585207,-0.199824541239044],[30.797438527087113,-0.196431103540564],[30.799217474153362,-0.1939063544474686],[30.80495310346738,-0.1902604933335048]]]}},{"type":"Feature","properties":{"n":"Nyakashashara","c":"419207","d":"Kiruhura","od":"Kiruhura","dc":"419","k":"NYAKASHASHARA","a":["NYAKASHASHARA"],"lat":-0.458191,"lon":31.080461},"geometry":{"type":"Polygon","coordinates":[[[30.953431939999682,-0.319864292989052],[30.954732329102985,-0.318710417434184],[30.96378468983487,-0.316248566578024],[30.98306239317588,-0.315655571904198],[30.9866158882276,-0.316207737404481],[30.99554037847243,-0.314582164608512],[30.992413462960496,-0.307682836884354],[30.984541416329254,-0.29603549498362],[30.98301974634174,-0.291803556039873],[30.994208393565366,-0.291777692527548],[31.012680788378894,-0.29709818439363],[31.01401293485724,-0.296212223017435],[31.01747722993475,-0.289513021000787],[31.028766852461192,-0.280319321400611],[31.032893812672473,-0.278963713010017],[31.039695388337766,-0.278458385492801],[31.04648667424534,-0.274806648640881],[31.04762956141212,-0.273205496923227],[31.05340518855452,-0.25242858041086],[31.055953329649057,-0.248812089322118],[31.057501290949304,-0.241551206268006],[31.05705712472565,-0.23766535442202708],[31.057068992794832,-0.237663357214595],[31.05710342973105,-0.23755179826672188],[31.05763469194201,-0.237354329988511],[31.05785552906846,-0.23511536169622022],[31.05798410686061,-0.2346988320978471],[31.066458171146913,-0.22757406264888766],[31.073500132818264,-0.22708629981070833],[31.07350045840589,-0.227086289338623],[31.069873918039494,-0.235694360133016],[31.06843316812147,-0.242114186772914],[31.06855412409165,-0.2422473878071524],[31.0685,-0.2424],[31.071462199536434,-0.2559164067736519],[31.071377306166777,-0.258472116034087],[31.072208667909916,-0.259990734859878],[31.072146108852895,-0.264112394539073],[31.073453324957093,-0.2650018383227263],[31.07348575669732,-0.2651498231522202],[31.07401920360125,-0.273852830646633],[31.076578965980392,-0.279264022547564],[31.082,-0.304],[31.082093629238358,-0.30421362010693204],[31.082179880093,-0.304760295434054],[31.082941140323378,-0.30614726190285324],[31.08982873304509,-0.32186167248150627],[31.089870859965256,-0.322728189692199],[31.092305214734715,-0.327539377346549],[31.097861304735442,-0.33341845274597354],[31.1032,-0.3391],[31.113102498318288,-0.3684016548598485],[31.1150059620157,-0.375597010695619],[31.120136138091556,-0.383427654217282],[31.119731997982186,-0.384958823964839],[31.122433127232508,-0.38730000384087054],[31.12467495103314,-0.39115690500324873],[31.124676183017904,-0.391159478433245],[31.12229639637353,-0.400124650258098],[31.122521551040055,-0.402913968391145],[31.12477150420891,-0.406109405060116],[31.12463678747383,-0.410430082511636],[31.129478876759546,-0.41449344222238],[31.13175360028331,-0.41906055668836956],[31.1323,-0.4202],[31.149312024256727,-0.437212024256729],[31.15290003514459,-0.4408009606188235],[31.154641808330766,-0.4884094277076454],[31.151946394557267,-0.501141939396636],[31.15294477575365,-0.509406832724945],[31.15284139525347,-0.5162912311293965],[31.1414,-0.5373],[31.14112065980237,-0.5382712443794503],[31.140706497455916,-0.538836497956462],[31.140333137885822,-0.5410093975046855],[31.1349,-0.5599],[31.130776290228656,-0.5658695608118498],[31.127232749798015,-0.569441501819134],[31.12439983640186,-0.575073266234092],[31.12440330723091,-0.5750952123895402],[31.1244,-0.5751],[31.12489662812531,-0.5884096337583019],[31.12487204650756,-0.5885272758320205],[31.1084,-0.6046],[31.108395069631506,-0.6046113470980782],[31.106125129056096,-0.607321934757026],[31.10279101657194,-0.612194992845498],[31.098631373200945,-0.621551795464922],[31.09479885749104,-0.635855311722691],[31.093528801648933,-0.655097105686347],[31.090996252288214,-0.663569239054252],[31.092800282850952,-0.6713949793956087],[31.0928,-0.6714],[31.09279038581124,-0.6714044705977732],[31.078947808558436,-0.676892418325521],[31.075104650066617,-0.6796283377190226],[31.0728,-0.6807],[31.05663499680382,-0.6927738604119624],[31.056546208185257,-0.6928088667826502],[31.0384,-0.6958],[31.038066134381786,-0.6957772364351217],[31.016275121292292,-0.692853039313314],[31.008264593039275,-0.6937453131617688],[31.0076,-0.6937],[31.007353818208173,-0.6938467622220497],[31.00632732871993,-0.693961100465065],[31.003986072190948,-0.6958544569630899],[31.00102077024584,-0.6976222331226729],[31.002049622505588,-0.695089598552081],[31.006336986963937,-0.673716197771134],[31.00673390042341,-0.668092362553176],[31.012032217376323,-0.638455342613638],[31.013535685042626,-0.633781298923213],[31.02278988969195,-0.620701295025955],[31.024603033970703,-0.616379948602208],[31.025510688223928,-0.601913370694364],[31.02542407447728,-0.58168638127053],[31.032123234854275,-0.552022361852522],[31.032549157942842,-0.533268901726446],[31.03162814214023,-0.5308078802978577],[31.031763472320755,-0.530785391141323],[31.02998398049787,-0.526414516949843],[31.02606705302492,-0.521982728439249],[31.024939223903583,-0.5215510870351495],[31.021022578549783,-0.520051581104347],[31.021022543385417,-0.5200520997805312],[31.021017841006003,-0.520050300091541],[31.02091979579633,-0.5215077387152073],[31.02091978433853,-0.5215077401533698],[31.01938919600572,-0.5208839778724954],[31.01607845100919,-0.5179535222295748],[31.016075101661812,-0.5179497069529675],[31.01604646874998,-0.5175741761860305],[31.015418609655477,-0.509323430303952],[31.012782541040735,-0.506952570988838],[31.01006002958783,-0.506238981043749],[31.005815259956275,-0.503205883106322],[31.001275955786653,-0.498124357170939],[31.00286257772789,-0.4962857767203158],[31.00371405172007,-0.4957701155173268],[31.010327634042582,-0.491765104279817],[31.01773370451485,-0.481860602093755],[31.01398605659039,-0.472223795092527],[31.010094547688023,-0.474294369586195],[31.00719012436125,-0.4639021872473516],[31.007190119981534,-0.46390217157537134],[31.007582549720606,-0.452480052711806],[31.009045894155317,-0.445948437778703],[30.991639119549237,-0.450456366036228],[30.990740652565435,-0.43906379669563306],[30.98631604287888,-0.382951106166013],[30.98631536292309,-0.38295108469669753],[30.98631510453797,-0.382947808371084],[30.98556640348585,-0.3829274366203822],[30.96970746576455,-0.382426697393572],[30.970294565548304,-0.379200777927358],[30.96892402181153,-0.374275644988717],[30.96783902327326,-0.360013801660254],[30.964899186427978,-0.355087809774666],[30.964885186246203,-0.353106999894264],[30.961173556094803,-0.344982127168447],[30.961540063011988,-0.336154764548287],[30.954674183181282,-0.332016375526255],[30.952617368888,-0.329126230954679],[30.950447698257396,-0.322812650113781],[30.951825008228468,-0.319292950481731],[30.953431939999682,-0.319864292989052]]]}},{"type":"Feature","properties":{"n":"Rushere Town Council","c":"419208","d":"Kiruhura","od":"Kiruhura","dc":"419","k":"RUSHERETOWNCOUNCIL","a":["RUSHERE","RUSHERETOWNCOUNCIL"],"lat":-0.177395,"lon":30.942657},"geometry":{"type":"Polygon","coordinates":[[[30.890559352539007,-0.109416603633421],[30.890579742566928,-0.10939034238655863],[30.8906,-0.1094],[30.89242138172032,-0.10840966697336153],[30.89334968695209,-0.108819797468271],[30.896253436752627,-0.108257898506609],[30.905189850573784,-0.104322522834951],[30.90988172701762,-0.099599766814675],[30.916917190255585,-0.095103269765086],[30.916584586436056,-0.085992460817357],[30.91577188878331,-0.08215640814537473],[30.915012930800252,-0.07344836391870734],[30.915021003591832,-0.07329424095062657],[30.919103606767937,-0.07217481749911357],[30.927420725761163,-0.069912169019928],[30.9325587947376,-0.067213676132806],[30.940625453778907,-0.060969118648507],[30.943230220280235,-0.057323773154634],[30.946112329492667,-0.0660124034175767],[30.946112379353135,-0.06601256236934],[30.95117472644028,-0.069982101013798],[30.95759167326021,-0.080642393201131],[30.957669000575528,-0.08398802713085647],[30.95501734379001,-0.095913051557691],[30.955017357713054,-0.09591313155470228],[30.95501733537822,-0.095913231999942],[30.95685219082474,-0.106455973865047],[30.961201434661877,-0.11114008402560632],[30.964638566242183,-0.11642920727605016],[30.965848694341474,-0.12308577985213663],[30.965871262309655,-0.123209923272521],[30.96587126321739,-0.12320992485843722],[30.965871396713293,-0.123210659181657],[30.968918558301283,-0.1285338889681784],[30.969214882130707,-0.12905159972124902],[30.967924700259776,-0.14020064427957052],[30.96752410473105,-0.1421351156275],[30.967603046874597,-0.1429801965306699],[30.967536596267056,-0.143554426258364],[30.967777114325667,-0.14484360018493014],[30.967966286825508,-0.146868704392095],[30.968351528076724,-0.14792245104211127],[30.96862592815262,-0.149393232177367],[30.969490046512245,-0.1510366294527289],[30.970411714132194,-0.153557657935239],[30.972144083928733,-0.1560841299604791],[30.972144854438742,-0.156085595331557],[30.9727056376834,-0.159984576291264],[30.973900499056636,-0.161914861940378],[30.97720945838009,-0.162127675732792],[30.979262218890423,-0.16117278925904],[30.98212071972779,-0.165438558791969],[30.988820772171636,-0.169869510021797],[30.99242008707323,-0.176212391545869],[30.993151863149397,-0.17974674889727313],[30.995099588117522,-0.189154037756755],[30.995099626540835,-0.18915412375628685],[30.995099679225607,-0.189154378215015],[30.997069908352504,-0.193566006501507],[30.997070886655315,-0.193566222385818],[30.997070958863482,-0.193566384003025],[31.003533269131328,-0.19499229105566424],[31.004574724017964,-0.19522211127915],[31.007786994259035,-0.195093620617774],[31.01221328254,-0.19152429094214715],[31.018877135423626,-0.18948375260166306],[31.02312464640698,-0.19136551319035938],[31.02324305073819,-0.19141803015511],[31.023243183977414,-0.19141802849383863],[31.02324342526311,-0.191418135389834],[31.026103393115005,-0.191382768831302],[31.02347532858187,-0.198588417960068],[31.019651805229635,-0.205410353779053],[31.02056792980756,-0.208533375016186],[31.024867087681038,-0.212964549434554],[31.022966531198314,-0.220816638766672],[31.023466074093573,-0.224541862967332],[31.028765357737473,-0.232596999830858],[31.028776863591144,-0.23260343232929698],[31.038994944483356,-0.238561716625666],[31.040424944577527,-0.23911544481541636],[31.041252391651614,-0.239578039957429],[31.042505086895343,-0.23992092269249166],[31.044329634435517,-0.240627428524661],[31.04666871193212,-0.24106057349545557],[31.04667285054327,-0.241061706299557],[31.046674576203067,-0.24106084385789098],[31.05240691797577,-0.23844791031541915],[31.054334215422347,-0.2381235767844039],[31.05710484157728,-0.2380828121352228],[31.05750125288744,-0.2415508732783404],[31.05750127230613,-0.24155129371587095],[31.055953329649057,-0.248812089322118],[31.05340518855452,-0.25242858041086],[31.04762956141212,-0.273205496923227],[31.04648667424534,-0.274806648640881],[31.040006439994954,-0.2782911301578224],[31.039695373260496,-0.2784583866129765],[31.032893812672473,-0.278963713010017],[31.03137057765859,-0.27946405952657016],[31.028767104390884,-0.280319217450343],[31.028767060762963,-0.2803192529784277],[31.028766852461192,-0.280319321400611],[31.01747722993475,-0.289513021000787],[31.01401293485724,-0.296212223017435],[31.014012035851117,-0.29621282091317375],[31.012322526511092,-0.2969949964002592],[30.994208393565366,-0.291777692527548],[30.98438390531549,-0.2918004026700575],[30.983019742608683,-0.291803543828112],[30.98207413249932,-0.290979349651629],[30.96958710709602,-0.293487117556586],[30.958760467922517,-0.294468650284891],[30.947309440813278,-0.293278943992251],[30.938416081900904,-0.291196895537265],[30.935184002155964,-0.285827665322556],[30.90704051668937,-0.287753395712533],[30.900547747989698,-0.277892962284972],[30.892460267023807,-0.268000312742395],[30.892494382426293,-0.267952729721923],[30.88774498107366,-0.262232222750355],[30.883810229778234,-0.238147758678972],[30.895528313099938,-0.234825817703036],[30.89552898203747,-0.23482545327749027],[30.895529092592625,-0.234825421959801],[30.895708804633625,-0.23472748905085417],[30.897122438011326,-0.233957366143322],[30.89848578254349,-0.231544886924222],[30.88849957822477,-0.221758927570819],[30.883141870756212,-0.21320796820543067],[30.88258083184622,-0.2123125155983439],[30.881910705794166,-0.209275521381349],[30.882014634308696,-0.20887925258978182],[30.882681318941756,-0.20633915099810993],[30.886241434743937,-0.20584400482695828],[30.8870878006112,-0.2060194830704184],[30.890371902625194,-0.206700562184567],[30.8957623564559,-0.204104455816107],[30.89620936522283,-0.202530152955769],[30.895316783674204,-0.194208395203671],[30.885488200028117,-0.18667282095953],[30.884596063256105,-0.185099897485035],[30.892187860435957,-0.17941562984337384],[30.893306704382592,-0.178578318825226],[30.893306543165956,-0.1785780294843569],[30.893307969211392,-0.178576961749836],[30.889734406450383,-0.172165929186499],[30.890613280457472,-0.167189491368232],[30.8939191934775,-0.161681618084992],[30.89391824833959,-0.16166700655424274],[30.89369167904553,-0.15720629798731],[30.892903088762854,-0.14597296313032698],[30.89289481378613,-0.145845034628225],[30.88822176890804,-0.143205248489842],[30.88605609018683,-0.13895900547675],[30.88411927516489,-0.138039469787276],[30.884917188108727,-0.127138977911375],[30.881384227126734,-0.119679514372502],[30.881384436811196,-0.115433553003281],[30.880017039426576,-0.110728440764224],[30.8811453841247,-0.1054593711765255],[30.881254436431362,-0.104950177005819],[30.890559352539007,-0.109416603633421]]]}},{"type":"Feature","properties":{"n":"Rwenshande","c":"419209","d":"Kiruhura","od":"Kiruhura","dc":"419","k":"RWENSHANDE","a":["RWENSHANDE"],"lat":-0.331279,"lon":30.898569},"geometry":{"type":"Polygon","coordinates":[[[30.835102463048262,-0.288145632084446],[30.835103870668362,-0.288144479511863],[30.837414226671196,-0.283893350236911],[30.83741531354697,-0.28389220986984026],[30.84238761061263,-0.2791996414652016],[30.847674312292153,-0.275134361243036],[30.84767446495274,-0.27513427312915095],[30.85106395605772,-0.274176442066165],[30.863373528938446,-0.273220308140861],[30.863633140895207,-0.273125975295172],[30.874338952899635,-0.269236434688516],[30.874809810666523,-0.270509344966345],[30.8748134138897,-0.2705071219586437],[30.87481341698399,-0.270507130331072],[30.874825022421273,-0.2704999600777925],[30.878476090585618,-0.268247434423583],[30.87892289148782,-0.269353463445403],[30.87892609931653,-0.2693531379910864],[30.878926207477573,-0.269353406834395],[30.88763143685298,-0.26846992696711763],[30.88959772568092,-0.2682704346485406],[30.889658011180018,-0.26831440389289696],[30.890923152740164,-0.269239678561268],[30.890941292548124,-0.26922794250438686],[30.89265877091551,-0.26824312375385195],[30.894560799991766,-0.27056969579161316],[30.902041215164928,-0.2801610599700719],[30.90704051668937,-0.287753395712533],[30.935184002155964,-0.285827665322556],[30.938416081900904,-0.291196895537265],[30.947309440813278,-0.293278943992251],[30.94730977837214,-0.293278979062983],[30.94730982695564,-0.293278990437259],[30.958759884680518,-0.294468604181584],[30.958759959175225,-0.2944685974285097],[30.958760467922517,-0.294468650284891],[30.96958710709602,-0.293487117556586],[30.969587287325655,-0.29348708136108886],[30.969587381223374,-0.293487072849098],[30.96999527918631,-0.2934051444016777],[30.98207413249932,-0.290979349651629],[30.982078756564142,-0.290983379988508],[30.984046703978443,-0.2946596431362924],[30.984541416329254,-0.29603549498362],[30.98570411728104,-0.297755806885738],[30.98772140602391,-0.301524243079689],[30.993113496380353,-0.3092274133089571],[30.995534316454854,-0.31456878917647124],[30.986621307350934,-0.3162067503251942],[30.9866158882276,-0.316207737404481],[30.98306239317588,-0.315655571904198],[30.983062045281002,-0.31565558260567045],[30.983062045280594,-0.315655582605607],[30.98306193042321,-0.31565558613877065],[30.96378468983487,-0.316248566578024],[30.954732329102985,-0.318710417434184],[30.953431939999682,-0.319864292989052],[30.951825008228468,-0.319292950481731],[30.951823821784362,-0.31929598242585905],[30.95182353628756,-0.319295881376648],[30.95044779725697,-0.322812394071143],[30.95044779781508,-0.3228123956952742],[30.950447698257396,-0.322812650113781],[30.952617368888,-0.329126230954679],[30.954674183181282,-0.332016375526255],[30.954782460291916,-0.33208163923855877],[30.955015134247883,-0.332399248918749],[30.961525856795983,-0.33614620179306837],[30.961539966636828,-0.33615470645844125],[30.96117351277474,-0.344981598383464],[30.961173572612854,-0.34498172932918925],[30.961173556094803,-0.344982127168447],[30.96488492188613,-0.3531064212019223],[30.964889828223527,-0.35376376812003707],[30.964899186427978,-0.355087809774666],[30.964899717308427,-0.3550886993181758],[30.964899717375406,-0.355088708291949],[30.964954783902037,-0.3551809689261702],[30.96783902327326,-0.360013801660254],[30.96856439644,-0.3695485227624925],[30.968924004282126,-0.3742755047548],[30.968924013724575,-0.37427553868909996],[30.96892402181153,-0.374275644988717],[30.969242999923786,-0.3754219123899116],[30.970294537532173,-0.3792009318667465],[30.970290857655684,-0.37922115157306197],[30.96970303574837,-0.382365582990342],[30.95628783945007,-0.3821307827279402],[30.956272317877087,-0.382130360394334],[30.95704335698303,-0.389569209310603],[30.95624976568596,-0.388886057523309],[30.949523479349825,-0.388580526376522],[30.946990898226414,-0.390502977550376],[30.934275892014014,-0.39124552322225],[30.93130343848509,-0.3944240187482169],[30.929697324422374,-0.3941718956583535],[30.928033148655985,-0.393910413274999],[30.927251719096365,-0.392730304277855],[30.923159766478594,-0.391004554473776],[30.92316588158398,-0.39106767591110353],[30.922854482887846,-0.390940941845158],[30.91909731417743,-0.358491677989182],[30.919082744630916,-0.358360852678417],[30.916805138846094,-0.35739043172882273],[30.91602583565834,-0.357058341975518],[30.916025708209066,-0.35705833922011604],[30.91602514090231,-0.357058097507365],[30.912570704092076,-0.356982639138972],[30.90516400496907,-0.358346435616472],[30.90541465741699,-0.354864082157431],[30.90540977812151,-0.3548662495660597],[30.905409828489955,-0.354865549519665],[30.9021043094769,-0.3563345560638331],[30.89890540465939,-0.357755526351048],[30.895901058237943,-0.356153666262365],[30.891413801375155,-0.355355225606165],[30.889302363481892,-0.353494708406475],[30.886926480798138,-0.354158527904151],[30.881247562862864,-0.360665700106331],[30.878741946527814,-0.3585403536774],[30.875444527702538,-0.35096698239128],[30.873466509390475,-0.342994271590124],[30.86766043875843,-0.337412416481647],[30.86198536394226,-0.336481084016697],[30.853686705065233,-0.33685376876028],[30.848082416541818,-0.334945952845173],[30.841963843075302,-0.330540900999961],[30.843199247368734,-0.325162016385093],[30.843199216833252,-0.3251618035453854],[30.84319922099763,-0.325161785445033],[30.843194259500322,-0.3251272497343803],[30.84230890193146,-0.318956093076249],[30.828603822461925,-0.328281095463814],[30.832261495556192,-0.320233141786642],[30.83154765706947,-0.310275101074662],[30.83085870897936,-0.30932338968504],[30.83125347618344,-0.302549237971406],[30.83531987997834,-0.295260197050861],[30.8343105751013,-0.2943883204138],[30.833019738421125,-0.290568693200286],[30.832294501594266,-0.29074367826890885],[30.835102463048262,-0.288145632084446]]]}},{"type":"Feature","properties":{"n":"Rwetamu","c":"419210","d":"Kiruhura","od":"Kiruhura","dc":"419","k":"RWETAMU","a":["RWETAMU"],"lat":-0.004296,"lon":30.978714},"geometry":{"type":"Polygon","coordinates":[[[30.940306138359887,0.014424475476100842],[30.941,0.0138],[30.94133682721712,0.013913325045013613],[30.94197281005969,0.013597921514783],[30.944065167945023,0.014818567821809],[30.944072882911527,0.014833867147804132],[30.970249122272303,0.023640826185074085],[30.976318726856608,0.024294368096876],[30.978981025013784,0.02657866262145998],[30.983652236082634,0.02815028503714844],[30.987596403909308,0.025930923363134],[30.99890437440356,0.024442406440469],[30.99918267351823,0.024761520037101678],[31.0008,0.0244],[31.0085,0.0354],[31.0364,0.0471],[31.03801156768518,0.04836623175264164],[31.052345476733315,0.057163654664607],[31.05456721328995,0.061350130268962],[31.054619242735484,0.06131989651973499],[31.056603016486488,0.053061861602771015],[31.056597900786343,0.053004353436549],[31.055458416333117,0.052668995285772],[31.053660166810484,0.050415921761463],[31.053972990024068,0.048519821778837],[31.05694444492058,0.046828593814699],[31.058738959273676,0.04417037883749569],[31.058860946179394,0.04366257288113584],[31.058383925573683,0.040128432927868],[31.057049945523243,0.03739768106933],[31.05479220811775,0.035209440196207],[31.057034585609227,0.033988798739229],[31.057407666746556,0.030778857863942],[31.056616485300488,0.026846345972817],[31.057715875299685,0.024850035970033515],[31.05702615659255,0.01398696633266176],[31.056988950246218,0.013961579995797],[31.056971062928863,0.013119241129615463],[31.0569,0.012],[31.05686018726677,0.011967854904282295],[31.0527438796617,0.010949743260217],[31.049827536915814,0.006564036246403],[31.04049133636153,0.000785620625495],[31.02998871635719,-0.009728369756045801],[31.0299,-0.0098],[31.0235,-0.0257],[31.026367706058185,-0.03598418724314386],[31.025252177423262,-0.036351992408618826],[31.018938313697316,-0.038433694429913],[31.017777124428836,-0.04170365094156001],[31.017153888609176,-0.043458435047852226],[31.01517637105733,-0.046167493144831],[31.015748462740174,-0.046783591658804],[31.015786924250712,-0.046783591673911454],[31.019626828446988,-0.046878774353522],[31.020267360536025,-0.04678359343380105],[31.021982647760694,-0.046783594107556],[31.02643175347084,-0.045867603213991],[31.02735238737073,-0.046389263085852],[31.026976864126173,-0.051595938356565],[31.025024814317007,-0.053519332860888],[31.025428021981853,-0.055280672193547],[31.01860026880983,-0.061181196957024],[31.019528115049738,-0.065440197883771],[31.018612921569737,-0.069067338464644],[31.013772542472037,-0.063754234009935],[31.001409088515565,-0.05512711361612219],[31.000443811443432,-0.0544535484741439],[31.00387355545193,-0.048339522259335],[31.003873594320414,-0.046877823345037],[30.98829923212505,-0.041428497406631],[30.986747734719366,-0.026568029690055],[30.982425280819356,-0.030267157722321],[30.96685023699524,-0.040099953364991],[30.956950382104704,-0.044219133550723],[30.949625732889466,-0.046544049911773],[30.94500593679843,-0.047075525105849],[30.941445512248368,-0.049400408312381204],[30.94099392404347,-0.049695272747235],[30.93871284536185,-0.043490734172873],[30.938682221310728,-0.04346918366718793],[30.93567928298975,-0.03535933750097955],[30.93605664489479,-0.034800503184795],[30.93390860152517,-0.029774151310725],[30.933383753349407,-0.029159945351270266],[30.9274,-0.013],[30.927165742196138,-0.012621583547611318],[30.926963078349463,-0.011853660136291],[30.92568454979585,-0.009711224824845],[30.925157389527683,-0.009377321544720664],[30.9170075769341,0.0037877603372269307],[30.91673789679321,0.006465250983799],[30.91648525939926,0.007087698030537974],[30.914627433166174,0.018953813970901925],[30.914861865053982,0.019339734534979],[30.914164974474076,0.02190758239139827],[30.9139,0.0236],[30.929,0.0246],[30.929144566603583,0.02446989005677493],[30.934716522991312,0.017196538339884],[30.940306138359887,0.014424475476100842]]]}},{"type":"Feature","properties":{"n":"Sanga","c":"419211","d":"Kiruhura","od":"Kiruhura","dc":"419","k":"SANGA","a":["SANGA"],"lat":-0.618761,"lon":30.925512},"geometry":{"type":"Polygon","coordinates":[[[30.7861,-0.5885212810947908],[30.7861,-0.5882],[30.786095270318718,-0.588188717145859],[30.786094743137586,-0.588151648804592],[30.786263864331953,-0.587374207885505],[30.7896851041442,-0.5722937435781218],[30.808497442348056,-0.5813057915690165],[30.80852029857476,-0.581316823057372],[30.840016973489547,-0.588191039937282],[30.844449931176296,-0.590100380247055],[30.844450199314398,-0.5901004467732308],[30.844450213844173,-0.590100453031343],[30.847203769446775,-0.590783618953396],[30.863428471773894,-0.594809034950984],[30.863428598269422,-0.5948090507014641],[30.863428598269863,-0.594809050701573],[30.863428601877636,-0.5948090511507376],[30.876611840308254,-0.596450550523609],[30.87727596682709,-0.596206699219217],[30.877447553518344,-0.59317816897697],[30.888768438462847,-0.592929736623704],[30.898060621139113,-0.590301918627292],[30.898061169849168,-0.5903015921427898],[30.898061187446814,-0.590301587166004],[30.898069114916396,-0.5902968647985495],[30.901315803297354,-0.588365073263397],[30.899797977772476,-0.580097770380562],[30.896764168222166,-0.57717103438769],[30.890733010481167,-0.574708503835458],[30.889840128663735,-0.573101576048162],[30.890667093394985,-0.563205789864262],[30.895706772779373,-0.56316846543552],[30.89751080506062,-0.5554365568402627],[30.897791634423655,-0.5542333391732533],[30.89849631291825,-0.55371782567535],[30.897182332825217,-0.5530126125272963],[30.89702085256732,-0.5527336905584208],[30.893624649629952,-0.54686372510471],[30.89463164642143,-0.544449696716123],[30.89548868025024,-0.54444743940034],[30.895622624922062,-0.543228658265536],[30.897830068858934,-0.541097160672467],[30.89833550835846,-0.539283652467683],[30.89841156094642,-0.539010819427919],[30.90137410585956,-0.53908184090414],[30.905072659760396,-0.541247228497678],[30.90732351121956,-0.541349027376167],[30.915622752324495,-0.544422421458234],[30.918571986600412,-0.54699061245976],[30.924451578860673,-0.557323110251802],[30.928274870843435,-0.556796724277179],[30.930150128582646,-0.558053121476217],[30.93255801579597,-0.557948398133477],[30.935128653619834,-0.562317705417675],[30.945469087285698,-0.564645792338388],[30.951096682749547,-0.562543769340388],[30.952887425541523,-0.563376206613328],[30.953350153954688,-0.566094773323368],[30.955622126165885,-0.56734012748137],[30.956020141610637,-0.57345100880389],[30.967801417914906,-0.566153396498215],[30.963456817893732,-0.562378151583707],[30.955559128289384,-0.553112916965796],[30.936832603012423,-0.535977289007886],[30.937757771635614,-0.534083742329935],[30.937798907746995,-0.5340568959297027],[30.955606573818343,-0.5224394468267832],[30.96405049741645,-0.5286803600784944],[30.964325126058828,-0.528883354381655],[30.967807771558206,-0.534382970885137],[30.981888789624303,-0.5467397900192459],[30.98407770534991,-0.548660686278228],[30.98407773538333,-0.5486607027481208],[30.98407782886555,-0.548660784783587],[30.992901707664092,-0.553499693257962],[30.998935376848014,-0.551928520322222],[31.002508234753883,-0.556202036126455],[31.007869179916806,-0.560252500663402],[31.01222946462445,-0.550132354705055],[31.0216421798378,-0.5356329326013757],[31.022959015136717,-0.5336044745148985],[31.027651797857356,-0.531468668812786],[31.03144484983999,-0.5308383397948878],[31.031628144418377,-0.5308078863852297],[31.03227033081517,-0.5325238552960443],[31.032123281054954,-0.5520203276294635],[31.0321232353705,-0.5520223391231874],[31.030126002158156,-0.5608661491550933],[31.02542407447728,-0.58168638127053],[31.025510688151233,-0.6019133537179885],[31.02543765521277,-0.6030774017579628],[31.024603033970703,-0.616379948602208],[31.02278988969195,-0.620701295025955],[31.018945499587428,-0.6261350021304753],[31.013535875966173,-0.633780970040013],[31.013535841145536,-0.6337810782854857],[31.013535685042626,-0.633781298923213],[31.012093687252708,-0.6382642424694146],[31.012032253861356,-0.638455217913277],[31.01203224932414,-0.6384552432929136],[31.012032217376323,-0.638455342613638],[31.00673390042341,-0.668092362553176],[31.00638691517578,-0.673008768911175],[31.00633697516079,-0.6737162566122796],[31.006336871182178,-0.6737167749672126],[31.001827147309964,-0.6956372460555965],[31.00102077024584,-0.6976222331226727],[30.994488798057905,-0.7015162934654812],[30.990269218349965,-0.703456865664082],[30.976377291883363,-0.712257508568355],[30.976189389902398,-0.712317881989419],[30.9552464265111,-0.7140960581264163],[30.95397859302186,-0.7138176317201067],[30.92128423625314,-0.706259258918737],[30.916721296139503,-0.7048337845432701],[30.8823,-0.6869],[30.88145904502894,-0.6861391359785645],[30.881322781291104,-0.684756456369539],[30.876526135382374,-0.678561606947743],[30.876052938985996,-0.676653165176969],[30.874015993450286,-0.675270020781979],[30.873018746660648,-0.675865823704335],[30.868740020949154,-0.674037654699175],[30.865497260286887,-0.6716665278528252],[30.8650743237185,-0.6664993462999379],[30.86642723792687,-0.667047958221045],[30.86734283904195,-0.663811811443497],[30.86658587465798,-0.662500497136446],[30.86710766819605,-0.661515435081067],[30.865011763002876,-0.658928493474815],[30.86648219533001,-0.65730337281977],[30.86560654800427,-0.656776986370697],[30.867171472449254,-0.655396543311492],[30.867423871946723,-0.653281098953483],[30.865337656985695,-0.652156910894029],[30.865646470722947,-0.650583675364099],[30.863702817886335,-0.6497431228721648],[30.86366499432098,-0.6492810175737342],[30.864593159509525,-0.648468498730027],[30.86447571316171,-0.646820706519068],[30.863225547977553,-0.6439121296387961],[30.8632,-0.6436],[30.863024839578507,-0.6434451706988588],[30.86277089055539,-0.642854344569027],[30.86228741001972,-0.6427933356424339],[30.856268269948597,-0.6374728457581342],[30.85669691315873,-0.635999331038366],[30.854670521759555,-0.635643546276378],[30.854483243774478,-0.6358950101220825],[30.8408,-0.6238],[30.836316597883226,-0.622111445956019],[30.8359726992006,-0.62064564103064],[30.835228113660584,-0.6217014973526865],[30.834174245756508,-0.6213045860641392],[30.834191806042096,-0.620211397391077],[30.83210714821399,-0.6205260688078658],[30.823568887612282,-0.6173103602695605],[30.823536844032812,-0.616952847540493],[30.8226399985409,-0.6169605189309882],[30.817423085313692,-0.6149957074558065],[30.817102718481898,-0.614843605193067],[30.817060350226935,-0.6148590929426122],[30.81,-0.6122],[30.806288197705758,-0.6128530022554683],[30.80537731469955,-0.611593364219002],[30.802046370970594,-0.61100396343939],[30.80152345425366,-0.612459073263958],[30.7990683185966,-0.61399847464318],[30.792127830721192,-0.6086474114720638],[30.790252760019975,-0.607084557561953],[30.7900951598538,-0.6070802377498735],[30.786150355833446,-0.6040388239631901],[30.78631921096178,-0.603934933466234],[30.7861,-0.5885212810947908]]]}},{"type":"Feature","properties":{"n":"Sanga Town Council","c":"419212","d":"Kiruhura","od":"Kiruhura","dc":"419","k":"SANGATOWNCOUNCIL","a":["SANGA","SANGATOWNCOUNCIL"],"lat":-0.490316,"lon":30.898858},"geometry":{"type":"Polygon","coordinates":[[[30.844293333176473,-0.4728578024540308],[30.844495480138146,-0.47285805810238],[30.845230160711132,-0.46746585125902373],[30.845230310622448,-0.467464988438004],[30.845230306097168,-0.4674647841945059],[30.845230315523896,-0.467464715006799],[30.8446268722731,-0.44014528753429616],[30.873763047056496,-0.44078362023434364],[30.879347050333497,-0.441794536572977],[30.879347453826526,-0.4417945075195845],[30.87934757002532,-0.441794528554821],[30.884972876943046,-0.441389834269924],[30.884973085162464,-0.44138943565206745],[30.884975075424872,-0.44138929234383],[30.885672028947273,-0.440051405727586],[30.885634678261496,-0.434975397417273],[30.884597022033947,-0.432884435686873],[30.883448949609576,-0.425505234946044],[30.87884759738698,-0.423018025130757],[30.87571174935681,-0.424869265132635],[30.875021329237466,-0.42071939138266],[30.87502017468245,-0.42071917224563016],[30.875020059873155,-0.420718477441058],[30.87420686450453,-0.4205648042213516],[30.868994652381996,-0.419575515129293],[30.872202824454092,-0.4159251767883575],[30.872204566542074,-0.415923196635757],[30.872204568316842,-0.4159231925777495],[30.872204721089233,-0.415923018749507],[30.8759239071561,-0.407421508156515],[30.877324988238442,-0.408050336469951],[30.8844368744025,-0.407732367680816],[30.885212055055746,-0.414946246274121],[30.888763465438505,-0.4150000018571097],[30.899356716202302,-0.4151603822894483],[30.910434864522607,-0.41657636526757],[30.911051270281906,-0.428350837175539],[30.926644331312556,-0.4284807583784606],[30.926790520717933,-0.42848198318685626],[30.92887586434244,-0.45000735006051984],[30.93067217105259,-0.4694967032293622],[30.93053235706042,-0.48847904397905745],[30.930532313267854,-0.488480848680927],[30.930532343194503,-0.48848092653416464],[30.930532340803346,-0.488481251178267],[30.93218227478778,-0.492779120857966],[30.92653181793626,-0.494343136552057],[30.912872907423797,-0.496064929412293],[30.913544608340917,-0.503456093293651],[30.91381694328596,-0.5042270794864763],[30.913982599912703,-0.505664586608462],[30.914701277106445,-0.5067306478968567],[30.914896167626157,-0.507282387225754],[30.915090064864966,-0.5073073624251208],[30.9151693004281,-0.507424897762624],[30.91729154486917,-0.5075909270717586],[30.91730243829111,-0.507592330213889],[30.926588164428946,-0.512089878364918],[30.925620209224828,-0.521116788138796],[30.924739885180756,-0.52294206185352],[30.924748526443622,-0.5229474394670393],[30.924747340584943,-0.522949929705448],[30.936975493270968,-0.5305565011430454],[30.93870100438811,-0.531630317789347],[30.938687216749198,-0.5316661806035559],[30.93685845044437,-0.5359243869555831],[30.936832603012423,-0.535977289007886],[30.936834848305924,-0.5359793435542333],[30.936834797857266,-0.53597946102184],[30.955355510994156,-0.5529265978187461],[30.955559128289384,-0.553112916965796],[30.963456817893732,-0.562378151583707],[30.963456898821434,-0.5623782219059205],[30.963456934263387,-0.56237826348494],[30.963478227927887,-0.5623967558561742],[30.967801417914906,-0.566153396498215],[30.956020141610637,-0.57345100880389],[30.955644226170072,-0.5676794371855358],[30.955622375948224,-0.567341444793061],[30.955622205896756,-0.567341351619518],[30.955622126165885,-0.56734012748137],[30.953350153954688,-0.566094773323368],[30.952887425541523,-0.563376206613328],[30.951096682749547,-0.562543769340388],[30.945469087285698,-0.564645792338388],[30.935128653619834,-0.562317705417675],[30.93361758203069,-0.5597493404616678],[30.93255936709679,-0.557949322271126],[30.932558579464118,-0.5579493561989536],[30.93255801579597,-0.557948398133477],[30.930197168228695,-0.5580510756374634],[30.930150101133226,-0.558053103085479],[30.928274870843435,-0.556796724277179],[30.928273703507696,-0.556796884994478],[30.92827330387021,-0.556796617438172],[30.927791683111497,-0.556863248949202],[30.92445168977939,-0.5573230949806542],[30.919920867830417,-0.549361068048141],[30.918571986600412,-0.54699061245976],[30.915622752324495,-0.544422421458234],[30.90732351121956,-0.541349027376167],[30.905072881911302,-0.5412472385448595],[30.904199731059187,-0.5407361560541446],[30.90137410585956,-0.53908184090414],[30.90133691641222,-0.5390809493566606],[30.89835272970931,-0.5389926503322138],[30.89227448139687,-0.537115235314037],[30.889975509430364,-0.534144990087133],[30.889973726915876,-0.5341444893258838],[30.88997367761609,-0.534144425664278],[30.88417609229698,-0.532079317509651],[30.882423989342506,-0.5320235438612022],[30.88042988113471,-0.5314633396530021],[30.87910339504521,-0.5299975208999799],[30.879069486934014,-0.52995797497332],[30.8790854489741,-0.529946550751853],[30.880884079220717,-0.5288772380698956],[30.88359987650847,-0.529259651130946],[30.882648140765188,-0.52451988675991],[30.880611274959694,-0.521359853298984],[30.876942734125464,-0.5198472715345036],[30.8765952050516,-0.519703956960493],[30.876595171792175,-0.5197039675694907],[30.876594626970835,-0.519703742933359],[30.871660130488806,-0.521273961940686],[30.864754489888156,-0.503111547276407],[30.866980428960712,-0.501726955695361],[30.866501901965385,-0.49626566698485175],[30.86643911713685,-0.49554895042439273],[30.8672124274057,-0.492824206736094],[30.866320129131857,-0.48977254933887],[30.862054946328016,-0.485671332554847],[30.861902487057716,-0.48579122892408255],[30.861844524382434,-0.485738991171268],[30.854858294224908,-0.490859770667471],[30.854325637881836,-0.4917497823439577],[30.8540780084628,-0.49194452201574],[30.854000305172715,-0.4922933784423171],[30.853354731898854,-0.493372062211385],[30.852910750293137,-0.496419057375323],[30.852596684041295,-0.4962730117673325],[30.848019433234654,-0.4941443370905834],[30.8459235968456,-0.4912415236753731],[30.842927559415145,-0.487091762328535],[30.84283231502266,-0.481266870895338],[30.84437420026066,-0.473036374157224],[30.84426245507612,-0.47303552268955185],[30.844293333176473,-0.4728578024540308]]]}}]}
