{"type":"FeatureCollection","name":"Kiryandongo sub-counties","metadata":{"source":"Uganda Bureau of Statistics NPHC 2024 Map Explorer","retrieved":"2026-07-26","display_only":true,"clipped_to_dashboard_district":true,"positive_area_overlaps_removed":true,"source_gap_ratio":0.00330016},"features":[{"type":"Feature","properties":{"n":"Bweyale Town Council","c":"421101","d":"Kiryandongo","od":"Kiryandongo","dc":"421","k":"BWEYALETOWNCOUNCIL","a":["BWEYALE","BWEYALETOWNCOUNCIL"],"lat":1.941946,"lon":32.132103},"geometry":{"type":"Polygon","coordinates":[[[32.111930500145455,1.92915286491237],[32.11364282454144,1.93398693585873],[32.11604082252597,1.935873001268106],[32.11596596954028,1.940629802251545],[32.11246062649612,1.945459181360356],[32.11432898932543,1.947729017434948],[32.11557072602212,1.950943908721538],[32.113523608457854,1.955255665807989],[32.109908366731474,1.95854742049016],[32.10979314018634,1.960359848719427],[32.11124660172059,1.962762790435528],[32.111519128410734,1.967090414720525],[32.115489877654056,1.97007909393946],[32.117258063536305,1.970411878890544],[32.11625252660055,1.972473146139828],[32.11668765384358,1.974976715476895],[32.12336502911323,1.976956661619485],[32.12506672012627,1.978538432418756],[32.12698104559401,1.985582747372558],[32.132171060342145,1.982780928250596],[32.1389213857762,1.976385130707502],[32.142142380305316,1.972030443445109],[32.148785178433016,1.972301306396239],[32.153693047801106,1.976283291244406],[32.155329242095654,1.978549108863036],[32.163182136539014,1.979085148765741],[32.16370111913472,1.978973530477706],[32.16092374034454,1.976151859668958],[32.16437636195866,1.975261887746447],[32.16470639378005,1.973874806394673],[32.177377037683065,1.972928160517548],[32.17787298991859,1.971775748604811],[32.18142705777658,1.974918031944118],[32.1868002332282,1.96732925846869],[32.18765852121467,1.965064637728541],[32.17893946516786,1.957355607943657],[32.16734579309343,1.954330309906772],[32.165297957728065,1.956594276302246],[32.160806840088185,1.958928904798779],[32.16013332816924,1.95505289669462],[32.1540773447437,1.949516268500122],[32.1532620397776,1.945387528686893],[32.150730111591166,1.945315897394568],[32.15000951494766,1.942264744673161],[32.14837895997271,1.941626678986714],[32.14865322021043,1.938150650914131],[32.147834730797825,1.935295424669384],[32.14516926890857,1.932139662886308],[32.146536393186594,1.927101227569531],[32.149034515233254,1.924189196684979],[32.15406004481043,1.920819727774264],[32.155601803840895,1.91922085882005],[32.15561883603756,1.918092381230626],[32.18724306271701,1.910800574586289],[32.189198892224596,1.905102345121468],[32.17981338305342,1.897895131323687],[32.17420815788628,1.900695752852828],[32.17113718385126,1.900266359909066],[32.16845991122454,1.901633234813287],[32.16690119427801,1.900506700542202],[32.16142374336796,1.900994405926069],[32.15989974420891,1.900262775512676],[32.158027505978026,1.902647226208708],[32.148911725810315,1.903806811125679],[32.1436169898108,1.905437699979349],[32.142473734887055,1.907418069057486],[32.123034471205166,1.910337377900328],[32.11845037836616,1.908222317356519],[32.11264783772544,1.904229941062005],[32.1110681044179,1.898325595660792],[32.10356173662943,1.904112455793613],[32.10458173716451,1.909604789848524],[32.104652168494816,1.915696261121127],[32.101369172838815,1.920263320866687],[32.107487725896235,1.924386486542325],[32.111930500145455,1.92915286491237]]]}},{"type":"Feature","properties":{"n":"Diima","c":"421102","d":"Kiryandongo","od":"Kiryandongo","dc":"421","k":"DIIMA","a":["DIIMA"],"lat":2.158029,"lon":32.246041},"geometry":{"type":"Polygon","coordinates":[[[32.22736710558808,2.18520366035196],[32.24086346263605,2.185849324994423],[32.244035452065106,2.186848757671294],[32.25557883552719,2.184260556599692],[32.258895160584004,2.184983434797782],[32.2739033796232,2.191879611077089],[32.274335848043116,2.188236557947385],[32.27673624530943,2.182429323174401],[32.28074730638148,2.179802692507256],[32.28382009715324,2.180311931512441],[32.27943213067706,2.17339434162423],[32.27616355861018,2.161168791338194],[32.26863979619631,2.142079352227898],[32.269024149906,2.134903222709],[32.270103130655,2.132535134221833],[32.268802823967135,2.12524520556344],[32.26540589320536,2.124334632514743],[32.261655841501124,2.124486897106879],[32.25693480834078,2.126009824396533],[32.255906982742154,2.12747550544865],[32.25605955872834,2.133907003676419],[32.255202408434904,2.134214128435206],[32.245537575006566,2.133706953848685],[32.24275343587481,2.129016971079753],[32.23523693321515,2.12996022104578],[32.23301358321602,2.131857718592642],[32.22854466460278,2.132991512425821],[32.228981580209734,2.136213315161174],[32.22792525941769,2.137569815898682],[32.22403954658117,2.138095717545128],[32.21366506662329,2.145524824219043],[32.210291640724385,2.145489764898014],[32.215976292930755,2.154888646662739],[32.22736710558808,2.18520366035196]]]}},{"type":"Feature","properties":{"n":"Karuma Town Council","c":"421103","d":"Kiryandongo","od":"Kiryandongo","dc":"421","k":"KARUMATOWNCOUNCIL","a":["KARUMA","KARUMATOWNCOUNCIL"],"lat":2.203985,"lon":32.271091},"geometry":{"type":"MultiPolygon","coordinates":[[[[32.24631603807275,2.236802364953218],[32.24743943662602,2.237650638697575],[32.25174056096428,2.23741176296054],[32.252956929991676,2.238510813983812],[32.254887151936565,2.237239275046869],[32.25747015504972,2.238142989077455],[32.26197308349084,2.239981322922944],[32.26285512230794,2.240859527558583],[32.269394188277445,2.242522926466838],[32.27000784516761,2.24314769813907],[32.26881937682555,2.245296082611737],[32.27048592684895,2.2464617689576167],[32.27628645102312,2.242755878513007],[32.27799538109943,2.241003638577124],[32.28078868683351,2.2398794500785915],[32.284180690710755,2.2377123364903517],[32.28440154228802,2.237365042394551],[32.28997137697972,2.2281081340336995],[32.29084289672703,2.225341872607021],[32.29253237756598,2.223851823200195],[32.29706168813994,2.2163242366124893],[32.29698103736172,2.215375148143979],[32.29835036787373,2.21412777930211],[32.29838574983114,2.2141236833792375],[32.2984,2.2141],[32.316871389615194,2.1938694304214583],[32.31685454578991,2.185665831208529],[32.31988764144388,2.176790992402603],[32.3112207272415,2.175569332846497],[32.29856690140297,2.176777475201989],[32.29483916092674,2.175890547167702],[32.29209795125524,2.176775748171089],[32.2867303644546,2.181072533408208],[32.28075707742068,2.1798043118151273],[32.28074730638148,2.179802692507256],[32.27745263423918,2.1819601981477073],[32.276520321395175,2.1829517037323027],[32.275482385735394,2.1854627614393674],[32.27390442223147,2.191879412228751],[32.27390345593152,2.191878968266544],[32.2739033796232,2.191879611077089],[32.25971227522962,2.1853588935128916],[32.25889499894346,2.1849833995640746],[32.2555789144678,2.184260573806825],[32.24821195030091,2.185912323631398],[32.244035452065106,2.186848757671294],[32.240863462637876,2.185849324994999],[32.22736710982914,2.185203671704024],[32.245470822220206,2.232560232245961],[32.24631603807275,2.236802364953218]]],[[[32.25686106899673,2.237941416859065],[32.256861069482795,2.237941415264174],[32.25686106896485,2.237941416849036],[32.25686106899673,2.237941416859065]]]]}},{"type":"Feature","properties":{"n":"Kichwabugingo","c":"421104","d":"Kiryandongo","od":"Kiryandongo","dc":"421","k":"KICHWABUGINGO","a":["KICHWABUGINGO"],"lat":2.12721,"lon":31.975572},"geometry":{"type":"Polygon","coordinates":[[[31.763496598957367,2.316210535285289],[31.76508654833706,2.3212069500645245],[31.77,2.3278],[31.779874150978195,2.331402730762314],[31.780484003341133,2.331413057974611],[31.784270025655573,2.333006630982439],[31.7848,2.3332],[31.809199668208915,2.3581923726998215],[31.810852722772914,2.359027274674238],[31.814564636232863,2.359383649612725],[31.819507335686094,2.3628600425188373],[31.825004440743765,2.3652550467970768],[31.82847594202251,2.365709164499129],[31.8320360844581,2.3683186260087155],[31.833509581885696,2.3689606062157598],[31.8391664228211,2.36456070425838],[31.841219013887777,2.3642498740576197],[31.849362683316823,2.3591726480555613],[31.849797012325077,2.358861544552525],[31.853961877246935,2.361107789795289],[31.854425592502746,2.362128278100875],[31.859390968731635,2.3655936969272857],[31.85943037308868,2.3655790980895115],[31.8687,2.3592],[31.868710426686242,2.3592031952748154],[31.868711504567344,2.359202453999753],[31.871398234962708,2.359385491577061],[31.881794126451915,2.3629549268537717],[31.88745743820966,2.362587179337035],[31.89107381063798,2.359772568079451],[31.896474377709172,2.360717320464565],[31.898711865743316,2.36185637235433],[31.901869249712753,2.3616513474212497],[31.905455383918646,2.359792910275591],[31.90894018000493,2.359271032596698],[31.910844362560596,2.360204404597212],[31.91136465750219,2.3610347624998576],[31.9273,2.36],[31.927792789318833,2.3592941125973437],[31.9350360993272,2.348092951863064],[31.934914036383503,2.345036376450667],[31.93614965841404,2.343498844369708],[31.938350596659422,2.343156555095085],[31.938900561109282,2.343382980032652],[31.94207970629123,2.3388290693666165],[31.942080566838168,2.338827026652296],[31.942081125105545,2.3388270370109736],[31.9421,2.3388],[31.94228019389448,2.338830730741694],[31.948659743844505,2.338949103590393],[31.953801674954004,2.34079563448828],[31.953903038125265,2.3408129212306656],[31.955220807067565,2.3407097964254846],[31.9655,2.3272],[31.965921020171514,2.3271477354269843],[31.96678677673526,2.325845965719174],[31.970710105740807,2.324863172687379],[31.972416432005307,2.3263414084407206],[31.98,2.3254],[31.980023347557047,2.3253792131427575],[31.97842609615835,2.320255416367393],[31.979150176346806,2.318546063668667],[31.98219410212436,2.317345456077086],[31.988262529170772,2.318043683706021],[31.9955,2.3116],[31.99636734107911,2.311264117915442],[31.996841675219834,2.310734543361814],[32.00019407793777,2.309782195308411],[32.01588568106697,2.3037055450770083],[32.018619813914356,2.295724843594802],[32.01890775237943,2.2952658902350116],[32.02333280065819,2.2828575074327038],[32.02359162401246,2.279753130807427],[32.025542590982056,2.276660981988456],[32.0256,2.2765],[32.02565061262113,2.2765235985227363],[32.029732335336334,2.276238164759205],[32.032925502234484,2.277189944568998],[32.038454713413984,2.282259587801436],[32.04191539882401,2.284053011442164],[32.05094601782756,2.2828191479182207],[32.0532,2.2825],[32.05407134573363,2.2819266666092908],[32.06212104897804,2.276277657491182],[32.063446109538816,2.275758202230536],[32.08633893861396,2.2606950386550473],[32.09011403583517,2.25594243561743],[32.09532752524158,2.252245415846171],[32.106272225197976,2.247579212933968],[32.108844999163445,2.2458863633976636],[32.109860746670165,2.244845692227677],[32.11025911949703,2.2449558918587225],[32.1108,2.2446],[32.12357322554466,2.2434262441391395],[32.12461977476031,2.242656457735519],[32.129171313164264,2.242911825276798],[32.1293,2.2429],[32.12943203130366,2.2428050018668824],[32.130180557335095,2.241747430676829],[32.13182361894716,2.2410842253916763],[32.13383053069799,2.2396402279124206],[32.136975677646205,2.236196348430975],[32.140419520482546,2.2348993694088986],[32.145037855053296,2.231576421364091],[32.14566107050766,2.23110805584969],[32.148483996446714,2.221554869325552],[32.1485,2.2215],[32.148939893672946,2.2215126406227856],[32.15437947873437,2.221090000780047],[32.16510723879449,2.2219772195055887],[32.1659,2.222],[32.16652906993439,2.2218895918074337],[32.17073223094757,2.220764558672854],[32.174629180151534,2.21829717031894],[32.18543902887098,2.216747162089781],[32.18922197249423,2.21700237915577],[32.19039985276594,2.217682472970639],[32.19040944436338,2.2177094842130205],[32.199704341744805,2.227043600570735],[32.200843171782935,2.227457517302073],[32.21309343632972,2.23782133714134],[32.214056666504675,2.241456483662921],[32.214072044683356,2.241471926728428],[32.22118576696944,2.243543855411328],[32.221761590863096,2.244514396405151],[32.226011662312914,2.2461865556640976],[32.226893090663765,2.2461334014989434],[32.22715263451873,2.2460604959217063],[32.23203331969945,2.2435046865588],[32.237037980919375,2.243081846836731],[32.24330379241354,2.241140374391668],[32.24375173263195,2.2413978279123747],[32.2441,2.2413],[32.24522801310653,2.2422463197202354],[32.24732127304127,2.243449420307791],[32.247693292952796,2.244314507510735],[32.250657774936315,2.246801489040533],[32.25069350267694,2.246802081821327],[32.25069305609607,2.246831087328916],[32.259,2.2538],[32.26230975579224,2.251685433799406],[32.262834278867416,2.250161475380013],[32.266201583996605,2.2491989880021706],[32.27048594950764,2.246461754481233],[32.27048594950764,2.2464617544812326],[32.27048592684895,2.2464617689576167],[32.26881937682555,2.245296082611737],[32.26999244711729,2.2431755330683303],[32.27000781803851,2.24314767051859],[32.26959849722279,2.2427309359318643],[32.269394079286855,2.2425228987419557],[32.26285512230794,2.240859527558583],[32.262855049183905,2.2408594547524117],[32.26285474104263,2.240859376367908],[32.25488710213815,2.2372393078517088],[32.25333458501628,2.238262032712935],[32.252957452160594,2.238510650792551],[32.252957336377634,2.2385105462759634],[32.252956929991676,2.238510813983812],[32.25221618556032,2.237841513872642],[32.25174013576638,2.23741178657517],[32.248448760552165,2.237594582890348],[32.247440473239145,2.237650669492441],[32.247440364127144,2.2376505871860406],[32.24743943662602,2.237650638697575],[32.24645944540108,2.236910651251985],[32.246316647085585,2.236802934269781],[32.24631662139848,2.2368028054201394],[32.24631603807275,2.236802364953218],[32.245470822220206,2.232560232245961],[32.22736710982914,2.185203671704024],[32.227490168262456,2.1852095587079856],[32.227490163989714,2.1852095474560587],[32.22736710558808,2.18520366035196],[32.21597645635596,2.1548890815954858],[32.215976288272806,2.154888638961391],[32.210291640724385,2.145489764898014],[32.210370566217264,2.145490585154416],[32.204961698642386,2.1364225972418],[32.20243060425855,2.117996441654169],[32.18531878806691,2.046081164895162],[32.18926302862067,2.046846805020948],[32.19053615926709,2.046204266838877],[32.192403845364396,2.044634013281411],[32.19571517917585,2.0387028136179],[32.199769932904125,2.037367720556284],[32.20512832986449,2.029256528708648],[32.20922074796388,2.026839114156866],[32.21257125688422,2.026039463724486],[32.21348496627705,2.024859258917548],[32.20960354244431,2.022786365468165],[32.21228928565952,2.018421626049847],[32.19207763394,1.999396234813145],[32.1915197232131,1.995532502926611],[32.18659556292034,1.990368041992087],[32.18404931252817,1.985931404397087],[32.183925336297285,1.983614389194323],[32.18206443179825,1.979388164847602],[32.18205687144938,1.975731916387061],[32.17975342985258,1.9734383153624677],[32.177873373364065,1.9717760876231933],[32.17787297362866,1.9717757864566587],[32.177377037683065,1.972928160517548],[32.169521998557606,1.9735150241733879],[32.16470637239124,1.9738748962891013],[32.16437636195866,1.975261887746447],[32.16092374034454,1.976151859668958],[32.16370111913472,1.978973530477706],[32.163182136539014,1.979085148765741],[32.155329242095654,1.978549108863036],[32.15369310310845,1.9762833678345477],[32.14878509890828,1.9723013031535834],[32.142142380305316,1.972030443445109],[32.1389213857762,1.976385130707502],[32.138921134293305,1.9763853689824855],[32.13892109676584,1.976385419721074],[32.132171169945494,1.982780829607239],[32.13217115719697,1.9827808364825963],[32.132171060342145,1.982780928250596],[32.12698104559401,1.985582747372558],[32.12506673387218,1.9785384830008235],[32.12487172553889,1.9783571793346357],[32.12336502911323,1.976956661619485],[32.12304659069766,1.9768622396517068],[32.11668813709727,1.974977075010709],[32.11668809742757,1.9749768470064824],[32.11668765384358,1.974976715476895],[32.11629013092444,1.9726895082126357],[32.11625252649237,1.97247337425256],[32.11625255579055,1.972473314088882],[32.11625252660055,1.972473146139828],[32.11631622147411,1.9723425769362954],[32.11725656031771,1.970411595974291],[32.115489877654056,1.97007909393946],[32.11312794876747,1.9683013317723317],[32.11151912133477,1.967090425179532],[32.09815816726605,1.974305718349328],[32.092923144528555,1.976171333394555],[32.089972472029615,1.978550864804081],[32.087554940839695,1.981634646254761],[32.08643218100076,1.987021115809517],[32.08131229061016,1.992615451957609],[32.07989926569924,2.003939336833997],[32.07177951558633,2.016229074233359],[32.07033260832982,2.017037167959196],[31.998714489571885,1.901397628175842],[31.910748938733082,1.904101976376149],[31.909825719742493,1.9040908138881456],[31.9111,1.9065],[31.8964,1.917],[31.896,1.9323],[31.8866,1.946],[31.882,1.9649],[31.7672,1.9845],[31.7554,1.9994],[31.7575,2.0128],[31.7433,2.0332],[31.746,2.0518],[31.7493,2.2236],[31.7504,2.3015],[31.757812855143563,2.3114468413405955],[31.760687530817666,2.313133489689611],[31.763496598957367,2.316210535285289]]]}},{"type":"Feature","properties":{"n":"Kiryandongo","c":"421105","d":"Kiryandongo","od":"Kiryandongo","dc":"421","k":"KIRYANDONGO","a":["KIRYANDONGO"],"lat":1.833259,"lon":32.150568},"geometry":{"type":"Polygon","coordinates":[[[31.9902701059761,1.891690525827295],[31.991124281239674,1.892966490798153],[31.992538710607462,1.894658894323761],[31.994630646860276,1.89513970365926],[31.997917361001022,1.898815569610306],[31.999710699445785,1.9030061771484128],[32.01671808333218,1.9304674687831316],[32.01231083408965,1.915994199351254],[32.0122922518722,1.910835801164176],[32.01499393585372,1.910796845967956],[32.017431315857365,1.9119581738931],[32.024294866971836,1.910089199817353],[32.033168554778086,1.912118209875912],[32.03510211003265,1.910611224586951],[32.037990110203445,1.906802766967639],[32.037545982216926,1.903945007518505],[32.03967313506381,1.899162358206536],[32.03925752197583,1.893406797455228],[32.04292903181936,1.887783955157109],[32.04334853146308,1.884920310439107],[32.04666271304251,1.883946214969514],[32.04646495695053,1.878410287367478],[32.04426378012624,1.87755366372477],[32.04042166429512,1.877695268655156],[32.04144247357642,1.874236346614536],[32.03631676897535,1.870506627668729],[32.036757933046324,1.865905646230341],[32.03880400263847,1.860671480043152],[32.04183093120258,1.856824061573079],[32.04736401201174,1.858655695295462],[32.05488305393796,1.863500251449294],[32.060111563394315,1.865038134244694],[32.06621203264409,1.855524586427353],[32.07447090125433,1.858131209340964],[32.0740740353123,1.880830647909168],[32.072960160032316,1.882429849251702],[32.068286385837965,1.884625348989838],[32.095483008830904,1.914011971605185],[32.10113996331885,1.911749179631425],[32.10457356722288,1.911251958277894],[32.10356254316867,1.9041167987157668],[32.10356173662943,1.904112455793613],[32.10356190896789,1.9041123229332766],[32.1035618982306,1.904112247156396],[32.11106323333564,1.898327185122787],[32.11106371498671,1.8983289795909526],[32.1110681044179,1.898325595660792],[32.11264783772544,1.904229941062005],[32.112655923609445,1.9042355044683843],[32.12303087169375,1.9103357171170838],[32.123034471205166,1.910337377900328],[32.142473734887055,1.907418069057486],[32.1436169898108,1.905437699979349],[32.148911725810315,1.903806811125679],[32.156304490264304,1.9028664047097885],[32.158027616086294,1.9026470859766924],[32.15989974420891,1.900262775512676],[32.159900526475326,1.9002631510574384],[32.1599010292262,1.90026251095668],[32.160763208047605,1.9006773009417117],[32.16142367213977,1.9009943717313575],[32.1620496469857,1.9009386762501363],[32.16690119427801,1.900506700542202],[32.166901581334194,1.9005069802800048],[32.166901681868254,1.900506971335088],[32.16698364371195,1.9005662893682358],[32.16845958131875,1.901632996379891],[32.170622512262476,1.9005291242131552],[32.17113718385126,1.900266359909066],[32.17420815788628,1.900695752852828],[32.17981338305342,1.897895131323687],[32.18205299421071,1.8996149481327749],[32.19453915129857,1.909195000580275],[32.19650211097487,1.907053647080895],[32.19969726559413,1.900215286329245],[32.20458812332571,1.895240284013564],[32.20949142356124,1.894014647125432],[32.214064679155555,1.894341892917998],[32.21823430209125,1.893009739783646],[32.22732252170909,1.895160841199879],[32.23399507078248,1.892189701175067],[32.24667300967627,1.892159608695523],[32.25590461248672,1.878962155794244],[32.283904126445584,1.876281680830684],[32.31195613100826,1.871637245930052],[32.31788103165171,1.864616650421281],[32.32695603453418,1.858110922850792],[32.32947751343543,1.849730376267847],[32.32558022138857,1.847872489100304],[32.3168048649774,1.845107186079953],[32.30549048122758,1.838335863122982],[32.305378280942534,1.8383015945728054],[32.28401662429567,1.8385814416031137],[32.283714860942304,1.838679965007097],[32.28344182129811,1.8385889717733872],[32.2826,1.8386],[32.28230844761423,1.8382112634856322],[32.27895809327769,1.837094723885479],[32.27733922265406,1.835727386308089],[32.275645133595994,1.831140949630604],[32.27600469274357,1.829806256991423],[32.2757,1.8294],[32.277065628651194,1.8117443724381397],[32.27677624341596,1.8111421052901127],[32.26142969058645,1.803657656706593],[32.25692410969343,1.802654761946955],[32.24737193762261,1.7968017503394391],[32.23272880907172,1.7896603587866586],[32.23189943264062,1.7896219330747214],[32.226667100145924,1.790896475605479],[32.220833354703586,1.793258391263635],[32.21675920044597,1.793337972809109],[32.213454505592296,1.791509310547484],[32.21055033094694,1.786276562397511],[32.206328044434386,1.7815315166024512],[32.20628161637662,1.7814978858833115],[32.20624137406679,1.781493258017681],[32.19469584347884,1.782002445839979],[32.182394995141,1.7787509244412156],[32.17406571508436,1.7777930572347016],[32.1714583282435,1.777821658750657],[32.16632779546163,1.7769031964780875],[32.1663,1.7769],[32.16629796816162,1.7768978568280132],[32.16629088084019,1.776896588063612],[32.162508572196586,1.773837287373854],[32.159078666460545,1.7692829769515357],[32.1517,1.7615],[32.1274,1.7463],[32.11132081274247,1.7414409049496473],[32.11038279925103,1.741255401772809],[32.110195444958904,1.7411008212787902],[32.1092,1.7408],[32.1081759413866,1.7394345885154656],[32.106269030620616,1.73786125275187],[32.10098934988947,1.745864573613642],[32.10057758043765,1.747474587310315],[32.10137453812765,1.749917094970807],[32.10028761628945,1.752856911685429],[32.100493449515604,1.754919644408975],[32.09783504496305,1.755171501977024],[32.09657254856033,1.7538139477391],[32.09531381739756,1.753768164044182],[32.09436531052499,1.754518527482422],[32.094251024165075,1.757566930727293],[32.09066551636875,1.757221518621848],[32.08609596628774,1.757970132611725],[32.08023809699767,1.756736929323583],[32.07746590095356,1.760091651232948],[32.07677914868254,1.767228675017003],[32.07834395715231,1.772149987333078],[32.07696914467758,1.779513371922944],[32.0792292419242,1.781667354519133],[32.07919863799403,1.784046589753998],[32.08181010534392,1.789719069724322],[32.082053444847496,1.792650873454156],[32.08497610166028,1.7937646360812],[32.0853599993235,1.795241472090816],[32.08514214534519,1.79968962094889],[32.08091231696861,1.804265620460273],[32.08134346371953,1.808112392190707],[32.07835511517243,1.807394668195162],[32.07778082922324,1.806272141980596],[32.07216575570773,1.807264329333657],[32.068751159437866,1.809894729877293],[32.0623986321523,1.81055204018077],[32.05824849843117,1.813788212725225],[32.05382297539329,1.815966124170401],[32.04908197486018,1.820649168013363],[32.0427563679685,1.823197243858392],[32.03874467048519,1.82401804563303],[32.0342630033554,1.821618485463435],[32.03127030053742,1.821580704216517],[32.02703279952678,1.822636758731202],[32.025279584714944,1.824996964079502],[32.02089156631926,1.826329999752573],[32.025876600491365,1.835376867409875],[32.019342495768655,1.84094744719361],[32.01378693719662,1.848284327588692],[32.00503196041506,1.879254515038234],[32.00481994686006,1.885132950143699],[31.996122864422755,1.884935940170314],[31.989967401132557,1.885875789985002],[31.98962336592802,1.888786429346596],[31.99062456102505,1.889998245905814],[31.9902701059761,1.891690525827295]]]}},{"type":"Feature","properties":{"n":"Kiryandongo Town Council","c":"421106","d":"Kiryandongo","od":"Kiryandongo","dc":"421","k":"KIRYANDONGOTOWNCOUNCIL","a":["KIRYANDONGO","KIRYANDONGOTOWNCOUNCIL","TOWNCOUNCIL"],"lat":1.883267,"lon":32.058941},"geometry":{"type":"Polygon","coordinates":[[[32.04554803544819,1.877839027212441],[32.045813615389214,1.8781568072405084],[32.04646495695053,1.878410287367478],[32.046484581545485,1.8789596526781343],[32.04694079976788,1.879505541192757],[32.04666250826072,1.8839404823665646],[32.04666271304251,1.883946214969514],[32.04334853146308,1.884920310439107],[32.0429469908808,1.8876613606038095],[32.042929094061314,1.887783813384839],[32.0429290405918,1.88778389527352],[32.04292903181936,1.887783955157109],[32.04087996528082,1.890922058688235],[32.03925752436712,1.8934068305707672],[32.03966052476689,1.898987726242025],[32.03967314663959,1.899162184569063],[32.0396731258937,1.8991622312155383],[32.03967313506381,1.899162358206536],[32.0379780765071,1.9029734950751758],[32.03754598655042,1.9039450354025658],[32.0379671733459,1.9066551788322659],[32.04169207847129,1.906368351609391],[32.0490341298955,1.91011409056144],[32.05213071564183,1.910859702990344],[32.05313296487144,1.909148719326015],[32.0534902467196,1.905145766052858],[32.05639688781786,1.902741908825402],[32.06237223666963,1.891138557748883],[32.06588449944416,1.888368586273622],[32.06828727693199,1.8846263118389324],[32.068286385837965,1.884625348989838],[32.06828854695277,1.884624333808789],[32.06829610167802,1.884612567486141],[32.068725677486086,1.8844189922729084],[32.0726104531447,1.8825941236364425],[32.07338581554448,1.8818187315810424],[32.073951323925066,1.8810068258159185],[32.074463187326316,1.858572420885166],[32.07447090125433,1.858131209340964],[32.06621203264409,1.855524586427353],[32.060111563394315,1.865038134244694],[32.05488305393796,1.863500251449294],[32.05488249342306,1.8634998903067546],[32.05488210189985,1.863499775427833],[32.04754067786735,1.8587695219859328],[32.047364025906376,1.858655704247843],[32.046387436573916,1.8583324163544765],[32.04183093120258,1.856824061573079],[32.03880400263847,1.860671480043152],[32.036757933046324,1.865905646230341],[32.03631676897535,1.870506627668729],[32.04144247357642,1.874236346614536],[32.04042166429512,1.877695268655156],[32.04426378012624,1.87755366372477],[32.044954642257615,1.877822523922214],[32.04554803544819,1.877839027212441]]]}},{"type":"Feature","properties":{"n":"Kyankende","c":"421107","d":"Kiryandongo","od":"Kiryandongo","dc":"421","k":"KYANKENDE","a":["KYANKENDE"],"lat":1.949336,"lon":32.071677},"geometry":{"type":"Polygon","coordinates":[[[32.01671814121828,1.9304675622499985],[32.07033260832982,2.017037167959196],[32.07160918435857,2.0163242037558953],[32.07989930502677,2.0039390216658672],[32.08125907178345,1.993041943990595],[32.08131223653517,1.992615729742178],[32.081312259012094,1.9926157051823152],[32.08131229061016,1.992615451957609],[32.08643194404276,1.9870213747257426],[32.08721019626365,1.983288567332675],[32.087554940839695,1.981634646254761],[32.089972472029615,1.978550864804081],[32.092923144528555,1.976171333394555],[32.09292325393825,1.9761712944040126],[32.0929232894556,1.976171265761924],[32.09429977950087,1.9756807393618416],[32.09815814618982,1.9743057258603065],[32.11151911585776,1.96709041389858],[32.111483129878856,1.9665187711846068],[32.11124660172059,1.962762790435528],[32.10979314018634,1.960359848719427],[32.10986913658726,1.9591644816086564],[32.10974282749591,1.958834567131762],[32.10989954184149,1.9586862294746494],[32.109908366731474,1.95854742049016],[32.113523608457854,1.955255665807989],[32.11548457444291,1.9511253661466712],[32.11557071438396,1.9509438785900175],[32.11432898932543,1.947729017434948],[32.11246062649612,1.945459181360356],[32.11246088133951,1.9454588302576767],[32.11246065793696,1.945458558825732],[32.11386909499692,1.9435187069852389],[32.11596596954028,1.940629802251545],[32.11603633224487,1.9361583522580539],[32.11408993252921,1.9343385937481206],[32.11364282454144,1.93398693585873],[32.11360767974521,1.933887718421444],[32.11353585659113,1.933820568393218],[32.111939477531635,1.9291782090129481],[32.111930500145455,1.92915286491237],[32.107487725896235,1.924386486542325],[32.105746475257774,1.9232130939447933],[32.10136996484274,1.920264572368839],[32.10137035891235,1.920264120136979],[32.101369172838815,1.920263320866687],[32.10437011543792,1.9160886323872586],[32.10457356737462,1.911251969909304],[32.103219454862526,1.9114480477510738],[32.101140000515365,1.911749174244985],[32.10112771283186,1.9117540798482624],[32.095483008830904,1.914011971605185],[32.09548006203533,1.9140087875198117],[32.0954799600576,1.914008828232308],[32.06828727050489,1.8846263218490085],[32.06588449944416,1.888368586273622],[32.06237226978817,1.8911385316297076],[32.06162869961778,1.8925824100937532],[32.05639688781786,1.902741908825402],[32.0534902467196,1.905145766052858],[32.05313296487144,1.909148719326015],[32.05313278342269,1.9091490290851347],[32.05313276995459,1.909149180668718],[32.05306554501444,1.9092638147240057],[32.05213071564183,1.910859702990344],[32.0490341298955,1.91011409056144],[32.04169207847129,1.906368351609391],[32.038299747768356,1.906629569751019],[32.03735635088212,1.9076385167506646],[32.03510211003265,1.910611224586951],[32.033168554778086,1.912118209875912],[32.024294866971836,1.910089199817353],[32.017431315857365,1.9119581738931],[32.014994222864,1.9107969827185052],[32.01455745394434,1.9108031395383893],[32.0122922518722,1.910835801164176],[32.01231083390588,1.9159941483367136],[32.01671814121828,1.9304675622499985]]]}},{"type":"Feature","properties":{"n":"Mutunda","c":"421108","d":"Kiryandongo","od":"Kiryandongo","dc":"421","k":"MUTUNDA","a":["MUTUNDA"],"lat":1.987163,"lon":32.260663},"geometry":{"type":"Polygon","coordinates":[[[32.186208094747315,1.9896929097000777],[32.18659554451546,1.990368009923067],[32.19151967279141,1.9955324500443243],[32.1915197232131,1.995532502926611],[32.19151972321312,1.9955325029267652],[32.191519723213304,1.995532502926958],[32.191519723251815,1.9955325031947484],[32.19207763394,1.999396234813145],[32.21228928565952,2.018421626049847],[32.20960416490198,2.022785353880199],[32.21274232924291,2.024040611370444],[32.213087124787585,2.0246467897173397],[32.21348496627705,2.024859258917548],[32.21332529116104,2.0250655053903777],[32.21344631745063,2.02527827935828],[32.2129925420098,2.0254953052270444],[32.21257125688422,2.026039463724486],[32.21114108500996,2.0263807962160016],[32.20512859191805,2.0292563739121308],[32.20512832986449,2.029256528708648],[32.19985351330029,2.037241202003625],[32.20170797802074,2.041068575051375],[32.201772656345724,2.043059551022099],[32.20622144702456,2.042113410602522],[32.21141422340051,2.039071573658962],[32.21328639127325,2.035967623105872],[32.217905123435365,2.03790243475721],[32.22644116866585,2.039895181761656],[32.23615547852211,2.039752056519221],[32.24132176051545,2.03810688048525],[32.24914823001036,2.042233645017545],[32.25854379458471,2.052016844280594],[32.26567105785109,2.061038775675053],[32.31373760618194,2.103549002381927],[32.32873608268463,2.123201686469474],[32.332768399213016,2.1246728444523675],[32.33274717811197,2.1245874547838914],[32.328734216495825,2.112190953157511],[32.328578549644,2.107939931444274],[32.33017576822929,2.10319723953025],[32.33243742167301,2.099726580457519],[32.3391454773946,2.093301921788462],[32.342147251662105,2.0891465731123757],[32.34336641811685,2.083189307539981],[32.3447642938508,2.081498353499158],[32.35011534111093,2.0781163666439677],[32.35233552550459,2.075042970892405],[32.352702132689345,2.073992219538914],[32.345002475509474,2.0419103146228257],[32.34498131000501,2.041864701317745],[32.34381499696429,2.035414145541673],[32.34345586947599,2.013792461935289],[32.34064699423368,2.004210759117055],[32.33999295262834,1.997579303593974],[32.33738656261669,1.993154190949741],[32.33645224616191,1.988395299558708],[32.33690872466287,1.983628447199017],[32.33695408027958,1.9834923916944764],[32.3335,1.9675],[32.333550915059895,1.9674178570367031],[32.33456556109883,1.958605703386554],[32.33682171264287,1.956406443622812],[32.339827657855864,1.95541276683607],[32.340869356547465,1.955610771436753],[32.341,1.9554],[32.35098463975976,1.9575334700341367],[32.35270471751353,1.957860419958836],[32.35272396241779,1.957858065768866],[32.361087103624456,1.9432225686571987],[32.36107551566952,1.943198982999816],[32.36098848007727,1.9431046034395907],[32.344642305291295,1.9291217310323159],[32.34451956565653,1.929043893980351],[32.34450421051133,1.9290036017627064],[32.3445,1.929],[32.34449993149891,1.9289923735458878],[32.34234723956174,1.923343665513379],[32.34203984455733,1.916522238760466],[32.34416014971644,1.895579839509572],[32.34411937431398,1.8952472626236603],[32.342655667056206,1.8888435433709125],[32.33958680055432,1.881673713778814],[32.33923456500674,1.876679726002336],[32.339537254905196,1.875200490210235],[32.3394,1.8746],[32.34194014337358,1.8561351116305287],[32.341637352524444,1.8555271214774067],[32.32947751343543,1.8497303762678474],[32.32695603453418,1.858110922850792],[32.31788103165171,1.864616650421281],[32.31195613100826,1.871637245930052],[32.28399403388796,1.8762667952897145],[32.28390420439687,1.876281668609519],[32.28390419458893,1.87628166954852],[32.283904126445584,1.876281680830684],[32.283102012338524,1.8763584695486968],[32.255904491531425,1.878962328711317],[32.24667300967627,1.892159608695523],[32.234327130361955,1.892188912995207],[32.227324273831144,1.895160141196381],[32.22732412381042,1.8951601278192305],[32.22732252170909,1.895160841199879],[32.22731671759141,1.8951594674164212],[32.22459796308198,1.894917039652401],[32.2268194883797,1.899991629684243],[32.22596572112029,1.901777497483459],[32.226272669119645,1.903947562030373],[32.22738619127993,1.905076416449408],[32.22680809001003,1.910157693698149],[32.22539605335977,1.913053662291247],[32.22467367269008,1.913121582386991],[32.218754638567475,1.920968578414071],[32.21599823514481,1.92161281185909],[32.2128716266784,1.923647249463118],[32.21273599777427,1.926195645555247],[32.21701718369593,1.928451233539263],[32.21393025460404,1.933614145139458],[32.209287917967025,1.935143052815753],[32.20666452313783,1.939827697933446],[32.205849599356355,1.943310547797601],[32.21398767522189,1.944581414520667],[32.21524466310783,1.949467072931183],[32.22049306516361,1.952232790473483],[32.216739241542975,1.95701617817717],[32.213354516673284,1.958612643342557],[32.212764036570036,1.95971552097386],[32.20260604932146,1.966453726265658],[32.204430859631564,1.96904457811908],[32.200540153351405,1.970895336845049],[32.19920077184051,1.969636799457537],[32.19550775115294,1.971556575504427],[32.19079291855176,1.966458616560007],[32.187658531864386,1.965064634517251],[32.18765848211313,1.9650647408992308],[32.1868002332282,1.96732925846869],[32.18620879641653,1.9681645708513196],[32.18569815761887,1.969256458177922],[32.181427066211306,1.97491804056256],[32.18148534332036,1.975162829893126],[32.18205687144938,1.975731916387061],[32.18206069195609,1.977579545644203],[32.182993700382596,1.9814985888472487],[32.183925336297285,1.983614389194323],[32.18404930033252,1.985931176470237],[32.186208094747315,1.9896929097000777]]]}},{"type":"Feature","properties":{"n":"Nyamahasa","c":"421109","d":"Kiryandongo","od":"Kiryandongo","dc":"421","k":"NYAMAHASA","a":["NYAMAHASA"],"lat":2.110773,"lon":32.259981},"geometry":{"type":"MultiPolygon","coordinates":[[[[32.20942424806483,2.143904079023699],[32.210370566217264,2.145490585154416],[32.21366491284209,2.1455248226208266],[32.21619491135812,2.1437132166512574],[32.22403954658117,2.138095717545128],[32.227925243795696,2.137569818013],[32.22797402734894,2.1375071893412865],[32.228981580209734,2.136213315161174],[32.22854466460278,2.132991512425821],[32.23301349699329,2.131857740467912],[32.23323799769988,2.131666194121566],[32.23523693321515,2.12996022104578],[32.24275343587481,2.129016971079753],[32.245537575006566,2.133706953848685],[32.25501743544283,2.134204421739124],[32.25520242779858,2.134214121497024],[32.25605955872834,2.133907003676419],[32.255906982742154,2.12747550544865],[32.25622713911424,2.1270189619174302],[32.256217958206165,2.126508560039678],[32.25674945195716,2.1262741429148875],[32.25693480834078,2.126009824396533],[32.258475844694836,2.1255127115319894],[32.2604562281727,2.124639256670121],[32.26122495945074,2.124625892536663],[32.261655841501124,2.124486897106879],[32.26540589320536,2.124334632514743],[32.266171637959886,2.124539896202628],[32.26675163880426,2.124529813083974],[32.2687849420664,2.125240412184354],[32.268802823967135,2.12524520556344],[32.268803832637126,2.1252508604849485],[32.269996082420654,2.130620067535325],[32.269902528482326,2.1314104952876756],[32.270103130655,2.132535134221833],[32.26965230919098,2.1335245727449053],[32.268639811820904,2.1420790605067315],[32.26863979619631,2.142079352227898],[32.27616355861018,2.161168791338194],[32.276163575788004,2.1611688555889996],[32.27616358661854,2.161168883068387],[32.279432230854795,2.1733944995535315],[32.283420951766956,2.179682682382335],[32.28382011293753,2.180311934651173],[32.286718664361345,2.181070049296726],[32.2867303644546,2.181072533408208],[32.29174804986014,2.1770558463240874],[32.292097880763954,2.176775794631306],[32.29209790163837,2.1767757878896896],[32.29209795125524,2.176775748171089],[32.29273502615849,2.176570021717746],[32.294838760742245,2.175890598153881],[32.29483890022418,2.1758906313546853],[32.29483916092674,2.175890547167702],[32.29856690140297,2.176777475201989],[32.3112207272415,2.175569332846497],[32.31122086605155,2.1755693524127024],[32.311220894880655,2.175569349659841],[32.31988764445655,2.176790981271849],[32.32131308726237,2.1700548547022294],[32.31853303001162,2.1470730480960523],[32.31845169326618,2.146810780773158],[32.31878141071325,2.140587490455937],[32.320981839705226,2.136146647223455],[32.32099082563581,2.1361392662787373],[32.321,2.1361],[32.33277010972698,2.124828623736028],[32.33277494714665,2.124699192090099],[32.332768399213016,2.1246728444523675],[32.32873608268463,2.123201686469474],[32.31373762520552,2.103549027308754],[32.2656711608077,2.061038867501257],[32.26567115811582,2.0610388643495416],[32.26567105785109,2.061038775675053],[32.26567075558865,2.0610383930610188],[32.25331768583873,2.04657512091978],[32.24983523819565,2.0429489972370796],[32.241331052774136,2.0381117801355457],[32.24132176051545,2.03810688048525],[32.23615547852211,2.039752056519221],[32.22644116866585,2.039895181761656],[32.226441078401486,2.039895160689363],[32.22644101110878,2.039895161680835],[32.217905697053425,2.037902594424013],[32.21790555817825,2.037902536248306],[32.217905123435365,2.03790243475721],[32.21328639127325,2.035967623105872],[32.21150315748839,2.038924125871141],[32.21141441710929,2.039071401373191],[32.211414278254594,2.03907148271393],[32.21141422340051,2.039071573658962],[32.20753471053731,2.0413441239665286],[32.20622160343758,2.042113338884636],[32.20622154873144,2.0421133510244216],[32.20622144702456,2.042113410602522],[32.20621743979847,2.042114262833802],[32.20190618913722,2.043070968338382],[32.201902328067554,2.0430319732675684],[32.201772656345724,2.043059551022099],[32.201708004610694,2.041069393562818],[32.20170790958039,2.0410684337994236],[32.201707463652475,2.0410675134624388],[32.19976993196479,2.037367733484415],[32.19945890330073,2.0374701320696027],[32.19571523636069,2.038702794788868],[32.19506843040711,2.039861258008564],[32.192403845364396,2.044634013281411],[32.192403482957765,2.044634317974104],[32.19240301761553,2.044635151426322],[32.1908059873262,2.045977409407999],[32.19053615926709,2.046204266838877],[32.19053593675453,2.046204379139069],[32.19053578362247,2.046204507842155],[32.190450013153644,2.0462477440478195],[32.18926302862067,2.046846805020948],[32.189262009459,2.0468466071853806],[32.18926178469356,2.04684672048784],[32.189024721850075,2.0468005458683107],[32.18531878806691,2.046081164895162],[32.20243060425855,2.117996441654169],[32.204837602559174,2.135519188126854],[32.20942424806483,2.143904079023699]]],[[[32.33266773346573,2.1242677846597435],[32.33264138228482,2.1242606392623915],[32.33274717811197,2.1245874547838914],[32.33276073935267,2.124642022633358],[32.33266773346573,2.1242677846597435]]]]}},{"type":"Feature","properties":{"n":"Kiryandongo Refugee Camp","c":"421110","d":"Kiryandongo","od":"Kiryandongo","dc":"421","k":"KIRYANDONGOREFUGEECAMP","a":["KIRYANDONGOREFUGEECAMP","REFUGEECAMP"],"lat":1.932566,"lon":32.180177},"geometry":{"type":"Polygon","coordinates":[[[32.14641870521442,1.932986583817439],[32.147157937957594,1.934494138787612],[32.147834730797825,1.935295424669384],[32.14823425378446,1.9366891244524895],[32.14835812878325,1.936941749044451],[32.14835896427836,1.9371241657244938],[32.14865322021043,1.938150650914131],[32.148379552077024,1.9416191745404388],[32.14837958757333,1.9416269245782016],[32.15000951494766,1.942264744673161],[32.150730111591166,1.945315897394568],[32.1532620397776,1.945387528686893],[32.15407732513994,1.9495161692258116],[32.155414480456784,1.9507387327588104],[32.16013332816924,1.95505289669462],[32.160806840088185,1.958928904798779],[32.16514586350168,1.9566733398101648],[32.16529805613958,1.9565941675042653],[32.16734579309343,1.954330309906772],[32.16734740236369,1.9543307298360333],[32.16734767478953,1.954330428928142],[32.17266715372345,1.955718886516859],[32.17893946516786,1.957355607943657],[32.186692814383086,1.964210799573566],[32.19079147982866,1.9664579767046357],[32.19079291855176,1.966458616560007],[32.19079319802072,1.9664589187385604],[32.19079333969462,1.966458996414174],[32.190968961068826,1.9666489642563965],[32.19550775115294,1.971556575504427],[32.19920077184051,1.969636799457537],[32.19921367153422,1.969648920534827],[32.200737723769286,1.9708013551490373],[32.204430859631564,1.96904457811908],[32.20260604932146,1.966453726265658],[32.202609974670324,1.9664511224224137],[32.2026098155232,1.966450896556375],[32.2127640448289,1.9597155055482463],[32.213354516673284,1.958612643342557],[32.21673918942143,1.957016202761213],[32.21700563194729,1.9566767246723806],[32.22049306516361,1.952232790473483],[32.21549064693304,1.9495966974860994],[32.21524506833017,1.949467461393377],[32.21524501633721,1.949467259070254],[32.21524466310783,1.949467072931183],[32.21398767522189,1.944581414520667],[32.205849599356355,1.943310547797601],[32.205849961124464,1.943309001660355],[32.20584988131286,1.943308989184725],[32.20666448842895,1.939827783370559],[32.20666451370883,1.9398277382314326],[32.20666452313783,1.939827697933446],[32.209287917967025,1.935143052815753],[32.21393025460404,1.933614145139458],[32.21701718369593,1.928451233539263],[32.21273599777427,1.926195645555247],[32.2128716266784,1.923647249463118],[32.21599823514481,1.92161281185909],[32.218754638567475,1.920968578414071],[32.22467367269008,1.913121582386991],[32.225212876234664,1.9130708850775113],[32.22564578147646,1.9125414908949854],[32.226078627690825,1.9116537596578331],[32.2268665021978,1.9096442741015716],[32.22736791774295,1.9052370334771578],[32.227206829285265,1.9048945847917131],[32.226272669119645,1.903947562030373],[32.22606254349872,1.9024620134641008],[32.226015636356,1.902362296267767],[32.22603353836715,1.9022569526464772],[32.22596572112029,1.901777497483459],[32.22619735589008,1.9012929754173005],[32.22653063519194,1.8993318075751962],[32.224598053292446,1.8949172457185248],[32.22459795189123,1.894917033104265],[32.22079654245057,1.893616199475141],[32.218916685133244,1.8931712538303769],[32.21758006161711,1.8932187631202118],[32.21406547739214,1.8943416378893347],[32.21406528970495,1.894341744566833],[32.21406517022166,1.8943417360272536],[32.214064679155555,1.894341892917998],[32.2118195074613,1.894181236471976],[32.20949080421627,1.894014801937905],[32.20458817945049,1.8952402699845234],[32.20344885404794,1.8963991538082237],[32.19969726559413,1.900215286329245],[32.19650211097487,1.907053647080895],[32.19650206517296,1.9070536970452867],[32.19650201648321,1.907053801251922],[32.19454306519542,1.909192164970219],[32.1945422926449,1.9091915737483192],[32.19453915129857,1.909195000580275],[32.191576520362844,1.9069219105056334],[32.18919890113959,1.905102352413199],[32.18919068714269,1.9051262502927933],[32.18724306271701,1.910800574586289],[32.18724011832738,1.9108012534936358],[32.18724009269205,1.910801328077315],[32.16070059613224,1.9169206462693602],[32.15561883603756,1.918092381230626],[32.155601803840895,1.91922085882005],[32.15406017421232,1.9208195935790622],[32.15406017192853,1.920819595947862],[32.15406017192702,1.9208195959490078],[32.15406004481043,1.920819727774264],[32.15405966474693,1.9208199825955972],[32.1478898613475,1.9255235059801923],[32.147589585563395,1.9258735338574837],[32.146069253273204,1.928822837137386],[32.14516927358999,1.9321396456332505],[32.14516927516853,1.9321396702977582],[32.145174832417524,1.9321462497780628],[32.14641870521442,1.932986583817439]]]}},{"type":"Feature","properties":{"n":"Kigumba","c":"421201","d":"Kiryandongo","od":"Kiryandongo","dc":"421","k":"KIGUMBA","a":["KIGUMBA"],"lat":1.812377,"lon":31.951767},"geometry":{"type":"Polygon","coordinates":[[[31.91276648806237,1.794638642579939],[31.919179883942373,1.791463462388747],[31.926950696897897,1.79047824308985],[31.926994164871235,1.792442582517561],[31.927979235613346,1.7939511679103],[31.933498402089356,1.798558479578073],[31.934522201511456,1.801493461588179],[31.92974762274869,1.805382026375585],[31.923040754022686,1.808315010818007],[31.923980082030273,1.820539008142774],[31.925357331613043,1.825937708218537],[31.92539516193646,1.827882946902397],[31.923033394637038,1.832083419964527],[31.924042313803962,1.833940124533972],[31.923157124550567,1.844090179841046],[31.924316443220825,1.851653863098419],[31.93883652732793,1.84233636142781],[31.94408230321807,1.841585299844756],[31.946685665246385,1.842301305647277],[31.949563325063703,1.84440608703699],[31.953031410800364,1.849964639190499],[31.96084510626602,1.852608292840915],[31.95794358807015,1.854030415176137],[31.956948076411233,1.855475373029573],[31.956666505047163,1.857585353006614],[31.957972731577684,1.860433352560905],[31.9579396376819,1.864615468882242],[31.960283231881935,1.866966269754224],[31.959106918870123,1.870405869581486],[31.957103466159307,1.870782961662087],[31.956848328935653,1.871461055146017],[31.95553243947243,1.870959801015375],[31.95445961111437,1.879820967683327],[31.95127270331059,1.880117975343789],[31.949543105661945,1.877887989553381],[31.949795788668908,1.87605401608097],[31.947112558359297,1.875771387294083],[31.9488853975721,1.872800382214865],[31.93981898543666,1.875366004168572],[31.93992327015003,1.880560908510968],[31.935057149749973,1.889209095263966],[31.933089887904796,1.887512185268682],[31.923507612598897,1.884434748017374],[31.914340698184933,1.888419374070714],[31.91383732812416,1.895382233652001],[31.917876897833274,1.903866048426595],[31.921655996191284,1.9037666578233012],[31.998541862020467,1.901402935310323],[31.99879999100798,1.901284138603085],[31.997917158682682,1.8988153433371748],[31.994630646860276,1.89513970365926],[31.992538710607462,1.894658894323761],[31.991124281239674,1.892966490798153],[31.9902701059761,1.891690525827295],[31.990270485800938,1.8916887124240251],[31.990077302937998,1.8893358611078634],[31.98962336592802,1.888786429346596],[31.989864612156715,1.8867454150555625],[31.989817418917127,1.886170629724252],[31.989935279162133,1.886147551334593],[31.989967401132557,1.885875789985002],[31.996122864422755,1.884935940170314],[32.00481994686006,1.885132950143699],[32.00503196041506,1.879254515038234],[32.00503207345886,1.8792541151528024],[32.00503207424032,1.879254093463635],[32.01370129141528,1.84853179430418],[32.013727744133,1.8484937193805564],[32.01378693719662,1.848284327588692],[32.01483302739019,1.8469028213849232],[32.01647761454461,1.844535672158145],[32.00878646151318,1.836601020920031],[31.999670665498225,1.832988644399166],[31.99630779285968,1.827017106539765],[31.995351331654405,1.828428039497447],[31.9888942990066,1.828365350692131],[31.98729321259787,1.830085986958361],[31.9783816509449,1.826709783516945],[31.976625900389653,1.820565323750135],[31.977510979505066,1.815820976504877],[31.981822593903388,1.810261592486651],[31.990906838658333,1.805263667218393],[31.971645250832545,1.795605161201981],[31.977064320117474,1.792452915463534],[31.9833444686514,1.784350155790651],[31.986104704831927,1.782987725955963],[31.994897616610668,1.781638760592334],[31.99509403853927,1.779107654026687],[32.015601380900826,1.787209958139992],[32.017600657020154,1.780227970782931],[32.02711447241411,1.77424480447905],[32.03081153574799,1.772731949507929],[32.03204608021974,1.773449994380772],[32.029626303506355,1.781114643241322],[32.028834246650916,1.792687174686725],[32.033293897838824,1.794594621165319],[32.02995549605546,1.80229450742961],[32.03107109300838,1.806318685133738],[32.02987897591952,1.811186853281302],[32.03153483217577,1.813567072852379],[32.03089087036271,1.818244877963954],[32.03141623007838,1.821577577516315],[32.03415462487335,1.8216171172439892],[32.0342630033554,1.821618485463435],[32.0387446417263,1.8240180302350404],[32.038744922067124,1.824017994158834],[32.042468941849556,1.8232560518491456],[32.0490650581113,1.8206559824044446],[32.04908188183401,1.8206492054860883],[32.052152978802035,1.8176157057723872],[32.05382297539329,1.815966124170401],[32.05824849843117,1.813788212725225],[32.0623986321523,1.81055204018077],[32.06239904369607,1.8105519975974098],[32.062399141218464,1.810551921558333],[32.06404573658591,1.810381610575914],[32.06875099994234,1.809894746380654],[32.070974743089316,1.8081818141521713],[32.07216575570773,1.807264329333657],[32.07217701138504,1.8072623404477328],[32.07635528788984,1.806425325569296],[32.077759416657365,1.8062759255957166],[32.07778082922324,1.806272141980596],[32.07778155958388,1.8062735695777261],[32.07778289087466,1.80627342792775],[32.07803746154369,1.8067737675342341],[32.078355090854565,1.8073946206623208],[32.07837535707358,1.8073995297760468],[32.08134346371953,1.808112392190707],[32.08102550886209,1.8052755396467806],[32.08091163107476,1.804268156960398],[32.08091249633483,1.8042672207991741],[32.08091231696861,1.804265620460273],[32.08514214534519,1.79968962094889],[32.08531753472219,1.7961085155539125],[32.085359865005024,1.7952409553740525],[32.08497610166028,1.7937646360812],[32.082053444847496,1.792650873454156],[32.08181010534392,1.789719069724322],[32.07919863799403,1.784046589753998],[32.0792292419242,1.781667354519133],[32.07866856043121,1.781132997787485],[32.07697045435751,1.779515233695129],[32.07697055154108,1.7795147127322837],[32.07696914467758,1.779513371922944],[32.07834395715231,1.772149987333078],[32.07677914868254,1.767228675017003],[32.07746590095356,1.760091651232948],[32.08023809699767,1.756736929323583],[32.08023854777639,1.7567370242218776],[32.08023864944548,1.756736901210894],[32.08307631361365,1.75733443293624],[32.08609547262639,1.7579700286857451],[32.09017507111745,1.757301866614514],[32.09066551636875,1.757221518621848],[32.091947674078256,1.7573450360757514],[32.0942510256524,1.7575668910552922],[32.09436531052499,1.754518527482422],[32.095246857592684,1.7538211359212048],[32.09531337703962,1.753768454111491],[32.095313447539105,1.7537684566390703],[32.09531381739756,1.753768164044182],[32.095901500086775,1.7537895397642305],[32.09657180840731,1.753813571960458],[32.096572143995544,1.753813933023908],[32.09657254856033,1.7538139477391],[32.09783498201526,1.755171434289669],[32.10049344043972,1.7549195534561213],[32.10028761628945,1.752856911685429],[32.100287944336316,1.752856024411265],[32.100287936680445,1.752855947618902],[32.10068128916281,1.751792137703967],[32.10137450873941,1.7499171744576976],[32.10123637342244,1.7494936492156163],[32.10057758043765,1.747474587310315],[32.10098934988947,1.745864573613642],[32.10606969510342,1.7381634199063845],[32.10626902373627,1.737861243419583],[32.102633703380235,1.7320449378403104],[32.1026,1.732],[32.10257377944661,1.7318776374174785],[32.100150929176756,1.724732346057186],[32.09638560439563,1.726114601856578],[32.093386386286376,1.726077004809947],[32.0908550026064,1.723759887349565],[32.089606012593634,1.720557022483611],[32.088415232931105,1.720420757525651],[32.084327523549895,1.725710167759702],[32.082182275266014,1.725157911908733],[32.07765761184491,1.728900582340905],[32.07200618838937,1.728970363310016],[32.0670598486761,1.730587191850016],[32.062844657655326,1.733769308096958],[32.05949814463084,1.740316864257384],[32.057354596398355,1.747136613326898],[32.057892946988424,1.747134511665094],[32.05675170672385,1.749026787740166],[32.0542161120348,1.751992523207917],[32.0480621070923,1.756838372817308],[32.03975833405068,1.767969308369001],[32.01464229441527,1.754894043119061],[32.00483158398437,1.754846981946043],[31.99970705174426,1.753206446998799],[31.9983509767954,1.751736622128998],[31.997622377281104,1.749137584466632],[31.979890638538542,1.748380916149889],[31.978305276674092,1.750779745977968],[31.972181565174754,1.75461950541056],[31.967147643035393,1.755822067197549],[31.965186081222548,1.758135299265609],[31.961897894360597,1.75865686995141],[31.962767785523525,1.756299009046292],[31.960619142428317,1.755927816335043],[31.959873027381104,1.757700582301686],[31.9562990093927,1.759637765284288],[31.954568675632256,1.758955966674959],[31.952865601497802,1.761920235427575],[31.94440991237208,1.758691328305925],[31.936917531685854,1.760745120559109],[31.930614306319182,1.761404923177493],[31.92817834335038,1.767876727162247],[31.924771649736503,1.771342113291043],[31.924625363730634,1.769259150003534],[31.92376876163479,1.768659527256084],[31.915016862401526,1.768673710410597],[31.91336690372846,1.7681301312557012],[31.9096,1.7837],[31.909326279086102,1.7839807393988691],[31.909576800741853,1.784505143985579],[31.906150348654805,1.787632535149924],[31.905417628122134,1.7879896121824295],[31.89747090723248,1.796140095146172],[31.9028426526205,1.797637618864707],[31.91276648806237,1.794638642579939]]]}},{"type":"Feature","properties":{"n":"Kigumba Town Council","c":"421202","d":"Kiryandongo","od":"Kiryandongo","dc":"421","k":"KIGUMBATOWNCOUNCIL","a":["KIGUMBA","KIGUMBATOWNCOUNCIL"],"lat":1.808627,"lon":32.00765},"geometry":{"type":"Polygon","coordinates":[[[31.977350123095196,1.8166832255984964],[31.97662593565955,1.8205651346906095],[31.9771897777615,1.822538680280975],[31.9783816509449,1.826709783516945],[31.981462022778228,1.8278768025411645],[31.98729378449069,1.8300853723634707],[31.9888942990066,1.828365350692131],[31.995351331654405,1.828428039497447],[31.99630779285968,1.827017106539765],[31.999670665498225,1.832988644399166],[32.00878646151318,1.836601020920031],[32.01578737397199,1.8438235789008928],[32.01647762172352,1.844535662399483],[32.01934218607657,1.8409478561846677],[32.019342495768655,1.84094744719361],[32.025876600491365,1.835376867409875],[32.02089156631926,1.826329999752573],[32.02521552204107,1.8250164256728416],[32.025279624121104,1.824996911030306],[32.02703279952678,1.822636758731202],[32.0270331977048,1.8226366594987309],[32.02703323316584,1.822636611767105],[32.02703364504393,1.822636435419663],[32.02804132955067,1.82225746189465],[32.0280418167261,1.82225730660914],[32.02958445996592,1.821851204346815],[32.0310832912349,1.821627309991412],[32.03127030053742,1.821580704216517],[32.031385547607435,1.8215821591481536],[32.03141621831739,1.821577577579183],[32.031349878822404,1.8211566681955484],[32.03089087036271,1.818244877963954],[32.03153482157173,1.8135671498812356],[32.03145481118134,1.8134520462392179],[32.02987897591952,1.811186853281302],[32.03090623762302,1.806991893951432],[32.03107107612804,1.8063186242430362],[32.02995549605546,1.80229450742961],[32.033293897838824,1.794594621165319],[32.028834246650916,1.792687174686725],[32.029626303506355,1.781114643241322],[32.03038826331355,1.7787011336246403],[32.032045851523336,1.7734498613646796],[32.03081153574799,1.772731949507929],[32.027994013964665,1.773884892114317],[32.01760547274817,1.7802249422081262],[32.017600657020154,1.780227970782931],[32.015601380900826,1.787209958139992],[31.99509403853927,1.779107654026687],[31.994897616610668,1.781638760592334],[31.986560790474716,1.7829177555354185],[31.98610460831129,1.7829877735977544],[31.9833444686514,1.784350155790651],[31.978479158273185,1.7906274660350965],[31.97706470063355,1.792452521110536],[31.977064564325886,1.792452600381486],[31.977064320117474,1.792452915463534],[31.971645250832545,1.795605161201981],[31.990906838658333,1.805263667218393],[31.981822593903388,1.810261592486651],[31.977511029501873,1.8158209120391289],[31.977350123095196,1.8166832255984964]]]}},{"type":"Feature","properties":{"n":"Masindi Port","c":"421203","d":"Kiryandongo","od":"Kiryandongo","dc":"421","k":"MASINDIPORT","a":["MASINDIPORT"],"lat":1.695206,"lon":32.00542},"geometry":{"type":"Polygon","coordinates":[[[31.910698190243387,1.677550201710117],[31.91405222052438,1.686091283596417],[31.914548756160887,1.6888979781748585],[31.9146,1.689],[31.9136,1.7132],[31.919447143111324,1.7280127625486914],[31.919617294781997,1.728391928500262],[31.91022080246258,1.738833937201725],[31.91148860633254,1.744256795114494],[31.911248265470956,1.7458690722785029],[31.9141,1.7651],[31.91336690372846,1.7681301312557016],[31.915016862401526,1.768673710410597],[31.92376876163479,1.768659527256084],[31.924625363730634,1.769259150003534],[31.924771584521448,1.7713411846953016],[31.928178393232457,1.7678765946368187],[31.930614306319182,1.761404923177493],[31.936917531685854,1.760745120559109],[31.939776563967346,1.759961409933977],[31.94440919036385,1.758691409715686],[31.94440936798191,1.758691477532768],[31.94440991237208,1.758691328305925],[31.951852797660795,1.7615334840376493],[31.9528656243925,1.7619201955784325],[31.954568675632256,1.758955966674959],[31.9562990093927,1.759637765284288],[31.959873027381104,1.757700582301686],[31.960619142428317,1.755927816335043],[31.962767785523525,1.756299009046292],[31.961898103117512,1.7586563041107726],[31.965186304900033,1.7581350354870597],[31.967147643035393,1.755822067197549],[31.967147989131846,1.755821984518009],[31.967148082162883,1.755821874797066],[31.9684386076083,1.7555136665865034],[31.972181565174754,1.75461950541056],[31.978305276674092,1.750779745977968],[31.979890638538542,1.748380916149889],[31.997622377281104,1.749137584466632],[31.99835091254918,1.7517363929518672],[31.998832916696934,1.7522589879861497],[31.99970705174426,1.753206446998799],[32.00483158398437,1.754846981946043],[32.01464229441527,1.754894043119061],[32.01811136808872,1.756700022847965],[32.039758416208656,1.767969198238932],[32.04788404823447,1.7570770548791816],[32.04806187298355,1.756838653683514],[32.048061932563044,1.7568386067680484],[32.0480621070923,1.756838372817308],[32.05421603215938,1.7519925861042382],[32.0551557016532,1.7508935406818702],[32.05675159485654,1.7490269185847505],[32.057450644173656,1.7471362383668916],[32.057354596398355,1.747136613326898],[32.05949814463084,1.740316864257384],[32.061211268827634,1.7369650838201813],[32.06201489799368,1.734791552240156],[32.062574028421935,1.7342988025562147],[32.062844657655326,1.733769308096958],[32.06514751701519,1.7320308421182333],[32.066180406146216,1.731120579025509],[32.06651865277246,1.7309957494383397],[32.0670598486761,1.730587191850016],[32.07200618838937,1.728970363310016],[32.0720067952458,1.7289703558168543],[32.07200719641202,1.728970207766852],[32.07419339067372,1.728943356822846],[32.07765761184491,1.728900582340905],[32.082182275266014,1.725157911908733],[32.08219036211268,1.7251599937229545],[32.0844903189773,1.7254995138898974],[32.088415232931105,1.720420757525651],[32.0887646932828,1.7204607474596674],[32.08893698232534,1.720249616048329],[32.089071521259854,1.7204958588263708],[32.089606012593634,1.720557022483611],[32.0908550026064,1.723759887349565],[32.093386353286235,1.726076974603066],[32.096385622229725,1.7261145953096582],[32.0996510064819,1.724915868351909],[32.100150925956505,1.724732334977863],[32.095789475588944,1.700217552748395],[32.0957,1.6998],[32.09576627731749,1.6995674480088165],[32.09722644676125,1.690844530169448],[32.09946040484458,1.6866055970365632],[32.10135273257875,1.679965850600868],[32.101379498047905,1.679764442125532],[32.10136145084394,1.6797009376338388],[32.0928,1.6577],[32.09294094281416,1.657221801166242],[32.092468051193435,1.656186478596261],[32.09295446834398,1.652205674588974],[32.09557515180493,1.64820875839522],[32.092805783261426,1.646107632458345],[32.09121242930261,1.6425196629364145],[32.0898912664094,1.6408092288336054],[32.08658555682607,1.640325346449903],[32.08336794879394,1.63875069704086],[32.084360237135286,1.633711699759622],[32.08234601524238,1.6324223244421068],[32.074531142468174,1.627561104369966],[32.07448499735655,1.627555767670968],[32.07402036204233,1.6272433748137356],[32.0717,1.6258],[32.07136216986583,1.6257621397263424],[32.064114161293766,1.625695030188524],[32.05940309994299,1.626694133447676],[32.05119355630913,1.623624902139005],[32.04455155501822,1.6246467584666069],[32.038746765024456,1.6267737044185209],[32.03855843736265,1.626979922730151],[32.034633087774395,1.628264605766506],[32.03327605757427,1.6279339217911994],[32.028655434481095,1.627790169072745],[32.02658763703673,1.628565456688002],[32.015433184144655,1.628127529979054],[32.01340045942766,1.6273155698488602],[32.0129,1.6273],[32.012361779637104,1.626900675214622],[32.008490425970216,1.625354285385689],[32.00876389245791,1.6242312750494117],[32.00730914227186,1.6231519442662161],[32.005229317838925,1.623805808243058],[32.00212775434719,1.620944941697809],[32.00030056732866,1.618041879621495],[31.998635800746428,1.6175567190746725],[31.989726720867434,1.615864601209241],[31.976312535577666,1.624985439302256],[31.972172251868244,1.637834213375077],[31.96736546237395,1.642545839699635],[31.952803460270154,1.646733713472447],[31.949357320383285,1.649000670652597],[31.947053329225458,1.6494223102033712],[31.937045604010187,1.652050036935873],[31.93008670519803,1.655217864512688],[31.911704827466032,1.658995172533967],[31.90391346865651,1.6667865313434922],[31.90580967897826,1.671151998126923],[31.910698190243387,1.677550201710117]]]}},{"type":"Feature","properties":{"n":"Mboira","c":"421204","d":"Kiryandongo","od":"Kiryandongo","dc":"421","k":"MBOIRA","a":["MBOIRA"],"lat":1.847552,"lon":31.902187},"geometry":{"type":"Polygon","coordinates":[[[31.8919,1.8702],[31.909790053667628,1.9040233827153576],[31.917876882407988,1.903866049219892],[31.91758071198235,1.903244005466812],[31.91383732812416,1.895382233652001],[31.913837354452728,1.8953818694624551],[31.91383721993695,1.895381586940331],[31.913723001775885,1.890120978617453],[31.914279938906063,1.8892598259767786],[31.914340698184933,1.888419374070714],[31.915012283706826,1.8881274528149088],[31.91522184109554,1.88780342899088],[31.923478186605237,1.88444753875324],[31.923507612598897,1.884434748017374],[31.933089887904796,1.887512185268682],[31.93308990028795,1.8875121959500765],[31.93308994399613,1.887512209986964],[31.933095537086135,1.8875170581087193],[31.935057149749973,1.889209095263966],[31.93992327015003,1.880560908510968],[31.93981898543666,1.875366004168572],[31.9488853975721,1.872800382214865],[31.947112558359297,1.875771387294083],[31.949795788668908,1.87605401608097],[31.949795617340197,1.8760552595848994],[31.949797074106414,1.876055409596645],[31.94954527161389,1.8778722690723915],[31.949543105661945,1.877887989553381],[31.951272349646867,1.8801175193619741],[31.951282732269537,1.8801170406830405],[31.954248068741418,1.8798406826261957],[31.954587001519865,1.8787687699048883],[31.955531406360976,1.8709683341350622],[31.95553152072615,1.870964476138466],[31.95553185802051,1.8709646035938605],[31.95553243947243,1.870959801015375],[31.956848328935653,1.871461055146017],[31.957078669824316,1.8708488643670746],[31.957102816664833,1.870783372888676],[31.957103349047184,1.870783272917989],[31.957103466159307,1.870782961662087],[31.959106918870123,1.870405869581486],[31.96018262733814,1.867260442621466],[31.9601755213874,1.8668582280444108],[31.9579396376819,1.864615468882242],[31.9579396396451,1.8646152207898798],[31.957939602341245,1.864615188156962],[31.957949491578777,1.8633702198117261],[31.957972731577684,1.860433352560905],[31.956666505047163,1.857585353006614],[31.956724468887213,1.857150995832906],[31.956680766793284,1.857036079815203],[31.95679588419089,1.8566158389240717],[31.956948076411233,1.855475373029573],[31.95721404428126,1.8550893279650955],[31.95738674033461,1.854458893774741],[31.95779999075155,1.8542388427433951],[31.95794358807015,1.854030415176137],[31.96084510626602,1.852608292840915],[31.95310320593382,1.84998893006125],[31.953032037550987,1.8499649918267],[31.953031926361135,1.8499648136232134],[31.953031410800364,1.849964639190499],[31.949563325063703,1.84440608703699],[31.946685665246385,1.842301305647277],[31.946685119595223,1.842301155576179],[31.942802347792274,1.841768556882127],[31.93883652732793,1.84233636142781],[31.924316443220825,1.851653863098419],[31.92431553425477,1.8516479327778732],[31.9243154604154,1.851647980127398],[31.923317845205805,1.8451387613573484],[31.923157124550567,1.844090179841046],[31.923278909849824,1.8426937242036803],[31.924042243147053,1.833939994504717],[31.923033394637038,1.832083419964527],[31.923033663207885,1.8320829423033254],[31.92303364016442,1.832082899887055],[31.925395160672743,1.827882881921871],[31.925357331613043,1.825937708218537],[31.923980082030273,1.820539008142774],[31.923980061424512,1.8205387399885484],[31.923980031489208,1.820538622644625],[31.92304077908211,1.80831711802074],[31.92304091149366,1.8083170600752876],[31.923040754022686,1.808315010818007],[31.92974762274869,1.805382026375585],[31.93452157461047,1.8014939721557512],[31.93354411527269,1.7986895280703945],[31.933498402089356,1.798558479578073],[31.927979235613346,1.7939511679103],[31.92797903535743,1.7939508612286206],[31.927979035354575,1.793950861226237],[31.92797902966936,1.793950852517629],[31.926994164871235,1.792442582517561],[31.926950696897897,1.79047824308985],[31.919260950649655,1.7914531843798733],[31.91917984258463,1.7914634828643727],[31.91276648806237,1.794638642579939],[31.912766380981694,1.7946386749396464],[31.91276634378149,1.794638693356946],[31.91009234425072,1.7954467670112815],[31.9028426526205,1.797637618864707],[31.90284101306808,1.7976371617937814],[31.89742663678922,1.7961855007290055],[31.890736611766606,1.803047064854761],[31.890499482557622,1.803471139079112],[31.89015575213418,1.803642818323915],[31.88826174747347,1.805585387206695],[31.88881233933985,1.809476428623681],[31.893299367592594,1.816926155718392],[31.890468172164475,1.816947706356365],[31.891,1.8181],[31.884749528101764,1.8334544200978318],[31.885135793279677,1.835627770180533],[31.88288070959233,1.840097700993632],[31.87934294137756,1.852110379150955],[31.882541287399036,1.8586130224940467],[31.8919,1.8702]]]}}]}
