{"type":"FeatureCollection","name":"Kisoro sub-counties","metadata":{"source":"Uganda Bureau of Statistics NPHC 2024 Map Explorer","retrieved":"2026-07-26","display_only":true,"clipped_to_dashboard_district":true,"positive_area_overlaps_removed":true,"source_gap_ratio":0.01561638},"features":[{"type":"Feature","properties":{"n":"Bunagana Town Council","c":"408101","d":"Kisoro","od":"Kisoro","dc":"408","k":"BUNAGANATOWNCOUNCIL","a":["BUNAGANA","BUNAGANATOWNCOUNCIL"],"lat":-1.299715,"lon":29.61203},"geometry":{"type":"Polygon","coordinates":[[[29.61765669190417,-1.280440934636915],[29.62217846415139,-1.279814178554155],[29.623218962192077,-1.278204506942575],[29.62679885579557,-1.278238173261725],[29.629206516803148,-1.277267961717712],[29.633684219091215,-1.282972957591719],[29.634056219327714,-1.284897637799546],[29.63326723991586,-1.2854026970184],[29.635418353368042,-1.28674231671788],[29.636227942180525,-1.291379561809357],[29.6339423406159,-1.294961026651601],[29.635148086655075,-1.298665997243068],[29.63218694455079,-1.302252571016229],[29.63058427176162,-1.302140334732871],[29.628714906542413,-1.29915493021821],[29.62618080135701,-1.298301458032917],[29.62405011878781,-1.300275421117943],[29.623688078231872,-1.304818822119847],[29.620090904789066,-1.302520450372946],[29.61713544424874,-1.303093893865368],[29.618252205270394,-1.305246954663449],[29.617683615655487,-1.309011518886875],[29.621911726700702,-1.311266292156035],[29.62821663985781,-1.310770489614245],[29.628680210303784,-1.313059455507981],[29.6273524168697,-1.318065854017676],[29.622309714911104,-1.319268360267558],[29.620775547655846,-1.318045138589891],[29.616619703613118,-1.318395585764426],[29.615071822413977,-1.319625078685913],[29.608728180244604,-1.321157450253938],[29.605641704698815,-1.320216400239706],[29.606278130386848,-1.317539843938552],[29.606214956676588,-1.317363598400698],[29.6063,-1.317],[29.605617800862728,-1.315697619828842],[29.601737478094876,-1.304872079102155],[29.600157260654157,-1.303153757381988],[29.596406552406215,-1.286005417986334],[29.608872158540066,-1.287006435558694],[29.61765669190417,-1.280440934636915]]]}},{"type":"Feature","properties":{"n":"Busanza","c":"408102","d":"Kisoro","od":"Kisoro","dc":"408","k":"BUSANZA","a":["BUSANZA"],"lat":-1.198587,"lon":29.623217},"geometry":{"type":"Polygon","coordinates":[[[29.594793568788564,-1.205780817427883],[29.59805888301546,-1.205455973244799],[29.59885567661409,-1.204248842368139],[29.597106407276613,-1.20333472386745],[29.59730766059548,-1.201374996880126],[29.601350322391202,-1.199195193289417],[29.601879229832946,-1.197267819048544],[29.605070474162673,-1.197978979933897],[29.608566020282677,-1.197693946883579],[29.608582330265968,-1.196744080870115],[29.611452175084125,-1.1974148736579],[29.61099776238262,-1.196205543635348],[29.613550746017967,-1.194389902446414],[29.614593096035918,-1.18638799569714],[29.615766082735536,-1.185543165714414],[29.614719240328878,-1.184539043024841],[29.61766219337834,-1.176136853363796],[29.6161877238683,-1.174351773715901],[29.61722841523351,-1.171629439222351],[29.616537425606733,-1.170758479864863],[29.6184258686841,-1.169694985391026],[29.620080052982985,-1.165233219231236],[29.620213443910355,-1.161301998836745],[29.621746696082138,-1.158468227620673],[29.62033895611594,-1.157583539902732],[29.619728516050937,-1.154427517772503],[29.626722392268224,-1.150402042817478],[29.629482561863238,-1.15062015999769],[29.630876007199614,-1.153876597283525],[29.63252662784514,-1.155385444721163],[29.631966253631727,-1.156360301955011],[29.63318374411246,-1.156523461796153],[29.633988399492843,-1.15560712937708],[29.63723465533106,-1.156305070890082],[29.640189953504237,-1.160259386358496],[29.638707978089997,-1.165133576444792],[29.639030032568357,-1.166512130511492],[29.637830815675965,-1.167325924112455],[29.637727088382697,-1.172989217830259],[29.63837599710905,-1.174353958772574],[29.641499972881657,-1.175872828087926],[29.640601418736416,-1.177807651482352],[29.64152611027081,-1.179500484576358],[29.64101106449862,-1.18372193373576],[29.64324817402243,-1.184646321565485],[29.645047043842762,-1.186597476350491],[29.642155549012706,-1.191778447114723],[29.64370010204107,-1.192765832422489],[29.6449858641179,-1.197594145782909],[29.644447340765026,-1.205253113355216],[29.647084233833322,-1.20758793166365],[29.647859371790574,-1.211997621559808],[29.651049202517545,-1.216876807291927],[29.65226829373764,-1.223232481851173],[29.653981118065758,-1.224375386840511],[29.655025802360743,-1.230299613791589],[29.657792597835087,-1.236329001112477],[29.659077922807985,-1.237471938135126],[29.65922447908051,-1.246981166315333],[29.658647255574206,-1.247954425502994],[29.657457795743834,-1.247816869488503],[29.65518635131768,-1.243107689296534],[29.653166574399435,-1.241459733525378],[29.64214995014257,-1.240275011782646],[29.64220264926682,-1.239073522919195],[29.640105566083808,-1.237776108623695],[29.640675302469905,-1.237401803709291],[29.63999134958241,-1.234649499288131],[29.64101836664244,-1.233748579726621],[29.63643448509933,-1.23329265354435],[29.63615379685311,-1.230832426236625],[29.6338473582825,-1.230170337939935],[29.635043415402304,-1.229087538759207],[29.632211641566254,-1.227877923055678],[29.63242191909856,-1.225091514358193],[29.63039926092888,-1.220522537679355],[29.62894730390244,-1.220059987134379],[29.627062086514563,-1.221694524103549],[29.62443617268238,-1.221289851714957],[29.619045035416015,-1.214656669487502],[29.615948384298726,-1.214632764446363],[29.61348433290176,-1.216011018756114],[29.61219836732756,-1.213156315800552],[29.609563643505886,-1.212011821520573],[29.608439208347168,-1.212935095043097],[29.608239424607337,-1.216004153525067],[29.604706580793124,-1.217439135874791],[29.60368899946714,-1.215939998259301],[29.602462479491685,-1.216007055423812],[29.600415062879403,-1.2150125067719206],[29.593669740961587,-1.2104730010262814],[29.59155050259263,-1.208175795846715],[29.59297593682465,-1.207779084852041],[29.594793568788564,-1.205780817427883]]]}},{"type":"Feature","properties":{"n":"Chahafi Town Council","c":"408103","d":"Kisoro","od":"Kisoro","dc":"408","k":"CHAHAFITOWNCOUNCIL","a":["CHAHAFI","CHAHAFITOWNCOUNCIL"],"lat":-1.335093,"lon":29.771008},"geometry":{"type":"Polygon","coordinates":[[[29.754567525491744,-1.339699151350069],[29.75553821891227,-1.33627272136598],[29.755157723883585,-1.333913058861099],[29.753272947938633,-1.332552621573498],[29.754985518507986,-1.330791215159661],[29.753989316052436,-1.329116104353234],[29.754702680126666,-1.32787840034998],[29.753691883243384,-1.326558181292834],[29.755333002400832,-1.324025074748118],[29.754108292626153,-1.323203139696226],[29.756486553058686,-1.321918569596907],[29.756606548485376,-1.321074729788051],[29.756511995338986,-1.319480848232218],[29.7550534971185,-1.319324987297163],[29.75657832025843,-1.317867068963101],[29.759391217819502,-1.318301411379178],[29.763411239787313,-1.317395424686631],[29.763988315816086,-1.315809496408162],[29.763330363317348,-1.310974263325654],[29.768566757749657,-1.310634828325246],[29.772188981090554,-1.311721676343145],[29.77493923124783,-1.314076100608419],[29.77747329217473,-1.312390084807036],[29.777781394085594,-1.31062655699603],[29.781232881438243,-1.310520234445927],[29.78590273547988,-1.304210983559587],[29.790378070065653,-1.302618369833344],[29.791190292354976,-1.304146262259543],[29.795782861673153,-1.306818278893275],[29.796135376263905,-1.310268407935661],[29.797234476354934,-1.311838763914549],[29.8053911856351,-1.314682769164506],[29.802790094387387,-1.318227298853755],[29.79693098191756,-1.319663155781082],[29.790309829668214,-1.322908858993596],[29.789006604227797,-1.32174658446074],[29.78825774911677,-1.322134193737077],[29.786186454655493,-1.327497401616486],[29.787066280679706,-1.33118486165457],[29.785975027523442,-1.341902562679743],[29.781388815645908,-1.344267735527296],[29.776111528312715,-1.34840657458709],[29.77703989707168,-1.349421195548188],[29.77744773899395,-1.352730542862131],[29.772689718653837,-1.354332511793803],[29.776894550881284,-1.35804634618466],[29.777025996394606,-1.359486179370476],[29.77901227267971,-1.361460872643286],[29.78085312308255,-1.366975176573858],[29.77573588048772,-1.365524135694601],[29.769964134906793,-1.355955734134797],[29.76259527176904,-1.348119089294696],[29.76032863231911,-1.3478930957072761],[29.7598,-1.3472],[29.75355284729872,-1.3447727623262555],[29.753174429011093,-1.344506301784121],[29.755479846012335,-1.342046219916762],[29.754567525491744,-1.339699151350069]]]}},{"type":"Feature","properties":{"n":"Chahi","c":"408104","d":"Kisoro","od":"Kisoro","dc":"408","k":"CHAHI","a":["CHAHI"],"lat":-1.309158,"lon":29.724917},"geometry":{"type":"Polygon","coordinates":[[[29.707638778021458,-1.293804732349441],[29.709822054349154,-1.29098464103208],[29.709917113630926,-1.288784067804711],[29.711624223938248,-1.287468816759422],[29.7122489840467,-1.282662907740268],[29.71984385613542,-1.282209945842005],[29.721768521951443,-1.282770403633186],[29.72260803980001,-1.285773156463154],[29.72470891839316,-1.284327447788433],[29.727682564994375,-1.285855890569894],[29.731259026252324,-1.285649813586154],[29.73281364626329,-1.290413948491016],[29.735224725726773,-1.290319245364604],[29.73794926224655,-1.293347046613244],[29.741090095693064,-1.294536841016689],[29.742719959222512,-1.296553347731773],[29.743689654971405,-1.299771650123493],[29.742597983048967,-1.299972148616966],[29.742372478795232,-1.300831121186566],[29.747313078663634,-1.302926126057094],[29.751622032053035,-1.308629164476074],[29.75026105453727,-1.311581127067955],[29.752381263820098,-1.314432367650738],[29.75438203722831,-1.314220744254289],[29.756166457663756,-1.316469161290982],[29.754766964310903,-1.319126043462982],[29.75517513053848,-1.3192086907979954],[29.7550534971185,-1.319324987297163],[29.756511519833037,-1.3194807974177565],[29.756487823691366,-1.3219096341693868],[29.756486553058686,-1.321918569596907],[29.756247310153654,-1.3220477918965645],[29.754111267903845,-1.323198864382084],[29.754113463703124,-1.3232003466417865],[29.754108292626153,-1.323203139696226],[29.755333002400832,-1.324025074748118],[29.75526597873093,-1.3241285273804946],[29.75369208308182,-1.326556541554968],[29.753692549985114,-1.3265571521610804],[29.753691883243384,-1.326558181292834],[29.754702680126666,-1.32787840034998],[29.753989316052436,-1.329116104353234],[29.75399026276535,-1.3291176962475555],[29.75465589837276,-1.331130234777717],[29.753273022990083,-1.3325525443818724],[29.753272936732802,-1.332552617661168],[29.749268053183336,-1.331401541469303],[29.747166515438455,-1.32763724073064],[29.75108764716767,-1.32396694067013],[29.75083111239222,-1.321654523959176],[29.74834912146135,-1.321833169461608],[29.74276299641286,-1.319813153979051],[29.739971399041703,-1.320096491370738],[29.73895000028511,-1.318930235949544],[29.739510489462617,-1.317298388735806],[29.737584483688806,-1.316366779527749],[29.73762731508956,-1.315238922391335],[29.73857921366341,-1.31460600131252],[29.74042263385434,-1.315555603635383],[29.739992500931496,-1.312740487377949],[29.745055016867706,-1.309926687961343],[29.739991324669717,-1.307212842844091],[29.73888942517089,-1.30754666419371],[29.73940523583423,-1.308412087299835],[29.738129847397328,-1.310958105767822],[29.73640236487014,-1.31131978217112],[29.736073699906203,-1.31042989094488],[29.733665594814113,-1.309942069594098],[29.733943317964695,-1.312690200032594],[29.734805262718112,-1.313748977013187],[29.73259343571504,-1.3159340294237],[29.731230992332563,-1.320126119886656],[29.731818099775907,-1.320928427383737],[29.733707143107008,-1.321106973462599],[29.734071198650195,-1.325447101950256],[29.730494876471706,-1.326639208893315],[29.729104187465023,-1.326183042502474],[29.728753105659358,-1.327245973106248],[29.725843195225252,-1.329098314303731],[29.72368876052331,-1.323208132768766],[29.722868529314336,-1.325783743985666],[29.721184236749554,-1.326785167199505],[29.721880455427875,-1.329028140597839],[29.720101277421918,-1.330621874109913],[29.720612896175492,-1.331769702122532],[29.717637328014135,-1.336623594591763],[29.713522115404277,-1.333055313569311],[29.712992209965204,-1.328698594988621],[29.711748683021273,-1.326710719803657],[29.710514525643838,-1.318513189631038],[29.710178393673537,-1.310984088633588],[29.710888452745536,-1.309686009443894],[29.710137272581758,-1.305061786451345],[29.70883127155801,-1.30291190595612],[29.705971108392557,-1.302525712794713],[29.703979823659463,-1.299241993640143],[29.707519230909742,-1.296053878075266],[29.707638778021458,-1.293804732349441]]]}},{"type":"Feature","properties":{"n":"Cyanika Town Council","c":"408105","d":"Kisoro","od":"Kisoro","dc":"408","k":"CYANIKATOWNCOUNCIL","a":["CYANIKA","CYANIKATOWNCOUNCIL"],"lat":-1.328333,"lon":29.737301},"geometry":{"type":"Polygon","coordinates":[[[29.71044996391503,-1.332114321660661],[29.71382369417113,-1.333316811064716],[29.717637328014135,-1.336623594591763],[29.717640697398128,-1.336618098287625],[29.717641164886235,-1.336618552406793],[29.718408226113638,-1.3353660678685237],[29.720612896175492,-1.331769702122532],[29.720101277421918,-1.330621874109913],[29.72186145474234,-1.329045160833697],[29.72187973161997,-1.329028796217585],[29.721879729858216,-1.3290287905410578],[29.721880455427875,-1.329028140597839],[29.721184236749554,-1.326785167199505],[29.722868529314336,-1.325783743985666],[29.722868630546024,-1.3257834261076487],[29.72286876122473,-1.325783348463668],[29.72289415547345,-1.3257032751835323],[29.72368876052331,-1.323208132768766],[29.725843195225252,-1.329098314303731],[29.725845400438125,-1.3290969105468988],[29.725845789579466,-1.329097973827297],[29.72819574477272,-1.3276007684016935],[29.728753105659358,-1.327245973106248],[29.729104187465023,-1.326183042502474],[29.730494876471706,-1.326639208893315],[29.730496591267123,-1.3266386372950578],[29.730496929749645,-1.32663874810852],[29.73262785484424,-1.3259282163707211],[29.734071198650195,-1.325447101950256],[29.733751809439603,-1.3216394680947168],[29.73370766090742,-1.321109023843409],[29.733707312305864,-1.32110899058551],[29.733707143107008,-1.321106973462599],[29.731818099775907,-1.320928427383737],[29.73123104836782,-1.3201261964612383],[29.731554471100775,-1.3191308108142719],[29.73259343571504,-1.3159340294237],[29.734805262718112,-1.313748977013187],[29.734804444449647,-1.313747971886338],[29.73480497632882,-1.313747446587028],[29.73425000811352,-1.3130669254183711],[29.733943317964695,-1.312690200032594],[29.733665594814113,-1.309942069594098],[29.736073699906203,-1.31042989094488],[29.73640236487014,-1.31131978217112],[29.737978895464238,-1.3109897099961552],[29.738128508348897,-1.310958506853769],[29.73812857598418,-1.310958371958725],[29.738129847397328,-1.310958105767822],[29.73937601217461,-1.30847042558717],[29.73940449073103,-1.308413626592836],[29.739404476603895,-1.308413602927858],[29.73940523583423,-1.308412087299835],[29.73888942517089,-1.30754666419371],[29.738903114408128,-1.307542517028152],[29.74013022716081,-1.307287286517302],[29.745055016867706,-1.309926687961343],[29.739992500931496,-1.312740487377949],[29.74042263385434,-1.315555603635383],[29.73857921366341,-1.31460600131252],[29.73762731508956,-1.315238922391335],[29.737601160268603,-1.3159276437721672],[29.73744193254668,-1.316142820529254],[29.737590308668732,-1.3162133933423041],[29.737584483688806,-1.316366779527749],[29.739388125011942,-1.3172392010373386],[29.738953779049464,-1.3189192341919214],[29.73895000028511,-1.318930235949544],[29.739971399041703,-1.320096491370738],[29.742761659353857,-1.319813289685874],[29.74784411842804,-1.3216505537956207],[29.74834912146135,-1.321833169461608],[29.74834926339895,-1.3218331592454085],[29.74834953840886,-1.321833258659064],[29.75083120292399,-1.3216553400168607],[29.75108764716767,-1.32396694067013],[29.747166515438455,-1.32763724073064],[29.749268053183336,-1.331401541469303],[29.74928481097518,-1.331406357962712],[29.75352378631489,-1.332733677513402],[29.755157723883585,-1.333913058861099],[29.75553821891227,-1.33627272136598],[29.754567525491744,-1.339699151350069],[29.755479846012335,-1.342046219916762],[29.7531863211058,-1.344493611877461],[29.75317441866322,-1.344506296152137],[29.75053296780733,-1.34270679383185],[29.745920444113363,-1.341626876258587],[29.745383423326622,-1.3415986549230825],[29.7441,-1.3411],[29.73413961772334,-1.341007774238179],[29.729505466148122,-1.340764241865482],[29.72817942955845,-1.3409525873107264],[29.7225,-1.3409],[29.71982988362098,-1.3428554675834585],[29.71257146296199,-1.345061960763722],[29.71073519330137,-1.349319990851098],[29.706659179227675,-1.346482168104819],[29.70419341605216,-1.343658759350564],[29.704052454674937,-1.34253537499696],[29.707523633575473,-1.339098719348676],[29.71044996391503,-1.332114321660661]]]}},{"type":"Feature","properties":{"n":"Kanaba","c":"408106","d":"Kisoro","od":"Kisoro","dc":"408","k":"KANABA","a":["KANABA"],"lat":-1.271121,"lon":29.776038},"geometry":{"type":"Polygon","coordinates":[[[29.753258596535222,-1.24852916158826],[29.753309338132706,-1.247035684120967],[29.765649435328086,-1.242986365951235],[29.764891252685313,-1.241948426434375],[29.76672689921151,-1.236889082044099],[29.76813926654356,-1.235307494387893],[29.769267224701846,-1.232104154162593],[29.770418239613484,-1.232419731275249],[29.775472515035084,-1.2183789477819795],[29.7771,-1.22],[29.7852,-1.2417],[29.78854427557166,-1.246873176274912],[29.788965607417488,-1.248235586076423],[29.791079493798197,-1.253344023394351],[29.79821353004057,-1.26558642037334],[29.801824753531047,-1.274834570099514],[29.808817849071986,-1.288616792045548],[29.802334516586633,-1.291698935027349],[29.801903629892866,-1.290366514040341],[29.79952688805723,-1.290176264236277],[29.797610394707327,-1.2924512907803],[29.79792110231434,-1.295920851148971],[29.791917593564833,-1.298756944765907],[29.790395052359994,-1.302614157105763],[29.790378885301777,-1.3026199033951702],[29.790378070065653,-1.302618369833344],[29.7861647770906,-1.3041177321929946],[29.78590321519414,-1.304210699654033],[29.78590310143929,-1.3042108533275416],[29.78590273547988,-1.304210983559587],[29.783324891555964,-1.3076938042038293],[29.78123265757887,-1.3105202413418815],[29.777781394085594,-1.31062655699603],[29.777509101855575,-1.312185115717751],[29.776300279048307,-1.3131705390752766],[29.77493923124783,-1.314076100608419],[29.772188981090554,-1.311721676343145],[29.768566757749657,-1.310634828325246],[29.76856674416247,-1.3106348292059984],[29.76856666555377,-1.310634805616786],[29.76400149363199,-1.310626893347889],[29.76367624062046,-1.310951842771962],[29.763330363317348,-1.310974263325654],[29.76336907137353,-1.311258725310614],[29.76329698497121,-1.311330744428305],[29.763985371463043,-1.3157878586253897],[29.763988315816086,-1.315809496408162],[29.763412291275205,-1.3173925349731441],[29.75939106073581,-1.3183013871237226],[29.75657832025843,-1.317867068963101],[29.75657065727304,-1.3178743957189725],[29.755088380314117,-1.3191911252220831],[29.755017502968926,-1.3191767736581927],[29.756163312890873,-1.3164751315165546],[29.756166457663756,-1.316469161290982],[29.756163183333356,-1.316465035547908],[29.755144019168192,-1.314662061634625],[29.754703505846408,-1.3146258032321698],[29.75438203722831,-1.314220744254289],[29.752381263820098,-1.314432367650738],[29.75026105453727,-1.311581127067955],[29.75155167571435,-1.3087817674966913],[29.75438101189376,-1.305699023446062],[29.75713964825684,-1.305810423087854],[29.75991100085396,-1.305025263402138],[29.76093421742647,-1.303895112821009],[29.763618746170838,-1.303660178028496],[29.762699168703875,-1.29805793846617],[29.764076620897622,-1.293066925682422],[29.76355577076049,-1.290447767557188],[29.764808265489116,-1.288744233185227],[29.765821651067608,-1.284564111337235],[29.76445229364711,-1.279741976641511],[29.76374361456408,-1.280126168397879],[29.763985854299133,-1.281534618512975],[29.762185127122805,-1.282451320924363],[29.759847317541645,-1.281363266902809],[29.759602530622885,-1.278058806715773],[29.755222548952123,-1.277724816657488],[29.753643502911935,-1.276033976084748],[29.75023425577841,-1.267407833504113],[29.752849872583457,-1.26578721318524],[29.75507992203978,-1.262363494363394],[29.753985977853223,-1.260252196628609],[29.750201012035696,-1.256625489344191],[29.75541281415354,-1.249260853149851],[29.753258596535222,-1.24852916158826]]]}},{"type":"Feature","properties":{"n":"Mupaka Town Council","c":"408107","d":"Kisoro","od":"Kisoro","dc":"408","k":"MUPAKATOWNCOUNCIL","a":["MUPAKA","MUPAKATOWNCOUNCIL"],"lat":-1.181284,"lon":29.597811},"geometry":{"type":"Polygon","coordinates":[[[29.581337593140134,-1.178029794477057],[29.57993775053542,-1.173538760512376],[29.579507834852162,-1.1731314347778838],[29.57915968427565,-1.1702533900120347],[29.57983539238983,-1.169379660292494],[29.579810984085622,-1.165664751233827],[29.583344619802823,-1.161718415507544],[29.586447525463143,-1.156190652582895],[29.588261410627002,-1.155107639351253],[29.589342107041304,-1.15590533856475],[29.589144383685888,-1.154429876609258],[29.591721696513574,-1.153417444357757],[29.59192956485781,-1.152192742494838],[29.59384892900565,-1.151882051507129],[29.599180928884333,-1.158247394165774],[29.60190156649371,-1.157860150263005],[29.60248541306457,-1.158497963788562],[29.601942003249206,-1.1589725223306],[29.603269867452692,-1.159613196292991],[29.60478753904686,-1.158392454758271],[29.60438724957414,-1.15702938548662],[29.60569641524189,-1.156943453703729],[29.606097403079207,-1.157713814230859],[29.606691342137637,-1.156470417933961],[29.60874006480249,-1.15729450259746],[29.611499226598788,-1.15352562600948],[29.61339715270603,-1.152965119886508],[29.614519624098715,-1.153788273073159],[29.61459490374721,-1.152538340320518],[29.61549984783031,-1.151974815789986],[29.614106857810768,-1.150606676684604],[29.619654726309655,-1.153974468807387],[29.619739488810918,-1.1544212021659463],[29.619728516050937,-1.154427517772503],[29.62033895611594,-1.157583539902732],[29.621745748767687,-1.158467632285255],[29.62021359266245,-1.161301564023266],[29.620213586871756,-1.1613017346141274],[29.620213443910355,-1.161301998836745],[29.620080052982985,-1.165233219231236],[29.619834360775357,-1.1658959151463497],[29.618425794421185,-1.169695027212885],[29.616537425606733,-1.170758479864863],[29.61722809551075,-1.171629036227114],[29.616188033277044,-1.174350616552361],[29.616188124162544,-1.17435072659005],[29.6161877238683,-1.174351773715901],[29.61766219337834,-1.176136853363796],[29.614719240328878,-1.184539043024841],[29.615766082735536,-1.185543165714414],[29.614593096035918,-1.18638799569714],[29.614592972379082,-1.1863889449852434],[29.61459285792945,-1.186389027491844],[29.614592855319263,-1.186389843629399],[29.61411678340806,-1.1900445497969907],[29.613874444615142,-1.190052946758255],[29.61347955937941,-1.191246992095163],[29.61366577188128,-1.1935068725465408],[29.61358629729752,-1.1941169825836953],[29.610999866819206,-1.196204046993657],[29.61099776238262,-1.196205543635348],[29.610997820477966,-1.196205698244681],[29.61099766940329,-1.196205820151139],[29.61099855630474,-1.196207656502908],[29.611423345559672,-1.197338149549304],[29.608592362135344,-1.1967464257026943],[29.608582330265968,-1.196744080870115],[29.608566025555948,-1.1976936397770805],[29.605183747554126,-1.1979697434200085],[29.605070474162673,-1.197978979933897],[29.601879229832946,-1.197267819048544],[29.601350378841797,-1.1991949875796517],[29.601024118758318,-1.1993710823165464],[29.59730766059548,-1.201374996880126],[29.597106407276613,-1.20333472386745],[29.59710698641714,-1.2033350265098488],[29.5971069623384,-1.203335261492612],[29.59736282184483,-1.2034687188421693],[29.59885567661409,-1.204248842368139],[29.59805888301546,-1.205455973244799],[29.594793568788564,-1.205780817427883],[29.59297593682465,-1.207779084852041],[29.591593748263406,-1.2081637601928183],[29.591550492471892,-1.208175786414172],[29.5855482895613,-1.204972241280066],[29.58393567960489,-1.199767534122115],[29.577729519458682,-1.193293923673497],[29.574255669324224,-1.191544799316211],[29.57443146566269,-1.189104276288083],[29.57407961552649,-1.1883736833725416],[29.57584220048999,-1.1850471145681867],[29.578033527801136,-1.184859302792033],[29.581337593140134,-1.178029794477057]]]}},{"type":"Feature","properties":{"n":"Muramba","c":"408108","d":"Kisoro","od":"Kisoro","dc":"408","k":"MURAMBA","a":["MURAMBA"],"lat":-1.335484,"lon":29.627707},"geometry":{"type":"Polygon","coordinates":[[[29.605833881999917,-1.3202749940789429],[29.608728180244604,-1.321157450253938],[29.615071822413977,-1.319625078685913],[29.616619595268542,-1.3183956718232854],[29.616691344662556,-1.318389544535954],[29.620775547655846,-1.318045138589891],[29.622309714911104,-1.319268360267558],[29.622310481327823,-1.3192681775042492],[29.625951414206426,-1.318830007256564],[29.626481159206325,-1.3182736181873755],[29.6273524168697,-1.318065854017676],[29.627612442747562,-1.3170854355775907],[29.627956836244568,-1.316723720455652],[29.62868013644405,-1.313059733993515],[29.628680210303784,-1.313059455507981],[29.628680200740767,-1.3130594082887856],[29.628680210256118,-1.313059360087333],[29.62821753877261,-1.310773286179982],[29.62821721141374,-1.3107733117786944],[29.62821663985781,-1.310770489614245],[29.621911802527418,-1.3112662861932125],[29.62175277315112,-1.3111815251736145],[29.617683615655487,-1.309011518886875],[29.618225733369247,-1.3054222219729015],[29.618252098493755,-1.305248569645274],[29.618251992317518,-1.3052483645991175],[29.618252205270394,-1.305246954663449],[29.617689353491787,-1.3041618038781453],[29.61713628757627,-1.303093730235816],[29.620090740936902,-1.3025204821649312],[29.62036801159412,-1.302697504513298],[29.623688078231872,-1.304818822119847],[29.62368820215376,-1.3048172669713387],[29.623688697990676,-1.304817583536446],[29.623879690388822,-1.3024141996222085],[29.62405011878781,-1.300275421117943],[29.62618080135701,-1.298301458032917],[29.628714845001358,-1.2991549094915333],[29.62875901660256,-1.2992253746510853],[29.63058427176162,-1.302140334732871],[29.63218694455079,-1.302252571016229],[29.635148086655075,-1.298665997243068],[29.6339423406159,-1.294961026651601],[29.636227942180525,-1.291379561809357],[29.636224136693617,-1.2913577643546268],[29.63853034805854,-1.288536623997077],[29.639672483622785,-1.288262985924661],[29.640993081340483,-1.288596111384775],[29.6421471178879,-1.290487778436048],[29.641302478556632,-1.290928970280965],[29.640944219083163,-1.292602086040086],[29.644445692082503,-1.294304682592162],[29.643411421735653,-1.295449651182869],[29.64537184628425,-1.297025085458158],[29.650785201358516,-1.298994501182247],[29.654081253556935,-1.298890314951242],[29.658374422901446,-1.300472189143922],[29.659043064218366,-1.299743440942819],[29.661112382942466,-1.299957782538143],[29.662314821526095,-1.298708377120289],[29.663849456150032,-1.299255604692379],[29.666443180213637,-1.300742814001083],[29.665383868288355,-1.302064820707728],[29.66573644271583,-1.304173452357995],[29.665192206913805,-1.304428703902834],[29.66660320633887,-1.305378406248652],[29.669664127992597,-1.303805223773163],[29.67158202335292,-1.300816398106375],[29.674083694154056,-1.300866246238119],[29.67535999111204,-1.303072831236968],[29.674964086048245,-1.304486369207247],[29.676480916120127,-1.304836549034972],[29.677544578435235,-1.306385696765606],[29.677287604058844,-1.308876746228291],[29.6761056013147,-1.309913401461596],[29.67744856993651,-1.314592759630829],[29.678689055001637,-1.31468038046164],[29.67713992976051,-1.317336205012167],[29.67723996638929,-1.319177554191604],[29.674334941554743,-1.323175044859511],[29.67134067491128,-1.322369614049713],[29.6698996975452,-1.323268850239685],[29.666934661138953,-1.323078612797787],[29.665212049113283,-1.324268228895163],[29.661976235778567,-1.323307147568171],[29.66044908621941,-1.324502116038458],[29.659544883763143,-1.327147022097823],[29.658813205335885,-1.327553905764203],[29.657538750575124,-1.326640737190839],[29.65640408901496,-1.327619426561412],[29.655147540150782,-1.329700170336396],[29.655862370212635,-1.332293151899016],[29.650879847716162,-1.338674718897135],[29.647896276310135,-1.338788916849445],[29.646254175652995,-1.340887617846535],[29.643712991039674,-1.34223750616464],[29.642939786734267,-1.343819707403636],[29.638226995263175,-1.341250744313915],[29.638232203262877,-1.342558113968837],[29.6327801771269,-1.347377415119959],[29.632139204553358,-1.354276029649546],[29.63300786551973,-1.355252029183107],[29.630544757575844,-1.3854343750353946],[29.61587064024416,-1.3864972199823156],[29.615104325348245,-1.386362632912892],[29.613872117997953,-1.3866419727618307],[29.60372515415794,-1.3873769164044485],[29.597064679585735,-1.386712169943794],[29.593428699849714,-1.386907497621475],[29.589614391527494,-1.3883384697567125],[29.59333388429122,-1.3724359677608913],[29.605641701495845,-1.320216411321651],[29.605833881999917,-1.3202749940789429]]]}},{"type":"Feature","properties":{"n":"Murora","c":"408109","d":"Kisoro","od":"Kisoro","dc":"408","k":"MURORA","a":["MURORA"],"lat":-1.330142,"lon":29.796976},"geometry":{"type":"Polygon","coordinates":[[[29.785975241991085,-1.341901418676328],[29.786578584386966,-1.3359747520907992],[29.787066280679706,-1.33118486165457],[29.786490215263854,-1.3287705000173622],[29.786186733134564,-1.3274966805499357],[29.788257722061225,-1.322134263792071],[29.788296467156005,-1.3221141531832399],[29.789006604227797,-1.32174658446074],[29.790309829668214,-1.322908858993596],[29.790310928950245,-1.3229083201231566],[29.79031097666909,-1.322908362687121],[29.79329374260217,-1.3214461383928788],[29.79693098191756,-1.319663155781082],[29.79888451336833,-1.3191844157533414],[29.80278508926187,-1.318228674714451],[29.80278525741673,-1.3182284842206273],[29.802790094387387,-1.318227298853755],[29.80280877602927,-1.3182018412177106],[29.805232020131346,-1.31545667504049],[29.80538601861071,-1.3146898103136235],[29.8053911856351,-1.314682769164506],[29.797234476354934,-1.311838763914549],[29.796135376263905,-1.310268407935661],[29.795782861673153,-1.306818278893275],[29.791190292354976,-1.304146262259543],[29.790402732269992,-1.3026647625459271],[29.79037889601014,-1.3026198995890756],[29.790395052359994,-1.302614157105763],[29.791917593564833,-1.298756944765907],[29.79792110231434,-1.295920851148971],[29.797610394707327,-1.2924512907803],[29.79952688805723,-1.290176264236277],[29.801903629892866,-1.290366514040341],[29.802334516586633,-1.291698935027349],[29.80233683332226,-1.291697833663124],[29.802336934385234,-1.291698146122976],[29.808817854871663,-1.28861680197633],[29.817415601694467,-1.3042970916045764],[29.8192,-1.3105],[29.8177,-1.3275],[29.8078,-1.3291],[29.7944,-1.3501],[29.794888995523337,-1.371811401236236],[29.78538219367453,-1.367865377512161],[29.780853134827847,-1.366975179009237],[29.780729109765367,-1.3666036922200382],[29.77901227267971,-1.361460872643286],[29.777025996394606,-1.359486179370476],[29.776894550881284,-1.35804634618466],[29.772689718653837,-1.354332511793803],[29.77744773899395,-1.352730542862131],[29.77703989707168,-1.349421195548188],[29.776111528312715,-1.34840657458709],[29.781388815645908,-1.344267735527296],[29.785975027523442,-1.341902562679743],[29.785975138570574,-1.3419014720345928],[29.785975241991085,-1.341901418676328]]]}},{"type":"Feature","properties":{"n":"Nyakabande","c":"408110","d":"Kisoro","od":"Kisoro","dc":"408","k":"NYAKABANDE","a":["NYAKABANDE"],"lat":-1.258969,"lon":29.727782},"geometry":{"type":"Polygon","coordinates":[[[29.684953211121375,-1.209799892416685],[29.69421998391038,-1.211245182860766],[29.69851531788857,-1.21593416152541],[29.704085501544835,-1.216999811551358],[29.7145318287313,-1.22255743897775],[29.716093198049876,-1.224080371430502],[29.71867898905256,-1.224504053938314],[29.71976537680327,-1.223393280616533],[29.721426339502003,-1.223442582012517],[29.72523683380963,-1.226297427537088],[29.7373641612349,-1.23225768147699],[29.745046856896018,-1.237951287372237],[29.747561524852674,-1.238340160773072],[29.748210084562743,-1.243537585584746],[29.75061262978861,-1.243089726942379],[29.751530434993104,-1.244849932116517],[29.75373924008078,-1.24584037834367],[29.75337941016496,-1.2470126904646843],[29.753309338132706,-1.247035684120967],[29.753301494845438,-1.2472665355994936],[29.753007141351876,-1.248225528037859],[29.75326515539975,-1.2483361145249965],[29.753258596535222,-1.24852916158826],[29.75541203831437,-1.2492605896319173],[29.75097995805136,-1.2555247848487634],[29.750201012035696,-1.256625489344191],[29.753985964328354,-1.260252183669249],[29.755079910114425,-1.262363512671986],[29.75289188205023,-1.2657227174846315],[29.75284984778104,-1.2657872285526688],[29.75023425577841,-1.267407833504113],[29.75023600789761,-1.2674122667497663],[29.750779597869574,-1.270039143199428],[29.752976402692813,-1.2743460662969488],[29.753643502911935,-1.276033976084748],[29.754070630968503,-1.2764913442864463],[29.75438457872798,-1.277106851336687],[29.754805099187088,-1.277277811958551],[29.755222548952123,-1.277724816657488],[29.756062087378076,-1.27778883461667],[29.757028230985654,-1.278181615772459],[29.75959927392387,-1.2780585583802377],[29.759602530622885,-1.278058806715773],[29.759847317541645,-1.281363266902809],[29.762185127122805,-1.282451320924363],[29.763985854299133,-1.281534618512975],[29.76398573454175,-1.281533922209771],[29.763986863262808,-1.28153334721473],[29.763745772759048,-1.280138716751884],[29.76374361456408,-1.280126168397879],[29.763937812187596,-1.2800208892555316],[29.764452475711714,-1.279742617774376],[29.76559623724495,-1.2837703260194866],[29.76502959534372,-1.2878312679916433],[29.764899853324764,-1.288366441828291],[29.763557810909507,-1.2904449927239727],[29.76355577076049,-1.290447767557188],[29.764076620897622,-1.293066925682422],[29.763299721666332,-1.2958819155692956],[29.762699215742693,-1.298057499022216],[29.762699243442967,-1.2980576676591213],[29.762699168703875,-1.29805793846617],[29.763618746170838,-1.303660178028496],[29.76093421742647,-1.303895112821009],[29.75991100085396,-1.305025263402138],[29.75788481220537,-1.3055993085973192],[29.75713954116949,-1.3058104187634376],[29.756623012511046,-1.3057895602304694],[29.754383230381222,-1.305698472156839],[29.75438264870003,-1.305699089543803],[29.75438101189376,-1.305699023446062],[29.75431701850252,-1.3057687483686653],[29.751622039307886,-1.308629155480741],[29.751621716291996,-1.3086287465561834],[29.747313078663634,-1.302926126057094],[29.747018435161646,-1.3028011858497965],[29.746621561365828,-1.302298760281507],[29.745583665380146,-1.3021927881328397],[29.742373780290613,-1.3008316730707974],[29.742372546652703,-1.300830862709373],[29.742373639757396,-1.3008266989433588],[29.743208010143597,-1.2998601099074074],[29.743689654971405,-1.299771650123493],[29.74358479168459,-1.299423621613367],[29.743612457008314,-1.29939157229926],[29.742720318707715,-1.296554014243136],[29.74272006574708,-1.2965537012738695],[29.742719959222512,-1.296553347731773],[29.741090095693064,-1.294536841016689],[29.73794926224655,-1.293347046613244],[29.735224725726773,-1.290319245364604],[29.73281483350875,-1.2904139018580207],[29.732454747863038,-1.289314103909138],[29.731259026252324,-1.285649813586154],[29.727682567314027,-1.2858558904362347],[29.72767837669496,-1.2858537378002932],[29.72470891839316,-1.284327447788433],[29.72470813661124,-1.2843279857675916],[29.72470810163644,-1.284327967801746],[29.724693598890397,-1.2843379898245637],[29.72260803980001,-1.285773156463154],[29.721850318226835,-1.283062969178788],[29.721769307994464,-1.282771705369631],[29.721768848413586,-1.2827715713095222],[29.721768521951443,-1.282770403633186],[29.71984385613542,-1.282209945842005],[29.719829625712283,-1.282210794551424],[29.711844667965565,-1.282588450690102],[29.71108919004545,-1.27901034156673],[29.712097269707463,-1.276019364440808],[29.711752173849337,-1.274087342302191],[29.710209522081925,-1.273749257722082],[29.710105770832826,-1.272621445491214],[29.70853025735692,-1.27287928064106],[29.707279473399005,-1.27099583479801],[29.708361212026738,-1.269401517980753],[29.706866234174225,-1.268752209589916],[29.7020835494692,-1.263381268971836],[29.70458779236032,-1.259340832842855],[29.70124788463912,-1.258597387271867],[29.699384827037832,-1.252070701507793],[29.697146996022738,-1.250385331457264],[29.69631677541258,-1.247916714652362],[29.693888031010978,-1.239233093989375],[29.694071659550666,-1.237679065842937],[29.693192036996376,-1.236490761568636],[29.69370920578748,-1.23492467595461],[29.692965393938334,-1.232647322986427],[29.689712870624493,-1.231213621101023],[29.689001225260856,-1.230157753261701],[29.687769130096715,-1.222004371933009],[29.68528688640075,-1.218347393268048],[29.68183557628065,-1.215224449671956],[29.68208542015769,-1.212761711061267],[29.684953211121375,-1.209799892416685]]]}},{"type":"Feature","properties":{"n":"Nyakinama","c":"408111","d":"Kisoro","od":"Kisoro","dc":"408","k":"NYAKINAMA","a":["NYAKINAMA"],"lat":-1.26118,"lon":29.673362},"geometry":{"type":"Polygon","coordinates":[[[29.639321358604644,-1.277266386387854],[29.641393208398927,-1.277355466889651],[29.642433841899308,-1.274243464856439],[29.64464709674119,-1.271983359991646],[29.646764393941076,-1.272769445851824],[29.651203386896015,-1.268498612251577],[29.655407190662086,-1.26819392384595],[29.656966909363984,-1.25667803118547],[29.65503865166819,-1.255917669116713],[29.654528686337194,-1.251376802868513],[29.65786694663605,-1.249814296099758],[29.65863623577065,-1.2479531511091737],[29.658647255574206,-1.247954425502994],[29.65922447908051,-1.246981166315333],[29.659217775815417,-1.2465462284159219],[29.659695356060606,-1.245390816177588],[29.673805501898286,-1.226454125817579],[29.672876905302907,-1.223968969398613],[29.673174382537468,-1.22256493482109],[29.67504041604993,-1.220664291290764],[29.67473288512193,-1.219911992438734],[29.676528218665307,-1.217332022324723],[29.67707665289364,-1.21496271523777],[29.67911108475902,-1.213820575972974],[29.68049168768865,-1.21594670473441],[29.681835568561894,-1.215224459572688],[29.68327007083673,-1.216522462725448],[29.68528688640075,-1.218347393268048],[29.687769130096715,-1.222004371933009],[29.689001225260856,-1.230157753261701],[29.689712870624493,-1.231213621101023],[29.69146785622297,-1.2319872131459095],[29.692965529971477,-1.2326477394835298],[29.693483507971614,-1.2342336495996717],[29.69370912194703,-1.2349249298394673],[29.69342189211191,-1.235794716494107],[29.693191850352772,-1.236489199537997],[29.69319233590381,-1.2364898564199829],[29.693192036996376,-1.236490761568636],[29.693869292966827,-1.2374056837253706],[29.694071619686987,-1.2376794032048695],[29.693888031010978,-1.239233093989375],[29.696316767386428,-1.2479166859560227],[29.69631677541214,-1.247916714650988],[29.696316775412473,-1.2479167146519798],[29.69631677541258,-1.247916714652362],[29.697146996022738,-1.250385331457264],[29.699384801773164,-1.252070682480298],[29.699833234039012,-1.2536415662996787],[29.70124788463912,-1.258597387271867],[29.70458779236032,-1.259340832842855],[29.7020835494692,-1.263381268971836],[29.70209179693415,-1.2633905308503026],[29.70209153976275,-1.263390947797707],[29.696853825886926,-1.263705007478432],[29.692137640882866,-1.256421922970913],[29.68924065917943,-1.258295415972328],[29.688595340153753,-1.258811794207652],[29.691741822560417,-1.263019674831742],[29.69206794340462,-1.2662373303773],[29.691390731805818,-1.268435493605617],[29.68616555015093,-1.272699540838733],[29.68148916039878,-1.27334274491034],[29.67895238805082,-1.275784237681557],[29.677613615158233,-1.279077354138117],[29.672873879667712,-1.281506915286724],[29.677454505231342,-1.287898955896072],[29.67913163778471,-1.288526294082124],[29.680268862570692,-1.293027035806011],[29.68208517663029,-1.29359718899896],[29.6785207304557,-1.296419971204785],[29.678036885235166,-1.299011086618022],[29.674425959134204,-1.301457986871912],[29.674083694154056,-1.300866246238119],[29.67364196815681,-1.3008574444342624],[29.6733363378884,-1.300575938572099],[29.671585805326323,-1.300815131748235],[29.671584953954003,-1.300816456501344],[29.67158202335292,-1.300816398106375],[29.669664159817426,-1.3038051741777208],[29.66660200673308,-1.3053775988291645],[29.665354246989512,-1.3045377683271584],[29.665192438719778,-1.3044285951837218],[29.66573644271583,-1.304173452357995],[29.665510357416103,-1.302821310564612],[29.665384394236764,-1.3020641643313515],[29.665662092168517,-1.30171760113364],[29.6664436397514,-1.300744415247758],[29.66644244605734,-1.3007437302180398],[29.666443180213637,-1.300742814001083],[29.663849456150032,-1.299255604692379],[29.663849103557904,-1.2992554789633415],[29.66384910355097,-1.299255478959362],[29.663849101065917,-1.299255478074737],[29.662314821526095,-1.298708377120289],[29.66231415467066,-1.2987090700228643],[29.662314141626947,-1.298709065379581],[29.66228076661079,-1.2987437622087783],[29.661112632487647,-1.2999575232458151],[29.6598182890034,-1.2998237393111776],[29.659043064218366,-1.299743440942819],[29.658374422901446,-1.300472189143922],[29.654081253556935,-1.298890314951242],[29.651837721628752,-1.29896123164845],[29.650784842485542,-1.298994370621797],[29.64537184628425,-1.297025085458158],[29.643411421735653,-1.295449651182869],[29.644445692082503,-1.294304682592162],[29.640944219083163,-1.292602086040086],[29.641302478556632,-1.290928970280965],[29.6421471178879,-1.290487778436048],[29.640993081340483,-1.288596111384775],[29.640627068710625,-1.2885037834001856],[29.640470228485537,-1.288299054926778],[29.640029231300577,-1.2883529767922177],[29.639672483622785,-1.288262985924661],[29.638533543617513,-1.2885358583904145],[29.638531670330988,-1.288536087441999],[29.638531449402073,-1.288536360132147],[29.63853034805854,-1.288536623997077],[29.636224146416748,-1.2913577524605246],[29.636193510114698,-1.2911823383228207],[29.635418353368042,-1.28674231671788],[29.634065108466135,-1.2858995747755722],[29.633267727432468,-1.2854023849383207],[29.634056219327714,-1.284897637799546],[29.633684219091215,-1.282972957591719],[29.632461140619302,-1.2814146454961513],[29.636186168796026,-1.280487582730034],[29.639321358604644,-1.277266386387854]]]}},{"type":"Feature","properties":{"n":"Nyarubuye","c":"408112","d":"Kisoro","od":"Kisoro","dc":"408","k":"NYARUBUYE","a":["NYARUBUYE"],"lat":-1.246716,"lon":29.640178},"geometry":{"type":"Polygon","coordinates":[[[29.599057125943435,-1.251131496460339],[29.602247391714442,-1.24831620043216],[29.602741142368934,-1.245964924745163],[29.604526140026632,-1.246097905626421],[29.605612096240712,-1.245084036480068],[29.606560950646074,-1.240680163892924],[29.60616367500575,-1.237209489635278],[29.607613491371108,-1.235481584140199],[29.60796892556402,-1.233582585430256],[29.605290601273634,-1.229897042757434],[29.60486305857133,-1.2285879845477485],[29.60502513410351,-1.2247718424718852],[29.60653088958865,-1.22289298753673],[29.60526558573811,-1.219110299439015],[29.6053,-1.2183],[29.604905802903694,-1.2180347109588854],[29.604706587108254,-1.21743914553958],[29.60473381737553,-1.2174280728283977],[29.608239424607337,-1.216004153525067],[29.60823964172638,-1.2160008181633386],[29.608757759612022,-1.2126735326523053],[29.60937594311996,-1.212165942276358],[29.612198531867623,-1.2131566810614975],[29.61348433290176,-1.216011018756114],[29.61348482973071,-1.21601074085743],[29.613484910471726,-1.216010920079432],[29.614436018941348,-1.2154786981287085],[29.615948255258548,-1.2146328366243142],[29.61780156784377,-1.2146470703617551],[29.619045035416015,-1.214656669487502],[29.62443617268238,-1.221289851714957],[29.627062086514563,-1.221694524103549],[29.62894730390244,-1.220059987134379],[29.63039926092888,-1.220522537679355],[29.632421765731394,-1.2250911679175402],[29.632211275663177,-1.227876969031485],[29.63221169989366,-1.2278771501533527],[29.632211641566254,-1.227877923055678],[29.635043415402304,-1.229087538759207],[29.6338473582825,-1.230170337939935],[29.633852612466324,-1.230171846210591],[29.633851376903657,-1.230172967205282],[29.635206739115823,-1.2305605630046537],[29.63615286322715,-1.2308321582291308],[29.636210827529055,-1.2313322990607607],[29.63643448509933,-1.23329265354435],[29.636438065972193,-1.2332930097083736],[29.636438203786447,-1.233294198828809],[29.641017040992246,-1.2337497426130406],[29.63999134958241,-1.234649499288131],[29.639991654120987,-1.2346507247860923],[29.63999144232387,-1.23465091044987],[29.64021081435045,-1.2355326505437356],[29.640675302469905,-1.237401803709291],[29.640105566083808,-1.237776108623695],[29.640107327914276,-1.2377771986253001],[29.640106958327895,-1.237777440316207],[29.642202617495133,-1.2390742472828544],[29.64214995014257,-1.240275011782646],[29.65316645262743,-1.2414597204300835],[29.65518637892515,-1.243107746532607],[29.657457795743834,-1.247816869488503],[29.657588316383805,-1.2478319636502264],[29.658573666760397,-1.247954144402239],[29.65787738981704,-1.2497890308605868],[29.65786694663605,-1.249814296099758],[29.654528686337194,-1.251376802868513],[29.654528869471502,-1.2513784335448346],[29.654528579647888,-1.251378569216311],[29.654641277554482,-1.252379344859795],[29.65503865166819,-1.255917669116713],[29.656966909363984,-1.25667803118547],[29.655407190662086,-1.26819392384595],[29.65157581863973,-1.268471618690385],[29.651203835625903,-1.268498448824903],[29.651203688496736,-1.268498590391793],[29.651203386896015,-1.268498612251577],[29.646764393941076,-1.272769445851824],[29.64464709674119,-1.271983359991646],[29.642433841899308,-1.274243464856439],[29.642068331985964,-1.275336517879497],[29.641392121464033,-1.2773554201561927],[29.639321358604644,-1.277266386387854],[29.63932078283398,-1.277266977953428],[29.63932025379262,-1.277266955041072],[29.636185819052226,-1.2804876697721816],[29.632461140619302,-1.2814146454961513],[29.629206516803148,-1.277267961717712],[29.62686945519459,-1.2782097239278225],[29.626798762023686,-1.278238172379868],[29.623218962192077,-1.278204506942575],[29.623212275442572,-1.2782148514799283],[29.623163754148262,-1.278214533826771],[29.625164536147626,-1.272660418028586],[29.625481518792014,-1.267856295554289],[29.626709157208513,-1.263736120934355],[29.630073159013072,-1.259625702559831],[29.628935993482415,-1.257710743086093],[29.630352623285788,-1.254532312850903],[29.628711912985914,-1.252902569723232],[29.63082853922498,-1.251256634544439],[29.630425631716193,-1.247892475023544],[29.62372677490162,-1.247333330530442],[29.622594999092343,-1.244984244958621],[29.62258495803183,-1.242570319254585],[29.617695718296034,-1.240655081259523],[29.614089300388873,-1.238082727637505],[29.61280956669813,-1.238888419315702],[29.612683636045546,-1.242291919898114],[29.612913674739502,-1.24354008683149],[29.614783130040408,-1.245437735795675],[29.614513893652738,-1.248524486526276],[29.61257582802104,-1.249698747383806],[29.610653848056597,-1.248147179444085],[29.608992136289302,-1.248217649655904],[29.602602607781154,-1.252259303371206],[29.598474541687214,-1.253695456532986],[29.59642103090232,-1.253426182216208],[29.597159256128425,-1.251260587799423],[29.599057125943435,-1.251131496460339]]]}},{"type":"Feature","properties":{"n":"Nyarusiza","c":"408113","d":"Kisoro","od":"Kisoro","dc":"408","k":"NYARUSIZA","a":["NYARUSIZA"],"lat":-1.338944,"lon":29.677682},"geometry":{"type":"Polygon","coordinates":[[[29.633007701528413,-1.3552540386941694],[29.63300786551973,-1.355252029183107],[29.63213935238031,-1.3542761957431568],[29.632780386780986,-1.3473772297968973],[29.638232203262877,-1.342558113968837],[29.638228420071687,-1.3416084154964127],[29.638228456988447,-1.3412515411067063],[29.64209574267528,-1.3433596153229803],[29.64293852235914,-1.343819375178664],[29.642938660324248,-1.343819093392645],[29.642939786734267,-1.343819707403636],[29.6436973889305,-1.3422694326248172],[29.643713030758253,-1.3422374850659577],[29.646254175652995,-1.340887617846535],[29.64789626328902,-1.338788933491195],[29.650879586979364,-1.338674844815483],[29.650879680292764,-1.3386747253053644],[29.650879847716162,-1.338674718897135],[29.654935245246993,-1.3334806046577445],[29.655862296176974,-1.332293294275309],[29.655862286488833,-1.332293259131659],[29.655862370212635,-1.332293151899016],[29.655147540150782,-1.329700170336396],[29.65640405014261,-1.3276194909308943],[29.65753899885522,-1.3266409150877627],[29.658813205335885,-1.327553905764203],[29.659544883763143,-1.327147022097823],[29.66044908621941,-1.324502116038458],[29.661976235778567,-1.323307147568171],[29.663377667044568,-1.3237233920425862],[29.665211248301336,-1.324268216853298],[29.665211477029423,-1.3242680589783424],[29.665212049113283,-1.324268228895163],[29.66678672874915,-1.3231807732086134],[29.666934731471954,-1.323078617310369],[29.668461370576857,-1.3231765668388826],[29.66989885863072,-1.323268910542106],[29.669899024611844,-1.3232688070641205],[29.6698996975452,-1.323268850239685],[29.670653565335158,-1.3227984020458818],[29.67134114747798,-1.3223697411659059],[29.674334941554743,-1.323175044859511],[29.67723996638929,-1.319177554191604],[29.677224056353094,-1.3188847021387868],[29.67713998587755,-1.317336108804963],[29.677197928685292,-1.3172367714968838],[29.678687474179196,-1.314685334256753],[29.67868621897307,-1.3146852425567732],[29.678689055001637,-1.31468038046164],[29.67744856993651,-1.314592759630829],[29.676195266457718,-1.3102258252313455],[29.67610572362988,-1.309913294187162],[29.677287604058844,-1.308876746228291],[29.677287732730218,-1.308875498918112],[29.677288221140685,-1.308875071306942],[29.677545004304662,-1.306387093615953],[29.67754450874862,-1.3063863722913442],[29.677544578435235,-1.306385696765606],[29.676480916120127,-1.304836549034972],[29.676479550629598,-1.3048362337938335],[29.676479301758196,-1.304835871540021],[29.67496410766071,-1.304486292042186],[29.67535999111204,-1.303072831236968],[29.674425967092912,-1.3014580006316883],[29.678035953280443,-1.299012010729599],[29.678036057303594,-1.2990116476558038],[29.678036885235166,-1.299011086618022],[29.67803813391149,-1.2990043996356297],[29.67885426766625,-1.296155833984918],[29.682084886146832,-1.2935974190407393],[29.682085189827387,-1.293597193774226],[29.685073810803594,-1.292603008383363],[29.686615693205727,-1.293095553899646],[29.68670082127339,-1.294501199915362],[29.688393148377198,-1.294608892914305],[29.688650130312784,-1.295793859474311],[29.68778999896801,-1.296616811458505],[29.689415234172458,-1.299111891756261],[29.691402618792427,-1.299986441180883],[29.693433653801,-1.300565096144555],[29.70153716196736,-1.299005325499849],[29.703958933779163,-1.299214439127682],[29.70517604140286,-1.3012146111426797],[29.705971108392557,-1.302525712794713],[29.70854339732894,-1.302873035775581],[29.708831342544162,-1.3029120228103483],[29.70883317380566,-1.302915037351153],[29.710505252652887,-1.3073270511478432],[29.71060503819475,-1.307941325351629],[29.710609568505497,-1.310195845656973],[29.710178393673537,-1.310984088633588],[29.710514525643838,-1.318513189631038],[29.710627793457697,-1.3192655380257128],[29.71062869043653,-1.319711921752187],[29.710819055631667,-1.3205359411936362],[29.711748683021273,-1.326710719803657],[29.712536497809626,-1.327970103426794],[29.713311782038883,-1.3313260177108754],[29.713522108324096,-1.333055255358247],[29.713522104205797,-1.333055309444885],[29.710491046788952,-1.3321289647165164],[29.71044996391503,-1.332114321660661],[29.707523633575473,-1.339098719348676],[29.704052454674937,-1.34253537499696],[29.70419341605216,-1.343658759350564],[29.704740783583283,-1.3442855195741374],[29.704785841765624,-1.344400162629536],[29.705052358880693,-1.3446422871790134],[29.706659179227675,-1.346482168104819],[29.708450083700644,-1.3477290405046471],[29.709028665519376,-1.348254668519794],[29.708633296675035,-1.349547892384107],[29.699808414004337,-1.354996905122698],[29.698958779420146,-1.357441555881304],[29.69427938771854,-1.360075712118864],[29.68991292998105,-1.361040055035107],[29.688393068222464,-1.36241764962413],[29.688019470199265,-1.3663925329873736],[29.685533441540763,-1.3694580119346984],[29.684847509996956,-1.370154751983609],[29.68459387754435,-1.3706165720505736],[29.67532641337939,-1.382044121847968],[29.67517304966567,-1.382166159410115],[29.664986390901312,-1.382715847063245],[29.664391162745037,-1.3829828830722053],[29.645819646470393,-1.384328016260322],[29.644209877176486,-1.383169434073789],[29.642464472704983,-1.3845710311825832],[29.630544768553367,-1.3854343742402937],[29.633007701528722,-1.355254038694518],[29.633007701528413,-1.3552540386941694]]]}},{"type":"Feature","properties":{"n":"Rukundo Town Council","c":"408114","d":"Kisoro","od":"Kisoro","dc":"408","k":"RUKUNDOTOWNCOUNCIL","a":["RUKUNDO","RUKUNDOTOWNCOUNCIL"],"lat":-1.261681,"lon":29.611859},"geometry":{"type":"Polygon","coordinates":[[[29.598474282125675,-1.25369546214198],[29.598474364892965,-1.2536954333501762],[29.598474541687214,-1.253695456532986],[29.600878387246066,-1.252859159264189],[29.602601634424154,-1.252259702708834],[29.602601847727755,-1.2522595677935933],[29.602602607781154,-1.252259303371206],[29.60801036860159,-1.2488386602699955],[29.608992202840167,-1.2482176468336015],[29.610653322597425,-1.2481472017278648],[29.612574467441714,-1.249698275910543],[29.61257491118959,-1.2496980072479504],[29.61257582802104,-1.249698747383806],[29.614513893652738,-1.248524486526276],[29.614783130040408,-1.245437735795675],[29.613643671548598,-1.2442810928817372],[29.61291360089225,-1.2435396861436787],[29.612683636045546,-1.242291919898114],[29.61280956669813,-1.238888419315702],[29.614089300388873,-1.238082727637505],[29.617695718296034,-1.240655081259523],[29.617695792769155,-1.2406551104325145],[29.617695840802913,-1.240655144700582],[29.62258496022585,-1.242570846708966],[29.622594849700274,-1.2449483302910858],[29.62259497662328,-1.244984146384171],[29.622594998874305,-1.2449841925413827],[29.622594999092343,-1.244984244958621],[29.62372677490162,-1.247333330530442],[29.623727477054928,-1.2473333891382263],[29.62372768812619,-1.247333826981444],[29.624896660201607,-1.2474309792697948],[29.630425631716193,-1.247892475023544],[29.63082853922498,-1.251256634544439],[29.628711912985914,-1.252902569723232],[29.630352623285788,-1.254532312850903],[29.628935993482415,-1.257710743086093],[29.628936438960153,-1.257711493259917],[29.628935902736057,-1.257712696874712],[29.62949334158524,-1.258649303920818],[29.630073159013072,-1.259625702559831],[29.626709157208513,-1.263736120934355],[29.626709039514694,-1.263736515935909],[29.62670902260326,-1.263736536578914],[29.62637255514641,-1.264865817801647],[29.625481518792014,-1.267856295554289],[29.625164536147626,-1.272660418028586],[29.623163754148262,-1.278214533826771],[29.623212275442572,-1.2782148514799283],[29.622420340368762,-1.2794399911310184],[29.620770268558893,-1.2800093664373695],[29.61765669190417,-1.280440934636915],[29.608872158540066,-1.287006435558694],[29.597234095080584,-1.286071871614824],[29.596406549629823,-1.286005406223432],[29.593745095539173,-1.27361149915317],[29.59642102916243,-1.253426193151643],[29.598474282125675,-1.25369546214198]]]}},{"type":"Feature","properties":{"n":"Bukimbiri","c":"408201","d":"Kisoro","od":"Kisoro","dc":"408","k":"BUKIMBIRI","a":["BUKIMBIRI"],"lat":-1.210701,"lon":29.754769},"geometry":{"type":"Polygon","coordinates":[[[29.72826760281819,-1.185547299536357],[29.727916495801406,-1.184297395019805],[29.728999541170108,-1.181722801271654],[29.732929986147834,-1.177547665138662],[29.735962410486625,-1.17663174885305],[29.74979640154705,-1.186430941336906],[29.752425022862734,-1.192528439838998],[29.75390824668377,-1.193732284633766],[29.753819045073424,-1.1940637736196358],[29.7518,-1.1948],[29.762274780160794,-1.2052333778676698],[29.76393350556445,-1.207788553606721],[29.764746748323486,-1.2076955754052108],[29.76583325931919,-1.208777791891052],[29.765833465711072,-1.2089627431245],[29.77023848763241,-1.213538996599077],[29.770120791680803,-1.215118096731918],[29.773490339816767,-1.216499173727117],[29.773579744165005,-1.216493658219688],[29.775553456714807,-1.218459569534114],[29.775553456714807,-1.2184595695341147],[29.775472515035084,-1.2183789477819795],[29.7704256962405,-1.2323990167559984],[29.77041809117531,-1.2324196905775215],[29.769267224701846,-1.232104154162593],[29.769265956965835,-1.232107754464365],[29.76926560012252,-1.232107656649908],[29.768443938982223,-1.234442241123719],[29.768139406012207,-1.2353070983044754],[29.7678586738288,-1.23562170582851],[29.76672689921151,-1.236889082044099],[29.764891252685313,-1.241948426434375],[29.765649435328086,-1.242986365951235],[29.75337941016496,-1.2470126904646843],[29.75373924008078,-1.24584037834367],[29.75373900955416,-1.2458402749736517],[29.753739018906163,-1.245840248948232],[29.75350340352411,-1.24573462730702],[29.751530848849534,-1.244850117693117],[29.75092976558511,-1.2436979432252784],[29.75061262978861,-1.243089726942379],[29.748642293171088,-1.2434570175444575],[29.748210004031108,-1.2435369402206915],[29.748209884159003,-1.2435359795901868],[29.750800218331186,-1.237982053042522],[29.752242168922542,-1.23670666360932],[29.753984625029126,-1.236660073929636],[29.75430932914579,-1.23451255988769],[29.756421056456414,-1.232197927561056],[29.75683070887296,-1.229510750687974],[29.759280264667435,-1.228233643819532],[29.759092051442764,-1.227329172569986],[29.756450771518246,-1.225662845345611],[29.754856041407994,-1.221415897826798],[29.751715830351863,-1.220904064478183],[29.747731701766355,-1.218812121655069],[29.744021517323482,-1.214166445719709],[29.743488401680747,-1.212438419737702],[29.733583560187192,-1.200617395507251],[29.72482822935449,-1.191543814452151],[29.72513939779523,-1.189989165046384],[29.72826760281819,-1.185547299536357]]]}},{"type":"Feature","properties":{"n":"Kirundo","c":"408202","d":"Kisoro","od":"Kisoro","dc":"408","k":"KIRUNDO","a":["KIRUNDO"],"lat":-1.192272,"lon":29.660707},"geometry":{"type":"Polygon","coordinates":[[[29.64021606526941,-1.160492815367432],[29.640160322796156,-1.1603568412165133],[29.640189953504237,-1.160259386358496],[29.64003583000306,-1.160053162516082],[29.639795132394557,-1.159466022207562],[29.641673348792878,-1.160402837045286],[29.645042294621735,-1.160041238903047],[29.645671319817385,-1.158556855350206],[29.649077693997707,-1.158270077760597],[29.651496243532005,-1.154407075744102],[29.65303813178721,-1.152960363290627],[29.655569323732347,-1.152446522692195],[29.656403665736594,-1.15003276905155],[29.658019384628243,-1.1494259633075],[29.657052554692314,-1.148053310305654],[29.661353002702306,-1.145573283295609],[29.665778718075337,-1.139862858627947],[29.668944158854362,-1.140016025004359],[29.670483303798868,-1.141057360520324],[29.67022450291542,-1.142277188302133],[29.673615112971778,-1.142972860426908],[29.673441405237387,-1.145117008780439],[29.675406038381666,-1.146331404347317],[29.67054843785889,-1.147899298557409],[29.675020552819998,-1.15099833146489],[29.675115053465422,-1.151954205526364],[29.67717841952813,-1.153294990470653],[29.684479886546836,-1.163053819393692],[29.687842659923568,-1.165512625961413],[29.688032899145924,-1.16887091485603],[29.688662651318012,-1.169346611248604],[29.688550090634834,-1.172425047662045],[29.687823402915647,-1.173475710057166],[29.682218364675425,-1.174890826853967],[29.681151017932503,-1.175939276907682],[29.679852585817375,-1.175789243379521],[29.679590834028133,-1.177659025218486],[29.67773578556419,-1.177928284126478],[29.678596617913428,-1.190095600185611],[29.67756784423244,-1.210499512282752],[29.675253500002704,-1.213525035687888],[29.672446722788454,-1.212829015392548],[29.671798526376232,-1.214236968309324],[29.671111047742727,-1.213896764380419],[29.6706753089742,-1.216178667714565],[29.669514250076357,-1.215988251521906],[29.668791176770995,-1.214733048632879],[29.66751582464763,-1.215247626038643],[29.66759260487208,-1.216293473090489],[29.669990130897947,-1.217987006541993],[29.669590936725495,-1.221297399762311],[29.670465028089296,-1.224703155684169],[29.67306154292874,-1.227264055702337],[29.65969535474617,-1.245390803152571],[29.65907807138031,-1.2374815781738033],[29.659077922807985,-1.237471938135126],[29.657792682874405,-1.2363290767311637],[29.65625458590387,-1.232977372947894],[29.655025802360743,-1.230299613791589],[29.65401568210915,-1.224571393651746],[29.653981399114173,-1.224376961728838],[29.653981395338814,-1.2243769592088423],[29.653981118065758,-1.224375386840511],[29.65226829373764,-1.223232481851173],[29.651049202517545,-1.216876807291927],[29.647915292724438,-1.212083158582299],[29.64785937014897,-1.2119976122208733],[29.647084233833322,-1.20758793166365],[29.647084026922844,-1.20758774845623],[29.647083963239524,-1.207587386246704],[29.645256230908696,-1.2059693394091506],[29.64444736140684,-1.205253131632364],[29.64447492593526,-1.2048607925335406],[29.6449858641179,-1.197594145782909],[29.64370010204107,-1.192765832422489],[29.642155549012706,-1.191778447114723],[29.644436706932332,-1.1876910759849808],[29.645047095219503,-1.186598776752796],[29.645046611231002,-1.1865982515027946],[29.645047043842762,-1.186597476350491],[29.64324817402243,-1.184646321565485],[29.64101154503262,-1.1837221322954523],[29.641225738035622,-1.1819624135702562],[29.64152611027081,-1.179500484576358],[29.640601418736416,-1.177807651482352],[29.641499972881657,-1.175872828087926],[29.6414995306942,-1.175872613097475],[29.641499654287863,-1.1758723471088],[29.637960975132664,-1.1734811126231344],[29.63777328901523,-1.1730863838756782],[29.637830171048215,-1.1673611194421505],[29.637830815675965,-1.167325924112455],[29.639030032568357,-1.166512130511492],[29.638707978089997,-1.165133576444792],[29.638720726123463,-1.165091648395422],[29.64021606526941,-1.160492815367432]]]}},{"type":"Feature","properties":{"n":"Nkuringo Town Council","c":"408203","d":"Kisoro","od":"Kisoro","dc":"408","k":"NKURINGOTOWNCOUNCIL","a":["NKURINGO","NKURINGOTOWNCOUNCIL"],"lat":-1.069968,"lon":29.623683},"geometry":{"type":"Polygon","coordinates":[[[29.584787673482627,-1.008264524885377],[29.5966,-1.0198],[29.59733937012997,-1.020157564243182],[29.59765334873672,-1.020508610995539],[29.599007274910484,-1.024442649652927],[29.627183814347358,-1.037285881570593],[29.63808400069694,-1.0407446158476181],[29.6618,-1.0565],[29.66533397062768,-1.0562396021642761],[29.64909420577039,-1.091315538541505],[29.650158175172965,-1.095556807178506],[29.647526220264584,-1.101111695908351],[29.648136258021875,-1.102295769920507],[29.6444932932502,-1.105254323492461],[29.641565360019392,-1.10367572211965],[29.640838785946208,-1.1048908398997],[29.637869801992103,-1.106130065878027],[29.634118484847917,-1.104660446319609],[29.632096765489344,-1.107428535103691],[29.63128942969243,-1.106545222283985],[29.627740910689564,-1.114167942107559],[29.628003816920366,-1.11578751254342],[29.62320545980994,-1.117981717924889],[29.62313161788807,-1.120513276462218],[29.620476763338676,-1.127197337933762],[29.617951060035104,-1.124497519810209],[29.613917153026296,-1.123310315509729],[29.6119999865451,-1.121338472393651],[29.611909286639232,-1.12016644866388],[29.609306726397435,-1.11793956255034],[29.60652467201491,-1.110469714696024],[29.60290234703719,-1.10744286813507],[29.601874471334494,-1.104930270863493],[29.601966275434876,-1.100723152931716],[29.600386966965235,-1.10107191176554],[29.60083971674488,-1.098705352503951],[29.589935495415258,-1.084810686410646],[29.589127990136614,-1.08402314717632],[29.58768022226182,-1.085382211968011],[29.586404282598476,-1.083435927044551],[29.590797092802784,-1.053615099449176],[29.588135997592147,-1.045039906195468],[29.583467670486193,-1.019638759681064],[29.584681871347865,-1.008179657533215],[29.584787673482627,-1.008264524885377]]]}},{"type":"Feature","properties":{"n":"Nyabwishenya","c":"408204","d":"Kisoro","od":"Kisoro","dc":"408","k":"NYABWISHENYA","a":["NYABWISHENYA"],"lat":-1.121498,"lon":29.596356},"geometry":{"type":"Polygon","coordinates":[[[29.581218486941246,-1.119440835362211],[29.581453767638394,-1.115608666585314],[29.580585283020227,-1.1150523220825577],[29.58169446812101,-1.1074889024189487],[29.58313112694754,-1.105425641045938],[29.586261985897412,-1.083924186729323],[29.586404279861913,-1.083435940092801],[29.586454861039865,-1.0835130780735183],[29.58768022226182,-1.085382211968011],[29.588726262744743,-1.0844002611900054],[29.589128223197388,-1.0840233744745302],[29.589138649267767,-1.0840335427541665],[29.59408436461009,-1.090598903945255],[29.594748832637634,-1.09094406462058],[29.59587479983855,-1.09237882440909],[29.59600320867574,-1.093060565946954],[29.60083967185259,-1.098705587159523],[29.600386966965235,-1.10107191176554],[29.600387353456725,-1.1010718264165893],[29.600387207380358,-1.101072588632484],[29.600565132925528,-1.10103256736023],[29.601965905046136,-1.1007232347246958],[29.601892059417807,-1.1041242595808656],[29.601874471334494,-1.104930270863493],[29.60290234703719,-1.10744286813507],[29.60652467201491,-1.110469714696024],[29.60853384398042,-1.1158643644159614],[29.608607226204168,-1.116733385462709],[29.60907182277042,-1.1173088436236176],[29.609306726397435,-1.11793956255034],[29.610193912102275,-1.118698684854027],[29.611965514546768,-1.1208930254037097],[29.6119999865451,-1.121338472393651],[29.613917153026296,-1.123310315509729],[29.616906660886215,-1.1241901465469506],[29.617951236705103,-1.1244977086593355],[29.620476763338676,-1.127197337933762],[29.620649818105306,-1.1267616422387312],[29.621084490928684,-1.125693504009498],[29.622899876276833,-1.125684166365333],[29.624563007325897,-1.124610993172909],[29.62624816987414,-1.124971388956888],[29.630066021194096,-1.127938250998266],[29.634135437331096,-1.127952343800796],[29.634443178485373,-1.129748244940914],[29.639366794002488,-1.131306569965187],[29.640282885271347,-1.13423330092228],[29.635557568563684,-1.13817798135699],[29.63518799772276,-1.141760640704012],[29.636092093888244,-1.14692474068528],[29.639161563244187,-1.150898454697013],[29.638853225338472,-1.153327482947843],[29.637231599501128,-1.156304413889934],[29.63403968358736,-1.1556181554022318],[29.633990607540916,-1.155607341681764],[29.633990313435,-1.1556075408725845],[29.633988399492843,-1.15560712937708],[29.6339846991361,-1.1556113433013617],[29.632728109901393,-1.15646240078034],[29.631969745156354,-1.1563607698655305],[29.631966600862118,-1.1563596978942816],[29.63252662784514,-1.155385444721163],[29.632525468397937,-1.155384384859861],[29.63252577784572,-1.155383851851533],[29.631405831861926,-1.1543609148560032],[29.63087603113641,-1.153876619164368],[29.63084877659078,-1.1538129602196188],[29.629482561863238,-1.15062015999769],[29.629481805317965,-1.150620100213131],[29.629481771152136,-1.150620020411376],[29.628190517954355,-1.1505180586722406],[29.626722392268224,-1.150402042817478],[29.62047843214414,-1.1539958875351672],[29.619739486567934,-1.154421190344496],[29.619654726309655,-1.153974468807387],[29.614106857810768,-1.150606676684604],[29.614112832550404,-1.1506125448350026],[29.614105896738312,-1.150607833049801],[29.615061669879275,-1.1515444549248568],[29.61549942066149,-1.1519743962418467],[29.615149393426492,-1.15219304988541],[29.61459490374721,-1.152538340320518],[29.614594835783283,-1.152539468784086],[29.614594108944114,-1.152539922823133],[29.61457645821463,-1.152844607363155],[29.6145198159197,-1.1537850881043665],[29.61339883358812,-1.15296608743214],[29.61339857568493,-1.1529661634138761],[29.61339715270603,-1.152965119886508],[29.611499226598788,-1.15352562600948],[29.60874006480249,-1.15729450259746],[29.606691342137637,-1.156470417933961],[29.606097534147132,-1.1577135398434977],[29.606015085118575,-1.1575556685175858],[29.60569641524189,-1.156943453703729],[29.605695388309858,-1.1569435211100954],[29.605695316358027,-1.156943383338539],[29.605464031884246,-1.1569587070186673],[29.60438724957414,-1.15702938548662],[29.604684498803728,-1.158041581206187],[29.604787400354066,-1.1583925663160373],[29.603269977031687,-1.1596131081529528],[29.602785241398404,-1.1593793717093757],[29.601942003249206,-1.1589725223306],[29.60248541306457,-1.158497963788562],[29.60248458899462,-1.1584970635469798],[29.602484826347347,-1.158496855566676],[29.601902055461146,-1.157860316305324],[29.601901757293813,-1.157860358699424],[29.60190156649371,-1.157860150263005],[29.600366673526754,-1.1580786203528137],[29.599180792670026,-1.1582472315531047],[29.59384892900565,-1.151882051507129],[29.593847103406762,-1.151882347020162],[29.593846924359152,-1.151882133351402],[29.593551879553413,-1.1519301354456657],[29.59192956485781,-1.152192742494838],[29.59192933196855,-1.1521941146128984],[29.591928984844873,-1.152194171087926],[29.59172129766915,-1.153417601033716],[29.589144383685888,-1.154429876609258],[29.58917944646827,-1.1546915240072],[29.589340853826123,-1.1559044135234984],[29.588261410627002,-1.155107639351253],[29.588259297507893,-1.1551089010275701],[29.588258798374778,-1.155108533146485],[29.58644752009621,-1.156190641928005],[29.584734725335213,-1.152749848781921],[29.58349370814614,-1.151982060175704],[29.58344195343092,-1.150301545111351],[29.58196607714283,-1.1490731607572606],[29.580663511668064,-1.146562191167353],[29.580378295125225,-1.144136778974035],[29.57961810247183,-1.143851388632294],[29.578271729262834,-1.140381898547067],[29.578406736234893,-1.137300311596525],[29.577570849123443,-1.1356074382606285],[29.579409275046356,-1.1230714000776107],[29.580507158470933,-1.121656617737922],[29.581218486941246,-1.119440835362211]]]}},{"type":"Feature","properties":{"n":"Nyanamo Town Council","c":"408205","d":"Kisoro","od":"Kisoro","dc":"408","k":"NYANAMOTOWNCOUNCIL","a":["NYANAMO","NYANAMOTOWNCOUNCIL"],"lat":-1.160104,"lon":29.740101},"geometry":{"type":"Polygon","coordinates":[[[29.701705117641005,-1.131122415433584],[29.70344674952701,-1.130050791610611],[29.705274208247474,-1.127096439814546],[29.70745405351027,-1.126480623329003],[29.71389057758667,-1.128556070631181],[29.71498754055519,-1.128262701960704],[29.714883953214795,-1.127271645413008],[29.720737972674762,-1.130175608274289],[29.723078725282523,-1.130297609567337],[29.725194643394367,-1.127085656997755],[29.726282185465525,-1.123597799374797],[29.7279294254213,-1.123751623809361],[29.7277,-1.1244],[29.72941436707988,-1.124724690734826],[29.729397651095578,-1.12543799017361],[29.733822413606884,-1.126417322087554],[29.734746154824467,-1.127509845068],[29.737572093814123,-1.126538372088184],[29.74073977145206,-1.128342024826477],[29.741331216868556,-1.1279535917303924],[29.7506,-1.1506],[29.75286215291398,-1.1527685465865074],[29.752913467948517,-1.153017131969267],[29.753201314921252,-1.153093674303822],[29.7651,-1.1645],[29.78,-1.173],[29.78371002486111,-1.1782630585238996],[29.78411930748959,-1.179257379662332],[29.785095908043633,-1.180229078852596],[29.788320269278632,-1.1848031726975963],[29.783399291888035,-1.189352228984075],[29.778037795410647,-1.1892968332944787],[29.7699,-1.1882],[29.758381327449825,-1.1924001789409475],[29.757871826377162,-1.19194355236789],[29.756728217742108,-1.1930029703260825],[29.75510652895415,-1.1935943043592598],[29.753702317625596,-1.193565144232393],[29.752938822641955,-1.1929454606425964],[29.749802739295973,-1.1864456427373395],[29.74979640154705,-1.186430941336906],[29.749795253780622,-1.1864301283261045],[29.749795182077523,-1.186429979714911],[29.749793359703933,-1.1864287866726373],[29.736782294702394,-1.1772125070167438],[29.73464940002882,-1.175197733293247],[29.735201633682017,-1.173647437758528],[29.732901607840738,-1.168744782773873],[29.729604673105808,-1.166149850771574],[29.725940366154102,-1.164768082692456],[29.72457725937714,-1.162727538861652],[29.723414412769642,-1.163478167673657],[29.716788454994685,-1.157480479049623],[29.71181273715144,-1.149264680751359],[29.71007023421311,-1.147908142136935],[29.709222489006127,-1.14558916565593],[29.701823582762128,-1.142190211701801],[29.70117340584084,-1.141188805419398],[29.701891074825895,-1.138976983011258],[29.700934170985953,-1.138032367832053],[29.70139029234159,-1.136743815626434],[29.700505867299587,-1.135548208793775],[29.702076088693616,-1.132222182583793],[29.701705117641005,-1.131122415433584]]]}},{"type":"Feature","properties":{"n":"Nyundo","c":"408206","d":"Kisoro","od":"Kisoro","dc":"408","k":"NYUNDO","a":["NYUNDO"],"lat":-1.196081,"lon":29.70375},"geometry":{"type":"Polygon","coordinates":[[[29.67067323752833,-1.216179617122159],[29.670673478139175,-1.216178367453626],[29.6706753089742,-1.216178667714565],[29.670902752713285,-1.2149875764827553],[29.67111262691936,-1.2138975458477526],[29.671798526376232,-1.214236968309324],[29.67179969052442,-1.2142344396531888],[29.671800332985562,-1.214234757959666],[29.67204528997501,-1.2137009710064954],[29.672446722788454,-1.212829015392548],[29.67398929013418,-1.2132115388696885],[29.675252203793494,-1.21352506691622],[29.675252430558192,-1.213524770488683],[29.675253500002704,-1.213525035687888],[29.67756784423244,-1.210499512282752],[29.67859661026379,-1.1900957519027158],[29.678596610278888,-1.190095751603358],[29.678596610278884,-1.1900957516033144],[29.678596617913428,-1.190095600185611],[29.67773578556419,-1.177928284126478],[29.67953125520676,-1.1776676730401974],[29.679589452406052,-1.177659585054132],[29.67958950382292,-1.1776592182967855],[29.679590834028133,-1.177659025218486],[29.679852585817375,-1.175789243379521],[29.681151017932503,-1.175939276907682],[29.681713659200607,-1.175386596842205],[29.685056906527866,-1.174663774590848],[29.686485584949917,-1.1738134720122555],[29.687823402915647,-1.173475710057166],[29.68836235538687,-1.172696479750498],[29.688512731526608,-1.172606980799998],[29.688502211978783,-1.1724942717621836],[29.688550090634834,-1.172425047662045],[29.688662651318012,-1.169346611248604],[29.688173976994726,-1.1689774809414224],[29.687848747316643,-1.165492889712361],[29.691081439955653,-1.16315270006102],[29.69183291836426,-1.163888245669694],[29.692853003574086,-1.163609216677971],[29.694243293373713,-1.161819865988398],[29.69395785366434,-1.160411348536958],[29.695499334214457,-1.155079837649032],[29.693272543518777,-1.149808598772393],[29.69578512659275,-1.145867007383456],[29.696204043410898,-1.142327577868204],[29.700047629637723,-1.140548924697001],[29.701728718562443,-1.1420441013087252],[29.701823582762128,-1.142190211701801],[29.70196714991915,-1.1422561644439968],[29.70298264164086,-1.143159352520116],[29.709221470090192,-1.1455886975802134],[29.709222489006127,-1.14558916565593],[29.709978792435336,-1.1476580064472333],[29.710070031595862,-1.14790760967636],[29.71007004273343,-1.1479076183511758],[29.71007023421311,-1.147908142136935],[29.711059843478726,-1.148678552993909],[29.711813063908945,-1.1492652202863245],[29.716788454994685,-1.157480479049623],[29.723414412769642,-1.163478167673657],[29.72457725937714,-1.162727538861652],[29.725940366154102,-1.164768082692456],[29.729426604871353,-1.1660827032848822],[29.72960476387919,-1.166149922216956],[29.732901607840738,-1.168744782773873],[29.734992875081176,-1.1732024551950127],[29.735201621476673,-1.1736474720228163],[29.73464940002882,-1.175197733293247],[29.734667283071325,-1.1752146259624334],[29.735962400581382,-1.176631740880502],[29.735863911530995,-1.1766614995698028],[29.732929986147834,-1.177547665138662],[29.732929556442254,-1.1775481215957067],[29.732929438072507,-1.177548157361393],[29.732393674351425,-1.178117365203777],[29.728999541170108,-1.181722801271654],[29.727916495801406,-1.184297395019805],[29.728267482370843,-1.1855468707563113],[29.72513948445849,-1.189989021407932],[29.725139478893965,-1.1899890498909922],[29.72513939779523,-1.189989165046384],[29.72482822935449,-1.191543814452151],[29.733583560187192,-1.200617395507251],[29.743488401680747,-1.212438419737702],[29.744021517323482,-1.214166445719709],[29.744021860728047,-1.214166875710817],[29.74402189330252,-1.214166981335044],[29.744518211996436,-1.21478837773546],[29.747731701766355,-1.218812121655069],[29.751715830351863,-1.220904064478183],[29.751715887559776,-1.220904073802689],[29.751715951350214,-1.220904107309447],[29.75189776038252,-1.2209337178534307],[29.754856041407994,-1.221415897826798],[29.754858623843507,-1.2214227751460518],[29.755773796252914,-1.224653321630396],[29.75625667878765,-1.2251459543461072],[29.756450771518246,-1.225662845345611],[29.75726985354389,-1.2261795867427099],[29.75927945827594,-1.2282297686512358],[29.759280264667435,-1.228233643819532],[29.75683070887296,-1.229510750687974],[29.756421056456414,-1.232197927561056],[29.75430932914579,-1.23451255988769],[29.75408503155289,-1.2359960096057698],[29.753984262241726,-1.2366600836298223],[29.752242168922542,-1.23670666360932],[29.750800218331186,-1.237982053042522],[29.750792353513685,-1.2379989159705485],[29.748407600998718,-1.242667489205864],[29.747561625006295,-1.238340398219058],[29.747561553095377,-1.2383403871043068],[29.747561524852674,-1.238340160773072],[29.745046856896018,-1.237951287372237],[29.7373641612349,-1.23225768147699],[29.736565295793273,-1.231865060685208],[29.735743967709837,-1.231275651843863],[29.72523756155951,-1.2262977852065016],[29.72523683380963,-1.226297427537088],[29.721426339502003,-1.223442582012517],[29.71988906558045,-1.2233969519990313],[29.719766456487786,-1.223392901876109],[29.71976606632999,-1.2233933010833562],[29.71976537680327,-1.223393280616533],[29.718679050486312,-1.2245039911255913],[29.716093179145563,-1.2240803529915636],[29.7145318287313,-1.22255743897775],[29.704306647053095,-1.2171174648011545],[29.70408582960277,-1.216999978166361],[29.704085806365033,-1.2169999737209949],[29.704085501544835,-1.216999811551358],[29.698515494114655,-1.2159341952397977],[29.697863460212133,-1.2152225645337165],[29.69421998391038,-1.211245182860766],[29.684953211121375,-1.209799892416685],[29.68208542015769,-1.212761711061267],[29.681837596195248,-1.2152045391513373],[29.681835563955566,-1.215224447953968],[29.681829669964614,-1.21522762967015],[29.68049168768865,-1.21594670473441],[29.67911108475902,-1.213820575972974],[29.67910991903868,-1.2138212304136515],[29.679109506224822,-1.213820594139572],[29.677077568188718,-1.214962197925714],[29.67707756726776,-1.214962201903998],[29.67707665289364,-1.21496271523777],[29.676528253038427,-1.2173318738283803],[29.67615913833047,-1.2178624063511725],[29.67473288512193,-1.219911992438734],[29.675040025065773,-1.220663334844091],[29.67332892956826,-1.222089403836616],[29.67322762006006,-1.222510709882357],[29.673174382537468,-1.22256493482109],[29.672876905302907,-1.223968969398613],[29.673805501898286,-1.226454125817579],[29.67380498513417,-1.2264548193470555],[29.673061550864915,-1.227264046362698],[29.67304349763601,-1.2272462579259562],[29.67046518987247,-1.2247033152482623],[29.670371508989188,-1.2243387736044573],[29.669590936725495,-1.221297399762311],[29.669990130897947,-1.217987006541993],[29.66998948550498,-1.2179865506576504],[29.6699895680638,-1.21798586537618],[29.66768334196848,-1.2163575667880713],[29.66759260487208,-1.216293473090489],[29.66751582464763,-1.215247626038643],[29.668791176770995,-1.214733048632879],[29.669514250076357,-1.215988251521906],[29.66953687243178,-1.2159919616375572],[29.67067323752833,-1.216179617122159]]]}},{"type":"Feature","properties":{"n":"Rubuguri Town Council","c":"408207","d":"Kisoro","od":"Kisoro","dc":"408","k":"RUBUGURITOWNCOUNCIL","a":["RUBUGURI","RUBUGURITOWNCOUNCIL"],"lat":-1.109694,"lon":29.681364},"geometry":{"type":"Polygon","coordinates":[[[29.623205709679603,-1.1179816036638321],[29.627334257943343,-1.1160936902364904],[29.628003187012958,-1.115787991965393],[29.628003158014224,-1.115787813849757],[29.628003816920366,-1.11578751254342],[29.627740910689564,-1.114167942107559],[29.63063142646058,-1.107958706127621],[29.631289608875445,-1.1065454183296128],[29.632096765489344,-1.107428535103691],[29.632098431028176,-1.1074262546885876],[29.632099092539846,-1.107426977423935],[29.632895014014025,-1.1063355927134877],[29.634118484847917,-1.104660446319609],[29.637869801992103,-1.106130065878027],[29.640838785946208,-1.1048908398997],[29.641565360019392,-1.10367572211965],[29.6444932932502,-1.105254323492461],[29.646171243977903,-1.1038916127801282],[29.64813519861083,-1.102297075451624],[29.648135036089887,-1.1022967622856472],[29.648136258021875,-1.102295769920507],[29.647526220264584,-1.101111695908351],[29.650158175172965,-1.095556807178506],[29.64909420577039,-1.091315538541505],[29.65936341761891,-1.0691352776443632],[29.6653339816495,-1.0562396013521422],[29.673850014373752,-1.0556121042040394],[29.676201258702022,-1.05774947097403],[29.680245256813475,-1.059652556091176],[29.684411352312367,-1.059947340773356],[29.684209592757824,-1.061367000031046],[29.688236078625803,-1.060194926456037],[29.69022439183726,-1.058575244489989],[29.691383720253853,-1.0590027468436078],[29.691457890750343,-1.059293629405149],[29.691814646349336,-1.0591616508413177],[29.693682581703474,-1.0598504520031558],[29.69433466024184,-1.060800510254611],[29.697261222703524,-1.061655445381163],[29.697260751102096,-1.060921574280494],[29.7109,-1.0586],[29.711705803871254,-1.0595230117070737],[29.712734333209728,-1.061528592492985],[29.71524401376985,-1.0635758703181923],[29.71926926366551,-1.068186611107765],[29.72013315474089,-1.070189292547917],[29.721082282047846,-1.0702633412548028],[29.7219,-1.0712],[29.733669533317972,-1.071376985463428],[29.73675258373788,-1.072335446351917],[29.745866774010818,-1.078299465227976],[29.75015076650693,-1.077507935097344],[29.751229800922403,-1.0779487601329325],[29.75155549204981,-1.07835930718807],[29.74951912218488,-1.0902233750967971],[29.74902752110307,-1.09165123940879],[29.749025462171762,-1.0916527670173264],[29.7369,-1.0984],[29.736567822828597,-1.0993387615713492],[29.73577699330098,-1.099679420530565],[29.733499579270358,-1.10800988467072],[29.73230753007368,-1.111378719356989],[29.729578562198984,-1.116776088590823],[29.72952862698209,-1.1192321411375667],[29.727908017223886,-1.1238121252368445],[29.7279294254213,-1.123751623809361],[29.726282185465525,-1.123597799374797],[29.72624257600251,-1.1237248309363168],[29.72597142213282,-1.123710618373852],[29.72519677491978,-1.1270788209797715],[29.725194643394367,-1.127085656997755],[29.723078725282523,-1.130297609567337],[29.720737972674762,-1.130175608274289],[29.720002328459568,-1.129810682346958],[29.714887566081497,-1.12727317582139],[29.714887594518373,-1.1272734517292378],[29.714883953214795,-1.127271645413008],[29.71498754055519,-1.128262701960704],[29.71389057758667,-1.128556070631181],[29.713886996832237,-1.1285549160224138],[29.70810302492151,-1.12639789619546],[29.70759033280921,-1.1265245663796268],[29.70745405351027,-1.126480623329003],[29.705274208247474,-1.127096439814546],[29.70527393918837,-1.1270968747875696],[29.705273550952008,-1.127096970708631],[29.70466082488169,-1.1280880628964205],[29.70344674952701,-1.130050791610611],[29.701705117641005,-1.131122415433584],[29.702076086300305,-1.132222175488676],[29.70050588269687,-1.135547237316218],[29.700506152946346,-1.1355476037398562],[29.700505867299587,-1.135548208793775],[29.70075239317368,-1.1358814739157397],[29.701389678173427,-1.1367455506641178],[29.700934170985953,-1.138032367832053],[29.700935244291717,-1.1380334273543111],[29.700935141833707,-1.138033716480591],[29.70109263354812,-1.138188795401171],[29.701890356983228,-1.1389762743872023],[29.701888594241215,-1.1389846280577782],[29.701173422080174,-1.141188755370525],[29.70117339553582,-1.141188800276166],[29.700640566793226,-1.141076288689526],[29.700047629637723,-1.140548924697001],[29.699450880303313,-1.1408250756751301],[29.698833993203305,-1.140694814409453],[29.696237463053535,-1.142312112636036],[29.696204043410898,-1.142327577868204],[29.69578512659275,-1.145867007383456],[29.693272543518777,-1.149808598772393],[29.69450459354291,-1.1527250964916285],[29.695499203723077,-1.155080288978893],[29.694077856575817,-1.1599962950813234],[29.69395820241561,-1.160409895405744],[29.69395823179452,-1.1604100407000297],[29.69395785366434,-1.160411348536958],[29.694243293373713,-1.161819865988398],[29.692853003574086,-1.163609216677971],[29.69183291836426,-1.163888245669694],[29.691081439955653,-1.16315270006102],[29.691080632259066,-1.1631532847634358],[29.691080556012825,-1.163153210146283],[29.69105335249232,-1.1631730329532426],[29.687848747316643,-1.165492889712361],[29.687850083695807,-1.1655072080093267],[29.687842663627016,-1.165512614904778],[29.684479864699846,-1.1630537901939364],[29.67717841952813,-1.153294990470653],[29.675115053465422,-1.151954205526364],[29.675020552819998,-1.15099833146489],[29.674603782026896,-1.1507095226095865],[29.670550612567055,-1.1478985966239499],[29.675406038381666,-1.146331404347317],[29.673441405237387,-1.145117008780439],[29.673554521418644,-1.143720767705445],[29.67361602908225,-1.14297399557862],[29.67361503752683,-1.1429737916759684],[29.673615112971778,-1.142972860426908],[29.671570685008607,-1.1425533926846883],[29.670224629649873,-1.1422765909540784],[29.670483303798868,-1.141057360520324],[29.668944158854362,-1.140016025004359],[29.665778718075337,-1.139862858627947],[29.665777537627267,-1.1398643817398528],[29.665777469188694,-1.139864378462091],[29.664133899583504,-1.141985139727819],[29.661353002702306,-1.145573283295609],[29.659565576963455,-1.1466040745295687],[29.657055875565646,-1.148051087585352],[29.65705602959849,-1.1480513063606803],[29.657052554692314,-1.148053310305654],[29.658019384628243,-1.1494259633075],[29.656403665736594,-1.15003276905155],[29.655569332235668,-1.1524464980920666],[29.65536740503151,-1.1524875128771837],[29.65303813178721,-1.152960363290627],[29.651496243532005,-1.154407075744102],[29.649077693997707,-1.158270077760597],[29.645671319817385,-1.158556855350206],[29.645042294621735,-1.160041238903047],[29.641673348792878,-1.160402837045286],[29.639795132394557,-1.159466022207562],[29.63988252863658,-1.159679210268812],[29.63970173398965,-1.1596061277478953],[29.637236078539242,-1.1563069752035549],[29.637234662242278,-1.156305061697477],[29.638799288661207,-1.1534264982445706],[29.638853225338472,-1.153327482947843],[29.639161563244187,-1.150898454697013],[29.636092093888244,-1.14692474068528],[29.63518799772276,-1.141760640704012],[29.635557559936235,-1.1381780649924023],[29.63631655702274,-1.1375443800324998],[29.640282885271347,-1.13423330092228],[29.639366794002488,-1.131306569965187],[29.634443178485373,-1.129748244940914],[29.634135437331096,-1.127952343800796],[29.63413284163597,-1.1279523348116394],[29.634132790975826,-1.127952039913841],[29.63288758106414,-1.1279480223474563],[29.630066149053143,-1.127938251441055],[29.629598204692698,-1.1275747095965694],[29.62624816987414,-1.124971388956888],[29.624563007325897,-1.124610993172909],[29.622899876276833,-1.125684166365333],[29.621185431733938,-1.1256929848088102],[29.621084495277216,-1.12569349251597],[29.62309649534133,-1.1206017036272777],[29.62313161788807,-1.120513276462218],[29.623184748154827,-1.1186917856750147],[29.623205709679603,-1.1179816036638321]]]}},{"type":"Feature","properties":{"n":"Central Division","c":"408301","d":"Kisoro","od":"Kisoro","dc":"408","k":"CENTRALDIVISION","a":["CENTRAL","CENTRALDIVISION"],"lat":-1.281371,"lon":29.690061},"geometry":{"type":"Polygon","coordinates":[[[29.690265159732352,-1.280347355842142],[29.69794014620544,-1.278678536674349],[29.700243060311923,-1.282604442632724],[29.695747525028963,-1.282493639937313],[29.695169569030444,-1.285734293661779],[29.69219636167996,-1.29002564035835],[29.688264201463966,-1.283377800126311],[29.684367263706452,-1.284315393378145],[29.68089064564546,-1.282395032721944],[29.680157378656446,-1.279782754454823],[29.677677308155832,-1.27892068196487],[29.678732024485697,-1.2763262884556295],[29.679249171256036,-1.2754986014672023],[29.68148916039878,-1.27334274491034],[29.68616555015093,-1.272699540838733],[29.687307428615895,-1.2717677026691359],[29.690265159732352,-1.280347355842142]]]}},{"type":"Feature","properties":{"n":"North Division","c":"408302","d":"Kisoro","od":"Kisoro","dc":"408","k":"NORTHDIVISION","a":["NORTH","NORTHDIVISION"],"lat":-1.270199,"lon":29.698525},"geometry":{"type":"Polygon","coordinates":[[[29.69173663001767,-1.2673127415272742],[29.69206794340462,-1.2662373303773],[29.691741822560417,-1.263019674831742],[29.69146726688019,-1.2626525036933893],[29.691434153113498,-1.26207960411328],[29.68860235125198,-1.258806183992572],[29.688764792448154,-1.2586762000700655],[29.69194965809657,-1.2565434924078542],[29.692137640882866,-1.256421922970913],[29.696853825886926,-1.263705007478432],[29.70206737020434,-1.2633923970337628],[29.702091546856074,-1.263390957639708],[29.70524579861148,-1.2669324652998957],[29.706866234174225,-1.268752209589916],[29.708361212026738,-1.269401517980753],[29.707279473399005,-1.27099583479801],[29.70853025735692,-1.27287928064106],[29.710105770832826,-1.272621445491214],[29.710209522081925,-1.273749257722082],[29.711752173849337,-1.274087342302191],[29.712097209791153,-1.2760190289988214],[29.711660882683077,-1.2773141268064956],[29.71108919004545,-1.27901034156673],[29.711844667965565,-1.282588450690102],[29.712044360878902,-1.2825790060246491],[29.712081821992893,-1.282718978070861],[29.710332976719307,-1.283877413180687],[29.708628449142587,-1.283010243747841],[29.700243072135304,-1.282604444745945],[29.700212431338777,-1.2825522277160548],[29.69794014620544,-1.278678536674349],[29.697939449896467,-1.27867868807706],[29.69793932411584,-1.278678473725882],[29.6968778463229,-1.2789095190235877],[29.690265159732352,-1.280347355842142],[29.687307428615895,-1.271767702669137],[29.691390731805818,-1.268435493605617],[29.691581019089522,-1.2678178395214348],[29.691757004371908,-1.267665237185559],[29.69173663001767,-1.2673127415272742]]]}},{"type":"Feature","properties":{"n":"South Division","c":"408303","d":"Kisoro","od":"Kisoro","dc":"408","k":"SOUTHDIVISION","a":["SOUTH","SOUTHDIVISION"],"lat":-1.289405,"lon":29.701258},"geometry":{"type":"Polygon","coordinates":[[[29.680150232510933,-1.2797802704546895],[29.680157378656446,-1.279782754454823],[29.680600497539686,-1.2813613743106025],[29.680890428396044,-1.282394786779571],[29.680890603809413,-1.282394883680197],[29.68089064564546,-1.282395032721944],[29.683491022783883,-1.2838313889337298],[29.68436681954401,-1.284315190451601],[29.684366872997664,-1.2843151775644508],[29.684367263706452,-1.284315393378145],[29.688264201463966,-1.283377800126311],[29.69219636167996,-1.29002564035835],[29.695169569030444,-1.285734293661779],[29.695747525028963,-1.282493639937313],[29.695803301044354,-1.2824950146641154],[29.708626234684584,-1.283010136582135],[29.708628449142587,-1.283010243747841],[29.710332976719307,-1.283877413180687],[29.71033337916944,-1.2838771465977172],[29.71033390567278,-1.283877414380185],[29.712248971372233,-1.28266291090879],[29.71221582624657,-1.2829179710334329],[29.711624223938248,-1.287468816759422],[29.709917113630926,-1.288784067804711],[29.7098286154517,-1.2908327549002252],[29.709821936123237,-1.2909847937419676],[29.707638778021458,-1.293804732349441],[29.70763873296322,-1.2938055800700496],[29.707638582127338,-1.293805774938313],[29.707613830289734,-1.294274096128857],[29.707519230909742,-1.296053878075266],[29.703979929875494,-1.2992418979662193],[29.70397981658271,-1.299241984529447],[29.703975437285738,-1.2992415606832126],[29.703958933779163,-1.299214439127682],[29.70153716196736,-1.299005325499849],[29.694740707136525,-1.3003135133261063],[29.693433549164627,-1.300565066332977],[29.693430724150346,-1.3005642614682023],[29.68943585866625,-1.299120967573292],[29.689415234172458,-1.299111891756261],[29.68778999896801,-1.296616811458505],[29.688650130312784,-1.295793859474311],[29.688393148377198,-1.294608892914305],[29.686701237627826,-1.2945012264105105],[29.686692703070754,-1.294367151069855],[29.686615693205727,-1.293095553899646],[29.686611677989514,-1.2930942712617879],[29.68661167476197,-1.293094220558006],[29.68648838376495,-1.2930548856267938],[29.685073810803594,-1.292603008383363],[29.682085207349303,-1.2935971879454398],[29.682063555789924,-1.2935904020718287],[29.680268862570692,-1.293027035806011],[29.67913163778471,-1.288526294082124],[29.679131504324875,-1.2885262441609358],[29.679131474388296,-1.288526125484711],[29.678977820381924,-1.2884687580631287],[29.677454505231342,-1.287898955896072],[29.67287469076857,-1.2815080471385978],[29.672885936326075,-1.2815007351129983],[29.677450345887237,-1.2791610450272735],[29.680150232510933,-1.2797802704546895]]]}}]}
