{"type":"FeatureCollection","name":"Kole sub-counties","metadata":{"source":"Uganda Bureau of Statistics NPHC 2024 Map Explorer","retrieved":"2026-07-26","display_only":true,"clipped_to_dashboard_district":true,"positive_area_overlaps_removed":true,"source_gap_ratio":0.02322645},"features":[{"type":"Feature","properties":{"n":"Aboke","c":"325101","d":"Kole","od":"Kole","dc":"325","k":"ABOKE","a":["ABOKE"],"lat":2.390282,"lon":32.737759},"geometry":{"type":"Polygon","coordinates":[[[32.695836877219406,2.422018024357443],[32.6943717024503,2.4263073454725004],[32.69445840198623,2.4276635739275325],[32.69673745729165,2.429376160838038],[32.69729002676043,2.43226477101738],[32.695095803905666,2.4376343610958737],[32.6951,2.4377],[32.69517334983402,2.437829584706778],[32.70155636186779,2.443438154158007],[32.70678462112803,2.453984636606397],[32.70705346442081,2.4588177871434347],[32.7071,2.4589],[32.7071,2.458950433199946],[32.710894281076214,2.46249032084556],[32.70866943396675,2.468505847725839],[32.709162996910194,2.471861144666378],[32.716227369473124,2.467433895949113],[32.72383460812966,2.466107320406576],[32.72648493969526,2.4662114380497777],[32.7304,2.4648],[32.741948444416856,2.4688193115372394],[32.74286158329962,2.468406622321673],[32.745858335677525,2.4701801070250204],[32.7508,2.4719],[32.7508410262523,2.471902841645181],[32.7529024153482,2.470832676095381],[32.755743788318945,2.471240687052475],[32.75686633267542,2.4723201788866094],[32.75874630984347,2.4724503937553917],[32.76287831021468,2.47211916425525],[32.7649767072473,2.4728819364327137],[32.7739,2.4735],[32.77397361913355,2.4735390466122698],[32.774198742819486,2.473551100010762],[32.773178517652,2.472275035786974],[32.77258390612852,2.46887603634588],[32.77287020393308,2.46483084372782],[32.77182389312108,2.459803853693195],[32.76865330920224,2.456705912798262],[32.767213443850615,2.453260742283712],[32.77084799918997,2.450860280133274],[32.770220077059776,2.445034612610411],[32.774071016161336,2.438708128319054],[32.77375213436541,2.435434920421549],[32.77284507522611,2.4320240008745],[32.76912869864639,2.431353786705517],[32.766719744719474,2.429688974440106],[32.76393262760841,2.426856717369104],[32.763111503930396,2.424747974619279],[32.763285364660696,2.421363849734863],[32.76813758762433,2.412960880669652],[32.767566675912185,2.403217023627804],[32.763419135775024,2.396322378275604],[32.7563662960552,2.381293716982106],[32.75309381397602,2.377104552752694],[32.74952815423629,2.374127217576452],[32.74628560575271,2.359687504615528],[32.74414992177184,2.357181058503881],[32.738105843657465,2.352656714094229],[32.73601739149641,2.349136910172729],[32.73047264712231,2.334148076440036],[32.73071069849042,2.323946700806233],[32.72883691738945,2.313626014427529],[32.72659214551191,2.308820966158745],[32.72270436030198,2.306323116947842],[32.719584637196476,2.309000436230694],[32.7203680112865,2.309221492108423],[32.71234418037982,2.318614639566956],[32.70921464964107,2.320374925481292],[32.71056920271255,2.322203895162195],[32.71298664393634,2.323345965382806],[32.715781489937584,2.319687504195602],[32.7218485455844,2.319230690978957],[32.720649800287134,2.316888036276297],[32.72332705809687,2.31524864254991],[32.7234684316201,2.317179792153958],[32.72589718625304,2.320374469395146],[32.72553538614396,2.326712924172428],[32.72657409806419,2.328564213670711],[32.72679529029072,2.337107123887504],[32.71796294889246,2.337368938033463],[32.718979913300515,2.341352810805313],[32.72140651218176,2.34166606652061],[32.7211250528824,2.345589873093136],[32.71632959124179,2.344059506197413],[32.71191608635186,2.344238879779297],[32.71189923820327,2.349081347321258],[32.71413582792171,2.354934836911892],[32.7134219811929,2.359931643846601],[32.711946573408085,2.36193057400861],[32.70823522733793,2.364500004481134],[32.702571749495675,2.367260436197906],[32.6999404680667,2.371632658281579],[32.72177632153267,2.38808119575063],[32.720336546514815,2.389179598080491],[32.71553119394776,2.389834373429386],[32.71349523702803,2.39135644678465],[32.71164808040815,2.39072898348505],[32.70764091003978,2.391989906352527],[32.705201996387764,2.387716164242605],[32.698037692284444,2.393076503317579],[32.69727585373026,2.394488617655387],[32.69611827586579,2.404241574220663],[32.69397683696525,2.408287117076629],[32.694332606697984,2.415016681876574],[32.69351057387213,2.415041905633912],[32.695789386990725,2.41879976622924],[32.695836877219406,2.422018024357443]]]}},{"type":"Feature","properties":{"n":"Aboke Town Council","c":"325102","d":"Kole","od":"Kole","dc":"325","k":"ABOKETOWNCOUNCIL","a":["ABOKE","ABOKETOWNCOUNCIL"],"lat":2.352183,"lon":32.664737},"geometry":{"type":"Polygon","coordinates":[[[32.61694552560224,2.349430951737935],[32.61469769113825,2.3605725771170576],[32.6147,2.3608],[32.6404,2.3812],[32.6509,2.3972],[32.65829137955665,2.39664216003346],[32.65979810774688,2.396264186578551],[32.66115443308222,2.39485759081446],[32.66233496134183,2.397314481469622],[32.66681014656093,2.4022158748048263],[32.66817985278108,2.402696640267923],[32.67297491952714,2.408967769005922],[32.68026711269524,2.4169544567614585],[32.6804052445013,2.417075447398612],[32.6882717617263,2.415918906874358],[32.69021811636166,2.416140334490965],[32.69200731663938,2.4159654502532932],[32.69366304543912,2.415293337789028],[32.69351057387213,2.415041905633912],[32.694332606697984,2.415016681876574],[32.69397683696525,2.408287117076629],[32.693976877193236,2.408287041079106],[32.693976875861516,2.408287015948566],[32.69406448873149,2.4081215279595876],[32.69611827586579,2.404241574220663],[32.69727585373026,2.394488617655387],[32.698037692284444,2.393076503317579],[32.69923877525072,2.3921778519114465],[32.7000606714348,2.391210294425556],[32.70415462622091,2.388170904034348],[32.70516204321998,2.387746057240357],[32.705201996387764,2.387716164242605],[32.70520799629356,2.3877266779604733],[32.70523702809824,2.387714434699585],[32.707493395382805,2.391731414379756],[32.707640658253545,2.3919894651440363],[32.71164753482064,2.390729104093138],[32.71164761282607,2.3907291306175367],[32.71164808040815,2.39072898348505],[32.71349523702803,2.39135644678465],[32.71508505203662,2.3901679073607953],[32.71553102606192,2.389834448045186],[32.71553110931607,2.389834436699709],[32.71553119394776,2.389834373429386],[32.718840469198675,2.3893834529554416],[32.720336583841274,2.3891795696041873],[32.72177632153267,2.38808119575063],[32.6999404680667,2.371632658281579],[32.69994135507891,2.371631184393476],[32.699941333687455,2.37163116828198],[32.700577593592506,2.370573989960009],[32.702571749495675,2.367260436197906],[32.70823522733467,2.3645000044827245],[32.70823531746264,2.3644999420862067],[32.711946573408085,2.36193057400861],[32.7134219811929,2.359931643846601],[32.71413582792171,2.354934836911892],[32.71189923820327,2.349081347321258],[32.71189923898706,2.349081122046332],[32.711899231063846,2.349081101310184],[32.71189943174845,2.349025718880025],[32.71191608635186,2.344238879779297],[32.71632959124179,2.344059506197413],[32.71632962509415,2.3440595170006553],[32.71632965571918,2.344059515749544],[32.716393044687834,2.344079755979505],[32.7211250528824,2.345589873093136],[32.721406456606225,2.341666841295632],[32.72054501373721,2.3415548535329336],[32.718979913300515,2.341352810805313],[32.71796294889246,2.337368938033463],[32.72679529029072,2.337107123887504],[32.72657409806419,2.328564213670711],[32.72553538614396,2.326712924172428],[32.72589718625304,2.320374469395146],[32.7234684316201,2.317179792153958],[32.72346841055336,2.3171795043841823],[32.72346825365781,2.317179298040754],[32.72345830506353,2.3170414643026382],[32.72332705809687,2.31524864254991],[32.72112434779779,2.316597451555988],[32.72065013862816,2.3168886974811342],[32.7218485455844,2.319230690978957],[32.72184492418894,2.319230963648503],[32.72184516670349,2.319231438665298],[32.71578148251508,2.319687513911689],[32.71298664393634,2.323345965382806],[32.71298628482346,2.3233457957273354],[32.712986089902216,2.323346050882682],[32.71056965097401,2.322204225014982],[32.71056951638367,2.322204043349646],[32.71056920271255,2.322203895162195],[32.70998785602401,2.3214189384928527],[32.70921698223455,2.32037843995102],[32.709217172863546,2.3203783324333758],[32.70921464964107,2.320374925481292],[32.71234418037982,2.318614639566956],[32.7203680112865,2.309221492108423],[32.719584637196476,2.309000436230694],[32.719783202649324,2.308830029083058],[32.71669022126668,2.306794762478389],[32.71643314985474,2.304689026575382],[32.71502689208762,2.303789592500193],[32.71291345683535,2.303596380444816],[32.71006578324337,2.305045271595129],[32.70850104154141,2.304372697110003],[32.70860187201199,2.303046724131691],[32.70326197557392,2.303560336322355],[32.70290707235289,2.302103142559273],[32.69870544530171,2.299378803592953],[32.69666421146552,2.29669165849722],[32.691159362675236,2.294618574306914],[32.686464989940845,2.291170720236886],[32.68482168252711,2.290509917868606],[32.681790998399876,2.291259122876912],[32.68076086134428,2.290554442512337],[32.68063153807135,2.289197156204625],[32.67725142299442,2.287305556662198],[32.670607373425774,2.286354135304527],[32.66796753097355,2.287508221646495],[32.66823814717354,2.291360839881305],[32.66600057576024,2.303599544700325],[32.66222037310865,2.306029303514896],[32.66037889200254,2.308229788510093],[32.657793880114184,2.30907922362728],[32.655830948054806,2.310792320594235],[32.64966314102154,2.319439276018866],[32.64673294040138,2.318982173600741],[32.6429,2.3226],[32.632029053860435,2.3224035371179594],[32.63195581786996,2.322437836530378],[32.62617644068448,2.322897867655731],[32.623585373277876,2.335435290590917],[32.62377246504947,2.336568841736534],[32.62325281120597,2.337044461906579],[32.6232,2.3373],[32.62276695968632,2.3374891440450565],[32.622541532555644,2.337695469258588],[32.62222389644126,2.3377263440831246],[32.61468988551052,2.3410170615011503],[32.61676996085402,2.346439967778882],[32.61694552560224,2.349430951737935]]]}},{"type":"Feature","properties":{"n":"Alito","c":"325103","d":"Kole","od":"Kole","dc":"325","k":"ALITO","a":["ALITO"],"lat":2.477088,"lon":32.855438},"geometry":{"type":"MultiPolygon","coordinates":[[[[32.77182302706962,2.459802985337006],[32.771823032860866,2.4598030131428845],[32.77182389312108,2.459803853693195],[32.77287020393308,2.46483084372782],[32.77264132612039,2.4680647310422152],[32.77258391869636,2.4688761081879025],[32.773178517652,2.472275035786974],[32.77417672709456,2.4735235634631167],[32.77419875454305,2.473551102630582],[32.77856366096287,2.47499439619349],[32.78138270472133,2.477468727366012],[32.792,2.4831],[32.792218764475095,2.483475877143573],[32.79251631284417,2.483565063488478],[32.79382188299142,2.4862303262307166],[32.79672127624404,2.4912120110011267],[32.800687307166,2.494186084397057],[32.80211047610828,2.496898223102352],[32.8028114489454,2.5016760350061915],[32.803,2.502],[32.820040969818486,2.5169603862941363],[32.82029813050638,2.5170823043349153],[32.82610457855526,2.516035239932659],[32.827742610893225,2.508117079805654],[32.82848619279607,2.5069151543807884],[32.829621484140866,2.5021973881257398],[32.82963560283956,2.500130076838603],[32.830619197982195,2.4980513328295495],[32.8308,2.4973],[32.83109766299275,2.497304933640764],[32.83555329664097,2.495049312477426],[32.844625471885244,2.497096641798958],[32.84802619650631,2.496622295874068],[32.849361557726006,2.4979287808459225],[32.85557749379787,2.5023565709245066],[32.856961827743156,2.502976039545569],[32.85746215653369,2.5036990704075586],[32.8635,2.508],[32.869812285265134,2.492058805008387],[32.86938527382086,2.490870380877703],[32.86982205457846,2.487079324053584],[32.87128526808958,2.484376236733393],[32.8730990155938,2.483758418246162],[32.87459802744979,2.479972778135271],[32.87443764148416,2.477643705472237],[32.875771365307266,2.476251054190091],[32.87624315742195,2.473999088506603],[32.87733452368144,2.4730619656180584],[32.87805371538619,2.4712457018213314],[32.87823901848805,2.465485155980889],[32.88125648476276,2.4629805080606477],[32.88198383749038,2.4588664191950187],[32.881697914391296,2.457288215362404],[32.88303197655535,2.452122887135488],[32.88230073314124,2.4491555946111],[32.882796215507575,2.447418848045611],[32.884302152534296,2.445753449727875],[32.8844,2.4452],[32.885053583621385,2.4449224507909184],[32.88538172196258,2.444559566399529],[32.88597748132603,2.4445301106697688],[32.898491391580784,2.439215984397201],[32.899284400875246,2.438492141294206],[32.899362325595,2.4383529900089345],[32.87816614100616,2.438896661432574],[32.877776782402776,2.439580818376646],[32.87706167716441,2.438889388152881],[32.86806838499405,2.439143442579985],[32.8681868794275,2.443183892070812],[32.8693119913793,2.443951798745581],[32.86949079948855,2.44586519725651],[32.86832987175836,2.446556534835246],[32.863512485324414,2.445878468362258],[32.86187059334028,2.447948722517963],[32.86104974763771,2.450661177275227],[32.86230423151554,2.454112600499038],[32.86394569211246,2.454773393786257],[32.865073654368736,2.456386965517098],[32.86508339818918,2.461966777165984],[32.85993734207309,2.458526495308694],[32.85520697871199,2.460201630576055],[32.85501662317298,2.462333620727499],[32.860831862797205,2.462464472378408],[32.864605746671685,2.464009658465879],[32.862789765757164,2.466018880683572],[32.86095282232254,2.470130584559398],[32.860354086670604,2.47482504875698],[32.85774553649821,2.475124307516109],[32.855425274407544,2.476706577820778],[32.85450144951456,2.476304996909871],[32.85425089340836,2.475058404326598],[32.855370827825816,2.474605576046082],[32.855213786258815,2.473077973170132],[32.852158939540715,2.474548358441574],[32.84351159758327,2.476440110166174],[32.835365382825984,2.474390756255191],[32.83619462164276,2.478532392664282],[32.832940964780974,2.48435240730951],[32.83297990966007,2.48684734335664],[32.8293205566157,2.48547775115133],[32.82682223636384,2.483012361048217],[32.82301519609846,2.48109685456909],[32.822705296722816,2.479971776930475],[32.82099197926953,2.47930109899661],[32.81846947367459,2.476260925323868],[32.80716054152551,2.476020551576381],[32.80346084469824,2.474290639893688],[32.805295465603,2.46873072719073],[32.8048018278997,2.461154560796218],[32.80771233924952,2.461667406640593],[32.81256664886126,2.466449808702292],[32.815079352813875,2.465950126471492],[32.81413725464634,2.464564576162092],[32.815236196964776,2.463780151458096],[32.81998356174797,2.464639093561794],[32.81937575431408,2.462209873406227],[32.81704388063015,2.458882272418737],[32.811103714367384,2.455406976719575],[32.809747091954506,2.45333678549712],[32.807672263582404,2.448828432070394],[32.809194944819566,2.4449858898977],[32.80565906621928,2.438779067843171],[32.79570261440758,2.437062606014945],[32.79416016709214,2.441250079832431],[32.79307179220307,2.440892045240439],[32.79034723922849,2.437548990092368],[32.78804379419262,2.43914513518733],[32.788403224665075,2.441279079696959],[32.79212703507165,2.442848785229677],[32.79031574840476,2.447018897760818],[32.789385922540916,2.45204635150191],[32.78783028359597,2.454669448324999],[32.78436828836491,2.453515205555549],[32.7815528583976,2.45144949155674],[32.78029895129649,2.453690822882722],[32.78025984248379,2.45587131287549],[32.776711781440085,2.454804963414798],[32.77743068201625,2.452300475466295],[32.77389247571371,2.451008345749206],[32.772785981965015,2.449545064399619],[32.770845588540354,2.4508379148709314],[32.77084799918997,2.450860280133274],[32.767213443850615,2.453260742283712],[32.76865323735536,2.456705740889996],[32.77182302706962,2.459802985337006]]],[[[32.73050248890228,2.321478113415524],[32.73049942776969,2.3227830329431787],[32.73071069849042,2.323946700806233],[32.73047278061432,2.334142355817168],[32.73047276643803,2.334148398980309],[32.7360173104124,2.349136690982323],[32.736683186580095,2.3502590178226717],[32.738105771430384,2.352656592365246],[32.74291163328819,2.356254127469482],[32.74414992177184,2.357181058503881],[32.74628560575271,2.359687504615528],[32.74952815423629,2.374127217576452],[32.75309381397602,2.377104552752694],[32.753093983114205,2.377104769269579],[32.75309406095063,2.377104834259958],[32.7563661945588,2.381293568864459],[32.75636621594037,2.3812936144256445],[32.7563662960552,2.381293716982106],[32.763419135775024,2.396322378275604],[32.767566675912185,2.403217023627804],[32.76813758762433,2.412960880669652],[32.7674924398619,2.414078132850942],[32.7632853515934,2.4213641040841605],[32.763111503930396,2.424747974619279],[32.76393258438374,2.4268566063630312],[32.769128493784194,2.4313536451265936],[32.76912869864639,2.431353786705517],[32.7724368479388,2.431950380856116],[32.77284507935698,2.432023990156684],[32.77649474567732,2.430129777683848],[32.77946845959772,2.429919281794381],[32.78875655824603,2.436255064555336],[32.78893148347732,2.432023113939971],[32.787189656915864,2.428738169119062],[32.78798889764367,2.423458126479697],[32.79019733192526,2.42433969548168],[32.79109200656347,2.423349879879576],[32.79785919695259,2.42492980164114],[32.801497927727354,2.422447784587271],[32.80224039829347,2.419106932420147],[32.799242330183226,2.413381686772221],[32.80173534288891,2.408800961702622],[32.80684574464096,2.410561012844307],[32.805983674950774,2.40890508905504],[32.808566217501145,2.409489041314824],[32.81010154561946,2.411090968957355],[32.81492336226868,2.40976156531978],[32.81578153438319,2.412092420728609],[32.818303753285555,2.412825292949938],[32.819531168955834,2.410379663044],[32.821606432855354,2.409094307977163],[32.81963600323348,2.408169112312342],[32.8206442794313,2.402942340370803],[32.818261669904224,2.397725132070827],[32.81471851094053,2.394236439387054],[32.817628996785075,2.39382617348372],[32.819036474853526,2.388591161784122],[32.82037727917348,2.389198116572858],[32.821456762439425,2.388322845220825],[32.831188235202866,2.390662659750348],[32.83332987418037,2.390348589940901],[32.835383801655205,2.388471188510229],[32.835734607341195,2.383138110051766],[32.8337321480394,2.384711297611164],[32.827569404341695,2.383096059426908],[32.82764574916725,2.381476506077403],[32.82592365721121,2.380250088742541],[32.82536141159672,2.370549933778085],[32.82386235582593,2.369169848923586],[32.81869892720026,2.367932529390782],[32.81731884598332,2.368717749138998],[32.817609430597315,2.371325360245157],[32.81509130860665,2.371574868678536],[32.81368313021229,2.371250970851036],[32.81030750607748,2.36745823868456],[32.80788355596016,2.367426534019355],[32.80787300630515,2.368688700250122],[32.80239228653323,2.36733054224077],[32.80116412715657,2.369984840815612],[32.799601614959904,2.369612447352331],[32.795006438445334,2.37113767835832],[32.78926058249925,2.375969142416976],[32.773593816191905,2.359287787566508],[32.77303485832063,2.348652600408381],[32.77415736509381,2.342287191479367],[32.770505260609916,2.329753222580165],[32.766693094930886,2.329527829601509],[32.764478586843566,2.327917101023332],[32.763484981702014,2.326017109236681],[32.759272013991044,2.325908056103482],[32.75829971597053,2.324741521609191],[32.75845100933298,2.323256871103148],[32.75616249852879,2.322696190882357],[32.754313671333094,2.321184417742396],[32.749290152642686,2.320758358030496],[32.74791081637435,2.318505275309975],[32.74415366056733,2.31781701133562],[32.74360631327328,2.317047910482116],[32.742012892328084,2.317760652980206],[32.74127590529597,2.3161337232535],[32.73748354862724,2.316296120622146],[32.735960836331735,2.314042851241676],[32.733890579475066,2.313897234706921],[32.72771878823086,2.3112326021474185],[32.72883691738945,2.313626014427529],[32.7290745725235,2.3149350062321563],[32.72955056539354,2.316094046209229],[32.73050248890228,2.321478113415524]]]]}},{"type":"Feature","properties":{"n":"Alito Town Council","c":"325104","d":"Kole","od":"Kole","dc":"325","k":"ALITOTOWNCOUNCIL","a":["ALITO","ALITOTOWNCOUNCIL"],"lat":2.437725,"lon":32.822851},"geometry":{"type":"Polygon","coordinates":[[[32.777427369293285,2.452298634493692],[32.77742720510367,2.4522992057206427],[32.77743068201625,2.452300475466295],[32.776711781440085,2.454804963414798],[32.78025984248379,2.45587131287549],[32.78029832140152,2.453725942324604],[32.78029889104212,2.453691300970544],[32.78029894443001,2.4536912057193736],[32.78029895129649,2.453690822882722],[32.7815528583976,2.45144949155674],[32.78436828836491,2.453515205555549],[32.78783028359597,2.454669448324999],[32.789385922540916,2.45204635150191],[32.79030292070718,2.4470882555392093],[32.790315716522194,2.44701901437101],[32.79031573448877,2.4470189730028533],[32.79031574840476,2.447018897760818],[32.79051801821221,2.446553213408279],[32.792126908916835,2.4428487320513748],[32.788403224665075,2.441279079696959],[32.788403195677,2.4412789075943007],[32.78840307019869,2.441278854795871],[32.78838269115386,2.441157171909867],[32.78804379419262,2.43914513518733],[32.79034723922849,2.437548990092368],[32.79307179220307,2.440892045240439],[32.79416016709214,2.441250079832431],[32.79559771593704,2.4373473869565627],[32.79570243825157,2.437062947984955],[32.795702485447904,2.4370629561178467],[32.79570261440758,2.437062606014945],[32.80056741661793,2.437901283031001],[32.80565696083307,2.438778315355224],[32.805657207015926,2.438778747322201],[32.80565906621928,2.438779067843171],[32.809194944819566,2.4449858898977],[32.8091948557283,2.4449861147227954],[32.80919488213547,2.444986161058382],[32.80846076639437,2.446838616188826],[32.807672263582404,2.448828432070394],[32.80974708031146,2.453336760198171],[32.8097711771636,2.453373539267345],[32.811103714367384,2.455406976719575],[32.81704388063015,2.458882272418737],[32.81937575431408,2.462209873406227],[32.81998356174797,2.464639093561794],[32.819983524531644,2.4646390868282335],[32.81998355160312,2.464639195012023],[32.81781306961982,2.464246385783951],[32.81523626619931,2.4637801639847208],[32.8141375262973,2.4645649756810495],[32.815079352813875,2.465950126471492],[32.81507852823089,2.4659502904500075],[32.81507866176543,2.465950486902264],[32.81256721074503,2.466449862641487],[32.81256707082127,2.4664497247903303],[32.81256664886126,2.466449808702292],[32.80771233924952,2.461667406640593],[32.8048018278997,2.461154560796218],[32.805295465603,2.46873072719073],[32.80346086125503,2.474290589717483],[32.804573438121594,2.474810868564037],[32.807160478097785,2.4760205219187155],[32.818467929761695,2.476260502411852],[32.81846825936115,2.476260899513379],[32.81846947367459,2.476260925323868],[32.82099197926953,2.47930109899661],[32.822705296722816,2.479971776930475],[32.82301519609846,2.48109685456909],[32.82682223636384,2.483012361048217],[32.8293205566157,2.48547775115133],[32.83297990966007,2.48684734335664],[32.832940964780974,2.48435240730951],[32.83294152172123,2.484351411076473],[32.83294151964771,2.484351288557761],[32.83450289451124,2.481558488254397],[32.83619462164276,2.478532392664282],[32.835365382825984,2.474390756255191],[32.83537186889041,2.47439238796291],[32.83537149622715,2.474390512917562],[32.843397541406674,2.476411416904512],[32.84351159758327,2.476440110166174],[32.85215874618583,2.4745484007412126],[32.85264991414904,2.4743120382921995],[32.855213786258815,2.473077973170132],[32.85530503333321,2.4739655680657564],[32.85537141605813,2.474603846931194],[32.855370680512515,2.4746041430737615],[32.855370827825816,2.474605576046082],[32.85425089340836,2.475058404326598],[32.85450144951456,2.476304996909871],[32.85533343828739,2.47666665723294],[32.85542533302824,2.4767065378452124],[32.85774553649821,2.475124307516109],[32.860354086670604,2.47482504875698],[32.86095282232254,2.470130584559398],[32.862605485839225,2.466431361785893],[32.86278931850131,2.466019866562776],[32.86278933194198,2.466019851709423],[32.862789765757164,2.466018880683572],[32.864605746671685,2.464009658465879],[32.860831889050104,2.4624644831274445],[32.86065493489932,2.462460491234203],[32.85501662317298,2.462333620727499],[32.85520697871199,2.460201630576055],[32.85520705437465,2.4602016037820897],[32.85520707004736,2.460201425118713],[32.858193755915046,2.4591439410400384],[32.85993734207309,2.458526495308694],[32.86508339818918,2.461966777165984],[32.865073654368736,2.456386965517098],[32.86394569211246,2.454773393786257],[32.86230423151554,2.454112600499038],[32.86104974763771,2.450661177275227],[32.86105100981756,2.4506570064478272],[32.86137096046484,2.448983935665171],[32.86170293483325,2.448502743954119],[32.86187059334028,2.447948722517963],[32.863512485324414,2.445878468362258],[32.867753777670075,2.4464754472804255],[32.86832997269662,2.4465564747260684],[32.86949079948855,2.44586519725651],[32.8693119913793,2.443951798745581],[32.86832032913422,2.4432749736030765],[32.86818695313553,2.443184219150478],[32.868186944847416,2.443183936720942],[32.8681868794275,2.443183892070812],[32.86808640869508,2.4397580187380092],[32.868068373504244,2.43914344295439],[32.852309900335115,2.439909589315185],[32.84690899036956,2.43924329593531],[32.84539254546711,2.436180748814089],[32.846641577247055,2.429755794719905],[32.84527338355262,2.426364940304786],[32.83878935658926,2.424699321014197],[32.83580553599682,2.425759208887739],[32.83625650350697,2.423129304315519],[32.83557043432012,2.421177883590644],[32.832308640314785,2.419504292283544],[32.83464869911285,2.413982166364007],[32.837090948617906,2.412779092351109],[32.83727178858709,2.410218798698676],[32.83333232986149,2.409617437520076],[32.83418721899882,2.408467944193385],[32.838261643918976,2.406944654185264],[32.83989311423907,2.398257592442218],[32.83541100380783,2.388449067771725],[32.833330232950836,2.390348325918425],[32.83333014965438,2.3903483381426733],[32.83332987418037,2.390348589940901],[32.8313478933398,2.390639245999865],[32.831188617568394,2.39066262066288],[32.83118857370174,2.3906626101097332],[32.831188235202866,2.390662659750348],[32.821456762439425,2.388322845220825],[32.82037727917348,2.389198116572858],[32.819901172596474,2.388982592828966],[32.81903603814832,2.3885927860771905],[32.817628996785075,2.39382617348372],[32.81757092704988,2.3938343590697837],[32.81754712722936,2.393919711605557],[32.81471931175477,2.3942372278909922],[32.81825417151493,2.397717748948548],[32.818261638684156,2.397725086855464],[32.81826165069442,2.3977251131563153],[32.818261669904224,2.397725132070827],[32.8206442794313,2.402942340370803],[32.8206442239326,2.40294262806882],[32.82064439713487,2.402943007358503],[32.81963654787504,2.408169368043381],[32.821606432855354,2.409094307977163],[32.819531349347166,2.410379551315118],[32.81944314436683,2.4105550523375663],[32.818303753285555,2.412825292949938],[32.81578153438319,2.412092420728609],[32.81492336226868,2.40976156531978],[32.81010154561946,2.411090968957355],[32.810101241979844,2.4110906521464464],[32.81010100252555,2.411090718174064],[32.80982311241896,2.4108004578704043],[32.808566217501145,2.409489041314824],[32.80598439004967,2.4089052507498088],[32.806113497404645,2.4091544611095186],[32.80684574464096,2.410561012844307],[32.80173534288891,2.408800961702622],[32.79946455971993,2.4129733565588762],[32.79924238069913,2.413381783239653],[32.80224039829347,2.419106932420147],[32.802240356352236,2.419107121140724],[32.80224040643091,2.419107216772154],[32.80210995681756,2.4196938724382036],[32.801497927727354,2.422447784587271],[32.80149753300859,2.422448053829144],[32.80149749036917,2.422448245586398],[32.80079826612178,2.422925031227503],[32.79785919695259,2.42492980164114],[32.79109200656347,2.423349879879576],[32.79019733192526,2.42433969548168],[32.78798889764367,2.423458126479697],[32.78754417901124,2.426396081541354],[32.78718980663476,2.428738451476855],[32.78893148347732,2.432023113939971],[32.788931466253246,2.432023530640448],[32.78893160147397,2.432023785614895],[32.78891419826709,2.4324412934987865],[32.78875655824603,2.436255064555336],[32.77946845959772,2.429919281794381],[32.77649474567732,2.430129777683848],[32.77290917438276,2.4319907242121803],[32.77284508696899,2.432023999756047],[32.772845113677,2.4320241454658396],[32.77375213436541,2.435434920421549],[32.774071016161336,2.438708128319054],[32.77075040654297,2.444163365089682],[32.770220109223736,2.445034911017697],[32.7708254249782,2.4506508435709176],[32.77084559857565,2.4508379081845892],[32.772785981965015,2.449545064399619],[32.77389247571371,2.451008345749206],[32.77433322306514,2.451169303788906],[32.777427369293285,2.452298634493692]]]}},{"type":"Feature","properties":{"n":"Okwerodot","c":"325105","d":"Kole","od":"Kole","dc":"325","k":"OKWERODOT","a":["OKWERODOT"],"lat":2.370267,"lon":32.87061},"geometry":{"type":"Polygon","coordinates":[[[32.7741571916705,2.3422865962931128],[32.77415736509381,2.342287191479367],[32.77303486110698,2.3486525846077875],[32.77359392730489,2.3592879058752265],[32.78926058249925,2.375969142416976],[32.795006438445334,2.37113767835832],[32.795006639428664,2.3711376116479324],[32.795006645452524,2.371137606578817],[32.795014445937944,2.3711350205113435],[32.799601614959904,2.369612447352331],[32.80116412715657,2.369984840815612],[32.80239228653323,2.36733054224077],[32.80787300630515,2.368688700250122],[32.80788355596016,2.367426534019355],[32.81030750607748,2.36745823868456],[32.81368313021229,2.371250970851036],[32.815023493286034,2.3715592703458923],[32.81509136668748,2.3715748629235893],[32.81760762578929,2.3713255390747863],[32.81731884570642,2.368718858869068],[32.81731896225596,2.368718792531561],[32.81731884598332,2.368717749138998],[32.81869892720026,2.367932529390782],[32.82386235582593,2.369169848923586],[32.82386246338933,2.369169947950335],[32.823862550071105,2.36916996872215],[32.825360925969825,2.370549297855312],[32.82536093752913,2.3705494973343546],[32.82536141159672,2.370549933778085],[32.8259235974106,2.380249057031174],[32.82755395144575,2.3814111307549335],[32.82764574916725,2.381476506077403],[32.82764574662726,2.381476559959939],[32.82764579708608,2.381476595925664],[32.827644231955965,2.381508691685384],[32.827569404341695,2.383096059426908],[32.8337321480394,2.384711297611164],[32.835734607341195,2.383138110051766],[32.83538508253398,2.388451716114861],[32.835391886840824,2.388466517100759],[32.83541100380783,2.388449067771725],[32.83989311423907,2.398257592442218],[32.838261643918976,2.406944654185264],[32.83418779105249,2.4084677303218167],[32.83333266431692,2.4096174885749355],[32.8368159501424,2.410149214635625],[32.83726995570797,2.410218274814264],[32.837269938810444,2.4102185163289547],[32.83727178858709,2.410218798698676],[32.837090948617906,2.412779092351109],[32.83464869911285,2.413982166364007],[32.832308640314785,2.419504292283544],[32.83557043432012,2.421177883590644],[32.83557074569236,2.421178769242201],[32.83557086630746,2.421178831065335],[32.83625642208006,2.423128818511992],[32.83625639254529,2.4231289887017007],[32.83625650350697,2.423129304315519],[32.83580553599682,2.425759208887739],[32.83878935658926,2.424699321014197],[32.83878962015109,2.4246993887180586],[32.83878963689815,2.424699382730807],[32.83886088058889,2.424717694126184],[32.84527338355262,2.426364940304786],[32.845273800473514,2.4263659735781027],[32.84527399612499,2.426366023865384],[32.846001450113185,2.428169339580585],[32.846641577247055,2.429755794719905],[32.846641527078084,2.4297560527864595],[32.846641577247055,2.429756177152389],[32.84638069404915,2.4310977642337215],[32.84539257028896,2.4361806211317782],[32.84690904325149,2.4392433024591886],[32.852309900335115,2.439909589315185],[32.868068373504244,2.43914344295439],[32.86807179641664,2.439260083753421],[32.86807180572344,2.4392600833699056],[32.86806838499405,2.439143442579985],[32.87706167716441,2.438889388152881],[32.877775151842094,2.439579241798995],[32.87795125656224,2.4392742431354146],[32.87816614100616,2.438896661432574],[32.89742349730635,2.4384027199747904],[32.89936233231997,2.438352978000057],[32.90284454089385,2.4321347484038336],[32.90377642096636,2.430433747303609],[32.90379443799295,2.430438503584021],[32.906,2.4265],[32.912157743141336,2.4005376235122036],[32.91226967173984,2.398883250407405],[32.91273370905413,2.3981092266907105],[32.91319572884363,2.396161251362],[32.91299343890645,2.395410496237266],[32.91347834934099,2.3952124929438297],[32.92068480414326,2.3871637252426003],[32.92098023162078,2.386325409504642],[32.91837266507066,2.37928702503371],[32.91729188120504,2.37285467547331],[32.91568946775432,2.37125377003548],[32.917533505855715,2.367429986900056],[32.91877863561839,2.366502962658571],[32.91804784770095,2.362320491765773],[32.918504149345466,2.359846372539328],[32.9182,2.3567],[32.9164666015845,2.352236997183083],[32.91560522528597,2.350758513224076],[32.91561579749121,2.350046421126806],[32.9095,2.3343],[32.894275011489235,2.3298782211585904],[32.890912782937754,2.330371896798599],[32.8853236932555,2.329447088032014],[32.88519527584958,2.3272412022269418],[32.88351462945745,2.326753093703814],[32.88084175194324,2.326457371853107],[32.879462639050786,2.325579495381788],[32.8746976841983,2.325911692012679],[32.87287611712234,2.328072278440755],[32.87028995201956,2.327098466428943],[32.87072386844716,2.32542242543757],[32.869420501344116,2.325001045986945],[32.86436564444917,2.3247431451249576],[32.862820445647344,2.325245058969315],[32.8596037384605,2.324506774143856],[32.859601154282934,2.3245000588919864],[32.8596,2.3245],[32.85662342724381,2.317010558871526],[32.85294408640874,2.310822834918412],[32.85029942381527,2.3011003122549463],[32.85009305518299,2.30121215073954],[32.84612687474177,2.304251931742713],[32.84485665881618,2.30404993973833],[32.83485547618486,2.3094699354869124],[32.83479076923997,2.309534311222863],[32.834640992844555,2.311606455222901],[32.83368106548415,2.3132812269845964],[32.83284585966869,2.3161036466368508],[32.8330261649325,2.3166110122233],[32.83239503680253,2.318589364168561],[32.8320306733826,2.318858414086397],[32.8319,2.3193],[32.831125179962825,2.3195270402899624],[32.830103679366964,2.320281327455875],[32.82896726230864,2.3201593603467705],[32.827712328080125,2.320527085260243],[32.826924172356016,2.321511427108369],[32.82468880564912,2.3214130476470025],[32.8104,2.3256],[32.81181363226125,2.3222555529429054],[32.80905519147061,2.323679881501507],[32.80514260552558,2.323440862546377],[32.802245289189976,2.324284821938108],[32.80110096683445,2.323548545371922],[32.799019592838064,2.324814514705888],[32.79801612164166,2.324220136467492],[32.79755862011375,2.325266071722485],[32.79394053759276,2.326989962010871],[32.79344338818348,2.328273934771424],[32.79162820897413,2.328147703009139],[32.79082606472017,2.329315541656684],[32.78763069119244,2.330209807200093],[32.787187094705544,2.331041949727612],[32.784658101040165,2.33122228216829],[32.782088348835714,2.33013658233696],[32.781632951208074,2.330851477594516],[32.77763810940188,2.331701079522543],[32.77555205384184,2.330750753267128],[32.77501075137112,2.331338700822077],[32.77267700406657,2.331011242152292],[32.77050527527312,2.329753229748278],[32.77415723683791,2.342286340099745],[32.7741571916705,2.3422865962931128]]]}},{"type":"Feature","properties":{"n":"Akalo","c":"325201","d":"Kole","od":"Kole","dc":"325","k":"AKALO","a":["AKALO"],"lat":2.134856,"lon":32.893721},"geometry":{"type":"Polygon","coordinates":[[[32.858715992138485,2.181825224758662],[32.85793267953677,2.184366177546932],[32.856877940271886,2.184885458464453],[32.856785744431875,2.183699865432454],[32.85608976212808,2.183741508792937],[32.855887606199616,2.185107077381491],[32.8551439293511,2.185207254931659],[32.856057638631114,2.187291653138896],[32.8591172392571,2.191141908974526],[32.86466114841669,2.192491440113229],[32.86480138696143,2.189683012781755],[32.870027289487595,2.180986405081867],[32.87965559759243,2.172786924102396],[32.88265296174558,2.171883071955784],[32.88498482128868,2.172311281493938],[32.891623253423006,2.176323839131455],[32.900408467159856,2.169005205823684],[32.90682055990722,2.169244792418327],[32.91509912383299,2.1719329299538974],[32.9241,2.1463],[32.92467143421214,2.1331570131209046],[32.92465819433598,2.132742310771716],[32.92126887967715,2.129692267161697],[32.9212192197839,2.1296119613424405],[32.914606232182614,2.124125098441369],[32.914445855550014,2.124030200191586],[32.89782814030576,2.110908109889542],[32.89696178322684,2.109635291910355],[32.89772636275502,2.102006143262913],[32.893375246166606,2.098495761753474],[32.88869854523871,2.095306287557435],[32.880893448957885,2.091890314161306],[32.873108089424825,2.0846737161594615],[32.873,2.0846],[32.87294153746796,2.0845716681575506],[32.868816792832064,2.084081236528535],[32.86030627926036,2.078448427641557],[32.86000524657484,2.0783025425708854],[32.85997038793129,2.078332606547565],[32.852449465277836,2.0866140719412614],[32.85210617111817,2.089342764273648],[32.850351821369294,2.093274902195711],[32.850065175940905,2.0952575330754204],[32.85546092334745,2.097272607169989],[32.85659597359794,2.096094662509364],[32.857174903977196,2.093246716131936],[32.85815971271146,2.09358292673934],[32.8588215353378,2.095382566016126],[32.85825204058222,2.096644437636885],[32.85900837512488,2.09718030680037],[32.857581032427106,2.10090604879391],[32.85861312059513,2.101263649885578],[32.85822348586781,2.105250942853456],[32.859895758760736,2.106083619536309],[32.858594680849805,2.10802064021731],[32.859465894335585,2.116847543115278],[32.85882344642338,2.11992827658012],[32.86058686769154,2.12257464435359],[32.85789037949836,2.123806494575539],[32.85693859703293,2.125919453400102],[32.85624378175516,2.127708943854047],[32.85623427771428,2.133162529093797],[32.85921075983153,2.132886903236989],[32.86173870095074,2.134157676289297],[32.863949196140766,2.135554490856721],[32.86396353729521,2.138662440918436],[32.86742137824728,2.13845734013977],[32.86765598657657,2.139277888382552],[32.86966900614902,2.140134491409662],[32.87315238081034,2.139527801489389],[32.87439380438825,2.137983622404243],[32.880259245658195,2.137614140510586],[32.87997956380394,2.139340224596827],[32.88049353029135,2.14169589158738],[32.881506979928744,2.142552810104736],[32.881464348231574,2.144308537075108],[32.883116699982025,2.144640835310915],[32.88124070494068,2.149756075600394],[32.87893639282444,2.149822819886146],[32.87767133841378,2.151611138819869],[32.876034824417935,2.151213182408561],[32.87571754736801,2.152319414901601],[32.87020991681184,2.151020408231914],[32.86995291289461,2.149856886738735],[32.86743667216918,2.148140878233101],[32.864138743549105,2.147869618586454],[32.86050176606507,2.149299910138026],[32.86039228438476,2.153587453187959],[32.863573918259256,2.154989819757158],[32.86522720420984,2.156631172505742],[32.86579837585664,2.156773969306345],[32.867832217008676,2.151756296729666],[32.86885400703836,2.152074822987549],[32.868558561493906,2.153371343038537],[32.869983901896745,2.153704788975103],[32.870764194297315,2.155506804989469],[32.86903779787132,2.160433869827216],[32.86806859330815,2.158642687870882],[32.864851447447094,2.158204883449454],[32.86237693111147,2.15942315130554],[32.86026390253329,2.161897688861645],[32.85876014997666,2.161916827631643],[32.85658986505608,2.163763351449679],[32.852574132052446,2.16435336100981],[32.84884255905018,2.163801359502182],[32.853847354826726,2.182093374483806],[32.858715992138485,2.181825224758662]]]}},{"type":"Feature","properties":{"n":"Akalo Town Council","c":"325202","d":"Kole","od":"Kole","dc":"325","k":"AKALOTOWNCOUNCIL","a":["AKALO","AKALOTOWNCOUNCIL"],"lat":2.146255,"lon":32.836115},"geometry":{"type":"Polygon","coordinates":[[[32.781888828447784,2.121581383277241],[32.77964574288869,2.13366733426961],[32.77872707025859,2.135034003816285],[32.78834169498166,2.14206425158245],[32.79113790283825,2.150660330344308],[32.800516186332324,2.1725026462098],[32.80467111664083,2.174160750948979],[32.80608197884872,2.177646183895821],[32.80770001104737,2.179188072439922],[32.812529060686806,2.180288234706348],[32.81256940261834,2.182348951267589],[32.81938267246183,2.196888235340539],[32.82432877064028,2.196530164660248],[32.82839761472393,2.19406546514906],[32.832752825039755,2.192844885679656],[32.837587275350266,2.195800812495468],[32.840013728397466,2.195752888587019],[32.840658620147636,2.194465197089999],[32.84195290632469,2.194849431502078],[32.84614427789859,2.198995796658978],[32.84983636343706,2.199509422030655],[32.852978145768716,2.201052008386641],[32.85446525134715,2.20268634065414],[32.86172006375934,2.20171970244795],[32.863683126391585,2.198906653933703],[32.86349529689496,2.195881180573249],[32.8646611459736,2.192491451254063],[32.86447371983998,2.192445815141162],[32.8591172392571,2.191141908974526],[32.85911690879864,2.191141493119724],[32.85911645436942,2.191141382471423],[32.85829603431968,2.1901084900780474],[32.856057638631114,2.187291653138896],[32.8551439293511,2.185207254931659],[32.855887606199616,2.185107077381491],[32.85608976212808,2.183741508792937],[32.85609145921819,2.183741407249356],[32.85609150457978,2.183741102936916],[32.85678511064541,2.183699357962491],[32.85678515164296,2.183699900901348],[32.856785744431875,2.183699865432454],[32.856877940271886,2.184885458464453],[32.85793267953677,2.184366177546932],[32.858715992138485,2.181825224758662],[32.853847354826726,2.182093374483806],[32.85384621192873,2.182089197308933],[32.85384548897666,2.182089237033056],[32.85151877309287,2.1735826472007282],[32.84884255905018,2.163801359502182],[32.85257398611109,2.164353339421099],[32.85658989128576,2.1637633291329217],[32.85876014997666,2.161916827631643],[32.85876106032219,2.161916816045366],[32.858761259058454,2.161916647021079],[32.85973181103811,2.161904460970992],[32.86026390253329,2.161897688861645],[32.86237693111147,2.15942315130554],[32.86334367812072,2.1589471969586707],[32.864850848554916,2.158204993772462],[32.864851142203214,2.158205033728846],[32.864851447447094,2.158204883449454],[32.86806859330815,2.158642687870882],[32.86903779787132,2.160433869827216],[32.870764194297315,2.155506804989469],[32.869983901896745,2.153704788975103],[32.868558561493906,2.153371343038537],[32.86885400703836,2.152074822987549],[32.867832217008676,2.151756296729666],[32.86579837585664,2.156773969306345],[32.86522720420984,2.156631172505742],[32.86522718969157,2.156631158092269],[32.865227099022675,2.156631136012093],[32.86455332621711,2.1559621584763318],[32.863573918259256,2.154989819757158],[32.86039228438476,2.153587453187959],[32.86050176606507,2.149299910138026],[32.86050412344171,2.149298983067154],[32.86050412372633,2.149298972102122],[32.86063275426824,2.149248397220728],[32.864138743549105,2.147869618586454],[32.8641393657532,2.1478696697636877],[32.864139582673,2.14786958447529],[32.86456701803841,2.147904844814799],[32.86743667216918,2.148140878233101],[32.86995291289461,2.149856886738735],[32.87020991681184,2.151020408231914],[32.870467702749856,2.151081208543305],[32.875717693894536,2.1523189040156145],[32.876034824417935,2.151213182408561],[32.87767125398271,2.151611118288491],[32.87774129829251,2.1515122414327883],[32.87893639282444,2.149822819886146],[32.88124070494068,2.149756075600394],[32.883116699982025,2.144640835310915],[32.881464348231574,2.144308537075108],[32.88146440128522,2.1443063521347736],[32.8814642930347,2.144306330469283],[32.881480411818444,2.1436469806608462],[32.881506979928744,2.142552810104736],[32.88066224504193,2.141838547708206],[32.88049369435792,2.141696123637375],[32.880493669392706,2.141696009204003],[32.88049353029135,2.14169589158738],[32.87997956380394,2.139340224596827],[32.87997963149594,2.139339806828972],[32.87997940191235,2.139338754483584],[32.88000140434866,2.1392054335258215],[32.880259245658195,2.137614140510586],[32.87439380438825,2.137983622404243],[32.87315238081034,2.139527801489389],[32.87315225928859,2.1395278226545034],[32.8731522250086,2.139527865408021],[32.871040393918435,2.1398956405201126],[32.86966900614902,2.140134491409662],[32.86917817695823,2.139925628179329],[32.867656713524454,2.139278277530306],[32.8676566878732,2.1392781868062847],[32.86765598657657,2.139277888382552],[32.86742137824728,2.13845734013977],[32.86396353729521,2.138662440918436],[32.863949196140766,2.135554490856721],[32.861767343158,2.1341757753344925],[32.86173844250915,2.134157546373056],[32.85921075983153,2.132886903236989],[32.85904997588719,2.1329017920253888],[32.856234576407154,2.13316296704072],[32.85623457719053,2.1331625013619333],[32.85623427771428,2.133162529093797],[32.85624290337167,2.1282129756965933],[32.85624375009125,2.127709640466742],[32.85624378067848,2.127709561669644],[32.85624378175516,2.127708943854047],[32.85693859703293,2.125919453400102],[32.85789037949836,2.123806494575539],[32.86058686769154,2.12257464435359],[32.85882344642338,2.11992827658012],[32.859253317636764,2.1178669131489736],[32.859465857066695,2.1168471655168286],[32.858594680849805,2.10802064021731],[32.858594735931106,2.10802055821329],[32.85859472248305,2.108020421959854],[32.858656120204834,2.107929170444189],[32.859895607567616,2.1060838446298202],[32.859629852879515,2.105951216728093],[32.85822348586781,2.105250942853456],[32.85861312059513,2.101263649885578],[32.857581032427106,2.10090604879391],[32.857581841881654,2.1009039359034314],[32.857581622846446,2.100903860328581],[32.858512501348436,2.0984746685225137],[32.85900837512488,2.09718030680037],[32.858681154721666,2.0969484684882778],[32.85825243839173,2.096645659271337],[32.858252759713245,2.0966449471470505],[32.85825204058222,2.096644437636885],[32.8588215353378,2.095382566016126],[32.85820730094153,2.09371232945924],[32.858159521296386,2.093582861390834],[32.85815646084763,2.0935818165632463],[32.857126355084674,2.093485543886587],[32.856617495018824,2.0959887916571076],[32.85661722271958,2.096037917951472],[32.85660482347712,2.096051127082214],[32.85659597359794,2.096094662509364],[32.85546092334745,2.097272607169989],[32.850065175940905,2.0952575330754204],[32.85006518164208,2.095257493642287],[32.85006518164208,2.0952574936422868],[32.8487,2.1047],[32.843464663726486,2.1013731114321006],[32.84273060439197,2.101611112145429],[32.842633792146636,2.102882306539759],[32.83871578748584,2.098472717198248],[32.83276763501899,2.096472498307211],[32.82835265045234,2.091812868805706],[32.819497392709316,2.098732888135796],[32.81434889033546,2.097927065022798],[32.80890698679412,2.09559863847089],[32.808900640835915,2.0955998751191554],[32.8060482874066,2.098243866698328],[32.80210640756229,2.099413872120144],[32.79297499641591,2.097613234463296],[32.792862376569836,2.0976454599198884],[32.7827,2.1168],[32.782684792047334,2.1168389703787107],[32.783394930346994,2.118803223059877],[32.781888828447784,2.121581383277241]]]}},{"type":"Feature","properties":{"n":"Ayer","c":"325203","d":"Kole","od":"Kole","dc":"325","k":"AYER","a":["AYER"],"lat":2.250547,"lon":32.638619},"geometry":{"type":"Polygon","coordinates":[[[32.58710280788567,2.233302287906841],[32.587213826822975,2.2333927477816853],[32.600322244214084,2.242566941476451],[32.60693729054748,2.248223906162953],[32.608346319380686,2.2506118157916655],[32.61022800259767,2.252145039153656],[32.61258874562763,2.2532344164667286],[32.6212608541618,2.254215008244443],[32.62166835798857,2.254152863688613],[32.62178830848607,2.2542746497228054],[32.63963541239306,2.2562926968076957],[32.639694626237066,2.256292597536725],[32.64178674626083,2.25753275976654],[32.64770590736367,2.264355438301708],[32.652497240731925,2.271810171194215],[32.660157944010244,2.263822963954204],[32.66163926528397,2.263749665906401],[32.662982083852334,2.259999143890859],[32.66897135278854,2.250481283580233],[32.67014674258816,2.24462147893042],[32.67243092247633,2.241404335042668],[32.67338008009397,2.24153249424834],[32.67496523420626,2.243859800954252],[32.67834002710716,2.243796654372363],[32.68246623619084,2.246390526126349],[32.68950662451956,2.249246029077959],[32.68875522609921,2.250252179350722],[32.70194792406716,2.246967720617066],[32.70489159349698,2.247193511486681],[32.70974682913547,2.249013862731442],[32.71702783529292,2.250227390725029],[32.724244354283236,2.254229838140186],[32.722436545984976,2.255917423677235],[32.72110887963611,2.260685650415865],[32.719952392425576,2.262242025873775],[32.724515800479146,2.264905667578059],[32.72707386322903,2.264728665473568],[32.729358520359824,2.265620861613513],[32.73017886897803,2.264526852313963],[32.73170962977838,2.264988735959974],[32.73123817211785,2.267108022330739],[32.732665829612074,2.26706047046008],[32.73417680348248,2.268642771052638],[32.74151807256844,2.271077912445513],[32.740923362790376,2.273692846377732],[32.73752410841862,2.277090848595519],[32.735421495326214,2.281389694186552],[32.73457357775141,2.284740808517253],[32.735488854988084,2.285774400651516],[32.735216005597366,2.286537295270203],[32.73416906823228,2.287358220219808],[32.734156542288005,2.28847637394891],[32.7325391364827,2.289309381966314],[32.73044521158981,2.293045131758404],[32.73174225625045,2.296827903835505],[32.728268005162235,2.299498232868513],[32.726304996065416,2.304316495701589],[32.7254896548639,2.307631474007651],[32.72650136787378,2.3087626427587806],[32.72659214551191,2.308820966158745],[32.72663436901342,2.3089113477092527],[32.726877202071954,2.309182852735753],[32.72696476817284,2.3096185838987733],[32.72771878823086,2.3112326021474185],[32.733889029215256,2.313896565391872],[32.73389060606361,2.3138972365770907],[32.735960836331735,2.314042851241676],[32.735961262678195,2.3140434821378872],[32.73596171353958,2.314043513897565],[32.736420744007404,2.3147234104559726],[32.73748334363363,2.316295817278018],[32.7389222932019,2.3162345102955104],[32.74127590529597,2.3161337232535],[32.742012892328084,2.317760652980206],[32.74360631327328,2.317047910482116],[32.74415366056733,2.31781701133562],[32.74791081637435,2.318505275309975],[32.749290110072835,2.3207582884945905],[32.752090312165656,2.3209958479719406],[32.754313671333094,2.321184417742396],[32.754313742758754,2.3211844761466622],[32.75431380014312,2.321184481014954],[32.754405396069885,2.3212594204217583],[32.75616212976593,2.322695889347537],[32.758450018466526,2.323256321642045],[32.75844998807381,2.323256620896849],[32.75845100933298,2.323256871103148],[32.75829975435219,2.3247411449677404],[32.75892471049378,2.325491371608604],[32.75927187922281,2.325907894412523],[32.75927505210783,2.3259081347454695],[32.763484981702014,2.326017109236681],[32.76359928240462,2.3262356773449526],[32.76393837486442,2.326261362199395],[32.76447834922989,2.327916646653667],[32.764478586843566,2.327917101023332],[32.766693094930886,2.329527829601509],[32.7667024703308,2.3295283839187895],[32.77043137806089,2.329709856994799],[32.77139109432799,2.3302663561396098],[32.77267700406657,2.331011242152292],[32.77480250761503,2.3313094811961013],[32.77501085088366,2.33133859273435],[32.77555205384184,2.330750753267128],[32.77555364073545,2.3307514761944996],[32.775553679712566,2.330751433955427],[32.775789403463946,2.330858880577791],[32.777637681488244,2.331700884581637],[32.78123100815028,2.330936960728374],[32.781632951208074,2.330851477594516],[32.782088348835714,2.33013658233696],[32.78447538929263,2.331145087910751],[32.784658502039264,2.3312222535746456],[32.787187094705544,2.331041949727612],[32.78763069119244,2.330209807200093],[32.78924477270773,2.3297580861506284],[32.79082627388685,2.3293152371317474],[32.7912705410863,2.32866843027276],[32.79162602949535,2.328148767095484],[32.79162741233273,2.3281488628362017],[32.79162820897413,2.328147703009139],[32.79344338697991,2.328273934687725],[32.79344524551807,2.3282691378894937],[32.79394053759276,2.326989962010871],[32.79755848708749,2.325266135104863],[32.79801494712735,2.324220569640707],[32.79801572940403,2.3242210331970994],[32.79801612164166,2.324220136467492],[32.799019592838064,2.324814514705888],[32.79980671225686,2.324335759302921],[32.80109834300331,2.323548919308772],[32.80109932145657,2.3235495461521456],[32.80110096683445,2.323548545371922],[32.80184284004275,2.3240258792767587],[32.80224648533156,2.3242844735139783],[32.80504174453371,2.32347024234875],[32.805141657975646,2.323441056785528],[32.80514188991846,2.323441070995605],[32.80514260552558,2.323440862546377],[32.80905519147061,2.323679881501507],[32.8090596121811,2.323677598855377],[32.80976674718647,2.323147142325194],[32.80946097272817,2.318406866248242],[32.811374189557654,2.313928560606763],[32.814322300697114,2.312064967251101],[32.8185739599821,2.3062616068716117],[32.8186,2.3062],[32.81863408099307,2.301411620473927],[32.81753629668367,2.299425509772701],[32.817760573276196,2.296413810056572],[32.81625372348588,2.294033619336172],[32.81603091035894,2.287800196930962],[32.816776682372215,2.283684789951596],[32.81817611816842,2.281956469686817],[32.818380854950796,2.2765900678347752],[32.81689618413577,2.2712416753806615],[32.81346699481452,2.266005412485224],[32.81073618962401,2.254515420298268],[32.81058643117408,2.251015409790985],[32.80274591013993,2.253404685284936],[32.79888067839215,2.253132175695155],[32.79669126665976,2.257631422044807],[32.79366853801203,2.25976198515663],[32.78976438974538,2.267182598768296],[32.78693321940783,2.26883322234437],[32.781929381041756,2.268393049589693],[32.7754507246595,2.265117478422963],[32.77463079870865,2.263940151679229],[32.77473775166233,2.26094310857841],[32.77596212825976,2.253650774015863],[32.772608415287884,2.254596136566789],[32.76994618016323,2.253796533259707],[32.766653527285555,2.25362168181568],[32.766231820971676,2.2546611838251],[32.75998183050517,2.253842991712413],[32.75949930452076,2.25584622869079],[32.751550396218164,2.258389666639623],[32.745154477246494,2.259427658893553],[32.74322278356806,2.258771817552416],[32.744465858246016,2.254818310033152],[32.73719429659904,2.248845476327514],[32.7362815943343,2.253728088363044],[32.7289412349556,2.251546361744883],[32.72707177867795,2.24795012395337],[32.72819212285951,2.246184964586586],[32.72290992612702,2.24335915068093],[32.72062975526904,2.23922762135575],[32.7205106266414,2.237635546785573],[32.71951495574455,2.237975912522171],[32.71886393105885,2.236897562373758],[32.719795598685955,2.234936286909486],[32.7164560036467,2.234535005841957],[32.71655001372313,2.233004164281618],[32.713889779200635,2.230248751041672],[32.71256759569201,2.229488916810103],[32.70542674234964,2.231336921884501],[32.69695496377318,2.231684749094621],[32.697800266749326,2.228973984468698],[32.69424118117074,2.223347805530262],[32.69759474195458,2.216972009478179],[32.694332494092954,2.215961329354817],[32.69269798076632,2.209839132876711],[32.68220403753179,2.207259705458676],[32.67755632333406,2.209925655095848],[32.678423326480015,2.207297547498431],[32.67116560157094,2.205097481694085],[32.66726390893518,2.201899805748892],[32.664691228039985,2.204106369150953],[32.660873547770954,2.194555265105773],[32.656819657791566,2.189763126113232],[32.6573257256505,2.186575633805899],[32.655061442265996,2.180822539681373],[32.65322157949859,2.180329453182407],[32.651805473188205,2.177533787706684],[32.6489738228784,2.175796680598891],[32.64839261987066,2.177282039561443],[32.64729630661737,2.176903130924996],[32.646930546235716,2.177613938553494],[32.64542507195733,2.176157563793643],[32.64509276969404,2.174461307974056],[32.64282541649899,2.174350502977066],[32.64268157348365,2.175864337367241],[32.641270230262,2.175624684041236],[32.64080288344074,2.174252284262324],[32.64147366410178,2.170767716700681],[32.640413319637844,2.170295296443825],[32.63741552228915,2.169322422356972],[32.63229475118128,2.169365931111491],[32.62881792044417,2.170991593325966],[32.62724194107028,2.171068580301687],[32.61838864478953,2.1737430135531617],[32.6182106343852,2.173823140927365],[32.617968858981904,2.1741789197017973],[32.6144926282402,2.1798776586226287],[32.61391932249584,2.183330848494922],[32.60975020876517,2.191227265216932],[32.604039395612375,2.19561750948218],[32.59679410658612,2.198794002505449],[32.5955457606841,2.200577345145792],[32.59404302090673,2.209110361417152],[32.59290518539792,2.210280814027717],[32.5929,2.2103],[32.59287300544691,2.2103139164466237],[32.592865867527934,2.210321258980616],[32.592856578142175,2.2103223851813647],[32.5768,2.2186],[32.57682466402399,2.2186352001119096],[32.58082613711824,2.222118191929332],[32.58710280788567,2.233302287906841]]]}},{"type":"Feature","properties":{"n":"Bala","c":"325204","d":"Kole","od":"Kole","dc":"325","k":"BALA","a":["BALA"],"lat":2.173714,"lon":32.676295},"geometry":{"type":"MultiPolygon","coordinates":[[[[32.719793422417474,2.234935915707424],[32.71979337316826,2.2349360194943935],[32.719795598685955,2.234936286909486],[32.71886393105885,2.236897562373758],[32.71951495574455,2.237975912522171],[32.720189227222605,2.237745415769659],[32.72050898081779,2.23763437872411],[32.72050910856746,2.237636065732502],[32.7205106266414,2.237635546785573],[32.72062975526904,2.23922762135575],[32.721655255312186,2.2410857643481497],[32.722909962398255,2.2433591700849296],[32.72819212285951,2.246184964586586],[32.72819169079548,2.246185645325498],[32.728192198087584,2.246185916785405],[32.72788424930956,2.2466700350581625],[32.72707177867795,2.24795012395337],[32.7289412349556,2.251546361744883],[32.7362815943343,2.253728088363044],[32.73719429659904,2.248845476327514],[32.744465858246016,2.254818310033152],[32.74322278356806,2.258771817552416],[32.74515446263988,2.25942765393437],[32.74515453459764,2.259427649586049],[32.75078596651503,2.2585137257645176],[32.75949126428523,2.2558488013510067],[32.75949930452076,2.25584622869079],[32.75998183050517,2.253842991712413],[32.76572265697384,2.2545945286886924],[32.766231856359646,2.254661096594089],[32.766653527285555,2.25362168181568],[32.76994571768638,2.2537965087005603],[32.76994573020078,2.253796509364364],[32.76994573020384,2.253796509365281],[32.76994618016323,2.253796533259707],[32.772608415287884,2.254596136566789],[32.77596212825976,2.253650774015863],[32.7747377516627,2.260943108576203],[32.774737751268965,2.26094311960122],[32.77463079870865,2.263940151679229],[32.7754411950732,2.2651037949472865],[32.77545073606183,2.2651174841879143],[32.781015060901005,2.2679307746188515],[32.78192969888861,2.268393077549734],[32.78197848913407,2.268397369482281],[32.787252265582275,2.268647212647103],[32.78976281956707,2.2671835142106804],[32.78976454347319,2.267182306577887],[32.79366853801203,2.25976198515663],[32.79377718569723,2.2596854050936277],[32.79395330698878,2.259356336134602],[32.79668685196693,2.257634533730563],[32.79669114177298,2.2576315100709543],[32.79703439370678,2.2569262951420126],[32.79888067839215,2.253132175695155],[32.802687327157095,2.253400555021691],[32.80274594723345,2.253404673981272],[32.809566300487376,2.251326278576332],[32.81058642978775,2.251015398240596],[32.8104891441851,2.248163440317807],[32.810587096644745,2.24805864642901],[32.822379349867425,2.228920399395492],[32.82252413687535,2.228163598995256],[32.82302541403478,2.22787186902552],[32.8288,2.2185],[32.83251201543108,2.2172537276711535],[32.83313541863904,2.21114283736559],[32.83462355633983,2.205294182895639],[32.83627799620655,2.205547792387625],[32.83643095407123,2.204349969365034],[32.83749627987091,2.204272403729723],[32.84001372285138,2.195752900177462],[32.839941633999395,2.195754312494783],[32.837587275350266,2.195800812495468],[32.837586681144664,2.1958004491804775],[32.83758662170057,2.195800450345067],[32.83275263629837,2.192844938575804],[32.82839761472393,2.19406546514906],[32.82432877064028,2.196530164660248],[32.81938267246183,2.196888235340539],[32.81256940261834,2.182348951267589],[32.81256939967005,2.182348800665488],[32.81256934658014,2.182348687382941],[32.812568559277615,2.1823058723635294],[32.812529060686806,2.180288234706348],[32.80770001104737,2.179188072439922],[32.807699464873934,2.1791875519690858],[32.8076994308658,2.179187544226525],[32.806868062656,2.178395275056162],[32.80608197884872,2.177646183895821],[32.80467111664083,2.174160750948979],[32.800516186332324,2.1725026462098],[32.79113790283825,2.150660330344308],[32.78834169498166,2.14206425158245],[32.77872717430486,2.135034079895291],[32.778727063177485,2.135034013133484],[32.77471034008567,2.13727350353049],[32.7747,2.1373],[32.77445895413442,2.1372824088816045],[32.7555337475332,2.136980624086203],[32.755131450455366,2.1358719204474332],[32.724,2.1336],[32.72372515418365,2.138134955969775],[32.72423518866191,2.139379035878485],[32.72346265061455,2.1424662648598285],[32.723317691143194,2.144858096137247],[32.72799361717982,2.146231039729028],[32.73314460838836,2.150408528925293],[32.739602224666,2.150513167714994],[32.745788228669774,2.155195291381467],[32.74661518602484,2.157141668889477],[32.75379869613519,2.160339919401597],[32.755572731562765,2.160463204013307],[32.75889963283867,2.158785632669958],[32.76846413138135,2.165185898679584],[32.77829415012024,2.165066733871705],[32.77891274389803,2.166302660236981],[32.78115000734041,2.167311598410166],[32.78015997892951,2.171504957046221],[32.78218886327915,2.173028602964886],[32.78489302881684,2.173696232704006],[32.78487295343704,2.175617566934509],[32.789300645807266,2.182081788394532],[32.789701281488135,2.18645938600359],[32.788692329506816,2.189829585036154],[32.79018899365135,2.194220786224082],[32.78994861465773,2.196035482603585],[32.7897350473056,2.196888348758085],[32.783571370144855,2.192320190394457],[32.781983971568586,2.197715888716875],[32.782527608473615,2.204124821759126],[32.78065649279887,2.205997143481195],[32.781551669967016,2.207018638616563],[32.78145621695129,2.21223432121181],[32.78024321832121,2.21585107861203],[32.78075882546026,2.217165806619501],[32.780261108195056,2.218665504983892],[32.77740351315475,2.220195919110018],[32.767315899841115,2.221057639793039],[32.76526837230666,2.222143370655057],[32.765836979640675,2.227688185104809],[32.755688990193356,2.229371206081535],[32.75235784032,2.230977319784577],[32.75366594952358,2.242789196253236],[32.7554325795315,2.244384153013407],[32.75500111887627,2.246821208707126],[32.74802444140799,2.244220101603533],[32.74957796525334,2.241388870931248],[32.750530514366666,2.236430500922222],[32.74527380978857,2.22897539219011],[32.73386159327885,2.232555638647147],[32.732681328864274,2.233307648478251],[32.732037124287714,2.236044882559041],[32.73023336071895,2.235592343324581],[32.727335340605606,2.234208461040594],[32.72762957774921,2.232993061089417],[32.72660782224847,2.230635054537083],[32.727703339722964,2.229147850810084],[32.72652674923271,2.22841559156292],[32.72698593454266,2.226102141209321],[32.72409282745987,2.224227213585002],[32.72362990328953,2.221259938658323],[32.72291606897086,2.220998199998255],[32.71753849281712,2.223853551924829],[32.71424341789753,2.229087294319023],[32.71256760661851,2.229488913712586],[32.712567637045055,2.229488940574929],[32.713889779200635,2.230248751041672],[32.71655001372313,2.233004164281618],[32.7164560036467,2.234535005841957],[32.71958674659337,2.234911191534244],[32.719793422417474,2.234935915707424]]],[[[32.632294752521204,2.16936591642947],[32.63300252831553,2.1693599174660965],[32.63741552228915,2.169322422356972],[32.640413319637844,2.170295296443825],[32.64147366410178,2.170767716700681],[32.640805769682366,2.1742372908307637],[32.64080289259255,2.1742523111373244],[32.6412700402661,2.1756241261037026],[32.64177394698042,2.17571021772651],[32.64268157348365,2.175864337367241],[32.64282541649899,2.174350502977066],[32.64509276969404,2.174461307974056],[32.64542504278619,2.176157414887881],[32.64693122551676,2.177612618459328],[32.64729630661737,2.176903130924996],[32.648391685388184,2.1772817165848832],[32.64863714771875,2.176657108812776],[32.6489738228784,2.175796680598891],[32.648975000388496,2.175797402955441],[32.648975030475476,2.175797326395577],[32.65004853177845,2.1764559726246833],[32.651805473188205,2.177533787706684],[32.65180558747928,2.177534013339184],[32.65180574452686,2.177534109695656],[32.65207630875154,2.17806846905684],[32.65322157949859,2.180329453182407],[32.655061442265996,2.180822539681373],[32.65731198815176,2.186540729551505],[32.65732553554471,2.186575144156777],[32.65732553479428,2.1865751488781724],[32.6573257256505,2.186575633805899],[32.65681967215627,2.1897630356364886],[32.65716262057673,2.190168545437415],[32.660873547770954,2.194555265105773],[32.664691228039985,2.204106369150953],[32.66726390893518,2.201899805748892],[32.66726629612603,2.2019017621979127],[32.66726648600281,2.201901599305106],[32.6711659228661,2.205097579089688],[32.678423326480015,2.207297547498431],[32.677556365668714,2.209925526768716],[32.679221232072734,2.208970656001892],[32.68220403753179,2.207259705458676],[32.69269798076632,2.209839132876711],[32.694332494092954,2.215961329354817],[32.69753027461982,2.216952036791673],[32.69759475004485,2.216972000123395],[32.702703150151784,2.213922277614668],[32.70712894493612,2.207021842229534],[32.70746207043003,2.204832742208262],[32.70370252480767,2.199693110817632],[32.69430919665442,2.196042717353548],[32.69680212570732,2.187986170389467],[32.69881572640817,2.184310840056814],[32.701396211881224,2.183408864223534],[32.7084077259987,2.177577227530949],[32.71424129751086,2.170695707206689],[32.71865559644676,2.173190254955202],[32.71954003845241,2.172404435030903],[32.718659766869855,2.171336139388492],[32.71952218518065,2.169343095802529],[32.71794678680687,2.165921437864673],[32.72343144300567,2.160304849429592],[32.717888330951595,2.156367759930394],[32.72116782802447,2.155708445936154],[32.7219708934043,2.154845894797123],[32.7220601227081,2.153210019236053],[32.719591521813086,2.149165039175189],[32.7173938367086,2.148133180028131],[32.71509712784177,2.149531714701871],[32.7150687398813,2.1485504796088852],[32.7088,2.1499],[32.69655199345286,2.1318243129183334],[32.69569538539239,2.1317742994029345],[32.6774,2.1363],[32.675945747077215,2.135864501798525],[32.66708836171729,2.136136070335779],[32.661592672367206,2.134223412599461],[32.659793951105364,2.131548501416132],[32.65645660888755,2.1311859330929495],[32.644093780335865,2.1338638020933147],[32.64240843539757,2.136089775068729],[32.641388388503174,2.13444980754444],[32.631032462807724,2.136692968344897],[32.63055764702421,2.138371240896203],[32.625326582790066,2.1438142850727746],[32.6247,2.1446],[32.62693366964103,2.1635501650191094],[32.62707260932355,2.163780682214417],[32.632294752521204,2.16936591642947]]]]}},{"type":"Feature","properties":{"n":"Bala Town Council","c":"325205","d":"Kole","od":"Kole","dc":"325","k":"BALATOWNCOUNCIL","a":["BALA","BALATOWNCOUNCIL"],"lat":2.195128,"lon":32.738669},"geometry":{"type":"Polygon","coordinates":[[[32.70110692327483,2.231051482805829],[32.7024410373458,2.231459506467225],[32.703666556792676,2.2314091901131907],[32.714196174244876,2.229098616576705],[32.71424341789753,2.229087294319023],[32.71753849281712,2.223853551924829],[32.72291606897086,2.220998199998255],[32.72291711890318,2.220998584972571],[32.722917124656995,2.220998581918223],[32.722919025458104,2.2209992840411332],[32.72362990328953,2.221259938658323],[32.72409282745987,2.224227213585002],[32.72698593454266,2.226102141209321],[32.726985857140896,2.2261025311720224],[32.72698600537029,2.2261026272519],[32.72692589521452,2.2264046291197683],[32.72652674923271,2.22841559156292],[32.727703339722964,2.229147850810084],[32.72660782224847,2.230635054537083],[32.72762957774921,2.232993061089417],[32.727629208305544,2.232994587143591],[32.72762943523512,2.23299511040892],[32.727616511134876,2.2330470351126555],[32.727335340605606,2.234208461040594],[32.72737202512859,2.234225978883626],[32.732023181349604,2.236041384469464],[32.732037124287714,2.236044882559041],[32.7323838803408,2.2345715113338707],[32.732680773390605,2.233308838784327],[32.73268109732959,2.233308632272287],[32.732681328864274,2.233307648478251],[32.73386159327885,2.232555638647147],[32.74258723107087,2.2298182270528564],[32.74527290286861,2.228975519013076],[32.74527299392917,2.2289756481419416],[32.74527380978857,2.22897539219011],[32.750530514366666,2.236430500922222],[32.7500625688833,2.2388663300234204],[32.74957842426208,2.241387310295721],[32.74957817943435,2.241387756039946],[32.74957796525334,2.241388870931248],[32.74802444140799,2.244220101603533],[32.75500111887627,2.246821208707126],[32.7554325795315,2.244384153013407],[32.75366594952358,2.242789196253236],[32.75235784032,2.230977319784577],[32.75534018954228,2.229539380293629],[32.75568871716861,2.229371281398602],[32.755688895219265,2.2293712518732867],[32.755688990193356,2.229371206081535],[32.765836979640675,2.227688185104809],[32.76526837230666,2.222143370655057],[32.767315899841115,2.221057639793039],[32.77740351315475,2.220195919110018],[32.77743578831389,2.2201786338198457],[32.780354021858855,2.2183855418816134],[32.780560616240564,2.2177630413617266],[32.780245130901,2.215855955430111],[32.78024321832121,2.21585107861203],[32.780243958864965,2.2158488705575126],[32.780243943904644,2.215848780123459],[32.780446052087754,2.2152462959618613],[32.78145621695129,2.21223432121181],[32.78154063332698,2.207621695637722],[32.780663106806514,2.206004690787887],[32.78065649279887,2.205997143481195],[32.78252740878179,2.2041250215796624],[32.78235684293707,2.2021116676124937],[32.781983971568586,2.197715888716875],[32.783571370144855,2.192320190394457],[32.7897350473056,2.196888348758085],[32.78994861462091,2.196035482750623],[32.78994861465877,2.196035482595758],[32.79018899365135,2.194220786224082],[32.788692329506816,2.189829585036154],[32.78970118274293,2.186459715841886],[32.789645041010054,2.1858448671423427],[32.789300645807266,2.182081788394532],[32.78528015587211,2.1762120632317337],[32.7848732548775,2.175618099628706],[32.78487325576762,2.1756180083228647],[32.78487295343704,2.175617566934509],[32.784877531120166,2.175179455208366],[32.784891993204766,2.173695977022388],[32.78218886327915,2.173028602964886],[32.78218871341768,2.1730284904223356],[32.78218866114735,2.173028477535757],[32.78208973693308,2.17295416133757],[32.78015997892951,2.171504957046221],[32.78115000734041,2.167311598410166],[32.77891274389803,2.166302660236981],[32.77829415012024,2.165066733871705],[32.76952996229884,2.1651729781002964],[32.76846485117959,2.165186058104783],[32.768464604349475,2.165185892946009],[32.76846413138135,2.165185898679584],[32.761991977958765,2.1608549341888863],[32.758899501636904,2.1587856988277125],[32.755572731562765,2.160463204013307],[32.755571663280726,2.1604631297742394],[32.75557156891852,2.160463177365293],[32.75523055464977,2.1604394248107055],[32.75379869613519,2.160339919401597],[32.74661518602484,2.157141668889477],[32.74578827744866,2.155195406190447],[32.74321809901792,2.1532499863248415],[32.73960231167318,2.1505132335698454],[32.733145373742964,2.150408713041357],[32.73314515768932,2.1504085378261295],[32.73314460838836,2.150408528925293],[32.72799408990968,2.146231423116188],[32.723317689284606,2.1448581268039226],[32.7232,2.1468],[32.718817712565475,2.1477434091004874],[32.718154578258954,2.148232835505042],[32.718708344325066,2.1487503688624905],[32.719591521813086,2.149165039175189],[32.72017493133917,2.1501209976312907],[32.72087005620482,2.150770640734359],[32.72205666126666,2.1532043474153753],[32.7220601227081,2.153210019236053],[32.72206005267717,2.1532113031403117],[32.72206005842606,2.15321131493118],[32.72206005088184,2.153211336054767],[32.7219708934043,2.154845894797123],[32.72116782802447,2.155708445936154],[32.717888330951595,2.156367759930394],[32.72343144300567,2.160304849429592],[32.71818562209555,2.1656768574440126],[32.71794684193054,2.165921557589531],[32.719424850317175,2.16913169111037],[32.71952185846217,2.169342168717189],[32.719521809964725,2.169342280859104],[32.71952218518065,2.169343095802529],[32.71865979300176,2.1713360789978045],[32.71867264567857,2.1713517690822206],[32.71954003845241,2.172404435030903],[32.71865559644676,2.173190254955202],[32.71424129751086,2.170695707206689],[32.7084077259987,2.177577227530949],[32.701396211881224,2.183408864223534],[32.69881572640817,2.184310840056814],[32.69680212570732,2.187986170389467],[32.69430919665442,2.196042717353548],[32.70370252480767,2.199693110817632],[32.70746207043003,2.204832742208262],[32.70712894493612,2.207021842229534],[32.702703150151784,2.213922277614668],[32.69777950738132,2.2168616997170276],[32.69759475458675,2.216972011953384],[32.69751793915262,2.217118027109322],[32.69424118117074,2.223347805530262],[32.697800266749326,2.228973984468698],[32.69695496377318,2.231684749094621],[32.69695798761131,2.2316846249444002],[32.70110692327483,2.231051482805829]]]}},{"type":"Feature","properties":{"n":"Kole Town Council","c":"325206","d":"Kole","od":"Kole","dc":"325","k":"KOLETOWNCOUNCIL","a":["KOLE","KOLETOWNCOUNCIL","TOWNCOUNCIL"],"lat":2.275286,"lon":32.698058},"geometry":{"type":"Polygon","coordinates":[[[32.65928572580391,2.276290770598668],[32.65953164754343,2.278173052079474],[32.66246520437203,2.281476286581954],[32.66345004776226,2.284144926605133],[32.66732252627017,2.287312309098819],[32.67060420139788,2.286355522051706],[32.670607373425774,2.286354135304527],[32.67725142299442,2.287305556662198],[32.67902708461778,2.2882992626863423],[32.68063076521478,2.289196580909727],[32.680630779567664,2.289196731726405],[32.68063153807135,2.289197156204625],[32.68076086134428,2.290554442512337],[32.681562259243556,2.2911026505015215],[32.68179112348032,2.291259091956205],[32.68482168252711,2.290509917868606],[32.686464989940845,2.291170720236886],[32.691159362675236,2.294618574306914],[32.69666421146552,2.29669165849722],[32.69870544530171,2.299378803592953],[32.70170680312782,2.3013248868549696],[32.70290670837319,2.302102824582544],[32.70290673212863,2.3021029219575375],[32.70290707235289,2.302103142559273],[32.70307897893134,2.302808972146317],[32.703262273467246,2.303560307669806],[32.70860187201199,2.303046724131691],[32.708601847874554,2.3030470415515234],[32.70860206586394,2.303047020581853],[32.708502039033924,2.304373125863204],[32.71006569067417,2.305045231806015],[32.71092706384613,2.30460705358911],[32.71291345683535,2.303596380444816],[32.71502689208762,2.303789592500193],[32.71643314985474,2.304689026575382],[32.71669022126668,2.306794762478389],[32.719783178985864,2.30883001351185],[32.72270310209737,2.306323840011924],[32.72270337081902,2.3063239661135286],[32.72270436030198,2.306323116947842],[32.722711943044615,2.30632798875703],[32.725489645186755,2.30763146652316],[32.72548968632309,2.307631346102264],[32.726304996065416,2.304316495701589],[32.728268005162235,2.299498232868513],[32.731741905862,2.2968281731460487],[32.73132329372294,2.2956060185770264],[32.73044521158981,2.293045131758404],[32.7325391364827,2.289309381966314],[32.734156542288005,2.28847637394891],[32.73416906823228,2.287358220219808],[32.73417038149205,2.287357190466029],[32.73417038978386,2.287356488462611],[32.73518875071342,2.2865586663808126],[32.735216005597366,2.286537295270203],[32.73548870973411,2.2857748067857213],[32.73533686730979,2.28560276602269],[32.73457357775141,2.284740808517253],[32.73457414137503,2.2847385809809677],[32.73457385233764,2.284738253495336],[32.735278149736295,2.2819562203146666],[32.735421495326214,2.281389694186552],[32.73752410841862,2.277090848595519],[32.74092332215784,2.2736928869952977],[32.74151769496162,2.2710777871911483],[32.73417680348248,2.268642771052638],[32.732665829612074,2.26706047046008],[32.73264310613027,2.267061227325135],[32.73124136321995,2.267109487159299],[32.7312417161934,2.2671079042860236],[32.73123817211785,2.267108022330739],[32.73170958318997,2.264988945383202],[32.73132565300895,2.2648728768458612],[32.73017889893435,2.2645268613528233],[32.72935916825714,2.265620861613513],[32.729358667103035,2.2656206659181257],[32.729358520359824,2.265620861613513],[32.72707386322903,2.264728665473568],[32.724515800479146,2.264905667578059],[32.719952392425576,2.262242025873775],[32.72110886346584,2.260685672177477],[32.7212741949661,2.2600919312352628],[32.722436545984976,2.255917423677235],[32.724244354283236,2.254229838140186],[32.71702783529292,2.250227390725029],[32.70974682913547,2.249013862731442],[32.70747618174293,2.2481625393116986],[32.70194974518477,2.2469678603038545],[32.70194792406716,2.246967720617066],[32.69886358543284,2.247735598650025],[32.68876611041598,2.250249611647074],[32.68876624038704,2.2502494372297446],[32.68875522609921,2.250252179350722],[32.68950660675064,2.249246052871199],[32.6848174326251,2.247344145166148],[32.68246623619084,2.246390526126349],[32.682466166499694,2.246390482316184],[32.68246610130683,2.246390455874255],[32.682411229510635,2.2463559471044996],[32.67834002710716,2.243796654372363],[32.67496523420626,2.243859800954252],[32.67474147913401,2.2435312860949748],[32.6741667307238,2.243489042981115],[32.67312570333284,2.2414981472410127],[32.672850883243754,2.241461039890594],[32.67014714470598,2.244620912569211],[32.670146754078615,2.2446214627467294],[32.6697305301283,2.246696470314893],[32.66897135278854,2.250481283580233],[32.662982083852334,2.259999143890859],[32.66163926528397,2.263749665906401],[32.66015814896432,2.263822953812762],[32.652497252005816,2.271810175009474],[32.65428597825458,2.274281366355318],[32.65928572580391,2.276290770598668]]]}}]}
