{"type":"FeatureCollection","name":"Kwania sub-counties","metadata":{"source":"Uganda Bureau of Statistics NPHC 2024 Map Explorer","retrieved":"2026-07-26","display_only":true,"clipped_to_dashboard_district":true,"positive_area_overlaps_removed":true,"source_gap_ratio":0.02451347},"features":[{"type":"Feature","properties":{"n":"Atongtidi","c":"333101","d":"Kwania","od":"Kwania","dc":"333","k":"ATONGTIDI","a":["ATONGTIDI"],"lat":1.83148,"lon":32.690886},"geometry":{"type":"Polygon","coordinates":[[[32.6024,1.8924],[32.6071,1.9038],[32.6359,1.9227],[32.6574,1.9296],[32.6567573492024,1.9386923186919938],[32.657129057523164,1.941639080523308],[32.656409146270704,1.9436187453552083],[32.656302504031416,1.94512753555557],[32.66401733528093,1.945526033679943],[32.66944249960794,1.944598047392128],[32.668419559400654,1.940838509450946],[32.66964737742306,1.937117166755044],[32.67622058956535,1.93720978154184],[32.68045904915347,1.935871618216469],[32.68283572325749,1.93262415176681],[32.6844264303415,1.927864709256299],[32.68926379740513,1.927049701491735],[32.69128833980188,1.928777008837242],[32.69546905019039,1.928569995886448],[32.69695620792946,1.9271185302523],[32.69677786178888,1.925097161694979],[32.69743351904195,1.924495646447556],[32.701522965055446,1.92448514329737],[32.70424273610392,1.925427037706745],[32.707195460749574,1.928340308684016],[32.707469075478386,1.92983775366919],[32.709491611453245,1.930622976453316],[32.71432190497314,1.928909769966208],[32.712638894766464,1.928314584366748],[32.71103981968704,1.923357967169441],[32.71342074083753,1.92084684809108],[32.71553400432203,1.920604535763448],[32.7117521994257,1.917022712276552],[32.71257268517992,1.910705668100794],[32.709646608664535,1.909349343352874],[32.70811120020393,1.907457706520927],[32.706607993233575,1.907317878233718],[32.70691010559819,1.903775749778377],[32.70561041297104,1.90369023772405],[32.70716403019258,1.898673041437057],[32.70796505289629,1.898273510778581],[32.70795450466117,1.89284567106941],[32.714521464936674,1.89096089334307],[32.71480699951448,1.88964743739197],[32.71383588540611,1.888561201906718],[32.71349355297884,1.884964927325323],[32.71806228526776,1.873486223661877],[32.72599998598606,1.86646196507331],[32.72811620136554,1.861755662595854],[32.721151296756894,1.862618763274482],[32.721391408899656,1.856236108134786],[32.71836642424833,1.855025277353908],[32.716324526708156,1.852007602363383],[32.71393108913571,1.842689360836287],[32.71464359733403,1.825747688357077],[32.71845601797264,1.82567682962876],[32.71995976180105,1.823773364012439],[32.71954135930741,1.821964672481289],[32.72043534712681,1.819986067847163],[32.72384311273416,1.816977525162748],[32.72062795555782,1.813408796862731],[32.7309675882061,1.805633650861651],[32.732725100613855,1.799582094584647],[32.75177179608261,1.7757676033094894],[32.75145729347125,1.7754273866481443],[32.713765699410835,1.747364619201351],[32.70301478417988,1.7374280228549097],[32.69267429028952,1.7279550670175958],[32.68574990934518,1.744208058146178],[32.678797079910105,1.783080984812814],[32.67565233390388,1.809315506539275],[32.66870290995405,1.82616601914704],[32.66603651661392,1.83679360916705],[32.65575902703362,1.856700885490348],[32.6538530369035,1.854313269136811],[32.65137895147081,1.854217033244951],[32.649357357762476,1.85529074912852],[32.643969816517576,1.850526189860294],[32.6389174714787,1.850943740494662],[32.63551459087854,1.852419004976477],[32.63149415787094,1.852894818960754],[32.62423986631095,1.852057928784912],[32.6242863039717,1.854263729418596],[32.62605850138549,1.8574157321011],[32.62511434308349,1.859584301696696],[32.62468843243244,1.86355552644551],[32.62525009101606,1.864469336249617],[32.62343681123661,1.8652805475116],[32.61916921995303,1.864801318345084],[32.60896111969544,1.872399587956973],[32.605468880870475,1.876036758949152],[32.603282200710424,1.874213487166336],[32.592098739212396,1.879353121867655],[32.58829160394437,1.884730698111201],[32.58895112763925,1.8866480207441703],[32.6024,1.8924]]]}},{"type":"Feature","properties":{"n":"Ayabi","c":"333102","d":"Kwania","od":"Kwania","dc":"333","k":"AYABI","a":["AYABI"],"lat":1.876607,"lon":32.835213},"geometry":{"type":"MultiPolygon","coordinates":[[[[32.906982258557505,1.965704552820648],[32.908935437746884,1.965019656170267],[32.91060157641244,1.963274893466586],[32.91477381001683,1.965152401178707],[32.920658791848965,1.960378561053201],[32.92812758843932,1.961753432818744],[32.93042697394131,1.9604179816498024],[32.93265963475861,1.9588259422601977],[32.936009615719826,1.951100636813918],[32.94482669498117,1.9501499987492263],[32.95797324829711,1.9407756098790516],[32.9584476751048,1.9401160604951546],[32.95669008464708,1.9305785475701696],[32.95430963919784,1.925931755087022],[32.95446452078318,1.9185015907204983],[32.952915002008034,1.9100931726612338],[32.951533670673065,1.906779155771946],[32.95167022967976,1.903466645893224],[32.95171904590892,1.903283169652296],[32.95284828513625,1.8904272153719348],[32.947530208886214,1.89206079439722],[32.94124565527626,1.896363039402728],[32.93722881079802,1.900013356417229],[32.932564000980946,1.906466581882972],[32.929906967283095,1.911877399047595],[32.927445672990565,1.913832263139036],[32.92130668978807,1.915657179364126],[32.91889353028422,1.917417331113385],[32.909434007049704,1.926999386441171],[32.90729581149614,1.930780107973517],[32.90474271498017,1.941134043262073],[32.90337237218797,1.941719622230195],[32.902230232741374,1.943575599577668],[32.90073593160094,1.948025188948558],[32.9011791028896,1.949563175397232],[32.89561428569312,1.960555262331648],[32.901350499200596,1.960556148720047],[32.906982258557505,1.965704552820648]]],[[[32.811933599201154,1.88292518572337],[32.812693693903014,1.884558825694608],[32.810559600466284,1.886289822640466],[32.810733313817614,1.888956595283461],[32.8124583507047,1.88936573097923],[32.81483858185682,1.892438342584306],[32.81631748647895,1.89239185691637],[32.82061233648157,1.904632822687769],[32.8200940242788,1.907892696916901],[32.82087094292191,1.912846813564004],[32.82527627326393,1.915454777739152],[32.839788289775015,1.920997353935543],[32.84302662616901,1.92373513165275],[32.843479964069175,1.926862592273312],[32.8392039522557,1.930840176890291],[32.84250790133235,1.932405055091772],[32.84399792947122,1.93409995932715],[32.85015353165726,1.934622258547589],[32.855951581821124,1.936941703114654],[32.85681084503576,1.938677642480249],[32.86006587453812,1.939857957842606],[32.86279731221582,1.942313308361213],[32.86371128273129,1.945035562747468],[32.86588134994748,1.9479860917776],[32.86685315010943,1.947973553272927],[32.868746044155536,1.944531954972498],[32.86803403893655,1.936123548016724],[32.869523489315675,1.933386883984159],[32.872957030177595,1.933385436067711],[32.874040197516464,1.934454441928938],[32.87550780608061,1.934015948706493],[32.881372523692555,1.928777111101391],[32.8802312971487,1.924977468890744],[32.880778678690575,1.923122248704086],[32.882205984533435,1.922265379162996],[32.88195608200179,1.917578847186617],[32.88309827865557,1.916126255620874],[32.88222978080225,1.911545913428444],[32.880091147479035,1.909974325027977],[32.882271460826686,1.907942834505096],[32.884880381162546,1.902749511518492],[32.8861120857356,1.90242252641267],[32.887732061269375,1.89714262260204],[32.884947194563836,1.890233465012714],[32.88583597135975,1.888123883794927],[32.88815439626448,1.888009955283774],[32.8908760689254,1.885771869906013],[32.88966596809327,1.882075132778614],[32.892333012324414,1.879607522822988],[32.89576701346603,1.873610546858163],[32.89573059485889,1.872869000612196],[32.893588533752514,1.872748952983113],[32.89215732228029,1.870861909167071],[32.89493109798959,1.869604372131881],[32.89535502901509,1.868182586662394],[32.90009483687748,1.86800556609708],[32.91196403726957,1.8612911049794],[32.91326008765584,1.856727915210754],[32.917536552493864,1.849296689593647],[32.92479245283633,1.843821534987987],[32.935551071597025,1.839393432797285],[32.935523104667176,1.8346993500688584],[32.9355,1.8346],[32.9404,1.8134],[32.94007902357591,1.8133297864072309],[32.92775198547633,1.812058874562964],[32.91144440015718,1.807067122749955],[32.907619694555,1.8064856432805485],[32.8780558725643,1.809730453011235],[32.87387402461773,1.810995587814961],[32.83619500734748,1.8327298320338248],[32.83589247391581,1.832932736747249],[32.82893766960241,1.8345066916302122],[32.82192443254687,1.836125130950721],[32.813238369051156,1.857637865493821],[32.809948199384266,1.870667322075503],[32.81109276939221,1.871519078189589],[32.811933599201154,1.88292518572337]],[[32.85924154208239,1.887237550745409],[32.86100619271954,1.880782965024625],[32.85804001596124,1.87473592648715],[32.859390634346965,1.873492736352441],[32.859898940510526,1.86952485696987],[32.86280343139034,1.872072191935806],[32.86803261148794,1.869671039228541],[32.86890683284994,1.874445231661932],[32.873938961751385,1.878478378984197],[32.87470613686938,1.882672961926765],[32.87769127042446,1.882455422832284],[32.87870109944385,1.881085707185539],[32.88144688580704,1.883961207951201],[32.881081166682904,1.886456607174196],[32.87996723254424,1.88707872646284],[32.87967812959896,1.888661060991547],[32.88116372677793,1.890493484116537],[32.87984926751045,1.891661153270477],[32.87826112955386,1.891661567789684],[32.87816494246907,1.894835635170751],[32.87553124765535,1.894544548087885],[32.874710337972765,1.895236970126974],[32.87168839680644,1.90209366829696],[32.87010110754924,1.903720946967515],[32.86372952327133,1.901336783328686],[32.85930659270581,1.901821160164971],[32.859444601026745,1.904809047162681],[32.85678942457775,1.903906757417553],[32.85530431224209,1.902460009968691],[32.85457130042788,1.900879707018687],[32.85490411904478,1.89849143885882],[32.857307464434264,1.89193296458021],[32.85692687236799,1.888374486857689],[32.85924154208239,1.887237550745409]]]]}},{"type":"Feature","properties":{"n":"Ayabi Town Council","c":"333103","d":"Kwania","od":"Kwania","dc":"333","k":"AYABITOWNCOUNCIL","a":["AYABI","AYABITOWNCOUNCIL"],"lat":1.898579,"lon":32.913049},"geometry":{"type":"MultiPolygon","coordinates":[[[[32.8692,1.9457],[32.88054429568688,1.9533256261463658],[32.883894320896715,1.954269163356117],[32.883593306311234,1.955342804146731],[32.89354664025492,1.960555130252875],[32.89561427330588,1.960555262290093],[32.89602319930831,1.9597475423566515],[32.9011791028896,1.949563175397232],[32.90073593160094,1.948025188948558],[32.900736235523176,1.9480242839575201],[32.90073620437113,1.948024175912298],[32.90122281878965,1.9465753820782665],[32.902230232741374,1.943575599577668],[32.90337237218797,1.941719622230195],[32.90474258486258,1.9411340988643113],[32.90627458174705,1.9349216461686858],[32.90729581149614,1.930780107973517],[32.909434007049704,1.926999386441171],[32.91889353028422,1.917417331113385],[32.9188937706433,1.9174171557961477],[32.918893770646314,1.917417155793099],[32.918893786482435,1.9174171442431285],[32.92130668978807,1.915657179364126],[32.927445672990565,1.913832263139036],[32.929906967283095,1.911877399047595],[32.932564000980946,1.906466581882972],[32.937052916934675,1.900256685256494],[32.937228582057195,1.900013671954094],[32.937228583952745,1.900013670231457],[32.93722881079802,1.900013356417229],[32.9412454829873,1.8963631959707348],[32.941245527885506,1.896363155168178],[32.94124552789088,1.896363155164503],[32.94124565527626,1.896363039402728],[32.947530208886214,1.89206079439722],[32.952684819633795,1.8904774278554741],[32.95284828520477,1.8904272145918417],[32.954166673434536,1.8754178716684364],[32.95341766697399,1.8724257220324836],[32.93861934564775,1.8476994129810562],[32.93849537412545,1.847526748387502],[32.93555107323856,1.839393444312536],[32.93037005206113,1.8415258704704913],[32.92479245283633,1.843821534987987],[32.917536552493864,1.849296689593647],[32.91326008765584,1.856727915210754],[32.91196403726957,1.8612911049794],[32.90009483687748,1.86800556609708],[32.89535502901509,1.868182586662394],[32.89493109798959,1.869604372131881],[32.89215732228029,1.870861909167071],[32.893588533752514,1.872748952983113],[32.895135566969095,1.8728356534368071],[32.895726223825534,1.872868361063551],[32.89572624369188,1.8728687567595435],[32.89573059485889,1.872869000612196],[32.89576701346603,1.873610546858163],[32.892333012324414,1.879607522822988],[32.88966596809327,1.882075132778614],[32.8908760689254,1.885771869906013],[32.88857008038673,1.8876681299904061],[32.888155821512285,1.888009095120204],[32.88815541893473,1.888009114321758],[32.88815439626448,1.888009955283774],[32.885835971372025,1.8881238837943235],[32.885835958816486,1.8881239135673316],[32.884947194563836,1.890233465012714],[32.887732061269375,1.89714262260204],[32.88773156235321,1.8971442486941068],[32.887731562354624,1.897144248697617],[32.88773152229898,1.897144379240814],[32.8861120857356,1.90242252641267],[32.88488059106511,1.9027494557948927],[32.883228921457714,1.9060369111100615],[32.882271460826686,1.907942834505096],[32.880091147479035,1.909974325027977],[32.88222978080225,1.911545913428444],[32.88233345981198,1.9120927027393695],[32.883098115915374,1.916124400374284],[32.88309796362684,1.916124594201269],[32.88309827865557,1.916126255620874],[32.881956199005444,1.917578698386923],[32.88199288734804,1.9182690740160784],[32.882205984533435,1.922265379162996],[32.880778678690575,1.923122248704086],[32.8802312971487,1.924977468890744],[32.881372523692555,1.928777111101391],[32.87550780608061,1.934015948706493],[32.874040197516464,1.934454441928938],[32.872957030177595,1.933385436067711],[32.869523489315675,1.933386883984159],[32.868034092035096,1.9361234504553146],[32.86816116816633,1.9376248773208806],[32.868746044155536,1.944531954972498],[32.86828111328307,1.945377277141376],[32.86916327906965,1.9459947090050649],[32.8692,1.9457]]],[[[32.85944457859585,1.9048085615325876],[32.85930659270581,1.901821160164971],[32.86372952327133,1.901336783328686],[32.863730261219736,1.901337059459344],[32.86373202846261,1.901336865343782],[32.866892749385606,1.902520421236325],[32.87010110754924,1.903720946967515],[32.87168839680644,1.90209366829696],[32.874710337972765,1.895236970126974],[32.87553124765535,1.894544548087885],[32.87816494246907,1.894835635170751],[32.87826112955386,1.891661567789684],[32.87984926751045,1.891661153270477],[32.88116372677793,1.890493484116537],[32.87967812959896,1.888661060991547],[32.87996723254424,1.88707872646284],[32.881081166682904,1.886456607174196],[32.88144688580704,1.883961207951201],[32.87870109944385,1.881085707185539],[32.87769127042446,1.882455422832284],[32.87470613686938,1.882672961926765],[32.873938961751385,1.878478378984197],[32.86890683284994,1.874445231661932],[32.86803281750119,1.8696721642832819],[32.864571311076325,1.8712604109271411],[32.86280343139034,1.872072191935806],[32.859898940510526,1.86952485696987],[32.859390634346965,1.873492736352441],[32.85804001596124,1.87473592648715],[32.86100619271954,1.880782965024625],[32.85924154208239,1.887237550745409],[32.85692687236799,1.888374486857689],[32.857307464434264,1.89193296458021],[32.8573056572181,1.8919378962811642],[32.854571463626066,1.9008785359272595],[32.85457130042788,1.900879707018687],[32.85457169125521,1.9008805496048187],[32.856787970038276,1.9039053404531787],[32.85678923358904,1.9039065713626526],[32.85944457859585,1.9048085615325876]]]]}},{"type":"Feature","properties":{"n":"Cawente","c":"333104","d":"Kwania","od":"Kwania","dc":"333","k":"CAWENTE","a":["CAWENTE"],"lat":1.770056,"lon":32.620346},"geometry":{"type":"Polygon","coordinates":[[[32.55707993479679,1.876025020205852],[32.567659256278034,1.8781814629022697],[32.5699,1.8785],[32.57051738752674,1.8787640518960549],[32.57263262599909,1.879195212870127],[32.58488009036773,1.884906869418816],[32.58895112763925,1.88664802074417],[32.58829160394437,1.884730698111201],[32.588292598267564,1.8847292936302913],[32.58829251575201,1.884729053252954],[32.59000182805649,1.8823150075961577],[32.592098739212396,1.879353121867655],[32.603282200710424,1.874213487166336],[32.605468880870475,1.876036758949152],[32.60896111969544,1.872399587956973],[32.61916921995303,1.864801318345084],[32.623278721057666,1.8652627947748324],[32.62343688247104,1.8652805156432826],[32.62525009101606,1.864469336249617],[32.62468843243244,1.86355552644551],[32.62511434308349,1.859584301696696],[32.62605850138549,1.8574157321011],[32.6242863039717,1.854263729418596],[32.62423986631095,1.852057928784912],[32.63149415786808,1.8528948189604246],[32.63149430837559,1.8528948011486877],[32.63551459087854,1.852419004976477],[32.6389174714787,1.850943740494662],[32.643969816517576,1.850526189860294],[32.649357357762476,1.85529074912852],[32.65137895147081,1.854217033244951],[32.6538530369035,1.854313269136811],[32.65575902703362,1.856700885490348],[32.66603651661392,1.83679360916705],[32.66870290995405,1.82616601914704],[32.67565233390388,1.809315506539275],[32.67875814639548,1.783405781198027],[32.67879706970108,1.783081068105723],[32.67879707038225,1.7830810642973667],[32.678797079910105,1.783080984812814],[32.68574990934518,1.744208058146178],[32.69161453643937,1.7304425341375393],[32.69267428111806,1.7279550586155927],[32.641749666836,1.681302874760447],[32.641567156795816,1.681767154713231],[32.632007892942504,1.6753942334378342],[32.59264528743746,1.6541875367101633],[32.58443135987826,1.667966929334979],[32.590549189785854,1.6757016098098],[32.59224727048269,1.680994240978404],[32.587955032505,1.701429380756673],[32.58836412937218,1.703317179468927],[32.58435574568566,1.70632006085371],[32.580327895126594,1.707359631508636],[32.5794784156647,1.708289252863741],[32.579391143464726,1.710720467264462],[32.56799152836494,1.7098823136853136],[32.568036264576065,1.7115599216023447],[32.56912579778827,1.726038383840504],[32.568448199110186,1.7270074666319002],[32.5686,1.7327],[32.56018189514075,1.7402939547331668],[32.5583732806951,1.747093110263316],[32.554845577518236,1.753559410928639],[32.55455145388881,1.752857610631151],[32.55522285192547,1.762879268916858],[32.56085695447338,1.763856078721223],[32.56017195998085,1.768168681288577],[32.5589568787265,1.771943502214224],[32.55527032074923,1.7747789311018527],[32.5557,1.7877],[32.5472,1.7927],[32.537652471185396,1.817332624341679],[32.537466033795674,1.819219122603941],[32.5436,1.8358],[32.52846469159008,1.8554668378739636],[32.526933489270114,1.857526821052613],[32.54932367164895,1.8754587812763701],[32.549486063946446,1.875552560786567],[32.55707993479679,1.876025020205852]]]}},{"type":"Feature","properties":{"n":"Nambieso","c":"333105","d":"Kwania","od":"Kwania","dc":"333","k":"NAMBIESO","a":["NAMBIESO"],"lat":1.864286,"lon":32.769269},"geometry":{"type":"Polygon","coordinates":[[[32.708111954139454,1.907458291832903],[32.708562695072885,1.9080139522011241],[32.709646608664535,1.909349343352874],[32.7112015152871,1.9100700894857248],[32.712572058122085,1.910705090202165],[32.71257202294665,1.9107053611356943],[32.71257268517992,1.910705668100794],[32.7117521994257,1.917022712276552],[32.71295500057989,1.9181619094435713],[32.715529955047444,1.920598958870363],[32.71552831880463,1.9205991508955589],[32.71553400432203,1.920604535763448],[32.71342074083753,1.92084684809108],[32.71103981968704,1.923357967169441],[32.712638894766464,1.928314584366748],[32.712647493796,1.928317625357545],[32.73252647586512,1.927787168506317],[32.73414792461308,1.930131450916254],[32.7372013954093,1.929568030506511],[32.73830030707423,1.932496615501894],[32.74090562198446,1.935244712624384],[32.742547567963555,1.935530306009165],[32.7446182255713,1.934209635501993],[32.74836413231338,1.933745983979203],[32.75196881019167,1.938293801112466],[32.75296212659386,1.936715243041763],[32.75306455407319,1.934095300994989],[32.76852082421508,1.934558414594436],[32.769616535959955,1.950046321470563],[32.77175780201805,1.948713721351384],[32.779512730101956,1.948988165762413],[32.78879635409674,1.954220277006531],[32.793331680731235,1.954090446627447],[32.80279091527663,1.951744902858662],[32.805549894302885,1.949332635963495],[32.81082398291418,1.948877626886132],[32.81482855517365,1.951468629783415],[32.81990428568335,1.952741471531623],[32.822888369363774,1.95270984863529],[32.82931721477237,1.95103379993798],[32.835999110905185,1.954563749639616],[32.841883685301916,1.956125433603821],[32.84692832729969,1.943918605740634],[32.85325367711135,1.935862436767398],[32.852039590153225,1.9353767549744914],[32.84399916258688,1.934100171901541],[32.84399905997236,1.934100055249506],[32.84399792947122,1.93409995932715],[32.84250790133235,1.932405055091772],[32.8392039522557,1.930840176890291],[32.843479964069175,1.926862592273312],[32.84302662616901,1.92373513165275],[32.839788289775015,1.920997353935543],[32.82555844072025,1.9155625459893875],[32.825276550643196,1.91545488721808],[32.82527653379756,1.9154548772447935],[32.82527627326393,1.915454777739152],[32.82087094292191,1.912846813564004],[32.82013752491451,1.9081700840351157],[32.82009406064418,1.90789314572216],[32.82009407777441,1.9078930380381733],[32.8200940242788,1.907892696916901],[32.82061233648157,1.904632822687769],[32.81631748647895,1.89239185691637],[32.81483858185682,1.892438342584306],[32.8124583507047,1.88936573097923],[32.810733313817614,1.888956595283461],[32.810559600466284,1.886289822640466],[32.812693693903014,1.884558825694608],[32.811933599201154,1.88292518572337],[32.8114625864138,1.8765357565604477],[32.81109271640493,1.8715190387579754],[32.809948199384266,1.870667322075503],[32.809949016993194,1.8706640842485465],[32.80994900759989,1.870664077239159],[32.81113860079666,1.8659531932955737],[32.813238369051156,1.857637865493821],[32.813238421655285,1.8576377352094127],[32.81323842521177,1.857637721125438],[32.82192441721198,1.8361251344895415],[32.8216,1.8362],[32.82093559917715,1.8359119979265774],[32.812285763385596,1.834370183917474],[32.798495126875046,1.8261845828943335],[32.7983,1.8261],[32.751771803904695,1.7757676117711159],[32.744553333877626,1.7847930012050215],[32.732725100613855,1.799582094584647],[32.7309675882061,1.805633650861651],[32.72937265076063,1.8068330040614144],[32.72062826433455,1.8134091395956653],[32.72384311273416,1.816977525162748],[32.72043534712681,1.819986067847163],[32.71954135930741,1.821964672481289],[32.71995976180105,1.823773364012439],[32.719958349041455,1.8237751523085972],[32.719958349042734,1.823775152314143],[32.71995834048435,1.8237751631403338],[32.71845601797264,1.82567682962876],[32.714643645282514,1.8257476874658929],[32.714101333714055,1.838641368273702],[32.71393108913571,1.842689360836287],[32.716324526708156,1.852007602363383],[32.71836642424833,1.855025277353908],[32.721391408899656,1.856236108134786],[32.721151296756894,1.862618763274482],[32.72811620136554,1.861755662595854],[32.72599998598606,1.86646196507331],[32.72599968305531,1.8664622331438676],[32.72599966396876,1.866462275592183],[32.72522713401064,1.8671458800152663],[32.71806228526776,1.873486223661877],[32.71349357100805,1.884964882027856],[32.71383607284333,1.8885614115638054],[32.71480699951448,1.88964743739197],[32.714521464936674,1.89096089334307],[32.70795450466117,1.89284567106941],[32.70796505289629,1.898273510778581],[32.70716403019258,1.898673041437057],[32.70561041297104,1.90369023772405],[32.70691010559819,1.903775749778377],[32.706607993233575,1.907317878233718],[32.70811120020393,1.907457706520927],[32.70811165262006,1.9074582639016064],[32.708111954139454,1.907458291832903]]]}},{"type":"Feature","properties":{"n":"Abongomola","c":"333201","d":"Kwania","od":"Kwania","dc":"333","k":"ABONGOMOLA","a":["ABONGOMOLA"],"lat":1.982812,"lon":32.807813},"geometry":{"type":"Polygon","coordinates":[[[32.746012965881285,2.019677654193714],[32.74784369320908,2.021740693214142],[32.751699993455084,2.023641059018384],[32.752544102900295,2.026084152902566],[32.75562458360829,2.028029237825711],[32.7553560230373,2.03024618960835],[32.75689670360676,2.030879724056738],[32.75918332934768,2.03057246572927],[32.76075035594467,2.028980802830629],[32.76312074766847,2.030699785646436],[32.76338963851966,2.032246872303826],[32.76750654147207,2.031785989519523],[32.7691496380704,2.033113424939748],[32.77679454936491,2.029525333422062],[32.780515270492074,2.028924149867653],[32.78523217431639,2.029192117672605],[32.7946848215377,2.027797931600708],[32.817853351737426,2.028696647821812],[32.82006182517246,2.021797881250956],[32.82403547382876,2.023913280971323],[32.82470371247065,2.021426654456214],[32.82994820256192,2.019654142288077],[32.83268361324928,2.019736682070921],[32.83285394157766,2.016873666436227],[32.84392455478563,2.019101320568512],[32.84697052609064,2.02424079330581],[32.84900356474884,2.022801014061615],[32.852811313846225,2.014111869038117],[32.8559036312214,2.011455681347927],[32.85935825114868,2.011540219139847],[32.85943750026754,2.013451509713376],[32.862104960011756,2.015619835516463],[32.86648216573299,2.013896178859643],[32.867561974817264,2.015693132348931],[32.87015531707495,2.017057863917306],[32.87709503046482,2.01530270415117],[32.880595398071485,2.012427489962518],[32.8818517517664,2.009153357084869],[32.88082712441937,2.007593129695281],[32.88308386079646,2.003683018695087],[32.88483560624725,2.006666813102199],[32.886089065134534,2.006468928810341],[32.88418594342481,2.0019071353812095],[32.883896659786394,2.001729484018197],[32.879044649897445,1.9996260651702],[32.875511151886165,1.9965798775068564],[32.86509731244849,1.9901846566073742],[32.86048420048647,1.989461781135555],[32.8605950528547,1.9874197834958334],[32.8604,1.9873],[32.860627517952736,1.9868217479769008],[32.860640718503404,1.98657858228058],[32.86538406962225,1.9763252873906514],[32.86592255542466,1.9720035936431157],[32.8660443223756,1.954760486149456],[32.86685315005959,1.947973564807266],[32.86684548663098,1.9479736521497992],[32.86588134994748,1.9479860917776],[32.86371128273129,1.945035562747468],[32.86279731221582,1.942313308361213],[32.86006587453812,1.939857957842606],[32.85681084503576,1.938677642480249],[32.855951581821124,1.936941703114654],[32.8532536870185,1.9358624407306446],[32.850452861992224,1.9394296449905557],[32.84692832729969,1.943918605740634],[32.841883685301916,1.956125433603821],[32.835999110905185,1.954563749639616],[32.82931721477237,1.95103379993798],[32.822888369363774,1.95270984863529],[32.81990428568335,1.952741471531623],[32.81482855517365,1.951468629783415],[32.81082410958611,1.9488777088442812],[32.80554966120827,1.9493328397658551],[32.80279091527663,1.951744902858662],[32.793331680731235,1.954090446627447],[32.79333114378056,1.9540904619984476],[32.79333101354927,1.954090494289686],[32.793031053903306,1.954099052511472],[32.78879635409674,1.954220277006531],[32.779512730101956,1.948988165762413],[32.77175780201805,1.948713721351384],[32.769616535959955,1.950046321470563],[32.7696142091945,1.9500134325955383],[32.76857193190588,1.950645710809512],[32.76661601695478,1.954586095637981],[32.76650143977398,1.957156736012676],[32.76523116943998,1.958540760165145],[32.76478833307693,1.96166748780183],[32.753715038099266,1.970511486445126],[32.75433745410758,1.970903146382183],[32.75309639630392,1.974154347475087],[32.75561520970259,1.976652521860605],[32.75762848891853,1.980993547581647],[32.75412597219777,1.981090173612204],[32.75235955439634,1.984533444182387],[32.747802435124676,1.989133819381395],[32.745963926828345,1.987673904931806],[32.744932496098514,1.987788508401953],[32.738140328817806,1.995497490434824],[32.73522780699043,2.00052299067583],[32.733371406546894,2.00965240323262],[32.742705711778086,2.010891352778622],[32.746012965881285,2.019677654193714]]]}},{"type":"Feature","properties":{"n":"Aduku","c":"333202","d":"Kwania","od":"Kwania","dc":"333","k":"ADUKU","a":["ADUKU"],"lat":2.009629,"lon":32.686701},"geometry":{"type":"Polygon","coordinates":[[[32.66548303532481,2.025259839608057],[32.66733471600733,2.026280732966809],[32.668841569279486,2.028344058728013],[32.6713616032638,2.027669682991779],[32.67344499123958,2.025848173315015],[32.676733259352275,2.029476387643474],[32.67849470434357,2.033761360891327],[32.6818724577988,2.035979317531484],[32.68298128628627,2.037963989735645],[32.68261692917958,2.040803561022928],[32.68847190687461,2.047164003262718],[32.69389707518257,2.048877215888044],[32.698149770124466,2.049092758257571],[32.69833818504578,2.050900631411332],[32.70126437614971,2.052594924429958],[32.70182168886458,2.057120317793173],[32.70080637218319,2.059794637159929],[32.70262953953302,2.06172003728502],[32.70563717390216,2.061453538912708],[32.70874235641245,2.059181097933599],[32.71138442056539,2.062874171254163],[32.713292447814226,2.068636421715344],[32.718513406678454,2.073334178930776],[32.71961132487902,2.07621022619821],[32.72239658530816,2.073809225242456],[32.72430662961074,2.070115788732024],[32.72688407912447,2.068286590274277],[32.73447778752739,2.079314521645253],[32.736127558290534,2.080310541090592],[32.744719278679206,2.091620455708495],[32.748237741651835,2.092842393474177],[32.75095578158312,2.092806639422027],[32.7560314193339,2.091242344300187],[32.75798888953287,2.088781560336817],[32.761706161874265,2.087750996179452],[32.7649834410887,2.088783028008838],[32.77115779291301,2.095017245917414],[32.774167491515556,2.083509689474287],[32.772909376999266,2.073801888644411],[32.773461214119635,2.064094859749123],[32.775686718876834,2.063352793196358],[32.77741135696894,2.061027914681879],[32.77733837376318,2.059236250139804],[32.78006629476278,2.051447430050334],[32.778172189308506,2.042300455325092],[32.77421022239881,2.039376826686713],[32.77408853747876,2.037631442580797],[32.77275593895332,2.035921338644493],[32.771091745733465,2.03549488486503],[32.767513412136395,2.031791540235889],[32.76750687320919,2.031786257525433],[32.76390222000582,2.032472655780524],[32.76378328631291,2.032202803863767],[32.76338963851966,2.032246872303826],[32.76312074766847,2.030699785646436],[32.762794848676826,2.030463447170944],[32.76074992979235,2.028981235682786],[32.75962931037135,2.030119473131545],[32.75918458146324,2.030571981100016],[32.75918368842431,2.030572101007349],[32.75918332934768,2.03057246572927],[32.75689670360676,2.030879724056738],[32.7553560230373,2.03024618960835],[32.755624582652985,2.028029245711705],[32.75254483513217,2.02608494451343],[32.7525446895664,2.026084523336761],[32.752544102900295,2.026084152902566],[32.75170000448017,2.023641090928132],[32.751106805400035,2.0233487388608786],[32.74784369320908,2.021740693214142],[32.74784346350606,2.021740434362764],[32.74784332750802,2.02174036733753],[32.74724915198457,2.0210707071781013],[32.746012965881285,2.019677654193714],[32.742705711778086,2.010891352778622],[32.742687535410276,2.0108889402152776],[32.738107537419836,2.010556868520197],[32.734773346107445,2.014830778706688],[32.733821455559735,2.022502071960704],[32.73524904158367,2.023795794006737],[32.73050739720466,2.024735286271675],[32.72810915455137,2.030994086210519],[32.72650990377878,2.03232735162012],[32.72664302782453,2.034402220272494],[32.72565350663556,2.036933154544841],[32.72158899833584,2.038314280260055],[32.71939543365983,2.035581489306773],[32.71994590107951,2.034670997579924],[32.712227443033264,2.031069016848095],[32.712380427169094,2.028330127320761],[32.707490373807474,2.023208325758776],[32.70633544077791,2.020805769433375],[32.71296428903963,2.004362612332703],[32.71242558064284,2.002896799779565],[32.70951072620878,2.001331848407338],[32.70618668995743,1.998012495162882],[32.703719731058655,1.993901929901366],[32.69673875462208,1.986785739869575],[32.70318107155469,1.984621750079611],[32.71605154045021,1.978165892432103],[32.726423450314655,1.97708215633786],[32.72904375138497,1.975222103155504],[32.732357085946695,1.97514491598599],[32.736518358330564,1.972354703152779],[32.73890672287528,1.971734878859014],[32.74561126128043,1.972511023263684],[32.7514675186576,1.971736636466785],[32.75371509519623,1.9705114408430304],[32.76478833307693,1.96166748780183],[32.76523116943998,1.958540760165145],[32.765775073584294,1.957948148929406],[32.766605753166225,1.9548163728106425],[32.76661601695478,1.954586095637981],[32.76672514661816,1.9543662430980442],[32.76690171370785,1.953700560918171],[32.767365349763075,1.953076490311013],[32.76857193190588,1.950645710809512],[32.769614204953974,1.9500134351679734],[32.76961256706851,1.9499902211127034],[32.76852082421508,1.934558414594436],[32.75306455407319,1.934095300994989],[32.75296212659386,1.936715243041763],[32.75196881019167,1.938293801112466],[32.74836413231338,1.933745983979203],[32.745134993758555,1.9341456722553219],[32.7446181911599,1.9342096574496705],[32.742547567963555,1.935530306009165],[32.74090562198446,1.935244712624384],[32.74090536995306,1.935244446780604],[32.74090502031708,1.935244386004949],[32.7383005356241,1.932496964341158],[32.73830046875357,1.9324967860419426],[32.73830030707423,1.932496615501894],[32.7372013954093,1.929568030506511],[32.73414792461308,1.930131450916254],[32.73252647586512,1.927787168506317],[32.71318157586308,1.9283033737479496],[32.71429037775542,1.9288986205709722],[32.71432190497314,1.928909769966208],[32.714315426570906,1.9289120677232046],[32.71431547415959,1.928912093270611],[32.71329206463778,1.9292750333059945],[32.709491611453245,1.930622976453316],[32.707469075478386,1.92983775366919],[32.70720017787112,1.9283661246554025],[32.70719543054185,1.9283402788799253],[32.70687016858501,1.9280193630030311],[32.704242564835916,1.9254269783942597],[32.701522981324224,1.924485148931474],[32.701492016410185,1.924485222784486],[32.69743351904195,1.924495646447556],[32.696777863852674,1.9250971598016107],[32.696778468298454,1.9251040358520386],[32.69695620792946,1.9271185302523],[32.696955605997374,1.9271191177378844],[32.69695563279343,1.927119422564284],[32.695469509774526,1.928569645425867],[32.695469403901384,1.9285696506645937],[32.69546905019039,1.928569995886448],[32.69128833980188,1.928777008837242],[32.68926379740513,1.927049701491735],[32.6844264303415,1.927864709256299],[32.68283572325749,1.93262415176681],[32.68045904915347,1.935871618216469],[32.6804578419076,1.935871999367242],[32.680457727460976,1.935872155691436],[32.67787035300105,1.9366889194504844],[32.67622058956535,1.93720978154184],[32.66964737742306,1.937117166755044],[32.668419559400654,1.940838509450946],[32.66944249960794,1.944598047392128],[32.66401733528093,1.945526033679943],[32.65849359693083,1.9452407131977638],[32.65630250335819,1.9451275450803907],[32.65599711839145,1.9494481768321394],[32.65791803032031,1.957281673905387],[32.654707762625186,1.967838970827618],[32.65470510331672,1.9678729474096293],[32.65516694902768,1.9744746243368836],[32.656663907635874,1.982061159641704],[32.6563754344711,1.9917488574398683],[32.6564,1.9921],[32.65676888154882,1.992963043623658],[32.65842458754895,1.993187904832368],[32.662920405980515,1.997041471186974],[32.663991879898475,2.003609751487895],[32.66242150058104,2.008701587789191],[32.66306175965331,2.01296028421302],[32.66179560274679,2.013008644464321],[32.6619,2.0223],[32.65577189563652,2.025131927016457],[32.66067045075287,2.024749174695465],[32.66548303532481,2.025259839608057]],[[32.73800581231261,2.026932763735637],[32.73899139743951,2.032729130114904],[32.738905029211345,2.044374206057955],[32.7335621905111,2.043232553731917],[32.73268538943589,2.041776192159157],[32.73083907755455,2.040871834530552],[32.729392581235984,2.036799052597315],[32.73142497186901,2.02966535089255],[32.73800581231261,2.026932763735637]]]}},{"type":"Feature","properties":{"n":"Aduku Town Council","c":"333203","d":"Kwania","od":"Kwania","dc":"333","k":"ADUKUTOWNCOUNCIL","a":["ADUKU","ADUKUTOWNCOUNCIL"],"lat":2.004898,"lon":32.723421},"geometry":{"type":"MultiPolygon","coordinates":[[[[32.706186754015704,1.9980125591309104],[32.70951072620878,2.001331848407338],[32.71242558064284,2.002896799779565],[32.71296428903963,2.004362612332703],[32.70633544077791,2.020805769433375],[32.707490373807474,2.023208325758776],[32.709794674422504,2.0256218312190564],[32.712379997634585,2.028329580909496],[32.71237999245159,2.0283296720012327],[32.712380427169094,2.028330127320761],[32.712227443033264,2.031069016848095],[32.71994590107951,2.034670997579924],[32.71939543750297,2.035581482950088],[32.719395453216485,2.035581513670891],[32.72158899833584,2.038314280260055],[32.72565350663556,2.036933154544841],[32.72664302782453,2.034402220272494],[32.72650990377878,2.03232735162012],[32.72810915455137,2.030994086210519],[32.73050739720466,2.024735286271675],[32.73524904158367,2.023795794006737],[32.733821455559735,2.022502071960704],[32.734772225837546,2.0148398069704485],[32.73477326274832,2.01483141523205],[32.73477326789446,2.014831409025747],[32.734773346107445,2.014830778706688],[32.738107537419836,2.010556868520197],[32.73830571512758,2.0105712373490645],[32.73830571943248,2.010571232157307],[32.7334412105889,2.0096616683770536],[32.733371406546894,2.00965240323262],[32.733372148358136,2.0096487551507223],[32.73337209971278,2.009648746055035],[32.73391443716317,2.005433843394656],[32.73471145207675,2.0030623226659268],[32.73522780699043,2.00052299067583],[32.73603012519015,1.999138606096068],[32.73625586422101,1.998466918801579],[32.73682602574851,1.9977652950326794],[32.738140328817806,1.995497490434824],[32.744932496098514,1.987788508401953],[32.745963926828345,1.987673904931806],[32.74780235036666,1.989133752077131],[32.75235960637548,1.9845333428596772],[32.75412597219777,1.981090173612204],[32.75762848891853,1.980993547581647],[32.755645662697205,1.9767181845028534],[32.75561515931159,1.9766524718825034],[32.75309639630392,1.974154347475087],[32.75433745410758,1.970903146382183],[32.75371730181628,1.9705129109060204],[32.753715026637614,1.970511492613194],[32.75357022194818,1.9705904139353596],[32.7514675186576,1.971736636466785],[32.74561126128043,1.972511023263684],[32.73890673742861,1.9717348805437664],[32.738769284672955,1.971770546586907],[32.736518358330564,1.972354703152779],[32.732357085946695,1.97514491598599],[32.72904375138497,1.975222103155504],[32.726423450314655,1.97708215633786],[32.71605154045021,1.978165892432103],[32.70318107155469,1.984621750079611],[32.69673918678474,1.9867855947050954],[32.703398807364195,1.993574790278959],[32.703719731058655,1.993901929901366],[32.7061866899567,1.9980124951616733],[32.706186754015704,1.9980125591309104]]],[[[32.73800581231261,2.026932763735637],[32.73142497186901,2.02966535089255],[32.729392581235984,2.036799052597315],[32.73083907755455,2.040871834530552],[32.73268538943589,2.041776192159157],[32.7335621905111,2.043232553731917],[32.738905029211345,2.044374206057955],[32.73899139743951,2.032729130114904],[32.73800581231261,2.026932763735637]]]]}},{"type":"Feature","properties":{"n":"Akali","c":"333204","d":"Kwania","od":"Kwania","dc":"333","k":"AKALI","a":["AKALI"],"lat":2.055327,"lon":32.831773},"geometry":{"type":"Polygon","coordinates":[[[32.774088594618796,2.037631682924499],[32.774210505013244,2.03937703523456],[32.778172189308506,2.042300455325092],[32.778282616418025,2.042833727629144],[32.77878258764599,2.043258077697112],[32.778693665350254,2.044818756596492],[32.78006592805716,2.0514456591631807],[32.78006622533451,2.051446667638237],[32.78006616975296,2.0514468263555248],[32.78006629476278,2.051447430050334],[32.7773484905909,2.0592073643505846],[32.77733837389367,2.0592362533432027],[32.77741135696894,2.061027914681879],[32.775686718876834,2.063352793196358],[32.77568643240906,2.063352888715432],[32.7756863205408,2.063353039512356],[32.77527161232226,2.063491205252764],[32.77346122757744,2.0640948552617853],[32.77320211411742,2.0686525292415654],[32.772909376999266,2.073801888644411],[32.774167491515556,2.083509689474287],[32.77391982408643,2.0844566437365413],[32.77115780158997,2.095017255244364],[32.77790366606722,2.103578038312297],[32.777682362582105,2.10114291702502],[32.77905178977536,2.098289605784834],[32.779907745889055,2.097946260158608],[32.78577700945722,2.099673110030435],[32.79286231294371,2.0976455798454903],[32.7992,2.0857],[32.8089,2.0956],[32.80890181969767,2.09559964539225],[32.80890323083258,2.095598337676755],[32.808904889828895,2.0955990471102672],[32.8284,2.0918],[32.84357382832243,2.1014424820374047],[32.84568112797437,2.101020995042664],[32.846480813241286,2.098318093693659],[32.84884104955369,2.097156752861535],[32.85029294307881,2.093682143704886],[32.8511,2.0881],[32.85245019938263,2.086613263601154],[32.85253243114902,2.085960812356492],[32.85557275105756,2.082125321097866],[32.859970451856185,2.0783325361583613],[32.86,2.0783],[32.86000523542333,2.0783025371666914],[32.86004024785234,2.078272340793741],[32.858046308983134,2.075240340677165],[32.85930973231976,2.074367786661025],[32.86017696176286,2.071315416205839],[32.86194730217241,2.069752217163528],[32.86469317550808,2.064484218578977],[32.88664445901394,2.068549312762673],[32.88406635508911,2.063481161396061],[32.88415865107005,2.060674028556836],[32.885681184419134,2.048707943050278],[32.88847488149176,2.039823888985469],[32.88827323207082,2.035426672253744],[32.88921755653588,2.032159575783847],[32.88484636735025,2.030576119437211],[32.87408425748966,2.021004098874339],[32.874788172536505,2.015940537007946],[32.87021089562019,2.0170438072522847],[32.87015531707495,2.017057863917306],[32.867561974817264,2.015693132348931],[32.8675618788991,2.0156929727276793],[32.86756165024977,2.015692852402535],[32.86751970681786,2.015622792480409],[32.86648216573299,2.013896178859643],[32.862104960011756,2.015619835516463],[32.85943750026754,2.013451509713376],[32.85935825114868,2.011540219139847],[32.85590387122242,2.0114556872209772],[32.85281128501482,2.0141119348303307],[32.84900356474884,2.022801014061615],[32.84869899939092,2.0230167044416634],[32.846974220551225,2.024239856350561],[32.84697351889191,2.024238673831527],[32.84697052609064,2.02424079330581],[32.84392455478563,2.019101320568512],[32.83285394157766,2.016873666436227],[32.83268361324928,2.019736682070921],[32.82994820256192,2.019654142288077],[32.82470371247065,2.021426654456214],[32.82403547382876,2.023913280971323],[32.82006182517246,2.021797881250956],[32.817853351737426,2.028696647821812],[32.79468511187351,2.0277979428629465],[32.78798364885892,2.0287862982873515],[32.78523217431639,2.029192117672605],[32.780515270492074,2.028924149867653],[32.77679454936491,2.029525333422062],[32.771015115609806,2.032237874671377],[32.76914964294706,2.033113435362215],[32.77109223555833,2.0354950103839062],[32.77275593895332,2.035921338644493],[32.77408853747876,2.037631442580797],[32.77408855026803,2.0376316260233613],[32.774088594618796,2.037631682924499]]]}},{"type":"Feature","properties":{"n":"Inomo","c":"333205","d":"Kwania","od":"Kwania","dc":"333","k":"INOMO","a":["INOMO"],"lat":2.112558,"lon":32.741582},"geometry":{"type":"MultiPolygon","coordinates":[[[[32.69410540262809,2.131355332188759],[32.69625317419619,2.1316363200672575],[32.6964,2.1316],[32.69644128610768,2.131660930304079],[32.69861627383247,2.131945478808039],[32.700221978744686,2.133106069269486],[32.702457624095935,2.1405398807222276],[32.70298208447118,2.14131388272763],[32.70932548859511,2.14626288633968],[32.71506142563089,2.148362993430984],[32.71506673391999,2.1485509114477797],[32.71914224348743,2.1476735448047877],[32.72336524472894,2.1440734619724475],[32.72372518413358,2.1381344617959597],[32.722284280372556,2.134619342088732],[32.7233306591067,2.132764590500018],[32.72908933180992,2.131526578273497],[32.73275391541178,2.129051887225594],[32.73789267086275,2.127481670793634],[32.742746106038716,2.128813349118688],[32.7496500270292,2.133354692377286],[32.75404362814224,2.132877265048126],[32.75512912493406,2.1358717507348324],[32.77446057072934,2.1372825268579594],[32.77468806436159,2.137286155297908],[32.77470852293136,2.137278159988383],[32.78268568298592,2.1168366873485733],[32.77790367714152,2.103578068734789],[32.7711576861672,2.095017142677845],[32.7702661329932,2.0941169405252706],[32.7649834410887,2.088783028008838],[32.761706161874265,2.087750996179452],[32.75880874313293,2.0885542668654447],[32.75603153153343,2.091242264109283],[32.75603146740483,2.0912422838690334],[32.7560314193339,2.091242344300187],[32.75095578158312,2.092806639422027],[32.748237741651835,2.092842393474177],[32.74823755916827,2.0928423300989],[32.74823753669003,2.092842330399127],[32.74688976164517,2.0923742493753643],[32.744719278679206,2.091620455708495],[32.736127558290534,2.080310541090592],[32.73447778752739,2.079314521645253],[32.73447728418628,2.0793137906702275],[32.73447725877276,2.079313775324851],[32.733991721379034,2.0786086341076495],[32.72688407912447,2.068286590274277],[32.72430662961074,2.070115788732024],[32.72239658530816,2.073809225242456],[32.71961132487902,2.07621022619821],[32.71961131332057,2.076210195920317],[32.71931254928971,2.076467749703461],[32.71173087217583,2.07826661360587],[32.71011424035041,2.08846020295898],[32.70554432917171,2.097507631671466],[32.7026871098745,2.108278837750257],[32.70125797994222,2.11746730157618],[32.69854528959087,2.116895439324134],[32.69083611860658,2.118042891830943],[32.688122779488666,2.122494657692221],[32.689220116678676,2.131875405010335],[32.69410540262809,2.131355332188759]]],[[[32.61536800124796,2.122127690290271],[32.616312378790724,2.1226338553278343],[32.6176,2.1228],[32.61780674790561,2.1234348034284842],[32.62046662138706,2.124860435550902],[32.62307132039616,2.134035478898924],[32.62472123530554,2.137303160554139],[32.624680135046574,2.144539006199352],[32.62468209073404,2.144545010986226],[32.62506322916404,2.144144522159374],[32.631,2.1367],[32.63103255178549,2.1366929490717355],[32.632000360379116,2.133271918380804],[32.63636832745875,2.126383805780282],[32.64138592140714,2.1344503419334715],[32.644438723884946,2.133789085079073],[32.64710989524883,2.130757226262722],[32.652393220798345,2.130495957418905],[32.6567794732081,2.131115998583084],[32.658426931857605,2.1307591483340933],[32.658427912107726,2.129043385140799],[32.66028279326537,2.128212682283115],[32.66307878208876,2.124792369661583],[32.66745091794043,2.124375800749866],[32.66814452996246,2.119731100469585],[32.666909279334625,2.118298823738637],[32.66785257657571,2.113873034797181],[32.66742515521088,2.109851507824294],[32.66343214944808,2.108415721634934],[32.66367418163521,2.107787887594353],[32.66064330802582,2.107983065825826],[32.657848020095464,2.10696846283538],[32.65897702037051,2.103646655534066],[32.65832280522736,2.100583323123153],[32.6589965535065,2.097742829865834],[32.66621183636634,2.095862398169991],[32.663289533442516,2.089312551313987],[32.6557226316577,2.08133129404769],[32.653080378426665,2.075272927597277],[32.651612023262395,2.074386125583545],[32.646965441528586,2.076639553638416],[32.64425591890396,2.07120247646239],[32.6461975233832,2.066262865746038],[32.646511589562515,2.064035815761784],[32.64565967276551,2.062099544358727],[32.6480904524793,2.06108822386556],[32.65572683956749,2.061089802889474],[32.66130760217094,2.059613542064056],[32.6610155753043,2.052226881822356],[32.66395380891406,2.045873762249153],[32.66468920666663,2.040555016390313],[32.66366219746609,2.037094061941576],[32.66893688037875,2.03855455769894],[32.66886832283889,2.028336899320072],[32.668841569279486,2.028344058728013],[32.66733471600733,2.026280732966809],[32.66732376321415,2.0262746943263865],[32.664220095953155,2.025125828700987],[32.66248834440009,2.024942071981026],[32.65563326732352,2.025195990100494],[32.6487,2.0284],[32.6385,2.0224],[32.62662033521493,2.0228598579916803],[32.6266304378066,2.022949519317359],[32.62210375448938,2.0264645908544785],[32.620066636990686,2.03433941820019],[32.62111415247735,2.036434498516706],[32.62173256586926,2.039623306915461],[32.6163,2.050321125140621],[32.6163,2.0655],[32.6132399613908,2.066845234364429],[32.61329162612283,2.068732516995261],[32.611449040757,2.071312466326276],[32.61165418546649,2.076079118584122],[32.60781721106244,2.077853111608443],[32.60207800094138,2.087290579710827],[32.59971926155788,2.0896058813894154],[32.6012,2.095],[32.599005076962776,2.120341384157018],[32.59904752835823,2.120386448063701],[32.61536800124796,2.122127690290271]]]]}},{"type":"Feature","properties":{"n":"Inomo Town Council","c":"333206","d":"Kwania","od":"Kwania","dc":"333","k":"INOMOTOWNCOUNCIL","a":["INOMO","INOMOTOWNCOUNCIL"],"lat":2.079799,"lon":32.683271},"geometry":{"type":"Polygon","coordinates":[[[32.65573560404693,2.081344976791137],[32.663289533442516,2.089312551313987],[32.66621183636634,2.095862398169991],[32.6589965535065,2.097742829865834],[32.65832280522736,2.100583323123153],[32.65897702037051,2.103646655534066],[32.657848020095464,2.10696846283538],[32.660642809255684,2.107982884787708],[32.66101415247732,2.107959184670251],[32.66367418163521,2.107787887594353],[32.66343214944808,2.108415721634934],[32.66742515521088,2.109851507824294],[32.66785257657571,2.113873034797181],[32.666909279334625,2.118298823738637],[32.66814452996246,2.119731100469585],[32.66745091794043,2.124375800749866],[32.66307878208876,2.124792369661583],[32.66028279326537,2.128212682283115],[32.658427912107726,2.129043385140799],[32.658426931857605,2.1307591483340933],[32.658426734639136,2.130759191052895],[32.658426734639136,2.1307591910528956],[32.6587,2.1307],[32.67594583883096,2.135864529275582],[32.677300786119346,2.135822982149192],[32.6831575407287,2.132854967959928],[32.68922010531749,2.131875407089864],[32.68916999243759,2.1314469106110043],[32.688122779488666,2.122494657692221],[32.69083611860658,2.118042891830943],[32.69828565090659,2.1169340846025624],[32.69854469670031,2.116895483389801],[32.698544819166166,2.116895509343337],[32.69854528959087,2.116895439324134],[32.70125797994222,2.11746730157618],[32.7026871098745,2.108278837750257],[32.70554432917171,2.097507631671466],[32.71011424035041,2.08846020295898],[32.71173087217583,2.07826661360587],[32.711806977234,2.0782485565665274],[32.719611247659515,2.0762102525243646],[32.71961130345074,2.076210204428748],[32.71851334382655,2.073334122377373],[32.713292447814226,2.068636421715344],[32.71138442056539,2.062874171254163],[32.70874235641245,2.059181097933599],[32.70563717390216,2.061453538912708],[32.70262953953302,2.06172003728502],[32.70080637218319,2.059794637159929],[32.70182168025767,2.0571203404635496],[32.70181034167709,2.0570281783433266],[32.70126437614971,2.052594924429958],[32.698773670093814,2.051152781476176],[32.69833912825441,2.050901250729474],[32.6983391202248,2.050901172889052],[32.69833818504578,2.050900631411332],[32.698149770124466,2.049092758257571],[32.69389707518257,2.048877215888044],[32.68847190687461,2.047164003262718],[32.68261692917958,2.040803561022928],[32.68298128628627,2.037963989735645],[32.681872473061034,2.0359793448490913],[32.68187245779301,2.035979317527685],[32.67849470434357,2.033761360891327],[32.676733259352275,2.029476387643474],[32.67344499123958,2.025848173315015],[32.6713616032638,2.027669682991779],[32.66908299162168,2.0282794527065175],[32.6688683229087,2.0283369097246986],[32.66893688037875,2.03855455769894],[32.66366372649373,2.0370944853107957],[32.6644329595071,2.039691480069252],[32.66468920666663,2.040555016390313],[32.664689058159716,2.0405560904628657],[32.6646890581636,2.040556090475994],[32.66468900887599,2.040556446906167],[32.66395380891406,2.045873762249153],[32.66395368752986,2.0458740247089864],[32.66395367185195,2.045874138085989],[32.66373325687587,2.0463506451852385],[32.6610155753043,2.052226881822356],[32.66130760217094,2.059613542064056],[32.65572683956749,2.061089802889474],[32.6480904524793,2.06108822386556],[32.64565967276551,2.062099544358727],[32.646511589562515,2.064035815761784],[32.6461976510854,2.0662619602069903],[32.6461976475617,2.066261985208695],[32.64619764755839,2.066261985217113],[32.6461975233832,2.066262865746038],[32.64467977702409,2.0701241445287817],[32.64425595354744,2.071202545979914],[32.646965441528586,2.076639553638416],[32.651612023262395,2.074386125583545],[32.653080378426665,2.075272927597277],[32.655722631198785,2.08133129299545],[32.65573560404693,2.081344976791137]]]}}]}
