{"type":"FeatureCollection","name":"Kween sub-counties","metadata":{"source":"Uganda Bureau of Statistics NPHC 2024 Map Explorer","retrieved":"2026-07-26","display_only":true,"clipped_to_dashboard_district":true,"positive_area_overlaps_removed":true,"source_gap_ratio":0.01039096},"features":[{"type":"Feature","properties":{"n":"Benet","c":"228101","d":"Kween","od":"Kween","dc":"228","k":"BENET","a":["BENET"],"lat":1.245792,"lon":34.547838},"geometry":{"type":"Polygon","coordinates":[[[34.506969036129384,1.377437434990523],[34.50722244049818,1.37973589056355],[34.50858546974983,1.380266407427516],[34.508005193748396,1.381558103584497],[34.50891801888515,1.381595133183871],[34.50951852951143,1.382875130903673],[34.51077403081514,1.382608026180355],[34.51004485719188,1.384983689799368],[34.51064447950425,1.38631321068388],[34.514611466110566,1.387731129137461],[34.51452009213705,1.391503810565303],[34.51709388082794,1.391722758538523],[34.52118959100304,1.394611252200041],[34.5209902110604,1.384077045896499],[34.52256978190832,1.37464176566284],[34.52230142123158,1.372296337768259],[34.52397313656649,1.372089054622733],[34.53762838327659,1.364218264505494],[34.54169902196838,1.363350499897402],[34.54196999824962,1.361392758635512],[34.54466822442562,1.360516611116119],[34.54514751040283,1.358776942973997],[34.54786920385414,1.356904768630425],[34.54866362326289,1.354606089938273],[34.54694172436239,1.351378952927304],[34.547872632952746,1.339463864697269],[34.54893152918718,1.334019492144901],[34.55133816428634,1.331736310854084],[34.553003631137216,1.322107647145747],[34.55305277403847,1.309996711579069],[34.55157518938023,1.30276073568056],[34.551400536063696,1.295118588805974],[34.55312523411697,1.28953696351749],[34.553729876357366,1.282204407949402],[34.55218388719242,1.278840513222275],[34.55153318067866,1.273308319350362],[34.55212037044596,1.2516320160529],[34.556741105573295,1.239952950343725],[34.55377424883495,1.236412433189436],[34.55240897220251,1.229160570756428],[34.55257597221254,1.227270121053772],[34.554306546804185,1.2240527775238976],[34.5547,1.2122],[34.554772039920366,1.2120541630880373],[34.55477656775892,1.211831436621866],[34.55520436684238,1.2111789646849327],[34.55854133832098,1.2044236321794781],[34.55879505061492,1.203495387769873],[34.558766903198745,1.2011943364976914],[34.55762119490545,1.190322129885584],[34.55842937077115,1.188432374400836],[34.55758697769006,1.183956102987139],[34.55835683570613,1.171158462833979],[34.555339941191555,1.160678491780581],[34.555340055385564,1.159926519841557],[34.5546,1.1572],[34.5598,1.1271],[34.575182290406474,1.0994318542688784],[34.565946178453025,1.1003479524511532],[34.53425165810169,1.1035947081944613],[34.537799938267234,1.113369048681024],[34.53221387337123,1.117270339728547],[34.52672314939693,1.119091116055886],[34.52642600146141,1.1197150401886848],[34.526623893868056,1.1251570813714344],[34.527187512351354,1.125981806546315],[34.52695396182038,1.128786115428138],[34.52677947097923,1.1303181998219698],[34.525,1.1579],[34.53137892020889,1.1701586205753383],[34.53532032549482,1.174418621826292],[34.53622599497026,1.1794734338124238],[34.53644937684197,1.1799027154963189],[34.539067161046034,1.183677775973644],[34.538973384873074,1.1845662489964548],[34.5391,1.1848],[34.53820381833574,1.191857430606069],[34.53818612004084,1.192025111340609],[34.538794867816705,1.19708053370855],[34.53655767728176,1.2048207914060864],[34.536089565440996,1.208507172152162],[34.53645932394959,1.217222691681296],[34.534314508156896,1.2224857482644278],[34.534301650531496,1.2225870020644911],[34.53432407854082,1.2226452905886758],[34.5427,1.2384],[34.53994753681959,1.2523788017701811],[34.5404453213404,1.254062036599481],[34.538394892608224,1.2602641409110642],[34.53810216430785,1.2617508059870994],[34.53778528961343,1.265041816489728],[34.53729727624662,1.2658385520958253],[34.5345363280444,1.2798604463363055],[34.53455563412352,1.280253650905549],[34.53391582919126,1.283011743882588],[34.5338,1.2836],[34.53377096572972,1.28363622624548],[34.5337702078683,1.283639493260419],[34.53376460935757,1.2836441571318422],[34.52733088030871,1.291671562183624],[34.52529764747356,1.29467483458683],[34.524850882768966,1.2947658710405547],[34.52292014725712,1.29717486213791],[34.52307289705589,1.300481954107797],[34.521847431861225,1.302402613548399],[34.52214372937728,1.30493041255638],[34.519606121613045,1.307714243091963],[34.51814132163777,1.3083945958193368],[34.51760675363201,1.309652145144376],[34.517531248062156,1.312933694206524],[34.51640776739583,1.314848131732681],[34.515193780260596,1.3153285661082774],[34.51515322990244,1.3154239591639436],[34.516525418154735,1.33012535391892],[34.516090328345406,1.341904572364301],[34.51580023359205,1.343016770863776],[34.512874146017495,1.345616343679125],[34.51168887924828,1.348384345311823],[34.51161707346488,1.353834803367245],[34.513250571585736,1.362771658715471],[34.51191427043014,1.363250431675142],[34.51072491070728,1.362613032332302],[34.50749077384833,1.365296302841401],[34.50798207191607,1.366456034757451],[34.506157320862926,1.369471420019501],[34.506046975066404,1.373408328288178],[34.504999610498224,1.375699242761472],[34.50539583078878,1.377209074094701],[34.506969036129384,1.377437434990523]]]}},{"type":"Feature","properties":{"n":"Binyiny","c":"228102","d":"Kween","od":"Kween","dc":"228","k":"BINYINY","a":["BINYINY"],"lat":1.431381,"lon":34.521453},"geometry":{"type":"MultiPolygon","coordinates":[[[[34.54089296401971,1.41268551727978],[34.541903292666355,1.415167187386669],[34.54497882800045,1.418178045938526],[34.54772575190756,1.423769722215378],[34.55792894322398,1.42432503252125],[34.559738170482554,1.418821686231025],[34.56005709178302,1.413200685080742],[34.55607580471221,1.410249850858431],[34.55591883608263,1.408462025850683],[34.55367486864918,1.404978525808597],[34.542669839910914,1.402248501981518],[34.53707500556947,1.406761001553881],[34.537410508247994,1.409851916088241],[34.54089296401971,1.41268551727978]]],[[[34.50165970996654,1.435561432812304],[34.50408813641126,1.441191273705774],[34.50789009392768,1.446429571076423],[34.50734519230775,1.450705217062596],[34.509403460148846,1.455893885458231],[34.51282431154545,1.456421568151899],[34.5131254378624,1.46318745333571],[34.51508031148863,1.463565132146633],[34.516232284048066,1.468171887887583],[34.51708960412913,1.464566182157859],[34.51869502131317,1.463567639865473],[34.521657419940446,1.456286581838186],[34.52194339481147,1.452824196813874],[34.52390792331636,1.44658245862435],[34.53153646868977,1.450091615233035],[34.535937632684494,1.450910752876214],[34.53729960296217,1.449545658242717],[34.535814976887956,1.447518976177329],[34.53786590709935,1.448024616483655],[34.53960853709164,1.446764869067594],[34.53931448475863,1.445474643335064],[34.54092045175146,1.438942002928571],[34.54039954097245,1.436852233419507],[34.54146242420719,1.434746189213874],[34.540684410708714,1.431629023658223],[34.541318577857304,1.43113327880214],[34.538916896674735,1.429753563451628],[34.536640036689626,1.426154506621464],[34.53371312414042,1.424640380452727],[34.52182512179888,1.421276683927247],[34.51887420193677,1.415094072979301],[34.519908959381,1.415934610785958],[34.52089849208746,1.413137517687919],[34.52032100962453,1.411786205343498],[34.52186681659815,1.407259734274738],[34.52458695683334,1.406970386177192],[34.52869130396494,1.407797907513138],[34.534268397575985,1.403508460363692],[34.53898682709277,1.40107762737777],[34.52837020289725,1.398322223942406],[34.52583361356767,1.398347788428586],[34.522947838030866,1.396863127708276],[34.52166876177852,1.394972599327119],[34.52166082494456,1.397638806673542],[34.519082694674324,1.402363098467055],[34.51965867225631,1.403843186872108],[34.518509561416415,1.406064119509936],[34.5184904914354,1.408872569137524],[34.5158695141753,1.410892786814086],[34.51519363434981,1.41638568813872],[34.51568087907318,1.417295613386052],[34.51452548784401,1.418229266941994],[34.516555521437446,1.420894798536021],[34.51693503404288,1.423681586499384],[34.51452548716953,1.424577512935243],[34.51351564626231,1.427018566941668],[34.51033875967155,1.428952052365316],[34.502226528375424,1.426057695485841],[34.50099971249043,1.426950337729683],[34.501967099826665,1.431691542185177],[34.50165970996654,1.435561432812304]]]]}},{"type":"Feature","properties":{"n":"Binyiny Town Council","c":"228103","d":"Kween","od":"Kween","dc":"228","k":"BINYINYTOWNCOUNCIL","a":["BINYINY","BINYINYTOWNCOUNCIL"],"lat":1.417056,"lon":34.531823},"geometry":{"type":"Polygon","coordinates":[[[34.5366402179833,1.426154736974682],[34.5368190506195,1.4264374758471623],[34.538916896674735,1.429753563451628],[34.541243063650704,1.4310898974779322],[34.54131858468208,1.431133270110776],[34.54391655151288,1.427229585934932],[34.54772574053662,1.423769724784715],[34.54669100811631,1.421663383450351],[34.54497882800045,1.418178045938526],[34.541903292666355,1.415167187386669],[34.54089297837434,1.4126855525390527],[34.54076532452794,1.4125816597034957],[34.537410508247994,1.409851916088241],[34.53707500556947,1.406761001553881],[34.537127447934694,1.4067187042960516],[34.542526094285506,1.40204317273327],[34.53863664825895,1.401443356092126],[34.53426825940827,1.403508566631069],[34.52869130396494,1.407797907513138],[34.52458695683334,1.406970386177192],[34.52186681659815,1.407259734274738],[34.52032100962453,1.411786205343498],[34.52089849208746,1.413137517687919],[34.519908959381,1.415934610785958],[34.51888052736438,1.415099211150647],[34.52177155467925,1.4211644529363276],[34.52182512179888,1.421276683927247],[34.53371312414042,1.424640380452727],[34.536640036689626,1.426154506621464],[34.536640165113134,1.426154709621867],[34.5366402179833,1.426154736974682]]]}},{"type":"Feature","properties":{"n":"Kapkwata","c":"228104","d":"Kween","od":"Kween","dc":"228","k":"KAPKWATA","a":["KAPKWATA"],"lat":1.37637,"lon":34.669863},"geometry":{"type":"Polygon","coordinates":[[[34.634398322547085,1.358039369179662],[34.63768180851247,1.360692411304332],[34.64047783444411,1.361584760080669],[34.641306944010246,1.359072362423156],[34.64824357586846,1.363784735294238],[34.65034864696021,1.363466505846658],[34.6532502427505,1.366924888750872],[34.654354636990554,1.370523083886159],[34.65907677933176,1.378191103988454],[34.659650921690165,1.381355316364441],[34.663374702200926,1.383972625196492],[34.67018039324581,1.385555608760047],[34.6739276152888,1.392633865063734],[34.67726451131573,1.394262243683686],[34.679552546837726,1.39727695235835],[34.680470726548606,1.402461295636757],[34.68223139037298,1.401248991457926],[34.6831583330958,1.402179509416768],[34.68588157387322,1.402160386466295],[34.68822586359391,1.403350125413449],[34.69055773454167,1.401191955673915],[34.69117163319413,1.400406735366765],[34.69082373158716,1.39788511712837],[34.69212072909295,1.395346265101304],[34.69188071259713,1.393483376573763],[34.69002411422568,1.391594260966809],[34.691009217254766,1.389685799496271],[34.69029066167974,1.387942574646459],[34.69031721601627,1.383898665610975],[34.688285134804175,1.383808641046954],[34.68710244354216,1.382589733759073],[34.687254563706645,1.381196793161869],[34.68644746954759,1.380157484173301],[34.68500502069838,1.379814352030894],[34.68310392805469,1.3772543411751565],[34.680363386681144,1.375436829361453],[34.6802304649458,1.375485977613286],[34.678885255310625,1.3744565408483633],[34.6788,1.3744],[34.67878541695023,1.3743801384230068],[34.678495670953836,1.374158407048673],[34.67805499648002,1.373385332629226],[34.66815068740856,1.359896028249698],[34.66725928869547,1.35921712928991],[34.665034633320616,1.3556520772832872],[34.662680306205324,1.3524455704146112],[34.66239404237278,1.3522190392611406],[34.649743399060014,1.3544922017314043],[34.64972074068322,1.354499130603571],[34.64971641014284,1.35449705130246],[34.6497,1.3545],[34.64242247847176,1.351600589032572],[34.64029296646525,1.351503504958565],[34.63889295982133,1.3501944063033169],[34.63322643998519,1.3479368286793572],[34.63305242014452,1.34806300456131],[34.63854880684978,1.354844150691118],[34.634398322547085,1.358039369179662]]]}},{"type":"Feature","properties":{"n":"Kapnarkut Town Council","c":"228105","d":"Kween","od":"Kween","dc":"228","k":"KAPNARKUTTOWNCOUNCIL","a":["KAPNARKUT","KAPNARKUTTOWNCOUNCIL"],"lat":1.379888,"lon":34.500735},"geometry":{"type":"Polygon","coordinates":[[[34.493945130151346,1.38583740528616],[34.49600367373339,1.385137543670339],[34.49679867148173,1.387284587135174],[34.501963069055556,1.390150806261536],[34.50898585659336,1.390899757175173],[34.51041783333852,1.390333546668555],[34.51452008062879,1.391503809798119],[34.5145261744685,1.391252681080356],[34.514611466110566,1.387731129137461],[34.51064447950425,1.38631321068388],[34.51004485719188,1.384983689799368],[34.510677508651895,1.382922497500136],[34.50953310948436,1.382872029051351],[34.50951852951143,1.382875130903673],[34.50891801888515,1.381595133183871],[34.508005193748396,1.381558103584497],[34.5080435475654,1.38147272787034],[34.507934135504236,1.381457445514082],[34.50857419878126,1.3802914966380788],[34.50858512266132,1.3802671800475999],[34.50800178384534,1.3800392257913037],[34.50722244049818,1.37973589056355],[34.50711853151881,1.378793404157895],[34.506968485852354,1.3774373551142653],[34.50539583078878,1.377209074094701],[34.504999610498224,1.375699242761472],[34.505332912679144,1.374970206460794],[34.50532155525624,1.374562413926199],[34.50127143643705,1.373065543973808],[34.5004510829055,1.37345835722972],[34.497279203797575,1.371404758254806],[34.49616086191614,1.370519342380843],[34.4956206272693,1.368074494580024],[34.49445232141683,1.369436731435876],[34.49521827582156,1.372686627641474],[34.49327204124989,1.378174793116777],[34.494298436787474,1.381178646078042],[34.493945130151346,1.38583740528616]]]}},{"type":"Feature","properties":{"n":"Kaproron","c":"228106","d":"Kween","od":"Kween","dc":"228","k":"KAPRORON","a":["KAPRORON"],"lat":1.437512,"lon":34.644276},"geometry":{"type":"MultiPolygon","coordinates":[[[[34.60078818656893,1.41181643272295],[34.604682672145714,1.413798772804352],[34.6066991303736,1.412788204891683],[34.60799849042914,1.414306575936272],[34.62173013388872,1.415619590889732],[34.62109413521695,1.422111814252476],[34.62328158977056,1.422644759447843],[34.62647796244812,1.426246514804524],[34.63004232096561,1.427368477776206],[34.626683026967285,1.431371368222751],[34.622188412352436,1.431184452491311],[34.61921194728882,1.427695561731863],[34.61879004247624,1.423518641803093],[34.61933617152601,1.422809551042336],[34.61717613062121,1.422278518833332],[34.61814028599629,1.422922903319895],[34.6178924295192,1.423951329707398],[34.61680792103299,1.423586432864633],[34.616416560949204,1.42634327215238],[34.61621590425174,1.448530343046853],[34.62365854084494,1.457958681485867],[34.62883068720367,1.459619094893893],[34.629845517983455,1.461833974655081],[34.63144820425909,1.462339243174674],[34.633399193375304,1.462202160016886],[34.634732493394175,1.457200702492391],[34.63892015536469,1.463220023227186],[34.64060186081208,1.458552902296717],[34.64360781034327,1.456063205226997],[34.644199377424584,1.454236175823722],[34.646149428314175,1.455121089972761],[34.6497703107273,1.464975500721498],[34.649320324787624,1.466458420103636],[34.64697865333132,1.467473590899701],[34.64617088666013,1.468794546046242],[34.64624398238628,1.471209117166568],[34.6478035457358,1.474165188453442],[34.65115665456694,1.475211731273856],[34.65545875841413,1.47317379158241],[34.66228783530484,1.465101819635091],[34.66139416351675,1.462000461615156],[34.65793176629231,1.458186710752089],[34.65619523122202,1.457607550500672],[34.65700414052542,1.454424839425582],[34.659403905433585,1.454089669939926],[34.66240061127064,1.456844862481891],[34.664900522821725,1.461337779945099],[34.66656517153381,1.462123313156811],[34.669595503778595,1.460656197205673],[34.672543719203546,1.460798487489642],[34.67596655431757,1.45976497011827],[34.67966261209869,1.458360464432117],[34.68084977443045,1.456207519173011],[34.68443980700283,1.456032677949999],[34.68586539476931,1.455054962475006],[34.68560213050827,1.453047436651656],[34.67908282251824,1.445130995774595],[34.67727263107182,1.441179802045767],[34.67586705507996,1.439824334609605],[34.672504426673285,1.439193221119595],[34.671967692867376,1.435830022340202],[34.66653898196104,1.432623553888251],[34.66340552883859,1.433340239093381],[34.66097446034191,1.431578627075443],[34.6560584035575,1.430823396062326],[34.65386627571098,1.425515609165877],[34.651364398766745,1.424721427139555],[34.64811911546231,1.420858621942378],[34.64516183303595,1.419652444033306],[34.63862780199345,1.410911450820832],[34.628295784042336,1.410470972496465],[34.62407486702417,1.412758559504836],[34.62162857480738,1.412210091097393],[34.62039335529156,1.414516533392694],[34.61777570503803,1.413483528651815],[34.61133087069402,1.412964958314424],[34.60897193745699,1.406873310323882],[34.60913631337413,1.403875091835255],[34.607967885670206,1.402874741817834],[34.60440074006565,1.404442920109709],[34.59665094898778,1.40561079607201],[34.5990345506083,1.4068622015228],[34.60078818656893,1.41181643272295]]],[[[34.59498686890856,1.426496163480014],[34.59519740311917,1.429095969643136],[34.59840354675706,1.432868073171522],[34.59794192048248,1.434726018554795],[34.601557067869564,1.437089206613356],[34.603925544946655,1.444807644875098],[34.60732542143142,1.447422751245088],[34.60860891328424,1.449470304449745],[34.61368980849053,1.447319511292683],[34.613777450366634,1.445383271334972],[34.61237724556049,1.443346125041161],[34.61308216172374,1.438909584516816],[34.611675411627516,1.436033484685387],[34.61265692909656,1.433335525018607],[34.611652995033836,1.428026839683949],[34.61255948326465,1.425291489128685],[34.60621275276619,1.426026040865963],[34.60467225952327,1.423838574950688],[34.60249049632839,1.424645115265826],[34.600739483058206,1.423041733298215],[34.60197891816598,1.421720754392925],[34.599772268833455,1.419672422079709],[34.59523361246837,1.421689833031343],[34.5917625981695,1.422054976333736],[34.591887463832094,1.424746573641028],[34.59498686890856,1.426496163480014]]]]}},{"type":"Feature","properties":{"n":"Kaproron Town Council","c":"228107","d":"Kween","od":"Kween","dc":"228","k":"KAPRORONTOWNCOUNCIL","a":["KAPRORON","KAPRORONTOWNCOUNCIL"],"lat":1.426856,"lon":34.62377},"geometry":{"type":"Polygon","coordinates":[[[34.58858706291066,1.414476628557356],[34.58841322544439,1.416776828995723],[34.586630000217326,1.418436537615344],[34.5896056823894,1.419409437470292],[34.59074776244634,1.421479491116895],[34.591913552395226,1.422039096271096],[34.59523361246837,1.421689833031343],[34.599772268833455,1.419672422079709],[34.60197891816598,1.421720754392925],[34.600739483058206,1.423041733298215],[34.60249049632839,1.424645115265826],[34.60459971674186,1.4238653921038582],[34.60467164401622,1.423838707208747],[34.60467169718784,1.4238387828312655],[34.60467225952327,1.423838574950688],[34.60621275276619,1.426026040865963],[34.61255948326465,1.425291489128685],[34.611652995033836,1.428026839683949],[34.61265692909656,1.433335525018607],[34.61167552503005,1.436033172968614],[34.61189301988992,1.4364783846633493],[34.61308216172374,1.438909584516816],[34.61237727024912,1.4433459696579596],[34.612377543844694,1.443346559012366],[34.613777450366634,1.445383271334972],[34.61373708051133,1.4462751478032023],[34.61414340388525,1.447150412227865],[34.61520078500693,1.448510629040384],[34.61621589327665,1.448530337450869],[34.61625985634208,1.4436704596902095],[34.616416560949204,1.42634327215238],[34.61680792103299,1.423586432864633],[34.61786557752094,1.4239422950068739],[34.61789245444804,1.4239512262706293],[34.61814024813421,1.4229230604203402],[34.61807061483508,1.4228763392321873],[34.61717613062121,1.422278518833332],[34.61933617152601,1.422809551042336],[34.61933586136717,1.4228099537507575],[34.61933623699457,1.422810046160588],[34.619120456845764,1.4230896337202077],[34.61879004247624,1.423518641803093],[34.61921194728882,1.427695561731863],[34.622188412352436,1.431184452491311],[34.62668290184333,1.4313713630192715],[34.63004097366157,1.4273680536815954],[34.62648905502352,1.4262500064451098],[34.626478215310996,1.42624660884645],[34.62647819751783,1.4262465887980633],[34.62647796244812,1.426246514804524],[34.62408703976346,1.4235523613200558],[34.62328151695953,1.4226447417083707],[34.62109413521695,1.422111814252476],[34.62156836979866,1.417270865729387],[34.62172931891086,1.4156195129618334],[34.60864438681706,1.4143683363233823],[34.60800066997377,1.414306884549068],[34.608000576649125,1.4143067754198986],[34.60799849042914,1.414306575936272],[34.6066991303736,1.412788204891683],[34.604682672145714,1.413798772804352],[34.6046819368115,1.4137983985103781],[34.60468188083418,1.413798426605707],[34.60428120215562,1.4135944197422727],[34.60078818656893,1.41181643272295],[34.60078797355895,1.4118158309443034],[34.60078783837496,1.411815762114933],[34.600553798838554,1.411154259368372],[34.5990345506083,1.4068622015228],[34.59665094898778,1.40561079607201],[34.596871249917456,1.4055775972208855],[34.59608673923007,1.405112017568689],[34.594157226543025,1.406212404247891],[34.58402583193434,1.406818232327615],[34.585929347820894,1.411397478558065],[34.58858706291066,1.414476628557356]]]}},{"type":"Feature","properties":{"n":"Kaptoyoy","c":"228108","d":"Kween","od":"Kween","dc":"228","k":"KAPTOYOY","a":["KAPTOYOY"],"lat":1.425293,"lon":34.499944},"geometry":{"type":"Polygon","coordinates":[[[34.48245163973095,1.462639058816584],[34.48134504585217,1.463941594083589],[34.48442645185337,1.466428444264965],[34.48414939013595,1.468060333599389],[34.48564920913235,1.466520692854441],[34.494000089107,1.469886943432892],[34.4989487152371,1.470568327833104],[34.502288302962214,1.469943584783891],[34.50495723593637,1.468280158385985],[34.504401692522,1.467102086159704],[34.506176349456595,1.464978051404843],[34.505651737734155,1.462099179862902],[34.5070886554716,1.459831257061603],[34.506696505542905,1.455898087378896],[34.50734994982589,1.4507172102461305],[34.50734519230775,1.450705217062596],[34.50789006380789,1.4464298074154767],[34.50555721274896,1.443215351745525],[34.50408813641126,1.441191273705774],[34.50165970996654,1.435561432812304],[34.501967099826665,1.431691542185177],[34.50099971249043,1.426950337729683],[34.501000341614294,1.4269498799735185],[34.50100030198406,1.426949685616031],[34.50187126778059,1.4263161862817342],[34.502226528375424,1.426057695485841],[34.51033875967155,1.428952052365316],[34.51351448812581,1.4270192717953003],[34.513933389210735,1.4260087711504554],[34.51452548716953,1.424577512935243],[34.51452693818991,1.4245769734115943],[34.51452697623577,1.42457688163488],[34.51485438214935,1.4244552220139488],[34.51693503404288,1.423681586499384],[34.516555521437446,1.420894798536021],[34.51655124918722,1.4208891888663202],[34.51569934373663,1.420590913506251],[34.514525579211835,1.418230047187847],[34.51452589061495,1.4182297957995762],[34.51452548784401,1.418229266941994],[34.51568087907318,1.417295613386052],[34.51519363434981,1.41638568813872],[34.5158695141753,1.410892786814086],[34.51849006647192,1.4088728966942528],[34.51850120114728,1.4072953422744732],[34.518509561416415,1.406064119509936],[34.51965867225631,1.403843186872108],[34.519082694674324,1.402363098467055],[34.520842234433694,1.3991388318962301],[34.52166082542341,1.3976386458156191],[34.521660863599905,1.3976258212488823],[34.521536988530286,1.394857773663337],[34.51709349140182,1.391722725410683],[34.516953318636354,1.3917108011439365],[34.51293763662553,1.391380430969352],[34.51041810738603,1.390333624847092],[34.51041783333852,1.390333546668555],[34.50898585659336,1.390899757175173],[34.501963069055556,1.390150806261536],[34.501437073535996,1.3898588809407235],[34.50098139900646,1.389796036650963],[34.496798932804744,1.3872847321683608],[34.49679867148173,1.387284587135174],[34.49600367373339,1.385137543670339],[34.493945130151346,1.38583740528616],[34.493945154531396,1.3858370838068217],[34.49394492736,1.385837161181539],[34.48339576993161,1.3799065999421007],[34.4835,1.3819],[34.48334306938658,1.382300776643507],[34.483806876557885,1.382680460308045],[34.482916214955154,1.383390897191451],[34.48185419476844,1.3861031333605929],[34.48187447939018,1.386220296696028],[34.48179146510667,1.3862633352660405],[34.477,1.3985],[34.47828187759201,1.401063755184027],[34.478596241782746,1.401604617439458],[34.47995879036819,1.402492487255619],[34.48073042638029,1.405389149124551],[34.482984705014275,1.406973248440669],[34.48169048675278,1.4075362660199],[34.48162993243762,1.407759864875251],[34.48272870852929,1.409957417058581],[34.48361295520751,1.410836343818977],[34.48573970301828,1.4159794060365711],[34.4867,1.4179],[34.486439622989636,1.4185602417048406],[34.48636825454834,1.424030197693319],[34.48520423877492,1.426101978136366],[34.48573591233569,1.430053201874807],[34.48355068269102,1.43214449120016],[34.48151589258867,1.435970857948342],[34.480188413818055,1.436243736844076],[34.478460310399555,1.4387934986296886],[34.4783,1.4392],[34.47878423837265,1.4430012712252802],[34.479265326538695,1.446243408423207],[34.47922823675902,1.4464866585583438],[34.4803,1.4549],[34.480077761179906,1.4549771987480318],[34.478619526194244,1.456296790209211],[34.4779440851352,1.455772956226947],[34.47745261551354,1.4558890914531908],[34.47563362207032,1.4565209523334675],[34.47431629222464,1.458078576067181],[34.473506062906054,1.457640089189831],[34.47260683420512,1.458696030467395],[34.47097003549875,1.458693550201187],[34.47550861109048,1.461775867727772],[34.48245163973095,1.462639058816584]]]}},{"type":"Feature","properties":{"n":"Kaptum","c":"228109","d":"Kween","od":"Kween","dc":"228","k":"KAPTUM","a":["KAPTUM"],"lat":1.447791,"lon":34.572873},"geometry":{"type":"Polygon","coordinates":[[[34.54421816214009,1.462102773677234],[34.542611707042916,1.464525486179571],[34.55057266467343,1.466611490218312],[34.55339491686698,1.46873484692607],[34.559710141904354,1.471235665435551],[34.56112416214662,1.475584765806928],[34.5644827810308,1.478575953079767],[34.56682336875836,1.479008360472378],[34.5672356867087,1.473346617407121],[34.56799490885615,1.472884998010523],[34.570600911687464,1.474140121533893],[34.57119362161772,1.476617759228934],[34.5730132620939,1.478153820907053],[34.57693873723747,1.479127747926224],[34.582823600422735,1.477478255734011],[34.589468786783485,1.487321551350827],[34.59362596793688,1.491162046258027],[34.59555164701209,1.490111563599978],[34.598320132470654,1.4833178374712],[34.60114815282188,1.482727766308026],[34.608011183892465,1.478435968130578],[34.611435540040226,1.475349486397866],[34.616135352461754,1.468210591826513],[34.62261823072646,1.467942577085819],[34.62100613595119,1.465243263656074],[34.622015539937784,1.465048486642466],[34.62221516599722,1.46381686349667],[34.621457770329386,1.4642287757154],[34.62138490570815,1.462452087552794],[34.62034765981986,1.462974790013712],[34.61940679167099,1.460810648486697],[34.62016987592113,1.460102597548135],[34.61962819950789,1.458156226250974],[34.620365686515825,1.455413458939336],[34.619163599015906,1.452264485309938],[34.61698899123376,1.4495096903007478],[34.61588235319105,1.4485238617426943],[34.61520078500693,1.448510629040384],[34.61414340388525,1.447150412227865],[34.614052629491326,1.4469548743809866],[34.61369891732331,1.447118273176998],[34.61368980849053,1.447319511292683],[34.60860891328424,1.449470304449745],[34.60860858133812,1.4494697748964354],[34.608608286988584,1.449469910872416],[34.607325369785926,1.4474227115205693],[34.60627782168831,1.446616961748418],[34.603926373175284,1.444808440474702],[34.60392630948537,1.4448082329405971],[34.603925544946655,1.444807644875098],[34.601557067869564,1.437089206613356],[34.59794192048248,1.434726018554795],[34.598178287627896,1.4337746921880588],[34.598403259206655,1.432867734861695],[34.59519740311917,1.429095969643136],[34.59498686890856,1.426496163480014],[34.591887463832094,1.424746573641028],[34.591762598316215,1.422054979496273],[34.59164428873339,1.4219098437130802],[34.59074776244634,1.421479491116895],[34.5896056823894,1.419409437470292],[34.586630000217326,1.418436537615344],[34.58841322544439,1.416776828995723],[34.58858706291066,1.414476628557356],[34.58658454377836,1.4121565691918658],[34.58592961703328,1.41139784484978],[34.58592957341447,1.4113977399241011],[34.585929347820894,1.411397478558065],[34.58420882351819,1.4072584511492479],[34.584025819960154,1.406818233442324],[34.56977531757779,1.407979613467021],[34.564541249531196,1.407454541270734],[34.55385441835936,1.40446801879986],[34.554605196042324,1.406422751542386],[34.55591883608263,1.408462025850683],[34.55607580471221,1.410249850858431],[34.55724621346057,1.4111173296730322],[34.5600563975365,1.413198679317308],[34.56005631652209,1.4132001104759881],[34.56005709178302,1.413200685080742],[34.559738170482554,1.418821686231025],[34.559738076666825,1.418821971601722],[34.55973806129974,1.418822243068718],[34.55792977127709,1.424322824738237],[34.55792967374982,1.4243228103920773],[34.55792894322398,1.42432503252125],[34.54844950268458,1.4238091124662222],[34.547627423646254,1.4238590253647796],[34.546122431369625,1.42522599987742],[34.54209482986935,1.4299668903024627],[34.54131858468208,1.431133270110776],[34.541243063657475,1.4310898974818218],[34.541318577857304,1.43113327880214],[34.540685028866754,1.431628540428103],[34.54113629506041,1.4334395299527873],[34.54146242420719,1.434746189213874],[34.54146206736269,1.4347468962814665],[34.54146209245049,1.434746996962037],[34.54137996391259,1.4349095797162037],[34.54039990804752,1.4368515060806095],[34.540920309753524,1.438940343839518],[34.54092017493859,1.438940892421519],[34.54092045175146,1.438942002928571],[34.539343485601286,1.4453566757321175],[34.53931448962297,1.445474664678539],[34.53947944751745,1.4461984573383995],[34.539608456723315,1.446764291841404],[34.53960841278184,1.4467643236282892],[34.53960853709164,1.446764869067594],[34.538315306116594,1.4476997458838954],[34.5378663400994,1.448024524044727],[34.537866112488544,1.4480244680077834],[34.53786590709935,1.448024616483655],[34.537290082271014,1.4478826515152845],[34.535815432588485,1.4475195982599594],[34.53729960296217,1.449545658242717],[34.535937632684494,1.450910752876214],[34.53580569227752,1.450886196337503],[34.53586096719634,1.453275328271203],[34.53683912807256,1.453993248873855],[34.535350420251355,1.456795809609297],[34.534208849419684,1.456753715193932],[34.532559478670095,1.460898169355528],[34.546679296610414,1.460357146810891],[34.54421816214009,1.462102773677234]]]}},{"type":"Feature","properties":{"n":"Kaseko","c":"228110","d":"Kween","od":"Kween","dc":"228","k":"KASEKO","a":["KASEKO"],"lat":1.349842,"lon":34.497224},"geometry":{"type":"Polygon","coordinates":[[[34.48357893028745,1.370250022002072],[34.484281719107315,1.372262760369645],[34.4834435679892,1.373736925315163],[34.48318039949011,1.3757876402483853],[34.48339576979386,1.3799065973075586],[34.48359180240333,1.3800168061444769],[34.49394492736,1.385837161181539],[34.493945140943055,1.38583708843502],[34.494298388872345,1.381178505849442],[34.493819166018014,1.3797760104786343],[34.49327209317645,1.378175321796778],[34.49327216329678,1.3781751502996513],[34.49327204124989,1.378174793116777],[34.49498399202386,1.3733472819473038],[34.49443805154677,1.369543805003342],[34.494467920453566,1.3695029171644115],[34.49445232141683,1.369436731435876],[34.494883727580856,1.3689337147170617],[34.49526364766181,1.368413638398784],[34.495286285059315,1.3684643353738004],[34.4956206272693,1.368074494580024],[34.49611870458784,1.3703285581503648],[34.49622742625176,1.3705720428299393],[34.49648601417327,1.3707767725770097],[34.5004452452249,1.3734545776862759],[34.5004505304224,1.3734579995304843],[34.50061538131207,1.3733796855478828],[34.50127143643705,1.373065543973808],[34.50527866012357,1.3745465604566935],[34.50532156064259,1.37456240414937],[34.50605546849804,1.373105300331704],[34.506157320862926,1.369471420019501],[34.506407523489045,1.369057962353579],[34.50798189817749,1.3664556246394601],[34.50749077384833,1.365296302841401],[34.50773017503437,1.365097678549867],[34.50770651371251,1.364970399526324],[34.51027851995107,1.3629833899281365],[34.51072491070728,1.362613032332302],[34.510744397081424,1.3626234754319264],[34.51079335171577,1.362585655411565],[34.51191107688969,1.3632487201991734],[34.51191427043014,1.363250431675142],[34.51205253949801,1.3632008923249903],[34.51324993541857,1.3627681782499317],[34.51161707346488,1.353834803367245],[34.51168887924828,1.348384345311823],[34.512874146017495,1.345616343679125],[34.51580023359205,1.343016770863776],[34.516068640799965,1.3419877205606097],[34.51609033387581,1.3419044226392973],[34.516525417430096,1.3301253735370882],[34.51515322054641,1.315423981173603],[34.51378139545764,1.318651143472602],[34.51367182618731,1.320226817009544],[34.51286033378464,1.3208179033099157],[34.512037269780784,1.3227541276468369],[34.51208680702825,1.323668439187368],[34.511562230602586,1.3238716378447337],[34.5107,1.3259],[34.51050390671016,1.32601540418493],[34.510476999595156,1.326259971679147],[34.510090269911984,1.3262588363675885],[34.49687083815729,1.3340386933332702],[34.49646969706389,1.334424584501117],[34.49607964919673,1.3345043212861367],[34.4898,1.3382],[34.4819,1.3513],[34.48191407767184,1.3515692354738824],[34.48261825102857,1.352641849342635],[34.482045101743026,1.3540750708353329],[34.482745511619726,1.367470409727244],[34.48402794049755,1.368379049348921],[34.48357893028745,1.370250022002072]]]}},{"type":"Feature","properties":{"n":"Kitawoi","c":"228111","d":"Kween","od":"Kween","dc":"228","k":"KITAWOI","a":["KITAWOI"],"lat":1.325111,"lon":34.557993},"geometry":{"type":"Polygon","coordinates":[[[34.52119564962721,1.3946169466973855],[34.521536988530286,1.394857773663337],[34.52154073495053,1.3949414892126195],[34.52166849670404,1.3950616453538252],[34.52166876177852,1.394972599327119],[34.521834870476646,1.3952181149541887],[34.524352314448734,1.3975856963708804],[34.525226301369784,1.398035341201257],[34.52647982050517,1.3983412757668277],[34.52837020289725,1.398322223942406],[34.53898682709277,1.40107762737777],[34.53857046903429,1.4012921260576618],[34.54014012298282,1.4016752166585817],[34.542526094285506,1.40204317273327],[34.54233299263952,1.4022104096259942],[34.54262784634877,1.402282371783491],[34.542669839910914,1.402248501981518],[34.553671945410564,1.4049778006391063],[34.55367486953927,1.404978514303558],[34.55254198560335,1.403157272416286],[34.552612891793814,1.401363986126427],[34.5556120588189,1.400221940681081],[34.55844589268623,1.393661364703397],[34.56136590429693,1.393641819480396],[34.56258653563784,1.392635035794155],[34.5629275481886,1.389035740869772],[34.5652070123698,1.387210009135982],[34.56565991164309,1.384267589314327],[34.569097343470816,1.378899717967812],[34.57114743172939,1.378532812931994],[34.565767482718776,1.37343843520644],[34.56652445369064,1.371932537296281],[34.565470529347074,1.370666145031054],[34.56099345979608,1.368360247727129],[34.55877239256122,1.368515630356548],[34.55664244521733,1.367263862131615],[34.5567701207987,1.364287636279789],[34.55488995687535,1.361465069990945],[34.556543058124376,1.356694854674113],[34.55656953671518,1.352704567123476],[34.5595934571073,1.349816199844612],[34.560498195523635,1.351467092712336],[34.56240581554066,1.352544800929931],[34.5648399140985,1.347970275802411],[34.563630590277526,1.339049018792533],[34.56206489036326,1.337203549353158],[34.56283201719584,1.328113985240916],[34.57008920767569,1.2955827327271816],[34.56942046029483,1.2948243208930186],[34.569316413270165,1.294826814458216],[34.56800244972574,1.2932161860018143],[34.5679,1.2931],[34.56700808557988,1.286212438644605],[34.566129238292255,1.285577074128827],[34.56658000340097,1.283678238009938],[34.56529098962657,1.280631232274257],[34.565876856453905,1.2774768359495872],[34.56486313292214,1.2696486375654277],[34.56461478785997,1.269245582574635],[34.56434490939788,1.2656468003502979],[34.5643,1.2653],[34.56709228502629,1.2550907078726419],[34.567334877756295,1.2533899547929295],[34.56577381677845,1.2514041934020035],[34.56338798316823,1.250462201141578],[34.56036265521693,1.2472068831643],[34.55833805921364,1.2419454723820562],[34.556868513712196,1.2400761240603633],[34.556741114425186,1.239952958207193],[34.55644246406031,1.2407077769584387],[34.552120390822935,1.2516319645494063],[34.55153318547591,1.2733083601357704],[34.55218388719242,1.278840513222275],[34.553729876357366,1.282204407949402],[34.55312523411697,1.28953696351749],[34.55140053606386,1.295118588805444],[34.551400538091045,1.2951186775149688],[34.55157518938023,1.30276073568056],[34.55305277403847,1.309996711579069],[34.553003631137216,1.322107647145747],[34.55133816428634,1.331736310854084],[34.54893152918718,1.334019492144901],[34.547872632952746,1.339463864697269],[34.54694172436239,1.351378952927304],[34.54866362326289,1.354606089938273],[34.54786920385414,1.356904768630425],[34.54514751040283,1.358776942973997],[34.54466822442562,1.360516611116119],[34.54196999824962,1.361392758635512],[34.54170111250555,1.3633353962474837],[34.541699507149936,1.363347029793514],[34.5416995008326,1.3633470402135959],[34.54169902196838,1.363350499897402],[34.53762838327659,1.364218264505494],[34.52397313656649,1.372089054622733],[34.52230142123158,1.372296337768259],[34.52252343484691,1.3742367000177071],[34.52256967235939,1.374637860354233],[34.52256948042465,1.3746391307455084],[34.52256978190832,1.37464176566284],[34.5225626091368,1.3746846109137474],[34.52100728426238,1.3849791057002079],[34.52118956443441,1.3946098484504164],[34.52118960293689,1.394611259964422],[34.52119564962721,1.3946169466973855]]]}},{"type":"Feature","properties":{"n":"Kwanyiy","c":"228112","d":"Kween","od":"Kween","dc":"228","k":"KWANYIY","a":["KWANYIY"],"lat":1.383441,"lon":34.649959},"geometry":{"type":"Polygon","coordinates":[[[34.61427887734141,1.372150376071501],[34.6161635080802,1.376547566687291],[34.623187673688506,1.379003169560694],[34.627419173946485,1.378644691995322],[34.6275940392495,1.377486659325491],[34.630029352984,1.377641677420322],[34.636505321379715,1.380910783349034],[34.63738977777355,1.382909711158454],[34.63707009262801,1.384805932435954],[34.637623595116544,1.38427859339989],[34.639861353103356,1.38499984244557],[34.64111546834189,1.386882160207618],[34.6433202664422,1.387843028106714],[34.64412683582433,1.389681248651773],[34.64766037272794,1.393122722416013],[34.648439072314126,1.395269775960762],[34.64823172120994,1.398558000954877],[34.65126751329391,1.402679899825541],[34.653382134033855,1.409288531850289],[34.65780415591926,1.411244975615536],[34.65858575403868,1.413208991199607],[34.661116887398755,1.413952189677216],[34.66291215454099,1.417404432322086],[34.6646762545478,1.417000009249394],[34.66863427622564,1.420480626286649],[34.669502202883905,1.42225460630109],[34.67615774979315,1.422096728825227],[34.68007615055463,1.417490153117096],[34.68320192119315,1.418576982498318],[34.68391981781934,1.419884551838121],[34.68702306172404,1.420200974526841],[34.68790486894871,1.41566193206989],[34.69133498903702,1.415504304789364],[34.69105606433887,1.413288913834755],[34.69235489455885,1.41169631071415],[34.692207617804755,1.409933083583866],[34.69039250284293,1.407799132299066],[34.69321316887049,1.401802272945699],[34.69292044619165,1.400147478243195],[34.69125633447985,1.399117836119731],[34.69117088250658,1.4004012943242978],[34.69117163319413,1.400406735366765],[34.69055773454167,1.401191955673915],[34.68822586359391,1.403350125413449],[34.68822490668313,1.4033496397763696],[34.68822450758142,1.403350038401825],[34.68655831698471,1.4025038370346483],[34.68588162122608,1.402160410498114],[34.68315909082374,1.402179642506979],[34.68315895396106,1.4021795050569714],[34.6831583330958,1.402179509416768],[34.68223139037298,1.401248991457926],[34.680470726548606,1.402461295636757],[34.680470614673936,1.4024606639557389],[34.68047044816951,1.402460778721991],[34.68025191915336,1.4012258374411914],[34.67955258250984,1.3972771537747808],[34.678816666306226,1.3963073583985963],[34.67726451131573,1.394262243683686],[34.6739276152888,1.392633865063734],[34.67392694840157,1.3926326053575668],[34.67392672631903,1.392632496926592],[34.67018027470419,1.3855555811876175],[34.663374702200926,1.383972625196492],[34.661418851080434,1.3825979291323567],[34.6596517872549,1.381356344224356],[34.65965169996432,1.381355863384821],[34.659650921690165,1.381355316364441],[34.65907677933176,1.378191103988454],[34.654354636990554,1.370523083886159],[34.65325028354807,1.3669250216722593],[34.65034859560117,1.3634665136107467],[34.64824357586846,1.363784735294238],[34.64824320052897,1.363784480308867],[34.64824311104589,1.36378449394408],[34.64130668643995,1.3590731429219496],[34.64047783444411,1.361584760080669],[34.63768180851247,1.360692411304332],[34.637681794165516,1.3606923997120595],[34.63768164538748,1.360692352342417],[34.63741774362314,1.3604790480427176],[34.634398322547085,1.358039369179662],[34.63854880684978,1.354844150691118],[34.63847451675101,1.3547524955651598],[34.63284273077935,1.347900335743261],[34.623198369062244,1.344785265362598],[34.62290153242085,1.355189821425396],[34.6214740808887,1.356616992108981],[34.61821935947845,1.35650299896774],[34.616848793974256,1.357302495955676],[34.61536400045554,1.361585203389547],[34.613193942517356,1.363470058972207],[34.6120518010182,1.365982766515823],[34.61222312320068,1.369580507981078],[34.61427887734141,1.372150376071501]]]}},{"type":"Feature","properties":{"n":"Kwosir","c":"228113","d":"Kween","od":"Kween","dc":"228","k":"KWOSIR","a":["KWOSIR"],"lat":1.376205,"lon":34.572329},"geometry":{"type":"Polygon","coordinates":[[[34.553794068223205,1.404541765231769],[34.55389304631863,1.4045685909645305],[34.55385441835936,1.40446801879986],[34.56454123632127,1.4074545375791119],[34.56454125018363,1.4074545413361848],[34.56454188508443,1.4074546050282797],[34.57090146608785,1.407887835201994],[34.584025819960154,1.406818233442324],[34.58411477585111,1.4070322181252288],[34.584114781999105,1.407032217538698],[34.58402583193434,1.406818232327615],[34.590274159457174,1.406444600422941],[34.594336745024364,1.406057021510988],[34.59357830539061,1.404624045471311],[34.59046904311532,1.403564125273788],[34.58636298625444,1.40041307571881],[34.58531281556026,1.396785212182709],[34.585854274513096,1.393237526314028],[34.58307562391487,1.386703787064372],[34.58363882155852,1.384704426933026],[34.58139042716645,1.38114219153013],[34.57912228263202,1.381721214037334],[34.57644692147204,1.378925427554142],[34.57534656416876,1.374089288460695],[34.57622499354462,1.371169570154871],[34.5760075373645,1.366918553415474],[34.5745492387712,1.365685515820717],[34.57402362036201,1.363818795286954],[34.571805772478875,1.362508529481219],[34.57173530435884,1.360795751529273],[34.570586007918216,1.359167862157292],[34.571157302623554,1.357183673188163],[34.56957625879306,1.352519140750041],[34.57078980917789,1.349504768062755],[34.57003954287363,1.347233586808425],[34.570581398400684,1.346723601755235],[34.56742604498659,1.346896831472729],[34.56751882590607,1.348381233100891],[34.564825898890014,1.354136314660036],[34.560500337591655,1.3514683028717442],[34.560498195523635,1.351467092712336],[34.5595934571073,1.349816199844612],[34.55656953671518,1.352704567123476],[34.556543058124376,1.356694854674113],[34.55488999277319,1.3614649664035683],[34.55551585917382,1.3624046958958094],[34.5567701207987,1.364287636279789],[34.55664244521733,1.367263862131615],[34.55877239256122,1.368515630356548],[34.56099345979608,1.368360247727129],[34.56099455137406,1.3683608099401323],[34.560994836131364,1.368360789985393],[34.56416019657552,1.3699912632203606],[34.565470529347074,1.370666145031054],[34.56547062981806,1.3706662657566815],[34.565470791921626,1.370666349256028],[34.56550481610733,1.3707073438972215],[34.56652445369064,1.371932537296281],[34.56652340963806,1.3719346143067048],[34.56652343232161,1.371934641637381],[34.56651681797803,1.3719477275797842],[34.565767482718776,1.37343843520644],[34.56577007635796,1.3734408911735219],[34.571173367191655,1.378320202732758],[34.570979868772405,1.3783741443286228],[34.57114743172939,1.378532812931994],[34.569097343470816,1.378899717967812],[34.56565991164309,1.384267589314327],[34.5652070123698,1.387210009135982],[34.56292776015949,1.389035571092161],[34.562853574743,1.3898165105120561],[34.56258653563784,1.392635035794155],[34.56258576855567,1.3926356684879002],[34.56258576289925,1.392635728032215],[34.562444106011704,1.3927525125614872],[34.56136590429693,1.393641819480396],[34.56136539348582,1.393641822899532],[34.56136535173891,1.39364185731645],[34.561102472610656,1.3936435827716906],[34.55844589268623,1.393661364703397],[34.55712526323159,1.3967187386643092],[34.55561334571784,1.400220094248008],[34.55561274415279,1.400220354072532],[34.5556120588189,1.400221940681081],[34.5555868155974,1.4002315529853966],[34.55260677543246,1.4015186748339932],[34.55254198560335,1.403157272416286],[34.55254248669599,1.403158077980635],[34.553794068223205,1.404541765231769]]]}},{"type":"Feature","properties":{"n":"Moyok","c":"228114","d":"Kween","od":"Kween","dc":"228","k":"MOYOK","a":["MOYOK"],"lat":1.405374,"lon":34.630592},"geometry":{"type":"Polygon","coordinates":[[[34.599419299075514,1.388978632185692],[34.601525908390435,1.391300058155023],[34.604264229857094,1.392720467564385],[34.60435001701569,1.397595220739936],[34.60701503939678,1.40090241183817],[34.60879485122073,1.401843378742134],[34.60767405921373,1.402462597004309],[34.60913598948115,1.403874680904602],[34.609135982496596,1.4038748085542765],[34.60913631337413,1.403875091835255],[34.60897193745699,1.406873310323882],[34.60931380065682,1.4077561289817337],[34.611331026155234,1.412964970823291],[34.61777570503803,1.413483528651815],[34.62039335529156,1.414516533392694],[34.62162857480738,1.412210091097393],[34.62407486702417,1.412758559504836],[34.628295784042336,1.410470972496465],[34.62829619303229,1.4104709899326728],[34.62829646428295,1.410470842925766],[34.63835887316874,1.410801428516576],[34.63844712271708,1.4109037480366053],[34.63862780199345,1.410911450820832],[34.6397593138808,1.4124251469852411],[34.64423118262824,1.417609983310074],[34.64516189338644,1.4196524686482777],[34.64811911546231,1.420858621942378],[34.64811951683948,1.4208590996947574],[34.648119607674225,1.42085913675123],[34.6487824032882,1.4216481220940527],[34.651364398766745,1.424721427139555],[34.65386627571098,1.425515609165877],[34.65605812521347,1.4308227221094756],[34.65920694342553,1.431307091645728],[34.66097446034191,1.431578627075443],[34.66097508106021,1.4315790768631835],[34.660975142850376,1.431579086368107],[34.66125805372184,1.4317841258127124],[34.66340550822138,1.433340224153645],[34.665877917759566,1.432416185586647],[34.6664568063534,1.4326423491406175],[34.66653898196104,1.432623553888251],[34.66679352792006,1.4327739014756018],[34.669412573353235,1.433797125338502],[34.669909130093906,1.431965427800111],[34.6694027143692,1.43087091606867],[34.663964299770534,1.424990043281942],[34.6700330960378,1.422286524121599],[34.669989048528244,1.422243057744298],[34.669502202883905,1.42225460630109],[34.66903681554166,1.4213033878585508],[34.66467596851776,1.41700007482229],[34.6634998416353,1.4172697040076232],[34.66291351264879,1.417405036982606],[34.66291308676617,1.417404218607802],[34.66291215454099,1.417404432322086],[34.661450417673315,1.414593557978405],[34.66111660637098,1.4139521071610524],[34.65858575403868,1.413208991199607],[34.65851368347783,1.41302789083466],[34.65762822075156,1.411167136276237],[34.65338668946493,1.4092905473185426],[34.65338234862924,1.409288707842453],[34.65338231841625,1.4092886134269509],[34.653382134033855,1.409288531850289],[34.65126751329391,1.402679899825541],[34.64823172120994,1.398558000954877],[34.64843907046668,1.3952698052580037],[34.64842630844363,1.3952345830392898],[34.64766037272794,1.393122722416013],[34.64412683582433,1.389681248651773],[34.64332034146189,1.3878431990811215],[34.641627906613486,1.3871054847312458],[34.64111546834189,1.386882160207618],[34.6411154290294,1.386882101202993],[34.64111536771509,1.386882074476738],[34.64108199938052,1.386831926211154],[34.639861353103356,1.38499984244557],[34.637623595116544,1.38427859339989],[34.63707009262801,1.384805932435954],[34.63707167373883,1.3847965540334064],[34.63706969065143,1.384798422399407],[34.63733526099738,1.3832330789232563],[34.63738977777355,1.382909711158454],[34.636505321379715,1.380910783349034],[34.630029352984,1.377641677420322],[34.6275940392495,1.377486659325491],[34.627419173946485,1.378644691995322],[34.623187673688506,1.379003169560694],[34.61653145308308,1.376676197880902],[34.61616350605974,1.37654757918171],[34.613871144893295,1.378891135695207],[34.60673447102962,1.381650772940921],[34.597981049504924,1.381132350462621],[34.598744245954364,1.382972140098767],[34.59645885085328,1.387658177450071],[34.59717363294546,1.388745701090156],[34.599419299075514,1.388978632185692]]]}},{"type":"Feature","properties":{"n":"Tuikat","c":"228115","d":"Kween","od":"Kween","dc":"228","k":"TUIKAT","a":["TUIKAT"],"lat":1.35096,"lon":34.596613},"geometry":{"type":"Polygon","coordinates":[[[34.56240582736595,1.35254480551519],[34.56266614760588,1.3528041772821602],[34.56471241664304,1.3540663186637227],[34.5648666715045,1.3540491790932963],[34.56751882590607,1.348381233100891],[34.56742604498659,1.346896831472729],[34.57002613598909,1.3467540858050617],[34.57056989513241,1.346723869915742],[34.57056949332484,1.346724255346974],[34.570581398400684,1.346723601755235],[34.57003971046047,1.3472334290785883],[34.570154572613845,1.3475818010200815],[34.57078980917789,1.349504768062755],[34.57078914250254,1.3495064240368124],[34.57078925260506,1.349506757972984],[34.569576320213805,1.3525193219588292],[34.571157302623554,1.357183673188163],[34.57115727434101,1.3571837714175237],[34.57115734940229,1.35718399284327],[34.5709651197309,1.357851152112958],[34.570586007918216,1.359167862157292],[34.57173530435884,1.360795751529273],[34.57180572452784,1.3625073639970822],[34.57334285050368,1.3634166083408927],[34.57402362036201,1.363818795286954],[34.57452384329598,1.3655953244304813],[34.574549265243675,1.3656855382040354],[34.5760075373645,1.366918553415474],[34.57622499354462,1.371169570154871],[34.576224925051385,1.3711697978122772],[34.576224935826254,1.371170008032637],[34.575346584351166,1.3740893771636198],[34.57644690960807,1.3789253754112754],[34.57694578236818,1.3794467435436522],[34.579122194800725,1.3817211222525134],[34.581390009140236,1.381142291570094],[34.581390012768054,1.3811422973196832],[34.58139042716645,1.38114219153013],[34.58363882155852,1.384704426933026],[34.58307562391487,1.386703787064372],[34.585854274513096,1.393237526314028],[34.58585413442058,1.3932384442123271],[34.58585493592157,1.39324032857254],[34.58531833186606,1.3967490688701685],[34.58531281556026,1.396785212182709],[34.58636291214799,1.400412819714633],[34.58760106030106,1.401363192291915],[34.59046765617426,1.4035630609144425],[34.59357733083776,1.404623578271342],[34.59357741811295,1.4046237430061517],[34.59357830539061,1.404624045471311],[34.59432379885457,1.4060325613558233],[34.5943367525688,1.406057011920114],[34.59608461710307,1.40511295091894],[34.596084988223716,1.4051130161545375],[34.59608673923007,1.405112017568689],[34.59608986689279,1.4051138737271158],[34.59787092586421,1.4054269483199582],[34.604400317681815,1.4044429837619958],[34.60440079390867,1.4044428964393951],[34.60746999195658,1.4030936244203203],[34.60796787953435,1.402874731766701],[34.60802612388619,1.402802657585117],[34.60767405921373,1.402462597004309],[34.608793109188724,1.4018443411847872],[34.60760251621658,1.401213004360839],[34.60701503939678,1.40090241183817],[34.60435001701569,1.397595220739936],[34.604349995997396,1.3975940264002782],[34.60434951932241,1.397593434867169],[34.60426389554338,1.3927202941507262],[34.601525908390435,1.391300058155023],[34.60152561746811,1.3912997375665672],[34.60152553533485,1.391299694973397],[34.60146339448772,1.39123116954043],[34.599419299075514,1.388978632185692],[34.59717363294546,1.388745701090156],[34.59673402426084,1.3880768471245266],[34.59654608257329,1.388013896295156],[34.59660453610137,1.3878798340262992],[34.59645885085328,1.387658177450071],[34.59874418372007,1.3829722677056855],[34.598706914893796,1.3828821484611087],[34.597981049504924,1.381132350462621],[34.60673419018252,1.3816507563077167],[34.61387117717376,1.378891102693816],[34.61600683652222,1.3767077476230993],[34.616163496347035,1.376547571387364],[34.61594966484916,1.3760486310446647],[34.61427887734141,1.372150376071501],[34.61222312320068,1.369580507981078],[34.6120518010182,1.365982766515823],[34.613193942517356,1.363470058972207],[34.61536400045554,1.361585203389547],[34.616848793974256,1.357302495955676],[34.61821935947845,1.35650299896774],[34.6214740808887,1.356616992108981],[34.62290153242085,1.355189821425396],[34.62319262033044,1.3449867667744988],[34.62319835745263,1.344785263403337],[34.620364090953416,1.344759262003311],[34.61596763597129,1.343162893510593],[34.605624885848584,1.341440223195699],[34.60183451293038,1.3390015560891182],[34.601,1.3388],[34.59987385628893,1.3377401000366402],[34.59825798767653,1.336700475250729],[34.597258982916884,1.3352790427453014],[34.5925,1.3308],[34.592490356687705,1.3307749561740383],[34.592458513727195,1.33075284672727],[34.59245438232309,1.330681530212195],[34.5901687556495,1.324745723627069],[34.589706824198615,1.32451531187878],[34.58981503340299,1.323827101673436],[34.58604818708009,1.3140445455512848],[34.58503293406588,1.312950754425283],[34.58218240659443,1.312010432798743],[34.57883327972806,1.305927482553832],[34.57485708371845,1.30260225843815],[34.57464096771124,1.3007447846110696],[34.57008921171979,1.2955827373135052],[34.56937545489919,1.2987822176889467],[34.56283205294991,1.3281138249688869],[34.56268147995772,1.3298976770882656],[34.56206489036326,1.337203549353158],[34.563630590277526,1.339049018792533],[34.5648399140985,1.347970275802411],[34.56247596526407,1.3524129649895122],[34.56240582736595,1.35254480551519]]]}},{"type":"Feature","properties":{"n":"Chepsukunya Town Council","c":"228201","d":"Kween","od":"Kween","dc":"228","k":"CHEPSUKUNYATOWNCOUNCIL","a":["CHEPSUKUNYA","CHEPSUKUNYATOWNCOUNCIL"],"lat":1.557235,"lon":34.501344},"geometry":{"type":"Polygon","coordinates":[[[34.40064441258579,1.5582383116740153],[34.4019000264778,1.5574076747916126],[34.40193441533465,1.55727480917583],[34.40203666697749,1.557317281845661],[34.4069,1.5541],[34.41336080965251,1.5539803553768055],[34.41434624371504,1.55259239363474],[34.41449132317406,1.55319524726679],[34.417391264157224,1.553808312055578],[34.419144975278364,1.552830322919393],[34.419174013153565,1.553644299177875],[34.419927241336026,1.5538587547900735],[34.4231,1.5538],[34.42328108905476,1.5539864467191034],[34.423749127831904,1.553984856150018],[34.42384667870798,1.554568769794022],[34.42423783814115,1.5549715019914865],[34.42558202457296,1.554899413476135],[34.426397160215146,1.55719470933394],[34.42930315906078,1.5601866844767844],[34.43068300467983,1.561216296920471],[34.43066654683819,1.56159040917068],[34.43142088777934,1.5623670678911539],[34.43144273400022,1.561651732802948],[34.4323943473681,1.561883282651165],[34.431885501475264,1.56284542755442],[34.43306536282504,1.5640601960447151],[34.433558100366184,1.564078983503532],[34.433350747503475,1.564354024056835],[34.43935633391043,1.5705372905350032],[34.43973217612993,1.570497322136408],[34.43950877492231,1.57069424163599],[34.44,1.5712],[34.44017150355817,1.5712171503558174],[34.44018571584646,1.571031241613388],[34.440874845421334,1.570886920839437],[34.440864449092686,1.5712864449092692],[34.441454673536455,1.5713454673536458],[34.44191772451726,1.571003760494594],[34.442238123142424,1.571423812314242],[34.44243032982533,1.5714430329825329],[34.44275397496369,1.570569298118386],[34.44356122575395,1.5715561225753951],[34.44449111293117,1.571649111293117],[34.445223244062255,1.570666084298716],[34.44475114328589,1.5716751143285894],[34.449352389591475,1.5721352389591479],[34.449419476260935,1.571804076246706],[34.450703826312946,1.571919445810202],[34.45111221669888,1.570960608837032],[34.453318124247616,1.572270391729954],[34.4538888939517,1.570743486344398],[34.45424448076135,1.571729451222372],[34.453666295286084,1.572566629528608],[34.453982910730545,1.5725982910730547],[34.454888015344444,1.572035853910414],[34.45499225204187,1.572699225204187],[34.455908513861296,1.5727908513861297],[34.455897937483385,1.572521859878369],[34.456990790299976,1.572883628680394],[34.45699174738204,1.572899174738204],[34.457,1.5729],[34.45762005564604,1.5734782113999861],[34.45803553988339,1.57304527444055],[34.45823703153813,1.574053550882187],[34.459018523832555,1.5747823044328075],[34.45962769550493,1.574599819977476],[34.46002509484873,1.5757209473436047],[34.460986034871965,1.5766170386536114],[34.461224103206476,1.576661237440869],[34.461153717033916,1.5767734048414452],[34.46342812635507,1.5788943264169935],[34.4640055379929,1.578624717902478],[34.463812110422914,1.5792523974495871],[34.468897154260304,1.5839942788194208],[34.46899002506159,1.583792894526661],[34.46916253479072,1.5842417502342896],[34.46954607624822,1.584599408525944],[34.470035631203906,1.584297383988348],[34.47039347685407,1.585318298862211],[34.471533981646076,1.585129300795712],[34.47098994466059,1.5859458379657012],[34.47137194200429,1.586302056347558],[34.47176820663487,1.586258085855221],[34.471779112273914,1.5866817488689238],[34.472422734929076,1.587281936866375],[34.472614902139235,1.587098310481772],[34.47354484040851,1.588011244942535],[34.47377821560604,1.586531210369406],[34.47423344473936,1.587151536556572],[34.47572784781255,1.586093665446522],[34.475160443224894,1.587413158016023],[34.47665772728268,1.586427042300577],[34.478065738551514,1.5875223347210288],[34.47883268344886,1.5874293717031691],[34.47924723771122,1.586146411043635],[34.482016929541395,1.586368125292638],[34.482324188196955,1.585102275083683],[34.4837818501359,1.5868294727108003],[34.48396080583262,1.5868077811111974],[34.48429896938135,1.58600515211689],[34.48495874414611,1.5866868188913803],[34.48575108135419,1.5865907780176742],[34.48627226641996,1.586221738145388],[34.486256354837174,1.5865295327470095],[34.4865,1.5865],[34.4989,1.5954],[34.499060455594076,1.5954230189459861],[34.4993731690443,1.594911638423115],[34.49968968015336,1.5955132874481615],[34.50061182181873,1.595645577813658],[34.50135855825665,1.595099804695592],[34.50368331586189,1.595722119049107],[34.50981981513784,1.595319888994128],[34.51069310389495,1.596250541444807],[34.51188716742743,1.595472580046273],[34.51328319854767,1.596402373313183],[34.51660957783603,1.595868612491323],[34.515935921840395,1.597720844628915],[34.51650787382969,1.597926024093711],[34.520714442176676,1.598529498033785],[34.520937278260085,1.59816221997575],[34.52107816277245,1.5985816773597605],[34.52251035698965,1.5987871398213003],[34.52340582014645,1.598567339112617],[34.52521475934803,1.5987308874181136],[34.52904034839344,1.5986297705270456],[34.53262289468705,1.59760926603135],[34.53411832957546,1.598331272459643],[34.537476600415474,1.597361373401347],[34.53761420284136,1.598220111903715],[34.54155313946429,1.59767480252792],[34.545281202033266,1.598187177001026],[34.54689298016819,1.59559938168534],[34.54580570156731,1.594920042736162],[34.5462659742075,1.59378385270148],[34.548402723836425,1.594006493706993],[34.5486049690196,1.592625010196687],[34.54935416164918,1.593915330257453],[34.55012131520461,1.593037492459845],[34.549846331649704,1.591583245990097],[34.551079908378526,1.592014789230741],[34.555257514392565,1.589597390099994],[34.55630086076345,1.590075446216246],[34.55695036901119,1.589054004008668],[34.558063701424956,1.589558575999022],[34.55987416551926,1.58904169725561],[34.56004719319486,1.588137503510969],[34.56136534911025,1.5881124552098442],[34.56523941358199,1.585679903099681],[34.565555373287474,1.584325766669994],[34.566829657772345,1.583374923425777],[34.566184279330265,1.582825217445944],[34.56771165264668,1.58209000769994],[34.56866468440326,1.580435406374367],[34.57058332517767,1.581111076026997],[34.571304593903285,1.580016371598956],[34.57505884045754,1.579214539405638],[34.575543880759824,1.577360218768987],[34.573375549689274,1.572584698810639],[34.573141615950206,1.570111855734766],[34.573815083340456,1.566521972267387],[34.5752691936076,1.564481303862213],[34.57672128150807,1.553764884462873],[34.57611150319728,1.549292446852883],[34.57692457294712,1.543745467848562],[34.57616956935359,1.54229312277323],[34.57608237653857,1.538750568671737],[34.57705416196453,1.528141467770447],[34.56779557004148,1.533887213142285],[34.56679350884819,1.53804287985286],[34.56801779077816,1.541960180896044],[34.56650159447932,1.541434730521356],[34.56074444940164,1.533907973302608],[34.55895357190846,1.533349231732235],[34.559691695848976,1.532165844742857],[34.55814333237052,1.531356176896373],[34.557091975773446,1.529491158267717],[34.54941979779446,1.525575225940339],[34.54341547676936,1.519666034109491],[34.537603062599146,1.516313509458057],[34.533872090163456,1.515689159401322],[34.526594003099405,1.522852786058681],[34.52557528958458,1.525623436463706],[34.52254604388679,1.527679851727147],[34.52035325736573,1.531197528231256],[34.51908525677139,1.531915151684179],[34.51764529152745,1.554603345555556],[34.50930559396369,1.553108415445816],[34.504111547818916,1.550695926490894],[34.49863369240043,1.551069966787409],[34.494709850029814,1.543176864703879],[34.49388023577628,1.539021202717932],[34.492284129314875,1.538672529635982],[34.49054256233491,1.539621245147561],[34.48928387157076,1.542252381203175],[34.486317798708264,1.544256827732666],[34.486103567940255,1.54630495313723],[34.4846866161379,1.547901364407126],[34.48102330176563,1.547973590106277],[34.480249481462614,1.549560585427762],[34.478235960691705,1.550571891235062],[34.47610448495915,1.553236099698705],[34.47437286329581,1.553779763385711],[34.47298618207654,1.552644142361115],[34.47170889004575,1.552816923341268],[34.46861245319955,1.554173153341772],[34.466864531341535,1.553723446371177],[34.466984693182894,1.554281501106254],[34.465508670963295,1.554859417036799],[34.464901017214224,1.554300623328305],[34.46301465865858,1.555560931131575],[34.46060109170657,1.552903018171046],[34.45393413181491,1.553047119294838],[34.44843347692868,1.550482611893939],[34.449279172384244,1.549502699112412],[34.44799592462722,1.548941921871614],[34.44833384649331,1.547903564800041],[34.44983475626887,1.547837144594997],[34.44997356506538,1.547199095597372],[34.447790012882535,1.546372843143707],[34.447327688741055,1.545022089695259],[34.44630611830168,1.545551109205143],[34.444466784740364,1.544821654172596],[34.44414105306906,1.543452467231698],[34.44259405179322,1.542379769419336],[34.440571116897914,1.542660995122803],[34.44018105711579,1.541618810045668],[34.43759792108043,1.540640134601973],[34.43668544595523,1.541636717664726],[34.43496933234279,1.541062108035638],[34.43274361200524,1.541887573137378],[34.43131829996948,1.537389431994349],[34.43193536254051,1.536535475298212],[34.429909108744866,1.534825213789578],[34.4295223501512,1.533952745787106],[34.43020138304707,1.533517513379369],[34.42630478588903,1.532570304083283],[34.42653491899547,1.531232293271216],[34.42409635935506,1.530275768523402],[34.39494387786792,1.55740494803565],[34.39487371741724,1.5575392976886067],[34.3939,1.5627],[34.398073625054046,1.55993898650271],[34.398938823423585,1.558714619441618],[34.40064441258579,1.5582383116740153]]]}},{"type":"Feature","properties":{"n":"Greek River (Kiriki)","c":"228202","d":"Kween","od":"Kween","dc":"228","k":"GREEKRIVERKIRIKI","a":["GREEKRIVERKIRIKI"],"lat":1.450624,"lon":34.701167},"geometry":{"type":"Polygon","coordinates":[[[34.66941258569359,1.433797126511064],[34.67118069401393,1.4353651814159285],[34.671967692867376,1.435830022340202],[34.67201102885664,1.4361015676473772],[34.67226482741983,1.436326650057364],[34.67250476417666,1.4391932844637734],[34.67586705507996,1.439824334609605],[34.675867305251494,1.439824575862559],[34.675867537352495,1.439824619404452],[34.67635470604956,1.4402946009013793],[34.67727263107182,1.441179802045767],[34.67727290995945,1.4411804107874762],[34.67727323474344,1.441180724113162],[34.67793428315991,1.442624022537619],[34.67908282251824,1.445130995774595],[34.68560213050827,1.453047436651656],[34.68567088741718,1.4535717435576934],[34.68584090417128,1.453789567908726],[34.6857433258295,1.454124123826665],[34.68586539476931,1.455054962475006],[34.685373421217115,1.4553923742896808],[34.685247544877114,1.455823952380755],[34.68467085503837,1.4558742175274795],[34.68443980700283,1.456032677949999],[34.68084980559573,1.4562075176552045],[34.680693735326884,1.4564904995534305],[34.67966261209869,1.458360464432117],[34.67596655431757,1.45976497011827],[34.67468726231535,1.460151249463697],[34.67546606582913,1.475044203375851],[34.67950525233508,1.486104390467216],[34.68128164930124,1.489191936476548],[34.682886642808306,1.489938443971031],[34.6826272068948,1.491195178529834],[34.67535943806713,1.498974392954115],[34.67326413621237,1.503739680915434],[34.672704448836456,1.505493695400161],[34.67307213502981,1.509748115417862],[34.67214473262749,1.511269105058257],[34.67303955066212,1.512468668965502],[34.67210325692834,1.514720674170881],[34.672936793456145,1.5187871781494],[34.67120101127638,1.52198731066928],[34.672811798243764,1.523663421374409],[34.67498802160715,1.5245115084204344],[34.68141168308723,1.52528659902533],[34.68130493570455,1.5269732470025084],[34.6824,1.5274],[34.6999,1.5242],[34.70004371546916,1.5226259734330605],[34.70037251084909,1.517605615261509],[34.69948711560448,1.516927989011806],[34.700238881417214,1.515763179007783],[34.69949231453628,1.514995867293387],[34.70075601401576,1.510294161676939],[34.701200959112334,1.509951400198235],[34.70141897266864,1.507563632676765],[34.70100888550575,1.507555536634123],[34.70044161839792,1.504831799197652],[34.70171457087083,1.50367233535539],[34.701993550268504,1.501226821956738],[34.7019978247434,1.501223824238913],[34.702,1.5012],[34.702050576597195,1.5011868290111465],[34.70583603995793,1.498532058246524],[34.70654089168817,1.500017476122872],[34.7116,1.4987],[34.71160216214735,1.4986652090834633],[34.71071355390202,1.496185688070997],[34.711776347188525,1.4958624134209297],[34.71186040871507,1.4945097870393218],[34.71115445538994,1.494266200216976],[34.71192144714098,1.4935276232768986],[34.712124937641626,1.4902532761301144],[34.710915184926435,1.486675654826658],[34.71110302656644,1.485815670605745],[34.712397079181066,1.4858742713591249],[34.71242246302658,1.4854658222086778],[34.71147443044016,1.484425307647531],[34.71267803184582,1.481353487571841],[34.71269317673626,1.4811097925164867],[34.71127678903387,1.479923645460475],[34.71147035901554,1.47856425182735],[34.713892540099664,1.47676858649377],[34.71683249032786,1.47734102693539],[34.71763283723741,1.476022649997607],[34.72226476403042,1.4748110350391412],[34.723905847078846,1.4737491577725141],[34.72446173114317,1.4727660694913067],[34.72359328403034,1.4694125275633185],[34.72234230592058,1.468919621138113],[34.72296104912969,1.4669711281776945],[34.7181,1.4482],[34.71814601422256,1.4481043625962449],[34.7180040313321,1.448027169651656],[34.71935120895881,1.444147038830486],[34.71895522960101,1.441675997086281],[34.721025464588124,1.441050516575512],[34.72044919308879,1.439847756074042],[34.72163719567253,1.440074782287442],[34.72116313571507,1.439437669193928],[34.72315788828362,1.437680799722258],[34.7222338645287,1.436867781685254],[34.722714105809544,1.435193161964616],[34.72201950401299,1.434985103555297],[34.72289914655088,1.4345260625850922],[34.722383398372365,1.4292564616307242],[34.72208632062343,1.429369646128116],[34.722341805813485,1.4288314941812383],[34.72090109510053,1.4141111890705984],[34.720775880166876,1.414087518758101],[34.71864893911978,1.412471320580648],[34.71823476130597,1.410718840273247],[34.714931244809726,1.40691288706864],[34.71414112528601,1.406892314628177],[34.71215490919915,1.402817733302575],[34.710906626587466,1.402592297097408],[34.71134329650712,1.401641188598239],[34.710623587322374,1.398899527535269],[34.70742101455205,1.39654891224562],[34.708697776340834,1.3952003152346737],[34.70763523630252,1.3935545765287232],[34.70394903455215,1.392270966883034],[34.70332638088602,1.390665759545938],[34.70331685052964,1.3906594390665328],[34.70299818360476,1.39129029493948],[34.70044977810788,1.390504815826395],[34.69943858508551,1.388861864317136],[34.6988010938693,1.389170044332637],[34.6969598091745,1.387011073011052],[34.69693592231773,1.3864276429259912],[34.68310392805469,1.3772543411751612],[34.68500502069838,1.379814352030894],[34.68644746954759,1.380157484173301],[34.68725346646711,1.3811953802277026],[34.68725347387639,1.381195384777176],[34.68725347432949,1.3811953903522247],[34.687254563706645,1.381196793161869],[34.68725400450182,1.3812019137131832],[34.68739096352642,1.3828870887178912],[34.688285134804175,1.383808641046954],[34.68829111970458,1.3838089061879564],[34.689790209639426,1.383619200813039],[34.689995311740184,1.383884404718281],[34.69031721601627,1.383898665610975],[34.69031459868834,1.3842972534664566],[34.69060741622388,1.384675876375053],[34.690290701451595,1.387936517867244],[34.690290666013965,1.3879419145955303],[34.690574431157714,1.388631002964072],[34.691009217254766,1.389685799496271],[34.69100898191009,1.389686255434624],[34.69100898745275,1.389686268894285],[34.69098885117821,1.389725255138226],[34.69002411422568,1.391594260966809],[34.691722637882584,1.3933225332729646],[34.69188039261322,1.393482938207679],[34.69188040935564,1.3934830680211698],[34.69188071259713,1.393483376573763],[34.69212072909295,1.395346265101304],[34.69212071479969,1.395346293080126],[34.69212072889734,1.395346402387247],[34.69089702729323,1.39834836327877],[34.692109079112576,1.399645458026473],[34.69292044619165,1.400147478243195],[34.69300036763962,1.400599283307426],[34.69330564356422,1.400925978744109],[34.69313103299406,1.4013379494647182],[34.69321316887049,1.401802272945699],[34.69039258681618,1.4077989537682658],[34.690392508385486,1.4077991388152014],[34.692207617804755,1.409933083583866],[34.692207627324436,1.409933197555442],[34.69220762732489,1.409933197555974],[34.69220762747374,1.409933199342951],[34.69235489455885,1.41169631071415],[34.69235452921497,1.4116967586924867],[34.69235455117068,1.411697022271411],[34.69148151604607,1.4127672323200131],[34.69105606433887,1.413288913834755],[34.691174291297884,1.414227944825299],[34.69133502281214,1.415503513532809],[34.69133489018016,1.4155035196076076],[34.69133498903702,1.415504304789364],[34.68790572600532,1.4156618926848252],[34.68781298742642,1.4161348859299043],[34.68702306172404,1.420200974526841],[34.687015902927286,1.4202002445791517],[34.68701585106786,1.420200509077033],[34.683920914949425,1.4198846708222],[34.6839209108063,1.4198846632846858],[34.68391981781934,1.419884551838121],[34.68320192119315,1.418576982498318],[34.68007615055463,1.417490153117096],[34.67615774979315,1.422096728825227],[34.676152987493786,1.422096841792623],[34.67003310782949,1.422286524522902],[34.66998730079968,1.4223069249223923],[34.663964299770534,1.424990043281942],[34.6694027143692,1.43087091606867],[34.669909130093906,1.431965427800111],[34.669438470949636,1.4337015943353209],[34.66941258569359,1.433797126511064]]]}},{"type":"Feature","properties":{"n":"Ngenge","c":"228203","d":"Kween","od":"Kween","dc":"228","k":"NGENGE","a":["NGENGE"],"lat":1.499979,"lon":34.508542},"geometry":{"type":"Polygon","coordinates":[[[34.42418710138807,1.5303113620757605],[34.42653491899547,1.531232293271216],[34.42630478588903,1.532570304083283],[34.42701598368682,1.5327431865081527],[34.43019363975251,1.533512326438499],[34.430189966194185,1.5335147380991065],[34.43020138304707,1.533517513379369],[34.42954016531168,1.5339413269954174],[34.42952244516544,1.5339529601246282],[34.429909108744866,1.534825213789578],[34.43193536254051,1.536535475298212],[34.43148706239849,1.5371558806284524],[34.43131854758568,1.5373902134461288],[34.43274361200524,1.541887573137378],[34.43406112769995,1.5413989388697986],[34.434967489780355,1.541062345539694],[34.43496812213537,1.5410625568718945],[34.43496933234279,1.541062108035638],[34.43631676574421,1.541513271758948],[34.436685609638246,1.5416365388941289],[34.43736717311515,1.5408921518982377],[34.437596546063666,1.54064134452086],[34.43759674452556,1.5406414196064906],[34.43759792108043,1.540640134601973],[34.44018105711579,1.541618810045668],[34.44018121086616,1.5416192208451036],[34.44018139223089,1.541619289462234],[34.44020154919377,1.5416735620064066],[34.440571116897914,1.542660995122803],[34.44259405179322,1.542379769419336],[34.44286737734944,1.542569294619344],[34.44296367947421,1.542565444154364],[34.44305111830193,1.5426967014423745],[34.44414105306906,1.543452467231698],[34.444466784740364,1.544821654172596],[34.44630611830168,1.545551109205143],[34.447327688741055,1.545022089695259],[34.44735150888393,1.545091684027991],[34.44779178462984,1.546373513569893],[34.44997356506538,1.547199095597372],[34.44997353077184,1.5471992532311645],[34.44997357143806,1.547199268587205],[34.449949081700375,1.5473116359182275],[34.44983475626887,1.547837144594997],[34.44983454845711,1.5478371537913522],[34.449834538401944,1.54783719992793],[34.44981264753503,1.5478381229793468],[34.44833384649331,1.547903564800041],[34.44799592462722,1.548941921871614],[34.4485669402934,1.5491914548148649],[34.44926549210042,1.549494658702719],[34.44926421907953,1.5494961645418965],[34.449279172384244,1.549502699112412],[34.44843347692868,1.550482611893939],[34.4484518761483,1.550491189951617],[34.45147723352672,1.551494926032229],[34.45232183697855,1.5522954375177052],[34.453419303611014,1.5528070968308965],[34.460568354705266,1.5529037257557254],[34.46060109170657,1.552903018171046],[34.46301465865858,1.555560931131575],[34.464901017214224,1.554300623328305],[34.46490110667375,1.5543007055945979],[34.46490130054427,1.554300575879191],[34.464938277574376,1.5543348876685839],[34.46550822139665,1.5548590036187726],[34.465715566409486,1.5547784100080961],[34.466984693182894,1.554281501106254],[34.466864531341535,1.553723446371177],[34.46861245319955,1.554173153341772],[34.47170889004575,1.552816923341268],[34.47170928294093,1.5528168701938183],[34.471709318652856,1.552816854550382],[34.47298529906386,1.552644135242588],[34.47298543165694,1.552644243871366],[34.47298618207654,1.552644142361115],[34.47437286329581,1.553779763385711],[34.47597373117052,1.5532771514413122],[34.47819233640412,1.550626418806934],[34.478235960691705,1.550571891235062],[34.48024933905633,1.549560656952379],[34.48102284096245,1.547973886335034],[34.48102316038214,1.5479738800636882],[34.48102330176563,1.547973590106277],[34.4846866161379,1.547901364407126],[34.484891342432874,1.5476707091625352],[34.486103612301974,1.5463045290227504],[34.486317798708264,1.544256827732666],[34.48928368811605,1.5422525051802893],[34.489743745225425,1.5412910726846178],[34.49054256233491,1.539621245147561],[34.492284129314875,1.538672529635982],[34.49388023577628,1.539021202717932],[34.49470984387096,1.5431768338532368],[34.49474373962531,1.5432450361571424],[34.49863369240043,1.551069966787409],[34.504111547818916,1.550695926490894],[34.50411157676152,1.5506959399339229],[34.50411160350051,1.550695938100175],[34.509305758660744,1.55310844496854],[34.51764529152745,1.554603345555556],[34.51908525677139,1.531915151684179],[34.52035325736573,1.531197528231256],[34.52254604388679,1.527679851727147],[34.52557528958458,1.525623436463706],[34.526594003099405,1.522852786058681],[34.53193938926427,1.5175914652627795],[34.532760776089496,1.516361321818741],[34.533382030208074,1.5161715123230672],[34.533872090163456,1.515689159401322],[34.53457551299251,1.5158068718987476],[34.53486123170788,1.51571957730601],[34.53759745314661,1.516312570758544],[34.537603062599146,1.516313509458057],[34.5376038318449,1.5163139531489702],[34.537603993049245,1.516313988085149],[34.54327614619274,1.5195856700509198],[34.54341547676936,1.519666034109491],[34.54941979779446,1.525575225940339],[34.557091975773446,1.529491158267717],[34.55779459501409,1.5307375460074222],[34.55814410988407,1.5313565834725607],[34.55905694248712,1.5318339204920624],[34.55968908991629,1.53216394574978],[34.55968883779392,1.5321643502131084],[34.559691695848976,1.532165844742857],[34.55895357190846,1.533349231732235],[34.56074444940164,1.533907973302608],[34.56636308463378,1.5412536459793242],[34.566501598471746,1.5414347319049635],[34.56801779077816,1.541960180896044],[34.56679350884819,1.53804287985286],[34.56779557004148,1.533887213142285],[34.57642188859555,1.5285338472827725],[34.57705416354608,1.528141452593862],[34.57742917708403,1.525919251760646],[34.57683926413854,1.523015074960653],[34.57493355797244,1.520110122220804],[34.57497877481867,1.507904268602018],[34.572119847592795,1.504318722920233],[34.5702594836498,1.488391814232787],[34.56760671113223,1.48507093594094],[34.56911950425067,1.483763089848664],[34.57069733549803,1.483543571417259],[34.570448153014006,1.481022787407523],[34.56908777355541,1.479497801942027],[34.568063972557866,1.476729707518705],[34.56849647363904,1.476200106178419],[34.56721072899715,1.47413873632983],[34.56682431283985,1.479006510389489],[34.56682351418665,1.4790063635240074],[34.56682336875836,1.479008360472378],[34.5644827810308,1.478575953079767],[34.5644827381086,1.478575914853241],[34.564482681469045,1.478575904437712],[34.56202257506264,1.476384892696236],[34.56112416214662,1.475584765806928],[34.559710141904354,1.471235665435551],[34.55339491686698,1.46873484692607],[34.553394783761014,1.4687347467821368],[34.553394600370304,1.468734674166821],[34.5525273995172,1.4680821594065256],[34.55057266467343,1.466611490218312],[34.542611707042916,1.464525486179571],[34.54421816214009,1.462102773677234],[34.546677138943004,1.4603586771954549],[34.532564761609315,1.460899312980528],[34.53256530393237,1.4608979461516431],[34.532559478670095,1.460898169355528],[34.534208849419684,1.456753715193932],[34.53420961848004,1.4567537435523528],[34.53420969589701,1.456753548436633],[34.53427121020884,1.4567560146929104],[34.535350420251355,1.456795809609297],[34.53683912807256,1.453993248873855],[34.53606476376032,1.4534249046400665],[34.535861262044044,1.453276168967078],[34.53586131799454,1.4532755857393316],[34.53586096719634,1.453275328271203],[34.53580861709435,1.4510126148547438],[34.53153848182414,1.4500919899144025],[34.53153646868977,1.450091615233035],[34.52390792331636,1.44658245862435],[34.52194339481147,1.452824196813874],[34.521657419940446,1.456286581838186],[34.521657386130386,1.4562866649374027],[34.52165738572823,1.456286669812474],[34.518695758020456,1.463566003305675],[34.51869566311527,1.463566062428096],[34.51869502131317,1.463567639865473],[34.51749330824628,1.4643150850358213],[34.51708949371072,1.4645666465541909],[34.516232284048066,1.468171887887583],[34.51508031148863,1.463565132146633],[34.5131254378624,1.46318745333571],[34.51282431154545,1.456421568151899],[34.509974598638514,1.455981986302654],[34.50940411765397,1.455894264892939],[34.50940400015144,1.4558939687562145],[34.509403460148846,1.455893885458231],[34.507383574722226,1.450801974936837],[34.50734994779035,1.4507172263849841],[34.50734327567554,1.4507701266979445],[34.50707872981555,1.459731705113216],[34.5070886554716,1.459831257061603],[34.50707516236852,1.459852553559884],[34.50707258986771,1.459939697874851],[34.505651792474794,1.4620994802588978],[34.506176349456595,1.464978051404843],[34.50548130636182,1.4658099280682402],[34.50440215502977,1.4671030669427427],[34.5049109837471,1.468182077087264],[34.504956894435914,1.46827884138761],[34.50495667840956,1.4682789761078323],[34.50495723593637,1.468280158385985],[34.502288302962214,1.469943584783891],[34.50228708139794,1.4699438133042513],[34.50228706736293,1.469943822056886],[34.50210988472912,1.4699769618232597],[34.4989487152371,1.470568327833104],[34.494000089107,1.469886943432892],[34.49255635992328,1.4693049743213042],[34.48564889527978,1.46652101504012],[34.48414939013595,1.468060333599389],[34.48442323126408,1.4664474134873051],[34.48442639414486,1.4664283976912806],[34.48134504585217,1.463941594083589],[34.48134523650576,1.4639413696715176],[34.48134496079659,1.463941147153055],[34.48137171433765,1.4639102034862663],[34.48245033990088,1.4626405888038123],[34.47585961607822,1.4618195063750008],[34.47550861109048,1.461775867727772],[34.47543093388828,1.4617231142158105],[34.470800590579415,1.458593747249651],[34.46919306261173,1.464795012281505],[34.46749903924309,1.466233908589802],[34.46347710961711,1.472920411449299],[34.45934008993828,1.474740935756318],[34.459249110757916,1.4747078291141664],[34.4476,1.4765],[34.44751719140856,1.4767181687889999],[34.44859169899497,1.478943198659327],[34.4479984661923,1.482218836559112],[34.445821368381715,1.482998367844123],[34.44528671093075,1.48613495318191],[34.44242522627327,1.4902803257648842],[34.44278657205191,1.4914309267968566],[34.44288924376865,1.491595017645857],[34.44284776132518,1.4916257663249197],[34.444060505469984,1.4954873989965298],[34.44426168930263,1.495502369726986],[34.444859841279516,1.496583266088022],[34.444742279408786,1.4976583107490409],[34.4462,1.5023],[34.44615492729293,1.5023910291927087],[34.44624710477992,1.502471484504385],[34.445927776501875,1.5028497847118962],[34.44499197352298,1.5047397397476954],[34.445344187876145,1.505363639329901],[34.44398158075958,1.5067803368973038],[34.44354192704462,1.5076682649883137],[34.443653880526675,1.50888382524087],[34.442850356633315,1.5090649660150677],[34.4411,1.5126],[34.43747157403864,1.5161184736594993],[34.436441992144616,1.518294203233396],[34.433033069420254,1.520911953667846],[34.43177600837364,1.524689789919399],[34.43122890998253,1.524431566423914],[34.4287706507111,1.527119243868597],[34.425434629538444,1.527790662265752],[34.42379773752315,1.5293779514926997],[34.42409635950131,1.530275756995115],[34.42418710138807,1.5303113620757605]]]}},{"type":"Feature","properties":{"n":"Sundet","c":"228204","d":"Kween","od":"Kween","dc":"228","k":"SUNDET","a":["SUNDET"],"lat":1.519449,"lon":34.623757},"geometry":{"type":"Polygon","coordinates":[[[34.568069533034816,1.4767447416173967],[34.56908777355541,1.479497801942027],[34.570448153014006,1.481022787407523],[34.57069733549803,1.483543571417259],[34.5706966884655,1.4835436614367496],[34.57069670229133,1.483543801001778],[34.57029032759105,1.4836001970782473],[34.56911974947008,1.4837630557321002],[34.56884958068349,1.4839964452746313],[34.56760671113223,1.48507093594094],[34.5702594836498,1.488391814232787],[34.57025956776515,1.4883925343593203],[34.57025960127403,1.488392576304015],[34.57211991101127,1.5043188024570031],[34.57497877481867,1.507904268602018],[34.57493355797244,1.520110122220804],[34.57683926413854,1.523015074960653],[34.57742917708403,1.525919251760646],[34.57742896501686,1.5259205083975351],[34.57608250548639,1.538749160932574],[34.576082376538736,1.538750568669935],[34.57608237677429,1.5387505782485313],[34.57616956935359,1.54229312277323],[34.57692457294712,1.543745467848562],[34.57611150319728,1.549292446852883],[34.57672128150807,1.553764884462873],[34.5752691936076,1.564481303862213],[34.573815083340456,1.566521972267387],[34.57314172779697,1.5701112595412958],[34.5732936452024,1.5717189111561776],[34.57337554413965,1.5725846401472412],[34.575543206024115,1.577358545652832],[34.57554319169502,1.577358701176603],[34.575543880759824,1.577360218768987],[34.575542601154375,1.5773651107311057],[34.57536214102506,1.5793237719144981],[34.5754,1.5793],[34.57809865888112,1.580907066524709],[34.58034118847174,1.581393857855557],[34.58171363308203,1.5830598039701975],[34.58217054000643,1.5833318946105712],[34.58379470961437,1.583479109849298],[34.584605060846144,1.5844784461924102],[34.593808773410544,1.5808111571243342],[34.593299799027434,1.579420216016113],[34.5944853253719,1.579718057738868],[34.595365112344645,1.578279297587757],[34.598619863440334,1.5783854217722],[34.60094159413639,1.576222311194864],[34.602099589301055,1.577179904860291],[34.60300536847464,1.5771467040782277],[34.607109072084924,1.5755115522540777],[34.60736339274729,1.574300266353539],[34.60814519004913,1.574345426818441],[34.60825570731456,1.5750546667512655],[34.60841554578672,1.574990977899891],[34.608743154758415,1.574397854025846],[34.6105940370365,1.5741229415407252],[34.623116340898214,1.5691333346035394],[34.62293069488607,1.568291409737461],[34.62427476445508,1.5660292444140471],[34.625012459114124,1.5639215453882123],[34.626335643510615,1.559480662528277],[34.626372440054936,1.557662865855131],[34.62532979368076,1.555816475915912],[34.62750881116593,1.553465734511929],[34.62869436625696,1.549069847498005],[34.631553020819425,1.545070136344966],[34.63897108275854,1.540009164506366],[34.6422931526674,1.5400889828504227],[34.651185715491984,1.5359217567568972],[34.651689198946535,1.535151873672818],[34.65522717870904,1.5340278493078978],[34.655370208746405,1.533960822679512],[34.65533841565222,1.531958032353747],[34.65880409007135,1.527739613602425],[34.658363360746755,1.526400370563335],[34.65965417364078,1.523784007721006],[34.66207145595158,1.523954765346928],[34.66344959536361,1.521777401181917],[34.66523621853847,1.522956656447745],[34.66570844647955,1.521950481580212],[34.66621213360317,1.522639336567668],[34.6691277427738,1.521781709962174],[34.67045252913983,1.522467886195705],[34.67137404440737,1.521055694670606],[34.67168274549206,1.5210991731209589],[34.672936793456145,1.5187871781494],[34.67210325692834,1.514720674170881],[34.67303896139648,1.5124700862870473],[34.672451737158624,1.5116806653315826],[34.67214473262749,1.511269105058257],[34.67214511929932,1.5112684708957214],[34.67214488635911,1.511268157748082],[34.67307211360072,1.5097478674662714],[34.672704448836456,1.505493695400161],[34.67324656741236,1.5037947400985008],[34.67326404754264,1.503739937286997],[34.6732640725675,1.5037398803732493],[34.67326413621237,1.503739680915434],[34.67535943806713,1.498974392954115],[34.6826272068948,1.491195178529834],[34.682886642808306,1.489938443971031],[34.68128164930124,1.489191936476548],[34.67950525233508,1.486104390467216],[34.67546606582913,1.475044203375851],[34.67475331262889,1.4614143206466117],[34.67468725163334,1.4601512526891072],[34.672543719203546,1.460798487489642],[34.669595503778595,1.460656197205673],[34.66656517153381,1.462123313156811],[34.66615373356359,1.4619291591663477],[34.66599447980376,1.461988065301829],[34.66490489162119,1.4613398415434729],[34.664900522821725,1.461337779945099],[34.6649000757541,1.4613369764614916],[34.66489997339615,1.461336915566144],[34.66367345992443,1.459132464994136],[34.66240061127064,1.456844862481891],[34.662400412061146,1.4568446793272753],[34.659174214344254,1.4541217503508062],[34.657004441726656,1.4544247973575188],[34.65700413242389,1.454424871301636],[34.65625622768758,1.4573675555770622],[34.65793130182798,1.4581865558463332],[34.65793176629231,1.458186710752089],[34.66028430843177,1.4607779817799886],[34.66139406481695,1.462000346353701],[34.66139406757945,1.462000355942424],[34.66139416351675,1.462000461615156],[34.66228783530484,1.465101819635091],[34.65545875841413,1.47317379158241],[34.65115665456694,1.475211731273856],[34.651156441965135,1.4752116649184521],[34.65115639132482,1.475211688906804],[34.65098033257494,1.4751566992053788],[34.6478035457358,1.474165188453442],[34.64780309217642,1.4741643287552115],[34.647802666636665,1.474164195843305],[34.646244079398734,1.471209310627885],[34.64624408018616,1.471209302541146],[34.64624398238628,1.471209117166568],[34.64617088666013,1.468794546046242],[34.64653760296656,1.4681948483741538],[34.64657427498467,1.467818229845078],[34.646851975817654,1.4676807488818184],[34.64697865333132,1.467473590899701],[34.64932000396576,1.466458559187616],[34.64974152608163,1.4650703599275463],[34.6497703107273,1.464975500721498],[34.6462114525351,1.455289891960672],[34.645796219788735,1.4549608073753215],[34.644464890267166,1.4543566629722402],[34.64375633408568,1.4556044960576706],[34.64360781034327,1.456063205226997],[34.643396470886366,1.4562382484940626],[34.64329056310769,1.456424761904977],[34.64061047741647,1.4585457655386052],[34.64060198820906,1.4585527967793486],[34.640601542107476,1.4585537867755975],[34.63892015536469,1.463220023227186],[34.638664488497454,1.4628525291729952],[34.63849469659848,1.463229334250096],[34.634744742297976,1.4572183089948139],[34.634733007204694,1.4572014410406202],[34.63339964053402,1.462201255482556],[34.63339943055231,1.4622012703216143],[34.633399193375304,1.462202160016886],[34.63144820425909,1.462339243174674],[34.629845517983455,1.461833974655081],[34.6298451814619,1.461833240192949],[34.62984513856635,1.461833226655137],[34.629790229657615,1.4617133072528141],[34.62883068720367,1.459619094893893],[34.62365854084494,1.457958681485867],[34.62039515709707,1.4538246241466461],[34.61997216502691,1.453883254312214],[34.61999102426044,1.4544319983033958],[34.620365686515825,1.455413458939336],[34.62006339332859,1.4565377090800806],[34.62018272666943,1.460009931511904],[34.62015270498133,1.4600408983056483],[34.62016987592113,1.460102597548135],[34.61940679167099,1.460810648486697],[34.61941022169382,1.4608185380670349],[34.620348264852254,1.462974485117906],[34.621147181503446,1.4625718846310183],[34.62138435037602,1.462451316843739],[34.62138439271963,1.462452346064653],[34.62138490570815,1.462452087552794],[34.621457751474864,1.4642283159778384],[34.62155300774675,1.4641769805209475],[34.62221516599722,1.46381686349667],[34.622214585776106,1.4638204432585322],[34.622216266981276,1.463819537224379],[34.62203892391893,1.4649042156364587],[34.622015539937784,1.465048486642466],[34.62191030802181,1.465068792445298],[34.62100693868228,1.4652446077599284],[34.62261823072646,1.467942577085819],[34.616485192300544,1.468196128770159],[34.61613526525082,1.4682107242976872],[34.61192438243688,1.4746069473306187],[34.611435652675105,1.4753493431353],[34.61143560762034,1.4753493837454046],[34.611435540040226,1.475349486397866],[34.60909669625617,1.477457561114304],[34.608011584160096,1.47843562672153],[34.60801151399032,1.478435670602823],[34.608011183892465,1.478435968130578],[34.60114815282188,1.482727766308026],[34.598320132470654,1.4833178374712],[34.59831062568661,1.4833411666481677],[34.59626337317091,1.488700192483895],[34.5959631185328,1.4891018328777683],[34.59555164701209,1.490111563599978],[34.59497181047296,1.490427871876211],[34.59455858255235,1.490980632778871],[34.59392629612902,1.4909982133734982],[34.59362596793688,1.491162046258027],[34.59346258210011,1.4910111068471907],[34.592893512823004,1.491026929702002],[34.591451075167335,1.489752413094275],[34.59035688498221,1.4881419958980882],[34.589468786783485,1.487321551350827],[34.583052249997884,1.4778169468163498],[34.57974959690812,1.4783398806582553],[34.57693873723747,1.479127747926224],[34.57609531311624,1.4789184908273405],[34.575910778157244,1.478947709631875],[34.575319687936286,1.4787260549331147],[34.5730132620939,1.478153820907053],[34.57238947226381,1.4776272445499412],[34.57165060588744,1.477350174826453],[34.571532865380064,1.476904134119855],[34.57119362161772,1.476617759228934],[34.570657494806404,1.474376649490034],[34.57002520410467,1.4738628447323996],[34.56852878065,1.4731421255312127],[34.567675330542464,1.4730793068156947],[34.567345220922704,1.4732800188260018],[34.5672318115697,1.4741725369601903],[34.56849647363904,1.476200106178419],[34.568063979057044,1.4767296995604082],[34.568069533034816,1.4767447416173967]]]}}]}
