{"type":"FeatureCollection","name":"Kyankwanzi sub-counties","metadata":{"source":"Uganda Bureau of Statistics NPHC 2024 Map Explorer","retrieved":"2026-07-26","display_only":true,"clipped_to_dashboard_district":true,"positive_area_overlaps_removed":true,"source_gap_ratio":0.00589671},"features":[{"type":"Feature","properties":{"n":"Bananywa","c":"123101","d":"Kyankwanzi","od":"Kyankwanzi","dc":"123","k":"BANANYWA","a":["BANANYWA"],"lat":1.216731,"lon":31.349052},"geometry":{"type":"Polygon","coordinates":[[[31.294990904330543,1.2111401131750925],[31.301464755185435,1.2184865265365152],[31.304494089004237,1.217950414808362],[31.30518554743893,1.220744670357539],[31.30826303615579,1.225000857667157],[31.31083748569213,1.227152677944846],[31.31094306860063,1.229242351759844],[31.314927645529053,1.2337639803612315],[31.32371531758872,1.238381300501039],[31.327878089102615,1.237313234300188],[31.329890014105928,1.237636842050697],[31.330701821265613,1.2386],[31.361385080017023,1.2386],[31.361525730097174,1.237642458000661],[31.363960352832063,1.236643351895514],[31.36578501194608,1.238351903137956],[31.36799455549354,1.238393352131191],[31.368408476903642,1.239340111617493],[31.36904404081768,1.2404916779171835],[31.37217026038145,1.242741669984008],[31.372032649318918,1.244819002706322],[31.37515224037966,1.249680686826101],[31.37632558423249,1.2536849694509469],[31.377578524516977,1.2559551483822484],[31.378886149859543,1.256448881305338],[31.379019270319933,1.2574161476796355],[31.39684920059869,1.267427215090248],[31.397079553232512,1.267395836606457],[31.40194381740712,1.269532681756756],[31.405550959657244,1.26989432179189],[31.418462840658744,1.266188879740018],[31.423184728418462,1.266618387914583],[31.425828394550106,1.268300801533682],[31.430854879224896,1.269305266647669],[31.4388,1.2695],[31.438853484972128,1.2695408484127797],[31.442553671669636,1.270585699492106],[31.44524525075037,1.265901259005272],[31.444691239912544,1.26091596595114],[31.442341577759656,1.256993590063773],[31.441829346115597,1.253147000407882],[31.442435560225427,1.249574572858795],[31.441762871403583,1.247136186524458],[31.44214064884995,1.24191978837071],[31.42984871439804,1.243262817459076],[31.428433249084275,1.24122891575747],[31.43275429490477,1.238407983981792],[31.432606750113283,1.235012314174675],[31.43062347241771,1.231918025913929],[31.42492025881727,1.227608974087597],[31.42174606230733,1.231269992758972],[31.4167800234565,1.228126350501473],[31.405757956386502,1.223533133251145],[31.400100385957266,1.22020078696088],[31.39751410899576,1.215511108930287],[31.39264235954757,1.212533065726544],[31.393463228768496,1.203267877061313],[31.389636791980596,1.193272959249354],[31.386953818915465,1.191500713388105],[31.384358936534024,1.188238946890794],[31.38557923389648,1.182264812091323],[31.38719356729936,1.180334069609972],[31.387314111323008,1.177214293061819],[31.38571305013797,1.177464265724864],[31.38451979071806,1.17670906826009],[31.38521755943425,1.172194791569721],[31.38237872095543,1.171365467906594],[31.38146619897561,1.170166610710184],[31.379564660200593,1.169837942772863],[31.376387524447328,1.167713100798496],[31.37618533063904,1.16585450274189],[31.37534514751667,1.165233068555659],[31.375428709923227,1.163222945642195],[31.374091510460605,1.1609606643977177],[31.36421541286787,1.165797246437994],[31.360747671975673,1.168959923207326],[31.353512865425728,1.1714210965821954],[31.342105607952202,1.1859653498609382],[31.342035359820546,1.186111934891492],[31.333139545521956,1.192662428067566],[31.32823219077162,1.193837455061766],[31.32361301569879,1.1959289869997245],[31.3203,1.1977],[31.319671537603856,1.1977136622260032],[31.319469910554293,1.197804957621191],[31.316550768578207,1.1977815050309084],[31.30235328933595,1.198090145884001],[31.297662514322052,1.203354533105437],[31.297112815124514,1.207175439785803],[31.293666012360333,1.207249463151481],[31.292643364480284,1.2079412651314885],[31.292587764746933,1.2080003764269447],[31.294878679973415,1.210637783288731],[31.294990904330543,1.2111401131750925]]]}},{"type":"Feature","properties":{"n":"Banda","c":"123102","d":"Kyankwanzi","od":"Kyankwanzi","dc":"123","k":"BANDA","a":["BANDA"],"lat":1.111893,"lon":31.855418},"geometry":{"type":"Polygon","coordinates":[[[31.73283433961065,1.07194656960717],[31.732992753613686,1.077989608319685],[31.735403193789505,1.080850302876788],[31.73556411418361,1.082091374305196],[31.74242359392524,1.08624872850476],[31.746444082275826,1.085764913891342],[31.752969497562535,1.087636886461178],[31.746760787166362,1.100453472995606],[31.796719747356548,1.124721454996073],[31.79699708108832,1.122519108152375],[31.79886332618254,1.119689007939163],[31.796924049739477,1.102389834765327],[31.799901644931683,1.106270924218708],[31.802878397742926,1.113543755130076],[31.810143288996816,1.120412369317518],[31.82388083813241,1.136844568565955],[31.827526598235476,1.145430483459158],[31.828530657588804,1.151797639810042],[31.830591318106332,1.157002078053149],[31.832796386326223,1.160046962753533],[31.833841776427604,1.156264294152077],[31.83348135807704,1.153163089901644],[31.836200124982064,1.150154838677408],[31.837288988538646,1.14668941902298],[31.839736803807646,1.142769112104692],[31.8544776886901,1.129877428351528],[31.86112165254704,1.136067754408356],[31.867243772661773,1.144056008874611],[31.87302598242116,1.14869620876151],[31.88023562767297,1.159831836082693],[31.886374653656343,1.164329342612655],[31.897581899040507,1.189670277621234],[31.903327861432416,1.192833784855417],[31.903461614595827,1.192058271668597],[31.907326006285672,1.1935815074755498],[31.907271022836415,1.1933808462277409],[31.90594764881242,1.192274594268228],[31.905706851119863,1.1876724257364044],[31.90466808329628,1.183881458627661],[31.902800729813023,1.181889602857499],[31.902321989189538,1.179139892533136],[31.899699447549633,1.176542886531858],[31.899344563594056,1.173541487782132],[31.9007096128769,1.1694350820455832],[31.9007,1.1694],[31.90237491445243,1.1677910270614464],[31.902333477890917,1.167352492215588],[31.903823036256185,1.164277451651677],[31.905230395231605,1.164043833061187],[31.905921901724167,1.162299402017237],[31.907124465771492,1.162425399598488],[31.91000372732293,1.1604625611543509],[31.9134,1.1572],[31.913746361720577,1.1472709640100984],[31.912715489907104,1.146102372752133],[31.913574177499147,1.145810986732875],[31.913012807983673,1.142436185254991],[31.91397643966573,1.1406753962491067],[31.9139884472079,1.1403311800402651],[31.912749121736454,1.1374982434729057],[31.912647184881532,1.1372943697630604],[31.91127714642097,1.136311276385407],[31.908783084170107,1.1295661683402103],[31.9082,1.1284],[31.908242740134543,1.128104825945816],[31.90806954471483,1.127636424718666],[31.908790307348248,1.122643191061234],[31.908135969262734,1.120381767940176],[31.909210878032116,1.117686318590496],[31.90846912659791,1.110241912089257],[31.911323853191185,1.105945684236524],[31.910135525635305,1.1004163233642725],[31.90794086834475,1.092285122380976],[31.90642317166167,1.0834854291082479],[31.8949,1.0813],[31.8791,1.0561],[31.8763,1.0403],[31.875761449522624,1.0400233473575113],[31.869400179615614,1.039647709283858],[31.865321385546167,1.034930616643674],[31.861154381451527,1.032869065639047],[31.859267907072716,1.0331078598642127],[31.856281180817316,1.033774801323661],[31.85325354502166,1.035866379348455],[31.845930421803978,1.034841510976372],[31.83649252029859,1.045556497961614],[31.830141286986,1.042323841673744],[31.815290776431503,1.04370274148766],[31.80280195515148,1.049496725836144],[31.803430798487483,1.05144760881065],[31.800120893713242,1.052597164637545],[31.797829035352933,1.055663611073604],[31.794597708499673,1.057924726966752],[31.781537755826474,1.054474965463757],[31.770510615009048,1.052874704679425],[31.75056626628359,1.048427060053639],[31.73084160489412,1.049624920606897],[31.726503874098242,1.045699067068997],[31.724438714929267,1.044878345307682],[31.7204369656329,1.051967769079392],[31.720844129829203,1.056566265646057],[31.731763542737124,1.0686006766819],[31.73283433961065,1.07194656960717]]]}},{"type":"Feature","properties":{"n":"Butemba","c":"123103","d":"Kyankwanzi","od":"Kyankwanzi","dc":"123","k":"BUTEMBA","a":["BUTEMBA"],"lat":1.070383,"lon":31.61589},"geometry":{"type":"Polygon","coordinates":[[[31.54848251639244,1.029869040961427],[31.547411023914318,1.031823739002952],[31.556174357199662,1.03894406856632],[31.5586785087205,1.040246490425696],[31.56033494738882,1.039799982629223],[31.579075426144282,1.032525286107267],[31.57604350713229,1.037699927990152],[31.58239324148897,1.040420249852421],[31.588550230678386,1.0458673208208],[31.58471260950776,1.047639114164992],[31.58254947447768,1.049663077755171],[31.582281935180312,1.0551696084993],[31.580163529572676,1.055245734851961],[31.57573027097251,1.057169372877015],[31.559235306583304,1.059399809908512],[31.557699378709664,1.061025672694037],[31.55365421894659,1.072206401527342],[31.553199186129813,1.080110507915415],[31.555026920175344,1.080236052442923],[31.552533080660638,1.091573216682404],[31.549387449594715,1.094294472523088],[31.548431281269064,1.09609425200315],[31.551343994296378,1.107422648252706],[31.557987281931293,1.108118231275149],[31.56578089098088,1.107799931101977],[31.565642948172826,1.110487493860267],[31.566309307153826,1.111344140694657],[31.575255965083652,1.114151860917702],[31.583559363087307,1.113855018701263],[31.58352486160129,1.109660038206096],[31.581392615361153,1.106955519074817],[31.580275076701934,1.096882810216655],[31.590373798391187,1.095110184608934],[31.595486399080233,1.095421776870945],[31.60627548203742,1.088362554109417],[31.619041594395444,1.101876911966987],[31.619610966133212,1.107941444834932],[31.617504240573716,1.112786920489247],[31.618111969768936,1.114876269385641],[31.61938970419031,1.115898993472138],[31.63434266483774,1.11841178688824],[31.64412822848955,1.125682411939838],[31.64580788431302,1.129195114039545],[31.65056692874805,1.133240251112582],[31.65894250276732,1.134429928104358],[31.665225377020175,1.132803632903036],[31.668071405876002,1.134089168953419],[31.670546625851806,1.135850395848312],[31.676253208608117,1.142446943536062],[31.67886905605363,1.137032553872922],[31.6910347584653,1.143099333100714],[31.6929062166398,1.145484094463082],[31.692380676410412,1.146538605838674],[31.696576497937105,1.142980753885696],[31.700789515382688,1.142455474169302],[31.701624253407143,1.137113149032988],[31.700910502125268,1.132353953757466],[31.702100118873638,1.125810887697589],[31.70566933548492,1.116173889640362],[31.708286689671034,1.102373317364204],[31.71067215324266,1.095233646938192],[31.7013462602328,1.090618242752256],[31.706831319706478,1.079498264207961],[31.708599420126177,1.074261283290353],[31.701097972231032,1.074656377295601],[31.691974818352598,1.069202298172756],[31.68670071290435,1.071563153978364],[31.680476133734707,1.076052931874467],[31.677747830782273,1.075348415901921],[31.677377116569915,1.068819698388624],[31.668452740276773,1.063427333020166],[31.674540704696604,1.061342263055021],[31.67642810877768,1.055714297971137],[31.676097777883285,1.053084957433325],[31.671357762652455,1.051482851658812],[31.663440543537767,1.044013170798899],[31.656524635124953,1.032204369272782],[31.655101910223326,1.0309624457721],[31.652023290475537,1.03020573807006],[31.64395765272474,1.031477611971942],[31.641178032053197,1.030680237812995],[31.637132056417197,1.027458786027205],[31.630283830421234,1.027736078542839],[31.625517546716257,1.024179577684],[31.619806605107243,1.025307314111649],[31.615687262453175,1.021488990630837],[31.612829749949785,1.017461289364761],[31.610202989223687,1.015761385337176],[31.604928895407763,1.013506978377999],[31.601752908640307,1.013740533077299],[31.597291007159605,1.011414343523132],[31.586933745005346,1.010071179040217],[31.576628406575825,1.007660809232723],[31.5704619745845,1.003814016260126],[31.56314083897323,0.997335117679359],[31.555978278985506,0.99385888926807],[31.554574493194554,0.994138646051112],[31.55177661209014,0.996941178379538],[31.551090798764175,1.001625872560969],[31.54893464167532,1.007295750310331],[31.54424507179344,1.012301561395436],[31.544790754495843,1.01933856003213],[31.54848251639244,1.029869040961427]]]}},{"type":"Feature","properties":{"n":"Butemba Town Council","c":"123104","d":"Kyankwanzi","od":"Kyankwanzi","dc":"123","k":"BUTEMBATOWNCOUNCIL","a":["BUTEMBA","BUTEMBATOWNCOUNCIL"],"lat":1.178252,"lon":31.602105},"geometry":{"type":"Polygon","coordinates":[[[31.534858494767057,1.152564741897775],[31.532100962008165,1.153636176199951],[31.52753946825508,1.153245872984175],[31.52896684951837,1.154693404834447],[31.52786701155623,1.156319918242277],[31.528226049878914,1.158340089100021],[31.52732330468663,1.158827873339145],[31.527886594001234,1.160225323383806],[31.5244275004322,1.167539078616261],[31.526575775594626,1.171378212906149],[31.533796814370568,1.175574317483735],[31.53395836188855,1.1806962265388],[31.542365379871207,1.186850947197662],[31.560550582750402,1.195696953839291],[31.571856611615377,1.199125981498326],[31.575880889571803,1.202055596081304],[31.581133994059282,1.203554083513235],[31.585219044681253,1.203388674267458],[31.590990326748084,1.206159773438931],[31.593063290431374,1.219139352897445],[31.59578968654454,1.223418749649702],[31.596689690773378,1.229470182783276],[31.5978046954125,1.230800138367774],[31.599688270730056,1.237810225911787],[31.599021910200353,1.243313236507791],[31.60048853701422,1.248781092170776],[31.598658316282116,1.262115784680228],[31.61180335755311,1.263468004760955],[31.615039423208046,1.262540018296083],[31.62131925325644,1.258187239488693],[31.623383580485065,1.25907152173662],[31.630565229462416,1.258771749532236],[31.632877768217295,1.259571222865626],[31.637134620355987,1.258444548655278],[31.6406676687871,1.255077630435362],[31.642888365959084,1.255248757554663],[31.648502850172598,1.260933528638908],[31.658539633568964,1.244809402658065],[31.660345479278714,1.242993452572868],[31.657733653219868,1.239113884226293],[31.658432231765964,1.237971288388076],[31.65587935232645,1.20743365597697],[31.659027236202174,1.204044218863978],[31.667926527001587,1.200903243604322],[31.675690249323196,1.196132304799345],[31.679788231188752,1.188126219941841],[31.668389275672777,1.180869225216073],[31.67214042635604,1.175807008847168],[31.672901790782507,1.171571709726614],[31.66961824883224,1.167193612831605],[31.666010866849888,1.164727210988705],[31.670291515981727,1.156987015698259],[31.673422354024474,1.155751736508935],[31.674981821882486,1.15403053683879],[31.67024803791507,1.150152734939386],[31.673760236344794,1.147612792873888],[31.676253203065478,1.142446954038079],[31.674951910404626,1.1409427025529941],[31.670546625851806,1.135850395848312],[31.67054561828123,1.1358496789179326],[31.66522913843365,1.1328053319134348],[31.665225377020175,1.132803632903036],[31.65894250276732,1.134429928104358],[31.658942308299522,1.1344299004819092],[31.658942285400226,1.134429906409846],[31.650567578236362,1.133240492351089],[31.650567367773558,1.1332403134723135],[31.65056692874805,1.133240251112582],[31.64580788431302,1.129195114039545],[31.64412822848955,1.125682411939838],[31.63434266483774,1.11841178688824],[31.61938970419031,1.115898993472138],[31.6189588650827,1.115554141267025],[31.618720757319327,1.115509914569057],[31.618618982537413,1.115282092506477],[31.618111969768936,1.114876269385641],[31.617504240573716,1.112786920489247],[31.61750427786611,1.1127868347166199],[31.61750425819053,1.112786790672984],[31.61771259632607,1.112307701579643],[31.619610966133212,1.107941444834932],[31.619041594395444,1.101876911966987],[31.60627548203742,1.088362554109417],[31.595486399080233,1.095421776870945],[31.590373798391187,1.095110184608934],[31.580275076701934,1.096882810216655],[31.581392615361153,1.106955519074817],[31.58352486160129,1.109660038206096],[31.583559363087307,1.113855018701263],[31.58320812634956,1.1138675752343452],[31.57630292582594,1.114199433220825],[31.576038512838522,1.1141238852371524],[31.575255965083652,1.114151860917702],[31.566309307153826,1.111344140694657],[31.565642948172826,1.110487493860267],[31.56578089098088,1.107799931101977],[31.557987281931293,1.108118231275149],[31.551343994296378,1.107422648252706],[31.551307228166266,1.107279653976724],[31.54866288982818,1.0974057105735],[31.548622105351168,1.096836422891855],[31.548431281269064,1.09609425200315],[31.548552578485776,1.0958659363020677],[31.548522391935922,1.095444579152459],[31.549387441474376,1.094294466400783],[31.548568048347754,1.09298918264617],[31.54438538629137,1.089879615370092],[31.54322396188889,1.090579149307497],[31.536387752272052,1.09076313092579],[31.536000529902914,1.094602792285005],[31.533709701021333,1.097440800118775],[31.533646728510302,1.100508583310171],[31.52592949929876,1.102665358429514],[31.52253930825099,1.108534700687812],[31.51867870217947,1.113168682494435],[31.526027555165538,1.117564042307917],[31.5276667826866,1.122281248179614],[31.52504921432668,1.12800391991907],[31.523479248990117,1.131057050347437],[31.5180963124335,1.135071954873093],[31.513065185335233,1.137575523855493],[31.51575111334986,1.138222297300745],[31.534858494767057,1.152564741897775]]]}},{"type":"Feature","properties":{"n":"Byerima","c":"123105","d":"Kyankwanzi","od":"Kyankwanzi","dc":"123","k":"BYERIMA","a":["BYERIMA"],"lat":1.085126,"lon":31.507252},"geometry":{"type":"Polygon","coordinates":[[[31.456449713669006,1.12389126124468],[31.45764767586286,1.120887951347721],[31.46389304217342,1.116783866981913],[31.46832290192066,1.116585506532513],[31.469927202224355,1.117687865526593],[31.476503690517312,1.116436236475979],[31.480225159123954,1.119456369181391],[31.486505806142326,1.126522642701715],[31.489770409696785,1.132937283980171],[31.492474056461866,1.134657162772482],[31.500772287774787,1.144832981313578],[31.49934200709951,1.145937118188854],[31.499937117963924,1.149743587640844],[31.5028604113089,1.153227606113269],[31.502956951893793,1.154927107791973],[31.504819665095493,1.153269388742152],[31.510751860831046,1.151262912218016],[31.51616902995362,1.152712775599604],[31.518818402435954,1.15150217562943],[31.526172836189087,1.151533311241325],[31.52708626146225,1.151806613345256],[31.527539466736226,1.153245861237381],[31.52810189657596,1.1532939970404967],[31.532100962008165,1.153636176199951],[31.534858494767057,1.152564741897775],[31.51575112015449,1.138222302408459],[31.515751113349364,1.1382222973006253],[31.513065185335233,1.137575523855493],[31.5180963124335,1.135071954873093],[31.523479248990117,1.131057050347437],[31.52348494297361,1.1310459771894144],[31.527661003221397,1.1222938835639307],[31.5276667826866,1.122281248179614],[31.52766515079885,1.1222765520953955],[31.525732976096986,1.1173878541323927],[31.51867870217947,1.113168682494435],[31.518681743029777,1.1131650324859297],[31.518681662273146,1.11316498741092],[31.521975441854966,1.1092115235938886],[31.522539272642124,1.1085347434300221],[31.522609546770163,1.1084130987182133],[31.52592949929876,1.102665358429514],[31.533646728510302,1.100508583310171],[31.533709701021333,1.097440800118775],[31.536000529902914,1.094602792285005],[31.536387752272052,1.09076313092579],[31.54322396188889,1.090579149307497],[31.54438538629137,1.089879615370092],[31.544386305518945,1.0898802987626164],[31.54763112403274,1.092064157933325],[31.548065206978556,1.0926153491770465],[31.548568048347754,1.09298918264617],[31.549386927748706,1.0942936480417464],[31.549387525407173,1.0942944069384426],[31.55253299032659,1.0915732948295385],[31.55254145441635,1.0915351490187668],[31.554996894389998,1.0803725517075575],[31.553263180273106,1.0801149035847426],[31.553199186129813,1.080110507915415],[31.55365421894659,1.072206401527342],[31.553851105643673,1.0716622112110394],[31.553937683531696,1.070539965869042],[31.55769902545346,1.061026443742882],[31.557699145878185,1.0610263162349038],[31.557699378709664,1.061025672694037],[31.55919874357188,1.0594385138350584],[31.55923401970386,1.059401162799341],[31.55923402982091,1.059401161430611],[31.559235306583304,1.059399809908512],[31.57573027097251,1.057169372877015],[31.580163529572676,1.055245734851961],[31.582281935180312,1.0551696084993],[31.58254947447768,1.049663077755171],[31.58471260950776,1.047639114164992],[31.586405328955642,1.0468576016294928],[31.588196440218635,1.0455543233990214],[31.587426246293198,1.0448729350057329],[31.585966979279736,1.044054884456217],[31.582393072533,1.040420177469139],[31.57604350713229,1.037699927990152],[31.579074245159454,1.0325273017196663],[31.5605187127552,1.0397286484179087],[31.56033494738882,1.039799982629223],[31.56033481729097,1.0398000176982582],[31.560334817287337,1.039800017699667],[31.560334815974006,1.0398000180532565],[31.5586785087205,1.040246490425696],[31.556174357199662,1.03894406856632],[31.547411023914318,1.031823739002952],[31.54848251639244,1.029869040961427],[31.544790754495843,1.01933856003213],[31.544790585115862,1.0193363757468357],[31.54427438767339,1.013458133835516],[31.543073268379445,1.018478126542978],[31.537385702087768,1.021084178114575],[31.53558178835215,1.022887886126487],[31.534534252698535,1.021947634694333],[31.528947185007546,1.025033841799385],[31.525078459486846,1.0297332539303297],[31.525,1.0323],[31.524823058611926,1.0325223109747592],[31.524989063619206,1.033009750266935],[31.523262847559376,1.0344825761433478],[31.522337093151393,1.0356457034764552],[31.522964656045446,1.03808697468759],[31.51895705114037,1.039892422926202],[31.515185603397207,1.0446309085522305],[31.515183262292506,1.044697865934363],[31.51316722326758,1.04720899595941],[31.509860642446895,1.0483556591815155],[31.50585018291221,1.0499364242535827],[31.503802964319906,1.051130610690153],[31.502682099406513,1.052703669973751],[31.50194625668529,1.051997959146877],[31.499804075583103,1.054058443727357],[31.49580301746379,1.05515983911199],[31.49328102242184,1.0548906918921217],[31.4859,1.0578],[31.48052362886456,1.0656296667020957],[31.4803945133934,1.066546534378924],[31.4786225467698,1.0683982328595143],[31.47763224841027,1.0698404149365],[31.47691177423479,1.071696814198573],[31.475981511920054,1.072244400116429],[31.4756,1.0728],[31.474837040884037,1.072918077006042],[31.47462801332137,1.07304111816115],[31.47422946286816,1.0730121069370706],[31.47090524258563,1.073526569599843],[31.470812014793513,1.073626628954058],[31.470572160899557,1.0735781179560206],[31.467321532690267,1.074081191369363],[31.467190323940393,1.074144647357765],[31.46637661621384,1.077560343516591],[31.464767959454743,1.0781336282213994],[31.4508,1.1013],[31.435351517593748,1.1147389237192618],[31.44748088855176,1.122890728474152],[31.456449713669006,1.12389126124468]]]}},{"type":"Feature","properties":{"n":"Kigando","c":"123106","d":"Kyankwanzi","od":"Kyankwanzi","dc":"123","k":"KIGANDO","a":["KIGANDO"],"lat":1.173476,"lon":31.490166},"geometry":{"type":"Polygon","coordinates":[[[31.429482474331916,1.155493736874193],[31.437425897935746,1.160602473810939],[31.441342201367934,1.165039462486921],[31.4498269880151,1.170820321928937],[31.451512144615258,1.18485669905747],[31.44785689536929,1.185312837223601],[31.446906898954282,1.186147029067125],[31.44834765689016,1.187906538504483],[31.450224932030444,1.186963802440927],[31.46158488231689,1.197524881561728],[31.46810641923535,1.192542890601129],[31.469040326068264,1.196059815528538],[31.47908959184515,1.189937668544333],[31.483911180495873,1.193449928519736],[31.485269268740947,1.196465061048201],[31.485371694053008,1.201405408648321],[31.48448841552233,1.204584380762717],[31.482796590468926,1.206950998956853],[31.482645162308575,1.214940745599502],[31.492048403126716,1.224341820555892],[31.497451679606073,1.228656106565895],[31.50032154204675,1.221738543750407],[31.50353712997222,1.216594426147576],[31.507785273586446,1.211255798557189],[31.513741529836402,1.206672170085342],[31.519406088527237,1.198315184491975],[31.52396486434802,1.19491455172996],[31.528747277964943,1.186113188941748],[31.52801467060733,1.181748330154658],[31.52845654719646,1.179972784147414],[31.53161869651864,1.176719116202266],[31.53379684032163,1.1755751402694061],[31.533796814370568,1.175574317483735],[31.526575775594626,1.171378212906149],[31.5265756693963,1.1713780231215085],[31.52446096212396,1.167986934602646],[31.52455671696078,1.1677699985721295],[31.5244275004322,1.167539078616261],[31.527886594001234,1.160225323383806],[31.527546515802392,1.1593816320837234],[31.527323235558825,1.158829192057665],[31.527323728900566,1.158828925760648],[31.52732330468663,1.158827873339145],[31.528224870222513,1.1583407265088985],[31.528035244171246,1.1572664986062782],[31.52786701155623,1.156319918242277],[31.52896684951837,1.154693404834447],[31.52895582234008,1.1546822219835833],[31.527595026333167,1.153550894478064],[31.52708571253813,1.1518064491039965],[31.527080371668884,1.15180485108515],[31.51881824379915,1.1515022481166755],[31.51616902995362,1.152712775599604],[31.516168335664418,1.1527125897784736],[31.510449049950882,1.1513653334713572],[31.504819665095493,1.153269388742152],[31.502956951893793,1.154927107791973],[31.5028604113089,1.153227606113269],[31.499937117963924,1.149743587640844],[31.49934200709951,1.145937118188854],[31.500772121820575,1.1448331094256103],[31.494788528166044,1.1374953150476006],[31.492474056461866,1.134657162772482],[31.489770409696785,1.132937283980171],[31.486505806142326,1.126522642701715],[31.480225159123954,1.119456369181391],[31.476503690517312,1.116436236475979],[31.47013592887294,1.11764814093113],[31.46992853127184,1.117687706678047],[31.469928424002898,1.117687632999224],[31.469927202224355,1.117687865526593],[31.46832290192066,1.116585506532513],[31.46389304217342,1.116783866981913],[31.45764767586286,1.120887951347721],[31.456449713669006,1.12389126124468],[31.44748088855176,1.122890728474152],[31.447480516537894,1.122890478454228],[31.44748045827104,1.122890471952938],[31.435351508602245,1.1147389315411367],[31.43449660297318,1.1154826299339025],[31.43195340339259,1.118906849813364],[31.429755972161576,1.1196065933228576],[31.4262,1.1227],[31.426156646257684,1.122927429467885],[31.426262912433987,1.128760211157859],[31.424654324796663,1.1308084600830897],[31.422830575167303,1.1403756712534947],[31.42297938536892,1.145716545290167],[31.421647653457978,1.151260422939718],[31.427171171435397,1.151755988322197],[31.429482474331916,1.155493736874193]]]}},{"type":"Feature","properties":{"n":"Kyankwanzi","c":"123107","d":"Kyankwanzi","od":"Kyankwanzi","dc":"123","k":"KYANKWANZI","a":["KYANKWANZI"],"lat":1.20973,"lon":31.697524},"geometry":{"type":"Polygon","coordinates":[[[31.633052155475266,1.287072764977795],[31.64060711937096,1.297106362409613],[31.64532034889635,1.300838833906039],[31.644577408113765,1.305088807159304],[31.64685410707808,1.309545724689905],[31.643963920573636,1.311904507939169],[31.64106781885674,1.312049856973823],[31.637066401961278,1.314751327261124],[31.640407118866108,1.340138676955923],[31.640446515281642,1.345215266715194],[31.649727698372402,1.347378478227337],[31.649761604771484,1.3473737152974994],[31.65176276112361,1.3465198885872591],[31.651906142896884,1.346276368046444],[31.65221861979971,1.3463253888854567],[31.679644764141138,1.3346235672997817],[31.679658942145117,1.334614633456088],[31.679663293759845,1.3346156613291333],[31.6797,1.3346],[31.695182607228382,1.3341529955918314],[31.69537848504313,1.334080540343526],[31.69559121923846,1.3341411983946903],[31.703707682569842,1.3339068648076948],[31.70432381990837,1.333578881123185],[31.705619968208072,1.3338516544611843],[31.70795593761934,1.3337842117747698],[31.708953984524676,1.33320108980857],[31.711025578209497,1.333695586980828],[31.711563607034236,1.3336800533402189],[31.713534477322895,1.332841783067422],[31.713550604263823,1.329760669727167],[31.715054449544038,1.323935004043443],[31.714627882224402,1.319080485417464],[31.716987393339764,1.318000981150869],[31.718704449314487,1.314872492161919],[31.718706432682676,1.31260627797476],[31.722030780108167,1.309694540019985],[31.723319935782264,1.304623441487621],[31.72342965472011,1.299659644084865],[31.722680454299734,1.297072088961086],[31.72332395627218,1.296638108924114],[31.721929863865984,1.295664569847101],[31.720645800571113,1.29221245130025],[31.715718169562813,1.284764562410923],[31.716684457954194,1.28098795856895],[31.716471475032776,1.278613505449743],[31.719155727964957,1.270306273268294],[31.72334006612601,1.264157233611039],[31.72623879503195,1.257361798855316],[31.727524879297718,1.257037237837873],[31.728491505070846,1.254124381136618],[31.73224507911224,1.251104591097814],[31.73482139977417,1.245062448002824],[31.73921930037329,1.24010099959768],[31.73742871760981,1.236927017358199],[31.738000215930196,1.234937987868044],[31.737096061738704,1.234122384765654],[31.738478740322908,1.229882438393063],[31.739306552613012,1.218831435402856],[31.73999618273936,1.217441855875687],[31.739211542996067,1.216531419778477],[31.73838010495266,1.211763297025376],[31.739572203280307,1.207695765603937],[31.73845345438336,1.206891558433947],[31.737248029673427,1.20188462406036],[31.742079666787053,1.197680091269303],[31.75749456363189,1.191954261620417],[31.772296021383816,1.178148226300729],[31.772191804229706,1.17134972785236],[31.774989011605097,1.148475348314972],[31.776406387084293,1.14744319877474],[31.781836764774177,1.139486773985933],[31.783607545402145,1.140884423798796],[31.79037872859319,1.143091998253033],[31.797277204062055,1.148280167236174],[31.800621434867644,1.149305984241375],[31.803590823354735,1.152547025813929],[31.810238833410033,1.139005654056167],[31.815964953292358,1.130594369800704],[31.81765297365175,1.1293950949350808],[31.81286751207283,1.1236709546692718],[31.809227024730774,1.1195460843977239],[31.802878397742926,1.113543755130076],[31.802878337156987,1.113543607105925],[31.802878283489775,1.113543559664024],[31.80093425555271,1.1087938083546227],[31.799901644931683,1.106270924218708],[31.796924049739477,1.102389834765327],[31.79886332618254,1.119689007939163],[31.796997104806884,1.1225190721839444],[31.7969955623079,1.1225311690050173],[31.796719747356548,1.124721454996073],[31.746760787166362,1.100453472995606],[31.752969497562535,1.087636886461178],[31.752949717921542,1.0876312121946747],[31.748963677041477,1.087007043240212],[31.746444533502025,1.0857650433364479],[31.746444082275826,1.085764913891342],[31.74242359392524,1.08624872850476],[31.742420950537007,1.0862471264151583],[31.736848949979983,1.083277859285516],[31.736332212122637,1.0825568987054082],[31.73556411418361,1.082091374305196],[31.735468162549907,1.0813513634957428],[31.73343403794269,1.0785133216608345],[31.732992753613686,1.077989608319685],[31.73299025106834,1.0778941434105322],[31.732980075683304,1.077879946557343],[31.72075129535255,1.080178391552126],[31.71532575097445,1.076823448329143],[31.7123991394317,1.07603826654577],[31.7079176682643,1.07671355588957],[31.70740598335239,1.0777961535618865],[31.706831319706478,1.079498264207961],[31.7013462602328,1.090618242752256],[31.71067215324266,1.095233646938192],[31.708286696743016,1.102373296197823],[31.708017772789177,1.103791240427138],[31.70566933548492,1.116173889640362],[31.702100120640328,1.1258108829274691],[31.702054876393085,1.126059727955918],[31.700910502125268,1.132353953757466],[31.701624253407143,1.137113149032988],[31.700789515382688,1.142455474169302],[31.696576497937105,1.142980753885696],[31.696321614019794,1.1431968830125478],[31.69238780173653,1.146537342447746],[31.692391851684445,1.1465291297515026],[31.692380676410412,1.146538605838674],[31.6929062166398,1.145484094463082],[31.6910347584653,1.143099333100714],[31.67886905605363,1.137032553872922],[31.676253208608117,1.142446943536062],[31.67625320573661,1.1424469402167345],[31.67625320049855,1.1424469510707937],[31.676253203065478,1.142446954038079],[31.673760236344794,1.147612792873888],[31.67024803791507,1.150152734939386],[31.674981821882486,1.15403053683879],[31.673496177854695,1.1556702564376564],[31.673423182724143,1.155750986556947],[31.673422950437775,1.1557510782418394],[31.673422354024474,1.155751736508935],[31.67067740321667,1.156834763022061],[31.67029147392525,1.156987091744051],[31.666010866849888,1.164727210988705],[31.66961824883224,1.167193612831605],[31.669618307987356,1.1671936917058303],[31.66961835781286,1.167193725704408],[31.66978358078337,1.1674140574955865],[31.672901790782507,1.171571709726614],[31.672901702016716,1.1715722035107508],[31.672901703083227,1.171572204932987],[31.672140602859926,1.17580658523802],[31.672140470382576,1.175806763937443],[31.67214042635604,1.175807008847168],[31.668389275672777,1.180869225216073],[31.679788231188752,1.188126219941841],[31.679781581680192,1.1881392108557896],[31.67919265842716,1.190257765695572],[31.675693440613852,1.1961260700856162],[31.675690249323196,1.196132304799345],[31.675688550097014,1.1961333490026025],[31.672780748969355,1.19833330038241],[31.667926650406997,1.200903184274828],[31.6679265873067,1.200903206545809],[31.667926527001587,1.200903243604322],[31.659027236202174,1.204044218863978],[31.65791981757512,1.2052366153888625],[31.655879356994888,1.2074337118209748],[31.658432231765964,1.237971288388076],[31.657733653219868,1.239113884226293],[31.660345479278714,1.242993452572868],[31.658539633568964,1.244809402658065],[31.648502850172598,1.260933528638908],[31.648498745373324,1.2609293724522785],[31.6481861266001,1.261431260980677],[31.632862077480233,1.266375738443697],[31.631714186036092,1.273693085195607],[31.633052155475266,1.287072764977795]]]}},{"type":"Feature","properties":{"n":"Kyankwanzi Town Council","c":"123108","d":"Kyankwanzi","od":"Kyankwanzi","dc":"123","k":"KYANKWANZITOWNCOUNCIL","a":["KYANKWANZI","KYANKWANZITOWNCOUNCIL","TOWNCOUNCIL"],"lat":1.242493,"lon":31.81245},"geometry":{"type":"Polygon","coordinates":[[[31.717083004984985,1.332292362359809],[31.717805203912395,1.333459092442668],[31.720407284332953,1.331760071832786],[31.721133542824166,1.331841280623724],[31.72291052657165,1.3309570809812556],[31.723431243994554,1.329572819944567],[31.725025771828047,1.329428780166172],[31.725508187026676,1.327212221468902],[31.72949753544846,1.327423096729371],[31.73215101130274,1.325443387261769],[31.738481218664248,1.323176406502911],[31.738580748509857,1.3232059215573897],[31.747238013958267,1.323840787690273],[31.747912888720993,1.323301612220949],[31.750535399701874,1.32367352796888],[31.754273150874887,1.32296032841282],[31.756612249668475,1.323721293803704],[31.759085667525675,1.326236151317801],[31.76141516611287,1.327108381453119],[31.762702897562043,1.329233593961035],[31.768148948285564,1.33370549234631],[31.769687269024995,1.334640618694323],[31.77332680316844,1.334959888252033],[31.773294416699382,1.336161575191858],[31.77473679966928,1.337645313570502],[31.774347912136673,1.339807963744063],[31.774860129757574,1.340533698615755],[31.782324725344356,1.34620679126171],[31.78820439388293,1.346742984887505],[31.78978213971433,1.349978286985263],[31.794246565989937,1.353717464601231],[31.80351075784886,1.355272203099093],[31.807511326327084,1.35425148803255],[31.81335742588482,1.356179425024794],[31.819637157851187,1.355899332111222],[31.821568784402004,1.358304233571093],[31.821276277760596,1.356569231518618],[31.82247143691052,1.3551171086668798],[31.8235,1.3509],[31.83721649506954,1.3346524850069112],[31.837353829512743,1.33354838183656],[31.838333559616814,1.3333292954538916],[31.8403,1.331],[31.842516863351793,1.3250956807759116],[31.84229817424353,1.324760835210194],[31.842995930588973,1.319519321680934],[31.845137782932902,1.3181152117925607],[31.850329296386718,1.3042883096234863],[31.84985025290913,1.30211175816875],[31.851808662123396,1.3003482167208515],[31.8605,1.2772],[31.86257894372406,1.2765157906730935],[31.863727946153602,1.275131063479682],[31.86534574125906,1.274804010818207],[31.869408297166522,1.271026979194292],[31.87100619685272,1.2708410622316568],[31.879266776598783,1.2589267645209883],[31.879122633983798,1.258137296969599],[31.88041080401952,1.2572767249718488],[31.883822810704615,1.2523555614837303],[31.883973698149955,1.252085159821086],[31.88416659322829,1.2516789401922317],[31.8931,1.2291],[31.904843256414864,1.2126051369432833],[31.906539473290046,1.207518550765819],[31.90951042903347,1.2060495129761077],[31.910346512565997,1.20487512974834],[31.910370153307856,1.204814700640659],[31.908595030734134,1.199856934517556],[31.90815334338835,1.196600861437892],[31.907334196199468,1.1936113964393],[31.903646947098927,1.1921313245906533],[31.903461614595827,1.192058271668597],[31.903327861432416,1.192833784855417],[31.897581899040507,1.189670277621234],[31.886374653656343,1.164329342612655],[31.88023562767297,1.159831836082693],[31.87302598242116,1.14869620876151],[31.867243772661773,1.144056008874611],[31.86112165254704,1.136067754408356],[31.8544776886901,1.129877428351528],[31.839736803807646,1.142769112104692],[31.837288988538646,1.14668941902298],[31.836200124982064,1.150154838677408],[31.83348135807704,1.153163089901644],[31.833792225066468,1.1558379315888643],[31.833841824630298,1.156263618812058],[31.833841735335582,1.15626394057752],[31.833841776427604,1.156264294152077],[31.832796386326223,1.160046962753533],[31.83279313584297,1.1600424742997808],[31.832792510386867,1.160044728074453],[31.83059140341708,1.157002228768884],[31.83059137466551,1.1570021561533053],[31.830591318106332,1.157002078053149],[31.828530657588804,1.151797639810042],[31.827526598235476,1.145430483459158],[31.82388084050039,1.1368445741426447],[31.823880787212833,1.1368445076583902],[31.817652969415164,1.1293950898674763],[31.81765296941516,1.1293950898674767],[31.81765297365175,1.1293950949350808],[31.815964953292358,1.130594369800704],[31.810238858181084,1.139005617669164],[31.81021077431967,1.1390628077864704],[31.803590823354735,1.152547025813929],[31.800621725687506,1.1493063016667548],[31.797277456859575,1.148280255557583],[31.79727743265685,1.1482802373558638],[31.797277204062055,1.148280167236174],[31.79270668029031,1.144842791865876],[31.790378606890755,1.1430919585750061],[31.783607545402145,1.140884423798796],[31.781836764774177,1.139486773985933],[31.77659292917791,1.1471698829535286],[31.776406876709697,1.147442486895155],[31.776406869249318,1.1474424923211624],[31.776406387084293,1.14744319877474],[31.774989011605097,1.148475348314972],[31.772191804229706,1.17134972785236],[31.772296021383816,1.178148226300729],[31.772294997925368,1.1781491809299107],[31.77229500015598,1.178149327889425],[31.757495117053313,1.191953748928188],[31.75749511079985,1.1919537512504026],[31.75749456363189,1.191954261620417],[31.742079666787053,1.197680091269303],[31.737248029673427,1.20188462406036],[31.737732491723442,1.2038969187071542],[31.738453499803626,1.2068915910840816],[31.739572203280307,1.207695765603937],[31.73838015524652,1.2117631254188443],[31.73851101645027,1.2125140470004916],[31.739211542996067,1.216531419778477],[31.73964228789145,1.217031223293144],[31.739996053374743,1.217441577829854],[31.739996013037764,1.2174416589669008],[31.73999618273936,1.217441855875687],[31.739306552613012,1.218831435402856],[31.738501534596168,1.2295781428601884],[31.73847880937171,1.229882036441689],[31.738478758818783,1.2298821914796547],[31.738478740322908,1.229882438393063],[31.737966814377163,1.231452245419433],[31.737096143247264,1.2341224582914236],[31.738000215930196,1.234937987868044],[31.73799966396052,1.234939908930493],[31.738000197722524,1.234940391509735],[31.73776104221822,1.2357704025041323],[31.73742871760981,1.236927017358199],[31.73921930037329,1.24010099959768],[31.734978968471808,1.244884688422774],[31.73482133439696,1.2450626013294157],[31.73224507911224,1.251104591097814],[31.732244788262562,1.2511048250894559],[31.732244674553694,1.251105091754457],[31.7312112809869,1.2519362926299022],[31.728491505070846,1.254124381136618],[31.727524879297718,1.257037237837873],[31.72623879503195,1.257361798855316],[31.72334006612601,1.264157233611039],[31.719155727964957,1.270306273268294],[31.716471475032776,1.278613505449743],[31.716684457954194,1.28098795856895],[31.71668435122158,1.2809883757185279],[31.71668437187572,1.280988605859251],[31.716571961160746,1.2814276366465693],[31.715718169562813,1.284764562410923],[31.720645800571113,1.29221245130025],[31.720646326713563,1.2922138657991413],[31.720646365842324,1.292213924942394],[31.721930112636482,1.2956647435714532],[31.722575667489092,1.2961155550618386],[31.723321667602534,1.29663525593708],[31.723321054915218,1.2966360828142487],[31.72332395627218,1.296638108924114],[31.72331515611372,1.2966440437825233],[31.722769671799675,1.297380224398318],[31.72342965472011,1.299659644084865],[31.723319935782264,1.304623441487621],[31.722030780108167,1.309694540019985],[31.718706432682676,1.31260627797476],[31.718704449314487,1.314872492161919],[31.716987393339764,1.318000981150869],[31.714628228207143,1.319080327126264],[31.71491455952716,1.3223429957922983],[31.715054449544038,1.323935004043443],[31.713550604263823,1.329760669727167],[31.71355059602865,1.3297622430883316],[31.714029757402447,1.332240703788753],[31.717083004984985,1.332292362359809]]]}},{"type":"Feature","properties":{"n":"Nsambya","c":"123109","d":"Kyankwanzi","od":"Kyankwanzi","dc":"123","k":"NSAMBYA","a":["NSAMBYA"],"lat":1.268481,"lon":31.538181},"geometry":{"type":"Polygon","coordinates":[[[31.456208107413403,1.281829342040843],[31.456411977991927,1.2829509062685598],[31.457,1.2834],[31.45685232838968,1.2853734297015704],[31.457276834597167,1.287708788634705],[31.45643948568862,1.29089050943389],[31.455928195686546,1.297723203097968],[31.45668224972422,1.2990263483576303],[31.46302268474641,1.3065347582523283],[31.46727188068704,1.3090064396950793],[31.47084439632152,1.3108121133581603],[31.481402100050627,1.314186335693956],[31.499755043013398,1.3254245597839465],[31.5003,1.3257],[31.500468722386955,1.3259464075147656],[31.50254329966713,1.328029401483742],[31.50639865414966,1.32928194500468],[31.509229160993115,1.332387144583749],[31.50864933222753,1.334933400161576],[31.509458220671586,1.336111821735904],[31.509299937935246,1.3388437942507585],[31.509638226389818,1.3393378414182238],[31.51248200547643,1.342387583028144],[31.51322646917267,1.343913855617243],[31.513031538504222,1.3442935418442956],[31.5142,1.346],[31.519902231409386,1.3513266353285285],[31.520153045704653,1.351273141939988],[31.520676013315573,1.3520494495642499],[31.52523196018053,1.356305304120737],[31.5268881274452,1.357302364552891],[31.52798787740441,1.358879693862804],[31.53032224411768,1.3610602998943624],[31.53198663265451,1.361613642143996],[31.534070509731812,1.360619191458033],[31.537659268089854,1.362075256662261],[31.545102880333612,1.3624422251856],[31.546954594511813,1.3634049544125708],[31.55998538473071,1.364869954496352],[31.560933002154844,1.364677504449942],[31.564683986938242,1.365373128865294],[31.56536312385247,1.3650992389084418],[31.583,1.3571],[31.590585612157565,1.3534379803377279],[31.592570282132648,1.351723655472176],[31.59717801859544,1.350215666923977],[31.60097437708445,1.347125167148251],[31.602401386058194,1.347116357752563],[31.604357228266647,1.345733830187256],[31.606185604453607,1.345879475232258],[31.607620391996154,1.3434114816852],[31.610401801676876,1.341648950745273],[31.613873131112726,1.341533347557167],[31.61635570129698,1.3432868370931752],[31.6233,1.3415],[31.623628620615655,1.3415734417284981],[31.623654410696673,1.341548036719444],[31.62453074423162,1.3417750526881271],[31.640198629684832,1.3452765876947166],[31.64044650633821,1.345215270924612],[31.64043384422196,1.3435824843683293],[31.640407118866108,1.340138676955923],[31.637066401961278,1.314751327261124],[31.640962349704797,1.3121210621962842],[31.641067468776694,1.312050021850039],[31.64106758314488,1.3120500161095994],[31.64106781885674,1.312049856973823],[31.643963911687983,1.3119045083851204],[31.643972403159218,1.3118975850015822],[31.64685410707808,1.309545724689905],[31.644577408113765,1.305088807159304],[31.645320318282778,1.3008390090301787],[31.642185751700758,1.2983565031342632],[31.64060711937096,1.297106362409613],[31.640606932083053,1.2971061136762685],[31.640606825233696,1.297106029053992],[31.638559614856447,1.2943871123480541],[31.633052155475266,1.287072764977795],[31.631714186036092,1.273693085195607],[31.632862077480233,1.266375738443697],[31.632871777922528,1.2663726084864688],[31.64849429775853,1.2609365128003205],[31.648498739213302,1.260929382341783],[31.648384322721462,1.2608135173607053],[31.642888365959084,1.255248757554663],[31.640667974439157,1.2550776539889363],[31.639609083518113,1.2560864391451694],[31.637134620355987,1.258444548655278],[31.632877768217295,1.259571222865626],[31.630710659305194,1.2588220264328656],[31.630565121389868,1.2587717540433372],[31.623383580485065,1.25907152173662],[31.623383414467412,1.259071450620732],[31.623383161592074,1.259071461173916],[31.62322994090006,1.2590057081603059],[31.62131940490726,1.2581873044503546],[31.61611091672391,1.2617973271353093],[31.615039423208046,1.262540018296083],[31.61180335755311,1.263468004760955],[31.598658316282116,1.262115784680228],[31.60048853701422,1.248781092170776],[31.599021910200353,1.243313236507791],[31.59968824975609,1.2378103991212712],[31.599212853434707,1.2360408690778637],[31.5978046954125,1.230800138367774],[31.596689690773378,1.229470182783276],[31.59578968654454,1.223418749649702],[31.593063290431374,1.219139352897445],[31.592903667525,1.218139895833439],[31.590990132975033,1.206159680398193],[31.585219044681253,1.203388674267458],[31.581133994059282,1.203554083513235],[31.575880889571803,1.202055596081304],[31.575880860899925,1.2020555752086022],[31.575880769884627,1.202055549247248],[31.575273904433462,1.2016137199156454],[31.571856611615377,1.199125981498326],[31.571854955233054,1.1991254791308834],[31.56176694966643,1.196185722838561],[31.560922773631496,1.1958098363412695],[31.560550582750402,1.195696953839291],[31.55926703564516,1.1950725854287074],[31.54970777043552,1.190816128756592],[31.542366381679106,1.1868514345169063],[31.542365379871207,1.186850947197662],[31.54236510023027,1.186850742474436],[31.54236494927353,1.186850660950716],[31.538635370715777,1.1841202328761247],[31.53395836188855,1.1806962265388],[31.533796840728375,1.175575153165343],[31.533576777159297,1.175690718938306],[31.53161869651864,1.176719116202266],[31.52845654719646,1.179972784147414],[31.52801467060733,1.181748330154658],[31.528747277964943,1.186113188941748],[31.52396486434802,1.19491455172996],[31.519406088527237,1.198315184491975],[31.513741529836402,1.206672170085342],[31.507785273586446,1.211255798557189],[31.50353712997222,1.216594426147576],[31.503186918749357,1.217154674462347],[31.500321367044027,1.2217389655797946],[31.500305384247252,1.2217774907714898],[31.497105426595585,1.229529728413503],[31.491820976582034,1.236382066463455],[31.4821412918823,1.243785326643352],[31.474370319082546,1.246159381220842],[31.45701186311116,1.257458177849893],[31.45255633198186,1.261364224241567],[31.447115561603646,1.263062846879654],[31.442553682236017,1.270585704197767],[31.44932743345534,1.274201080062881],[31.456208107413403,1.281829342040843]]]}},{"type":"Feature","properties":{"n":"Ntunda Town Council","c":"123110","d":"Kyankwanzi","od":"Kyankwanzi","dc":"123","k":"NTUNDATOWNCOUNCIL","a":["NTUNDA","NTUNDATOWNCOUNCIL"],"lat":1.207998,"lon":31.43791},"geometry":{"type":"MultiPolygon","coordinates":[[[[31.375423125429045,1.1633572826028267],[31.37534514751667,1.165233068555659],[31.37618533063904,1.16585450274189],[31.376185413900615,1.1658552680956884],[31.37618543081913,1.165855280536215],[31.376186950830167,1.1658693957997135],[31.376387524447328,1.167713100798496],[31.379564448364622,1.1698378010987265],[31.381243717151534,1.1701281562525778],[31.38146619897561,1.170166610710184],[31.38230039489277,1.1712625643426637],[31.382378777470315,1.1713654844165615],[31.38521755943425,1.172194791569721],[31.38451982830807,1.1767088250681792],[31.384982591863473,1.1770019687357773],[31.385712718590554,1.1774640558930667],[31.3858409217798,1.1774443012068714],[31.387314111323008,1.177214293061819],[31.38731399447894,1.1772173170804583],[31.387314031297784,1.177217311407084],[31.387193586696785,1.180333853230682],[31.387193575125234,1.1803338670700072],[31.38719356729936,1.180334069609972],[31.385579289646515,1.1822647454142883],[31.385507572751568,1.1826156391542693],[31.384358936534024,1.188238946890794],[31.386953818915465,1.191500713388105],[31.389636791980596,1.193272959249354],[31.393463228768496,1.203267877061313],[31.39264235954757,1.212533065726544],[31.39751410899576,1.215511108930287],[31.397514115931436,1.215511121506699],[31.39751412819263,1.215511128999643],[31.397633236333803,1.2157271217040042],[31.400100385957266,1.22020078696088],[31.405757956386502,1.223533133251145],[31.4167800234565,1.228126350501473],[31.42174606230733,1.231269992758972],[31.42492025881727,1.227608974087597],[31.43062347241771,1.231918025913929],[31.430759065055227,1.23212957607024],[31.432606382758873,1.235011414849889],[31.43260639792983,1.2350117647018892],[31.432606750113283,1.235012314174675],[31.43275429490477,1.238407983981792],[31.428433249084275,1.24122891575747],[31.42984871439804,1.243262817459076],[31.44214064884995,1.24191978837071],[31.441762871403583,1.247136186524458],[31.442435560225427,1.249574572858795],[31.442435482177192,1.249575032798054],[31.44243548858721,1.249575056037391],[31.44239896226881,1.2497902450880223],[31.44182934611601,1.2531470004054484],[31.441829350831348,1.253147035820698],[31.442341577759656,1.256993590063773],[31.444691239912544,1.26091596595114],[31.44522806571995,1.2657466186860673],[31.445245257167553,1.265901248734888],[31.44711042093685,1.2630713241978175],[31.447115561603646,1.263062846879654],[31.452556130867837,1.261364287029887],[31.456891321702894,1.257563853316888],[31.45701186311116,1.257458177849893],[31.457012549102483,1.2574577313311208],[31.4702478988536,1.248505302145997],[31.474368960168608,1.2461602657518311],[31.474370319082546,1.246159381220842],[31.48163967692798,1.2439385714569844],[31.482840361388654,1.2432506611454643],[31.491820976582034,1.236382066463455],[31.492928765646116,1.234945598120358],[31.497105493637164,1.2295295659981471],[31.497107931772536,1.2295236593559773],[31.49745167516073,1.228656117692906],[31.492048531930745,1.224341926748712],[31.4920485153091,1.2243419101287452],[31.492048403126716,1.224341820555892],[31.482645162308575,1.214940745599502],[31.482756935770293,1.2090432847941432],[31.482796415040365,1.20695196701797],[31.48279657640055,1.2069517412412503],[31.482796590468926,1.206950998956853],[31.48448841552233,1.204584380762717],[31.485371694053008,1.201405408648321],[31.485269270877946,1.1964651641235204],[31.484345464551613,1.1944140956037286],[31.483911180495873,1.193449928519736],[31.47908959184515,1.189937668544333],[31.469040326068264,1.196059815528538],[31.46810641923535,1.192542890601129],[31.46158488231689,1.197524881561728],[31.45399898466488,1.1904724505840352],[31.450224724958996,1.1869639064287323],[31.44834765689016,1.187906538504483],[31.446906898954282,1.186147029067125],[31.446926482815986,1.1861298324783374],[31.447308084695408,1.185710174889646],[31.447441449475875,1.1856776402588944],[31.44785689536929,1.185312837223601],[31.450067780012503,1.1850369411632173],[31.451492069223317,1.1846894826858392],[31.44983667022397,1.1709009691133585],[31.441360590482475,1.165051991368418],[31.441342201367934,1.165039462486921],[31.441341838631054,1.1650390515229945],[31.44134109223225,1.165038536465312],[31.438797664448714,1.1621566211311163],[31.437425897935746,1.160602473810939],[31.429482474331916,1.155493736874193],[31.427171171435397,1.151755988322197],[31.421721170114036,1.1512670187922032],[31.421647649925553,1.151260433942871],[31.42011457504701,1.1546235407370178],[31.4201,1.1547],[31.420021640591276,1.1547574028226706],[31.417487971604647,1.157551869316191],[31.41605323719402,1.158627228468903],[31.411531113777006,1.1609772073494036],[31.4115,1.161],[31.4114301479776,1.1610050408675958],[31.40686041680029,1.162067717276365],[31.397679135985317,1.162997405004815],[31.392093008160245,1.162443455174437],[31.38540257932158,1.1579601368536312],[31.38323069126914,1.1565203458975206],[31.38294482683393,1.1566249649409168],[31.374091495102796,1.160960671918835],[31.374091495102796,1.1609606719188363],[31.374091510460605,1.1609606643977177],[31.375428709923227,1.163222945642195],[31.375428703148824,1.1632231086028588],[31.375428837526723,1.163223335958274],[31.375423125429045,1.1633572826028267]]],[[[31.419741107752575,1.155038947169301],[31.419741112062695,1.15503895138653],[31.41974110775258,1.155038947169298],[31.419741107752575,1.155038947169301]]]]}},{"type":"Feature","properties":{"n":"Gayaza","c":"123201","d":"Kyankwanzi","od":"Kyankwanzi","dc":"123","k":"GAYAZA","a":["GAYAZA"],"lat":0.95751,"lon":31.498911},"geometry":{"type":"Polygon","coordinates":[[[31.432245451498613,0.9467804064555593],[31.432811913020846,0.9492205483974951],[31.433115927334875,0.9496735895849792],[31.434556983852083,0.9501647119854635],[31.443304869337013,0.95220519348319],[31.444460578652595,0.9535399281506601],[31.45067091679117,0.9556564559467665],[31.455010008877714,0.956831670082205],[31.45716856005753,0.958189120913704],[31.45771895114019,0.9590179586210549],[31.470134563193596,0.9679784615097503],[31.475859264789875,0.968614967226987],[31.48173367980412,0.972671470341497],[31.48784792799532,0.974774650984432],[31.487449717949108,0.976555059606669],[31.488593927047425,0.977134798828245],[31.489493359124015,0.979918401082222],[31.491149329577883,0.9819520350321587],[31.49740952393241,0.9841715584851283],[31.499568006409184,0.983643565057522],[31.504107521774817,0.986373309045621],[31.509221957898525,0.987796233049914],[31.50940903971057,0.9884259322610202],[31.5099,0.9886],[31.515197143394968,0.9955734545959076],[31.51728706486539,0.996067106173759],[31.51944231674893,1.0011620372390957],[31.5257,1.0094],[31.525688068284875,1.0097903375376356],[31.526619725762643,1.011056919089772],[31.528554105563217,1.018691688661704],[31.527672282916928,1.0265824888456452],[31.528947185007546,1.025033841799385],[31.529110591009204,1.0249435789296264],[31.52935794671315,1.024648370262454],[31.53452714560338,1.0219515605403706],[31.534534252698535,1.021947634694333],[31.534534406311316,1.021947772574737],[31.53453453213156,1.021947706933376],[31.534905714812503,1.0222810532118258],[31.535581763041346,1.0228878634079082],[31.53738439849104,1.021085415502264],[31.53738452270646,1.0210853573613807],[31.537385702087768,1.021084178114575],[31.537449292720247,1.0210550407895373],[31.54308821477543,1.0184156591434232],[31.543533410201466,1.0165549965070342],[31.544245243606966,1.0123037770631378],[31.54424507179344,1.012301561395436],[31.54775385565545,1.0085561626501154],[31.548102252095592,1.006942768516878],[31.5482164476079,1.00401232372817],[31.544044071847097,1.003366716949484],[31.542902699891883,1.002439919673453],[31.542865412191087,0.999904504258324],[31.5411523692692,0.997728763718005],[31.54275876847016,0.994062894157736],[31.544054375560687,0.993310040929591],[31.54810243822653,0.981591072362337],[31.54590815421838,0.974346430226078],[31.54338297006792,0.972668761632847],[31.542780331224943,0.970070745415415],[31.540829414921856,0.969571768907461],[31.54030948821055,0.968147366616513],[31.542133617012063,0.958916238476242],[31.5403016423552,0.952483457193948],[31.54257816435481,0.949594253850834],[31.545990992363727,0.947314294730135],[31.543711754031754,0.943903683070387],[31.547829904993378,0.940194855553918],[31.55090621354225,0.941489445119832],[31.556989033088914,0.938274283213779],[31.56032729293866,0.938255628065654],[31.562133003345163,0.936248526975808],[31.564132754365335,0.935574637366429],[31.572366996839122,0.935136953968237],[31.57628826099782,0.933171807616414],[31.5734433886405,0.928468157402624],[31.554693279786846,0.913926398798693],[31.55279564502005,0.910495926050698],[31.551458052244758,0.902126838082986],[31.549661577688546,0.90062793996358],[31.54406485380594,0.898286436734709],[31.532362809011982,0.898610378827891],[31.530784021586797,0.889687466122093],[31.528116579455318,0.893143786707382],[31.525544391733682,0.893527693976472],[31.52417378391714,0.895154652375493],[31.519935299352706,0.89558586575856],[31.51589488771619,0.897227729502244],[31.514445886034668,0.897968893987448],[31.51296098333374,0.901041818672265],[31.508440944657497,0.902477390718303],[31.503712936495734,0.911584299120058],[31.500172275764704,0.912747273254253],[31.497594196780977,0.91085631137856],[31.49708171573961,0.915306475505485],[31.495544379784743,0.916692240497975],[31.495682967215682,0.9174732022852],[31.491842181571695,0.916752161318897],[31.489638169057176,0.91448613598621],[31.482227145318543,0.914415612065401],[31.476330142931477,0.9128723074019],[31.475939930575294,0.911908804572585],[31.4766214045652,0.910577407463085],[31.475644908266098,0.907292548025878],[31.477059013609185,0.90353866085337],[31.47024691510572,0.904783686230705],[31.46818239987475,0.909356862349555],[31.460369613899857,0.912261861780049],[31.453839686319156,0.912393798709472],[31.444843818064964,0.911048308046429],[31.440242220914527,0.9113069816116642],[31.4357,0.9161],[31.435345306793703,0.9175647515741564],[31.435683176063808,0.919145858637543],[31.434264996673896,0.9220260322541031],[31.434200289549707,0.9222932487113942],[31.4350578960813,0.929396175072032],[31.43205480939339,0.933977911319858],[31.43153190793273,0.937059723715175],[31.430306199162136,0.93842670408305],[31.43137994919974,0.9430520888604206],[31.432524511328275,0.944860050804793],[31.432245451498613,0.9467804064555593]]]}},{"type":"Feature","properties":{"n":"Kiryannongo","c":"123202","d":"Kyankwanzi","od":"Kyankwanzi","dc":"123","k":"KIRYANNONGO","a":["KIRYANNONGO"],"lat":0.986876,"lon":31.580889},"geometry":{"type":"Polygon","coordinates":[[[31.542902723669343,1.0024399389808172],[31.544044071847097,1.003366716949484],[31.5482164476079,1.00401232372817],[31.548102252095592,1.006942768516878],[31.54775385565545,1.0085561626501154],[31.548069498911516,1.0082192339871554],[31.551090607601473,1.00162637524658],[31.551090798764175,1.001625872560969],[31.55177661209014,0.996941178379538],[31.553350949951408,0.9953642233241194],[31.554573919614416,0.994139136362251],[31.554574024598693,0.9941391154259712],[31.554574493194554,0.994138646051112],[31.555978278985506,0.99385888926807],[31.56314083897323,0.997335117679359],[31.570211601884633,1.0035924469004032],[31.57046199266633,1.0038140275400786],[31.576628406575825,1.007660809232723],[31.585872827862353,1.009823035549616],[31.58693376126972,1.0100711811494354],[31.597291007159605,1.011414343523132],[31.59778204716719,1.0116703447237998],[31.601753068066603,1.0137405213534592],[31.60304472738124,1.0136455357238212],[31.60492764061562,1.013506747923235],[31.60492819526866,1.0135070298646045],[31.604928895407763,1.013506978377999],[31.6075252863774,1.014616803510995],[31.607823384650715,0.998671932901648],[31.598555333181068,0.999229577062193],[31.601606978823103,0.992048780178727],[31.611688403498157,0.989266788424679],[31.623661608950467,0.981128487201587],[31.62336985374359,0.97584773674792],[31.620565088259735,0.966487435512084],[31.619923617702625,0.960968098263308],[31.617768790311036,0.95858130496845],[31.617125719308522,0.955560058681596],[31.612603478127042,0.958935330807039],[31.606926467239376,0.966422006822799],[31.60126641419395,0.97010806765422],[31.599448248298312,0.966336276277376],[31.59313200812918,0.961140319969893],[31.5897047190293,0.964989207674139],[31.588702537972285,0.968180904093731],[31.583189104250497,0.963366230810938],[31.58037088531112,0.964427651125471],[31.57788810903018,0.963030065982354],[31.573510054122625,0.962496961977227],[31.57167874301966,0.961501942140132],[31.558796304931906,0.962694121183287],[31.552752808969945,0.964501821450729],[31.55023418749827,0.966528231331098],[31.546200783378524,0.974981447140035],[31.54813594915825,0.980469438593788],[31.54800881327857,0.9812819604878182],[31.54810243822653,0.981591072362337],[31.547842866596447,0.9823425211478335],[31.547507658909666,0.984484824211633],[31.544054882538454,0.99330864706049],[31.54405485063017,0.9933086656237232],[31.544054375560687,0.993310040929591],[31.54275876847016,0.994062894157736],[31.541152725704084,0.9977279503188236],[31.542133541326635,0.9989749530546039],[31.542865412191087,0.999904504258324],[31.54290269989171,1.0024399196616658],[31.542902723669343,1.0024399389808172]]]}},{"type":"Feature","properties":{"n":"Kisala","c":"123203","d":"Kyankwanzi","od":"Kyankwanzi","dc":"123","k":"KISALA","a":["KISALA"],"lat":0.886036,"lon":31.493575},"geometry":{"type":"Polygon","coordinates":[[[31.47024554348424,0.904784460286603],[31.47024665759264,0.9047842566564642],[31.47024691510572,0.904783686230705],[31.477059013609185,0.90353866085337],[31.475644908266098,0.907292548025878],[31.4766214045652,0.910577407463085],[31.475939930575294,0.911908804572585],[31.476329966696746,0.912871872247402],[31.482227322835246,0.9144156137546647],[31.489638169057176,0.91448613598621],[31.491842156452755,0.9167521354932028],[31.49568269187555,0.9174716507006141],[31.495544379784743,0.916692240497975],[31.49708171573961,0.915306475505485],[31.497594196780977,0.91085631137856],[31.500172275764704,0.912747273254253],[31.502180235159734,0.9120877339715229],[31.503713023303845,0.911584131913598],[31.508440944657497,0.902477390718303],[31.51296098333374,0.901041818672265],[31.514445886034668,0.897968893987448],[31.514748512027474,0.8978141007659993],[31.514770007775066,0.897775237223374],[31.515087992085554,0.8976404566869807],[31.51589488771619,0.897227729502244],[31.519935299352706,0.89558586575856],[31.52140639727341,0.8954361997395937],[31.524173931140307,0.8951544776165499],[31.525544391733682,0.893527693976472],[31.528116579455318,0.893143786707382],[31.530784021586797,0.889687466122093],[31.530803697856168,0.8897986714884296],[31.53196981730986,0.887441889876655],[31.53453576379628,0.884629718410776],[31.534172054818203,0.879962690313155],[31.5365186578949,0.869463115759641],[31.53940565776464,0.860980114477947],[31.541618320517518,0.858753104557802],[31.542210852428983,0.856882680300711],[31.537896715415243,0.858279787331138],[31.537355776032438,0.858033606956882],[31.51624637715239,0.8631246972750114],[31.51616038327854,0.86401883337019],[31.510614329219578,0.8644830147176307],[31.5093,0.8648],[31.508226370578345,0.864682876790365],[31.50539791008529,0.864919607011328],[31.50353300072025,0.8641708728058454],[31.50246942060939,0.8640548458846606],[31.50278370837029,0.865139653945837],[31.502249208440666,0.865565945087473],[31.494435996288303,0.865447953093327],[31.49464822347697,0.868198540747254],[31.492250157404374,0.869036169426653],[31.484635655744796,0.864753201493463],[31.480626777004762,0.865635869283393],[31.47973991292492,0.864758554976136],[31.47554731213127,0.864603930960691],[31.474298086033468,0.863623550236085],[31.468106008066503,0.862578760819344],[31.462574180800047,0.864522474909395],[31.45039382299646,0.864924490385655],[31.451099351006967,0.868388631816352],[31.4501379376207,0.8746215712852727],[31.450382079298556,0.8778048031619216],[31.453682942138297,0.884614286649886],[31.454719260516317,0.891497279630731],[31.454235279710662,0.894789183919702],[31.45283683911822,0.895964557563561],[31.452588272313626,0.897918908157118],[31.451941078911332,0.8981317596515592],[31.452,0.8989],[31.440242227455517,0.911306974709517],[31.441762165068678,0.9112215396747761],[31.444843818064964,0.911048308046429],[31.453839686319156,0.912393798709472],[31.460369613899857,0.912261861780049],[31.46818239987475,0.909356862349555],[31.469019625273123,0.9075022966188182],[31.47024554348424,0.904784460286603]]]}},{"type":"Feature","properties":{"n":"Masodde-Kalagi Town Council","c":"123204","d":"Kyankwanzi","od":"Kyankwanzi","dc":"123","k":"MASODDEKALAGITOWNCOUNCIL","a":["KALAGI","MASODDE","MASODDEKALAGI","MASODDEKALAGITOWNCOUNCIL"],"lat":0.949084,"lon":31.737378},"geometry":{"type":"Polygon","coordinates":[[[31.68497812359929,0.969350240537242],[31.68847240139149,0.967735779076964],[31.689448445974982,0.968344659170884],[31.68959610012959,0.973512073556171],[31.699261809755768,0.974292819370699],[31.70248954655944,0.973189643727822],[31.704250117684005,0.971495715449675],[31.708931898630457,0.971115160511248],[31.70969332172811,0.969744595267985],[31.70948187111603,0.968084087411682],[31.7176833111735,0.969739734674756],[31.71870214727457,0.966612179258289],[31.727840945569667,0.967719985166832],[31.730697651319716,0.969098545809742],[31.734932380555154,0.973734376278959],[31.7390507474581,0.969803493347197],[31.744087405364272,0.969699954722747],[31.746801801614325,0.971243528718653],[31.747298842670563,0.972604252748265],[31.748386824345655,0.972971378576911],[31.74836870796215,0.97436066824068],[31.7529620390147,0.975136736071986],[31.756469436766277,0.968161617356628],[31.75675221718907,0.969525743433963],[31.763461108813956,0.971805143823197],[31.76720582519824,0.959423550840852],[31.774585728565828,0.958979130168259],[31.779925726659684,0.956376020738714],[31.781368919379567,0.9544537579540806],[31.7776,0.9508],[31.777556412393025,0.9507769022937408],[31.7669882851899,0.94721766927416],[31.765100648822475,0.944176412196526],[31.7542,0.9384],[31.754239982241256,0.9382169234216157],[31.753083391990263,0.937889605010638],[31.756054799726424,0.929693121967907],[31.75195726623476,0.926193331174656],[31.75390021612649,0.9250337917834569],[31.753625617986707,0.9244513108808922],[31.75074436347339,0.923639997641263],[31.749346201696962,0.921525089083713],[31.74459563446241,0.922458107942578],[31.740724771334843,0.925922711025118],[31.739633356793743,0.928264968488838],[31.738651288744123,0.928112501466868],[31.73849321013832,0.930057715668483],[31.73694990681316,0.929809860819852],[31.72754062255146,0.921905657548384],[31.725199694357844,0.924246620004502],[31.72568487707188,0.92763018642465],[31.724542046189384,0.928633648030737],[31.73088562317675,0.940992831225277],[31.728372330899806,0.940394750882168],[31.723085043017896,0.944890727123157],[31.718202129354857,0.947390267382613],[31.699665388158774,0.943236695695014],[31.704499092851524,0.954272140877466],[31.69941300739192,0.955467885270231],[31.698056074293653,0.95834185895419],[31.696419082136426,0.959788638738206],[31.68786135061977,0.962186483700847],[31.68393602413033,0.96519910094885],[31.68496717902863,0.967249696879252],[31.68497812359929,0.969350240537242]]]}},{"type":"Feature","properties":{"n":"Mulagi","c":"123205","d":"Kyankwanzi","od":"Kyankwanzi","dc":"123","k":"MULAGI","a":["MULAGI"],"lat":0.91165,"lon":31.699931},"geometry":{"type":"Polygon","coordinates":[[[31.659408972646943,0.924375688576946],[31.662003874828308,0.924347130114723],[31.663716956341275,0.923679722845157],[31.666186510827924,0.921070313146741],[31.68365958972589,0.927361009104332],[31.675575046592495,0.937849192918648],[31.70038035809167,0.937876323028639],[31.69966538470573,0.943236683690958],[31.71820254014055,0.9473900571033732],[31.723085043017896,0.944890727123157],[31.723722628105552,0.9443485649655936],[31.728371078486486,0.940395621163147],[31.72837125722425,0.9403956638681638],[31.728372330899806,0.940394750882168],[31.73088562317675,0.940992831225277],[31.72474510687417,0.9290292709116269],[31.724543206024638,0.928636226650021],[31.72454331874243,0.9286361273442618],[31.724542046189384,0.928633648030737],[31.72568487707188,0.92763018642465],[31.725199694357844,0.924246620004502],[31.726176987208202,0.9232693128502029],[31.727537899129015,0.921908205311919],[31.72753799463687,0.9219082855014364],[31.72754062255146,0.921905657548384],[31.73694990681316,0.929809860819852],[31.73849321013832,0.930057715668483],[31.738651288744123,0.928112501466868],[31.739633356793743,0.928264968488838],[31.740724771334843,0.925922711025118],[31.74459563446241,0.922458107942578],[31.74929450494416,0.9215352424070792],[31.749346195153024,0.921525079179],[31.74814707482518,0.918296164580913],[31.749423306651572,0.9155373171396968],[31.746295949089046,0.9089035283707002],[31.744911548333494,0.908137023843164],[31.748960497967676,0.90553528617234],[31.75216247616099,0.9019510821840634],[31.7451,0.8859],[31.7173,0.8861],[31.716899655935247,0.8859872594300406],[31.712531825297887,0.885094359252756],[31.711249592284343,0.8843961495513378],[31.70033863339676,0.8813235231979383],[31.69993850974556,0.881236787586156],[31.695399279419973,0.882898640760417],[31.694661562692616,0.8829296726958344],[31.6787,0.8882],[31.678701695527682,0.8881889790700703],[31.678678665938158,0.88821670626343],[31.677184463936094,0.885499625224276],[31.673285453179638,0.886852227551772],[31.67210953563603,0.889298467500904],[31.670363073621292,0.888562864679846],[31.66894031148336,0.889087388557517],[31.66420466954713,0.897530686882674],[31.66141352668817,0.898955116052876],[31.660852579656545,0.904021478831048],[31.65837733372607,0.905143105735843],[31.656990705439604,0.906905996182431],[31.65441585439161,0.906868977134037],[31.651040254857563,0.914395592175452],[31.650826502228607,0.9222193006953],[31.656716136387576,0.922298667455428],[31.659408972646943,0.924375688576946]]]}},{"type":"Feature","properties":{"n":"Muwangi","c":"123206","d":"Kyankwanzi","od":"Kyankwanzi","dc":"123","k":"MUWANGI","a":["MUWANGI"],"lat":0.880967,"lon":31.573403},"geometry":{"type":"MultiPolygon","coordinates":[[[[31.532358895813875,0.8985882624083129],[31.532362809011982,0.898610378827891],[31.54406485380594,0.898286436734709],[31.544067795553907,0.8982876674747836],[31.548748127609535,0.900152143157449],[31.54904978634982,0.9003719846180831],[31.549661577688546,0.90062793996358],[31.551458052244758,0.902126838082986],[31.55279564502005,0.910495926050698],[31.554693279786846,0.913926398798693],[31.5734433886405,0.928468157402624],[31.575356058698087,0.9316305245654704],[31.576288272273842,0.933171805131761],[31.57730553140033,0.933746667815471],[31.57859925609601,0.933232774808406],[31.585514550746975,0.92732695076522],[31.58925564164752,0.919687107013134],[31.590930318823663,0.919505315029702],[31.59317717662336,0.915966728559431],[31.598515290408113,0.912298027472321],[31.6055650340039,0.904076478520425],[31.607480689250973,0.902987907105988],[31.61112098227607,0.902518028825305],[31.612126132856574,0.901447398927433],[31.614835321513663,0.888755457495502],[31.612502251813275,0.881970955971822],[31.612704757995363,0.878167598684415],[31.6187716352861,0.874016049621657],[31.621532758246207,0.874148653581724],[31.624912413423136,0.872816875801542],[31.626752267863814,0.870946907318931],[31.62760098818642,0.867562878002996],[31.630551100460668,0.866642842428527],[31.632756033316646,0.862361913395797],[31.634698801587547,0.860346793214111],[31.636552107949214,0.852609578801743],[31.634347841024738,0.847881475378775],[31.63498781451138,0.846231216965755],[31.63334937432049,0.845247942054538],[31.63114542372197,0.839570567757152],[31.63200226518662,0.837275498647909],[31.631161883526847,0.830178683259088],[31.628972028029175,0.831817650343947],[31.626875436375506,0.8317565833810039],[31.6268,0.8318],[31.616637255473545,0.8344525402380369],[31.616608027104732,0.834481312926],[31.61655392848987,0.8344742891048447],[31.599792544380062,0.8388491157750153],[31.595511906411772,0.841295283928219],[31.59417200933335,0.841399209082925],[31.592578027817396,0.844168642178642],[31.58792255434623,0.847254011953811],[31.586475201938747,0.849329353495749],[31.57932978847154,0.8513952793758426],[31.57773660279364,0.852543667021843],[31.575463672000186,0.855261524731817],[31.573144197686613,0.855473213566032],[31.56987087865312,0.854690218096807],[31.564660211082135,0.8550647348284715],[31.563166367324392,0.855951937196166],[31.5587292752729,0.855507107331582],[31.55472952061628,0.856563792008298],[31.542210864977,0.856882677727002],[31.54161865716195,0.858752092191154],[31.541618633762376,0.8587521157489777],[31.541618320517518,0.858753104557802],[31.53940565776464,0.860980114477947],[31.5365186578949,0.869463115759641],[31.534172054818203,0.879962690313155],[31.53453576379628,0.884629718410776],[31.531969878437547,0.8874418228832327],[31.530861962045936,0.8901279661552679],[31.531240321222185,0.8922663578394427],[31.53191022523982,0.894106033527891],[31.532358895813875,0.8985882624083129]]],[[[31.58742277995127,0.847945185988673],[31.58742278593286,0.847945186920867],[31.58742277995127,0.847945185988669],[31.58742277995127,0.847945185988673]]]]}},{"type":"Feature","properties":{"n":"Nkandwa","c":"123207","d":"Kyankwanzi","od":"Kyankwanzi","dc":"123","k":"NKANDWA","a":["NKANDWA"],"lat":0.969326,"lon":31.640929},"geometry":{"type":"MultiPolygon","coordinates":[[[[31.620666626918215,1.016085312801198],[31.624990832224043,1.002272476439566],[31.635338011854508,0.985408365157128],[31.63453768292866,0.983129121646533],[31.64561079813587,0.980650390653171],[31.64468170531731,0.977272545370664],[31.64964926746069,0.977836808146816],[31.650644298081183,0.979315565757368],[31.65350483996937,0.978830201791804],[31.656653052571,0.971256132499752],[31.65777051246233,0.973207797154269],[31.660943586102913,0.968596282600194],[31.662811268371595,0.968327426810239],[31.66879356926332,0.969868724386913],[31.67022222943439,0.971983074857913],[31.672621537301577,0.968782647716089],[31.675410390632656,0.966847600123974],[31.67551727800199,0.963319616526214],[31.674368643975058,0.961500853431588],[31.673798132542576,0.957413864102492],[31.675003687090125,0.955332767038112],[31.67527513623216,0.952136370275631],[31.67326635122407,0.951561966025133],[31.673094511935254,0.950220404803661],[31.676147916393305,0.944261318922579],[31.676864122307435,0.939534065406955],[31.67557744848243,0.9378491955456474],[31.675575046592495,0.937849192918648],[31.68365958603884,0.9273610138875921],[31.682640978352897,0.9269942864171695],[31.666186510827924,0.921070313146741],[31.663716956341275,0.923679722845157],[31.663716944167188,0.9236797275881156],[31.66371692872931,0.923679743934591],[31.662004388212836,0.924347076332052],[31.662004001897834,0.9243470806091242],[31.662003874828308,0.924347130114723],[31.66127355957429,0.9243551676741897],[31.659409989969653,0.924375800115877],[31.659409833009658,0.9243756791081358],[31.659408972646943,0.924375688576946],[31.657576716761394,0.9229624447671618],[31.65671571922904,0.9222986618339377],[31.651110413959717,0.9222231265957977],[31.65082650325342,0.922219312198864],[31.6507517189166,0.929651607970242],[31.647698256834808,0.9289111972788],[31.633834517118363,0.929609643405707],[31.630802645376043,0.935410230243424],[31.631429802160323,0.938609561992953],[31.629797547623426,0.940831031865282],[31.6276726462322,0.939421382516062],[31.626939535356463,0.945273627348539],[31.627690064359793,0.946905645774129],[31.622103248885974,0.949176676264556],[31.617125730947045,0.955560042409624],[31.617369573556402,0.9567057233719075],[31.617768790311036,0.95858130496845],[31.619923617702625,0.960968098263308],[31.619923774592536,0.960969448174583],[31.61992396563379,0.960969659882333],[31.620486460796045,0.9658109095448162],[31.620565088259735,0.966487435512084],[31.62336985374359,0.97584773674792],[31.623661608950467,0.981128487201587],[31.612081705160296,0.9889994575573703],[31.61168872975395,0.989266618355292],[31.611688591876643,0.989266660382036],[31.611688403498157,0.989266788424679],[31.611685956458537,0.9892674636907511],[31.60751947451884,0.990537459994464],[31.60160694804322,0.99204885260656],[31.59907562608965,0.9980052810151732],[31.598555537317747,0.9992295647796082],[31.607823384650715,0.998671932901648],[31.6075252863774,1.014616803510995],[31.610202989223687,1.015761385337176],[31.61242385295348,1.0171986137689404],[31.620666626918215,1.016085312801198]]],[[[31.608250782090103,0.99029492119621],[31.608250782347795,0.990294921973145],[31.608250782109256,0.990294921190094],[31.608250782090103,0.99029492119621]]]]}},{"type":"Feature","properties":{"n":"Ntwetwe","c":"123208","d":"Kyankwanzi","od":"Kyankwanzi","dc":"123","k":"NTWETWE","a":["NTWETWE"],"lat":0.872067,"lon":31.65334},"geometry":{"type":"Polygon","coordinates":[[[31.60857869841479,0.923963453236441],[31.61330196988462,0.926148672027736],[31.625013587348686,0.927754363738348],[31.63088701588136,0.929546017305463],[31.647697926216612,0.928911202045085],[31.647697966864488,0.9289112118873148],[31.647698256834808,0.9289111972788],[31.647941687993534,0.92897022504064],[31.65075172874459,0.9296506312341491],[31.65082650325342,0.922219312198864],[31.650894174094336,0.9222202213701012],[31.650894174257676,0.9222202126211605],[31.650826502228607,0.9222193006953],[31.651040254857563,0.914395592175452],[31.65441585439161,0.906868977134037],[31.656990393119937,0.9069059916921608],[31.65795858492196,0.9056754822014659],[31.65837733372607,0.905143105735843],[31.660852036882467,0.9040217247823708],[31.661184476683626,0.9010238504465873],[31.66141352668817,0.898955116052876],[31.66330530130935,0.897989669606734],[31.664204991994044,0.8975301119837422],[31.66894031148336,0.889087388557517],[31.670363073621292,0.888562864679846],[31.670525364939493,0.8886312211344931],[31.672109640695272,0.8892982489480679],[31.673285453179638,0.886852227551772],[31.67714624769729,0.8855128827854328],[31.677184457312656,0.885499616559285],[31.67579339996391,0.88369662607124],[31.67543625309678,0.880614154680145],[31.679369510033904,0.876770329149386],[31.68129289468271,0.871316928226177],[31.681270266959082,0.8711422328441116],[31.676416960928947,0.8453899967658426],[31.676366351862622,0.845292990442435],[31.67347653717117,0.8427191304714211],[31.6636,0.834],[31.663074194574406,0.832936704583803],[31.660605616373974,0.828509261097727],[31.660457787588104,0.8276457482337247],[31.65461193890716,0.8158241431233693],[31.64905942474455,0.820247579904837],[31.63964153603936,0.825797579743758],[31.636539884625158,0.8261943110071022],[31.634876981171907,0.8271513777427877],[31.6332443805176,0.829376993440085],[31.631161893994452,0.830178672875681],[31.631280377888135,0.8311793388503823],[31.63200226518662,0.837275498647909],[31.63200221108469,0.8372756435611443],[31.63200222625537,0.837275771686427],[31.631145486324524,0.839570729021255],[31.63334937432049,0.845247942054538],[31.63498781451138,0.846231216965755],[31.634987748704987,0.8462313866564586],[31.634987881050996,0.846231466082037],[31.634900267777564,0.8464569680898658],[31.63434791224426,0.8478812917295864],[31.63655183890084,0.852608568401508],[31.63655177034968,0.8526088546582654],[31.636552107949214,0.852609578801743],[31.634698801587547,0.860346793214111],[31.632756033316646,0.862361913395797],[31.630551100460668,0.866642842428527],[31.62760098818642,0.867562878002996],[31.626752267863814,0.870946907318931],[31.62675203298684,0.8709471460402849],[31.6267519833658,0.870947343924715],[31.624912956326515,0.872816410454951],[31.624912817412202,0.8728164652001346],[31.624912413423136,0.872816875801542],[31.621532758246207,0.874148653581724],[31.621532463978742,0.8741486394494191],[31.621532160418447,0.874148759080462],[31.62134164976916,0.8741394755258298],[31.61877200885033,0.8740160675622184],[31.61701321502893,0.875219332236544],[31.61270485285477,0.8781675337723588],[31.612571833886644,0.8806641045804323],[31.6125022540614,0.881970913748767],[31.614835281636225,0.888755182950239],[31.614835263023704,0.8887552874083344],[31.614835321513663,0.888755457495502],[31.614834784196205,0.8887579747073208],[31.612764557712627,0.900376600505625],[31.612186907998602,0.9011626810134078],[31.612126132856574,0.901447398927433],[31.611442920188598,0.9021751186573216],[31.61122130896054,0.902476692885527],[31.611139913453925,0.9024978643987932],[31.61112098227607,0.902518028825305],[31.611004670389757,0.902533042020338],[31.605982212530243,0.9038394167530795],[31.605676985812096,0.9040128618867002],[31.59954306018887,0.911270257691564],[31.599144390557296,0.9115643585662271],[31.598515290408113,0.912298027472321],[31.59317717662336,0.915966728559431],[31.590930318823663,0.919505315029702],[31.590366148364925,0.919566557678822],[31.59028457450613,0.919671037372543],[31.602602984264177,0.923864179507757],[31.60857869841479,0.923963453236441]]]}},{"type":"Feature","properties":{"n":"Ntwetwe  Town  Council","c":"123209","d":"Kyankwanzi","od":"Kyankwanzi","dc":"123","k":"NTWETWETOWNCOUNCIL","a":["NTWETWE","NTWETWETOWNCOUNCIL"],"lat":0.94711,"lon":31.586521},"geometry":{"type":"Polygon","coordinates":[[[31.542133558025885,0.9589160313526407],[31.542133617012063,0.958916238476242],[31.54030948821055,0.968147366616513],[31.540829414921856,0.969571768907461],[31.542780331224943,0.970070745415415],[31.542780570272274,0.970071775964392],[31.54278089297493,0.970071858649595],[31.543383381791468,0.9726690351715762],[31.54590815421838,0.974346430226078],[31.54606731495318,0.9748719148768703],[31.54620077658615,0.974981434987768],[31.54627804178154,0.9748195288361952],[31.55023418749827,0.966528231331098],[31.55023523414828,0.9665273892268188],[31.55023524106633,0.966527374730318],[31.550235285446583,0.9665273479536884],[31.552752808969945,0.964501821450729],[31.554417960040162,0.9640037497958606],[31.555270627986353,0.96348929637375],[31.557842278679782,0.9629794847413945],[31.558796304931906,0.962694121183287],[31.559706755129934,0.9626098654206333],[31.560738301272224,0.962405368665302],[31.57167427011984,0.9615023560755526],[31.57167874301966,0.961501942140132],[31.573510054122625,0.962496961977227],[31.57788810903018,0.963030065982354],[31.577888281042206,0.963030162810027],[31.577888401800703,0.963030177513965],[31.57797006330238,0.9630761990448136],[31.58037088531112,0.964427651125471],[31.583189104250497,0.963366230810938],[31.588702537972285,0.968180904093731],[31.5897047190293,0.964989207674139],[31.59313200812918,0.961140319969893],[31.59313473589138,0.9611425639208532],[31.59683131250135,0.963576597422224],[31.599447607097346,0.9663357488034163],[31.599448248298312,0.966336276277376],[31.601124358693493,0.9698133730320458],[31.60149258382386,0.9699607766293183],[31.603872993165346,0.9684105555331566],[31.607481650879585,0.9656898468664867],[31.609878770635525,0.9625285954017945],[31.611010873598197,0.960711871822676],[31.611626831702388,0.9602233035638309],[31.612603478127042,0.958935330807039],[31.617125719308522,0.955560058681596],[31.617134592491364,0.9556017462567076],[31.61713460390289,0.9556017315000481],[31.617125730947045,0.955560042409624],[31.622095644232207,0.9491864287737394],[31.622102765268043,0.949177220301809],[31.622102852221218,0.9491771849631494],[31.622103248885974,0.949176676264556],[31.627690064359793,0.946905645774129],[31.626939535356463,0.945273627348539],[31.6276726462322,0.939421382516062],[31.629797547623426,0.940831031865282],[31.631429802160323,0.938609561992953],[31.630802645376043,0.935410230243424],[31.633564393319045,0.9301264451335028],[31.633834504590514,0.929609642287661],[31.63298667027494,0.9294667299483846],[31.63088701588136,0.929546017305463],[31.62771291462827,0.9285777770688023],[31.61330284025094,0.9261487913571105],[31.61330196988462,0.926148672027736],[31.60857893085222,0.9239635607734841],[31.603766216460624,0.9238835041264647],[31.602602984264177,0.923864179507757],[31.602599469045245,0.9238629829399446],[31.589854404249955,0.9196221092675074],[31.58953060698262,0.9196572585776533],[31.585523917547203,0.9273078224168082],[31.585514550746975,0.92732695076522],[31.5855133730845,0.927327956516634],[31.585513342818544,0.927328014307889],[31.58551221471784,0.9273289457889649],[31.57859925609601,0.933232774808406],[31.578142421260928,0.9334142386298174],[31.577850006740846,0.933655687456846],[31.577630050655102,0.9336177623564949],[31.57730553140033,0.933746667815471],[31.576834777523235,0.9334806403794845],[31.57596965874083,0.9333314755290217],[31.572366996839122,0.935136953968237],[31.564153632933138,0.9355735275858349],[31.56235198941809,0.9361747315694519],[31.56213326141051,0.9362484400112047],[31.56160639356329,0.9368338694888207],[31.56032729293866,0.938255628065654],[31.560326854008807,0.9382556305185192],[31.560326745723426,0.938255750839875],[31.558580169201267,0.938265391491385],[31.556989033088914,0.938274283213779],[31.55090621354225,0.941489445119832],[31.54827647083211,0.9403827819163524],[31.54782976249349,0.9401949838900368],[31.54779685358765,0.9402246218165373],[31.543739628697317,0.943945394223647],[31.545990992363727,0.947314294730135],[31.545990299442945,0.947314757639795],[31.545990378779376,0.947314870333076],[31.545719203722314,0.9474958646745554],[31.54257941936875,0.9495934154316507],[31.54035827612786,0.9526823205741587],[31.542133381687755,0.9589154121603337],[31.54213356482284,0.958915996954551],[31.542133558025885,0.9589160313526407]]]}},{"type":"Feature","properties":{"n":"Wattuba","c":"123210","d":"Kyankwanzi","od":"Kyankwanzi","dc":"123","k":"WATTUBA","a":["WATTUBA"],"lat":0.998135,"lon":31.755632},"geometry":{"type":"Polygon","coordinates":[[[31.63891870256721,1.000549961655204],[31.64337568426904,1.005624782746746],[31.64438522190734,1.010536349997394],[31.65126024374793,1.013369399319669],[31.660452908298307,1.005559043681363],[31.66903259809094,0.995405321953386],[31.676800998134233,0.992937017422726],[31.678195930102163,0.989753628916906],[31.68320575298871,0.9916688758106],[31.687070330949577,0.992127566419758],[31.688954672281252,0.993429436373178],[31.690727072462707,0.996096824502488],[31.690434675019322,1.000199869391871],[31.69789133175617,1.004919509905776],[31.701344535823704,1.005711283450392],[31.70142247499623,1.012917973998511],[31.702708771443902,1.020820797107167],[31.702042317083684,1.023771477304436],[31.699773909286815,1.026149822722115],[31.701978512509367,1.027844694261153],[31.712618600152663,1.029075354071716],[31.73272664140712,1.034869719801216],[31.736406906629387,1.038709142391805],[31.738789809850623,1.045142909083914],[31.738394859033626,1.049166218426728],[31.75056626628359,1.048427060053639],[31.770510615009048,1.052874704679425],[31.781537755826474,1.054474965463757],[31.781537814290584,1.0544749809069396],[31.781537846484298,1.054474985578897],[31.78160596958772,1.0544929839982344],[31.794597708499673,1.057924726966752],[31.797582258423617,1.0558362928425127],[31.79782926019269,1.0556633102439],[31.798589580575506,1.0546460214931992],[31.80011962647827,1.052598391154272],[31.800120099867527,1.0525982267823102],[31.800120893713242,1.052597164637545],[31.803430798487483,1.05144760881065],[31.80280195515148,1.049496725836144],[31.815290776431503,1.04370274148766],[31.830141286986,1.042323841673744],[31.83649252029859,1.045556497961614],[31.8458127913651,1.0349750585262116],[31.845930413989404,1.034841502788102],[31.845914713430062,1.0347981375404984],[31.8459,1.0348],[31.83377404897666,1.0183162853276486],[31.83176663002652,1.018230739734262],[31.829369596584165,1.015949073763192],[31.825382123619036,1.00840713534405],[31.82556229811982,1.0067025081493053],[31.813930461532095,0.986280199636499],[31.813555447741464,0.985703875354225],[31.812967143407867,0.9850864806926252],[31.781368885663355,0.9544537252680854],[31.781368885663355,0.9544537252680858],[31.781368919379567,0.9544537579540806],[31.779925726659684,0.956376020738714],[31.774585728565828,0.958979130168259],[31.76720582519824,0.959423550840852],[31.763461108813956,0.971805143823197],[31.75675221718907,0.969525743433963],[31.756469436766277,0.968161617356628],[31.7529620390147,0.975136736071986],[31.74836870796215,0.97436066824068],[31.748386824345655,0.972971378576911],[31.747298842670563,0.972604252748265],[31.746801962876066,0.9712439701967241],[31.74408729812114,0.969699956927345],[31.7390507474581,0.969803493347197],[31.734932380555154,0.973734376278959],[31.730843433383413,0.9692581359264135],[31.73069750490891,0.9690984751562721],[31.727841053904903,0.9677200374461722],[31.727840945551197,0.9677199851645931],[31.723047372024443,0.9671389077729602],[31.71870209126122,0.9666123512043504],[31.7176833111735,0.969739734674756],[31.71768206416682,0.9697394829380874],[31.717681833176538,0.969740192691663],[31.71398700475664,0.9689935511314178],[31.70948187111603,0.968084087411682],[31.70969332172811,0.969744595267985],[31.708931898630457,0.971115160511248],[31.70461318063681,0.9714662041587304],[31.704250017211475,0.9714958121190196],[31.70248954655944,0.973189643727822],[31.699261809755768,0.974292819370699],[31.68959610012959,0.973512073556171],[31.689448445974982,0.968344659170884],[31.68847240139149,0.967735779076964],[31.68497812359929,0.969350240537242],[31.68497806707429,0.9693393919410089],[31.683942391056615,0.9652117624734708],[31.68393602413033,0.96519910094885],[31.683938699010213,0.9651970480268066],[31.68393864959387,0.965196851080701],[31.687860668942335,0.962186864175949],[31.68786096179301,0.9621867821183673],[31.68786135061977,0.962186483700847],[31.696419082136426,0.959788638738206],[31.698056074293653,0.95834185895419],[31.69941300739192,0.955467885270231],[31.704499092851524,0.954272140877466],[31.699665388158774,0.943236695695014],[31.699665517322522,0.9432367246370419],[31.6996655118658,0.9432367121820202],[31.69966538470573,0.943236683690958],[31.70038035809167,0.937876323028639],[31.677663999436422,0.9378514776519167],[31.675577456986513,0.9378492066815499],[31.676864122307435,0.939534065406955],[31.676148572231465,0.9442569901210576],[31.676147930290362,0.944261237857579],[31.67614792799706,0.9442612423330268],[31.676147916393305,0.944261318922579],[31.673094511935254,0.950220404803661],[31.673266311026296,0.9515616521983453],[31.673412780654452,0.9516038369505294],[31.67527513623216,0.952136370275631],[31.675013507735844,0.9552171259277824],[31.675003791037362,0.955332039115406],[31.67500374167458,0.9553321242894289],[31.675003687090125,0.955332767038112],[31.673798150766395,0.957413832643496],[31.67422104336003,0.9604434826161512],[31.674368643975058,0.961500853431588],[31.67551727800199,0.963319616526214],[31.675517270272927,0.9633198716359145],[31.675517274569387,0.963319878439113],[31.675516865091982,0.9633332452621558],[31.675410390632656,0.966847600123974],[31.672621537301577,0.968782647716089],[31.67022222943439,0.971983074857913],[31.66879356926332,0.969868724386913],[31.662811373288697,0.9683274538413895],[31.662356744541267,0.9683928562280288],[31.66094372728761,0.9685962622764359],[31.660740814845965,0.968890975604041],[31.65777051246233,0.973207797154269],[31.657769666524437,0.9732063197078741],[31.657768735169387,0.973207672423083],[31.6575949816659,0.9729012293267955],[31.656653052571,0.971256132499752],[31.65350483996937,0.978830201791804],[31.650644298081183,0.979315565757368],[31.649649512361748,0.9778371721047641],[31.644681712050165,0.9772725698488868],[31.64561079813587,0.980650390653171],[31.63453768292866,0.983129121646533],[31.635338011854508,0.985408365157128],[31.635337085143536,0.9854098755355577],[31.635337102652006,0.985409925290212],[31.628423975998587,0.997535036116985],[31.63549901129938,0.998735886696826],[31.63891870256721,1.000549961655204]]]}},{"type":"Feature","properties":{"n":"Wattuba Town Council","c":"123211","d":"Kyankwanzi","od":"Kyankwanzi","dc":"123","k":"WATTUBATOWNCOUNCIL","a":["WATTUBA","WATTUBATOWNCOUNCIL"],"lat":1.035032,"lon":31.695253},"geometry":{"type":"Polygon","coordinates":[[[31.625517775758937,1.024179683217465],[31.63028385908234,1.027736077382318],[31.637132056417197,1.027458786027205],[31.637132233212316,1.0274589267934886],[31.637132303563497,1.027458923945029],[31.63865603429999,1.028672194538207],[31.641178032053197,1.030680237812995],[31.643957500641108,1.0314775683445645],[31.645688864820208,1.0312046163885944],[31.652023290475537,1.03020573807006],[31.655101910223326,1.0309624457721],[31.655302543357216,1.0311375822329203],[31.65569231177402,1.031248335629182],[31.655988588125876,1.031736443699213],[31.656524635124953,1.032204369272782],[31.663440543537767,1.044013170798899],[31.67073622542455,1.0508964481921734],[31.67135776916406,1.0514828538597083],[31.676097777883285,1.053084957433325],[31.67642810877768,1.055714297971137],[31.67642795367819,1.0557147604553134],[31.676427956984917,1.055714786760412],[31.676328395968195,1.0560116270994544],[31.674540704696604,1.061342263055021],[31.67263244484017,1.0619958239233112],[31.66845495677349,1.0634286722913653],[31.677377116569915,1.068819698388624],[31.677747829467243,1.0753483927427103],[31.677814657992617,1.0753656723569076],[31.680476133734707,1.076052931874467],[31.68549937769764,1.0724296749286013],[31.686700387804187,1.071563369169491],[31.686700458307552,1.0715633376185827],[31.68670071290435,1.071563153978364],[31.691974818352598,1.069202298172756],[31.701097972231032,1.074656377295601],[31.706576273254267,1.074367840479312],[31.708179390129644,1.073992728347076],[31.70815128730036,1.0742848860128553],[31.708599420126177,1.074261283290353],[31.707975915239373,1.0761080580311082],[31.70791767318668,1.07671354376331],[31.708375260049333,1.076644603787749],[31.7123991394317,1.07603826654577],[31.71530613498065,1.076818185546307],[31.715324851112054,1.076823206244805],[31.715324852997128,1.0768232074104473],[31.71532575097445,1.076823448329143],[31.72075129535255,1.080178391552126],[31.731397167757287,1.0781774600215934],[31.732980074447116,1.077879935127664],[31.732835731876705,1.0719996805538057],[31.73283433961065,1.07194656960717],[31.731763550318913,1.0686007003725277],[31.721636970829245,1.058021230748843],[31.72142064094684,1.0572016452049098],[31.720844129829203,1.056566265646057],[31.72063777283116,1.0542356777514954],[31.720253939522774,1.052781490159214],[31.72047248444361,1.0523689171434845],[31.7204369656329,1.051967769079392],[31.724438714929267,1.044878345307682],[31.72538484790973,1.0452543511564467],[31.726503723760192,1.045698964590216],[31.72650380790829,1.0456990407642293],[31.726503874098242,1.045699067068997],[31.73084160489412,1.049624920606897],[31.738394849064548,1.049166219032141],[31.73841477430861,1.0489633442751918],[31.738789809850623,1.045142909083914],[31.736406906629387,1.038709142391805],[31.73346169825083,1.0356365650367265],[31.73118916026868,1.0344266767466692],[31.712618600152663,1.029075354071716],[31.701978512509367,1.027844694261153],[31.699773909286815,1.026149822722115],[31.702042317083684,1.023771477304436],[31.702708771443902,1.020820797107167],[31.70142247499623,1.012917973998511],[31.701344535823704,1.005711283450392],[31.69789133175617,1.004919509905776],[31.690434675019322,1.000199869391871],[31.690727072462707,0.996096824502488],[31.688954672281252,0.993429436373178],[31.687070330949577,0.992127566419758],[31.68320575298871,0.9916688758106],[31.678195930102163,0.989753628916906],[31.676800998134233,0.992937017422726],[31.676800003099665,0.9929373335815647],[31.676799916248417,0.992937531856495],[31.67393364177886,0.9938480813024881],[31.669032622558916,0.9954053141790162],[31.666010970521207,0.998981298037628],[31.660452908298307,1.005559043681363],[31.65126024374793,1.013369399319669],[31.651259081109533,1.0133689202212752],[31.65125905346958,1.013368943700674],[31.650568768990247,1.013084457374894],[31.64438522190734,1.010536349997394],[31.64341080311285,1.0057956417188183],[31.643375618149403,1.0056247074614182],[31.63891870256721,1.000549961655204],[31.63549901129938,0.998735886696826],[31.63116673757963,0.9980005669157629],[31.628423968974325,0.997535047262052],[31.624991140271558,1.0022719743754542],[31.624990832224043,1.002272476439566],[31.620666626918215,1.016085312801198],[31.612467780665366,1.0171926807220846],[31.61242385647933,1.01719861605069],[31.612829749949785,1.017461289364761],[31.613824070232337,1.0188627968143924],[31.619798967271308,1.0253002344072535],[31.619806605107243,1.025307314111649],[31.625517546716257,1.024179577684],[31.62551770648252,1.0241796968982322],[31.625517775758937,1.024179683217465]]]}}]}
