{"type":"FeatureCollection","name":"Luuka sub-counties","metadata":{"source":"Uganda Bureau of Statistics NPHC 2024 Map Explorer","retrieved":"2026-07-26","display_only":true,"clipped_to_dashboard_district":true,"positive_area_overlaps_removed":true,"source_gap_ratio":0.01946276},"features":[{"type":"Feature","properties":{"n":"Bukooma","c":"229101","d":"Luuka","od":"Luuka","dc":"229","k":"BUKOOMA","a":["BUKOOMA"],"lat":0.862573,"lon":33.317896},"geometry":{"type":"MultiPolygon","coordinates":[[[[33.28808580340535,0.8768830548845679],[33.289124601431396,0.877379852235784],[33.29400844856508,0.887987815640767],[33.29781082733342,0.89253640276092],[33.299286182914905,0.895653600396932],[33.301331852009625,0.897008026832489],[33.299198659029344,0.901166771061056],[33.297238050280626,0.9074122626282379],[33.29756007733535,0.9219034800905753],[33.2978239869081,0.923995326828932],[33.30016138803584,0.92736428284501],[33.303539978369294,0.923852199870872],[33.30731776040534,0.922156787651542],[33.31094651907628,0.92272209366913],[33.31671617002535,0.926082847035408],[33.32189149420203,0.92649925212523],[33.326589301168696,0.916764888837501],[33.32375234765478,0.911750664260022],[33.327047477749275,0.906626517599309],[33.327932571322826,0.903885544923328],[33.32760809066375,0.891106147881839],[33.32866686814656,0.886888143722803],[33.33934753230617,0.885439150978705],[33.34614412099747,0.885899551447645],[33.34500763647345,0.883867470589678],[33.34729285534822,0.881395914393993],[33.34822066358043,0.877432187793115],[33.35090646970201,0.875961622284316],[33.35438999706236,0.87173926893675],[33.35109402014797,0.865186827836823],[33.35226884543621,0.860761007806837],[33.36282407932216,0.863701637217232],[33.36350825818071,0.8643787631126004],[33.3622,0.863],[33.36234890724167,0.8624359574179208],[33.36211172019518,0.862069136007465],[33.36326706691519,0.8589580798667148],[33.3721,0.8255],[33.37264609826744,0.8240697426328989],[33.37318080163516,0.820837639094963],[33.378703238972335,0.803924141848078],[33.3737984767778,0.799634281602479],[33.36986719088077,0.798173657389697],[33.366161835700964,0.797956250431406],[33.362158023645044,0.798821482751181],[33.35398675105066,0.801780671191568],[33.35129226453136,0.803014902991165],[33.34825182611931,0.805714281886731],[33.345080461459794,0.811641003761063],[33.33667262037477,0.821484241755726],[33.32494300042756,0.819851971171088],[33.32299185099677,0.817900821598209],[33.321135849475574,0.814403030157739],[33.318637838402054,0.81390351063429],[33.31814425298315,0.812580081804839],[33.315758669768385,0.811404036564025],[33.31226083658974,0.815529988720047],[33.30847762980998,0.817128955844036],[33.306077711110575,0.81957753381097],[33.30170637032092,0.821913799154735],[33.28617572335144,0.8373988196591721],[33.2903,0.8432],[33.3049,0.8493],[33.30486352420496,0.8493229472137838],[33.30493864714135,0.849338094395049],[33.29872985688657,0.857126180957011],[33.283634899522724,0.862709158456162],[33.28363453916744,0.8628092047205734],[33.28808580340535,0.8768830548845679]]],[[[33.32180032298016,0.815644136471284],[33.32180031743076,0.815644138965865],[33.32180032298017,0.815644136471297],[33.32180032298016,0.815644136471284]]]]}},{"type":"Feature","properties":{"n":"Bukoova Town Council","c":"229102","d":"Luuka","od":"Luuka","dc":"229","k":"BUKOOVATOWNCOUNCIL","a":["BUKOOVA","BUKOOVATOWNCOUNCIL"],"lat":0.905256,"lon":33.36119},"geometry":{"type":"Polygon","coordinates":[[[33.33454510560149,0.936666139715041],[33.33970782917962,0.941329321711683],[33.34690943493687,0.944940170651945],[33.35195720466474,0.946281913269007],[33.35604317921027,0.946069218669981],[33.37894165519633,0.937716375404161],[33.38707711899117,0.936358515885321],[33.393479416955735,0.939302636801982],[33.40460382150272,0.948770701034338],[33.4046224497314,0.948720057259194],[33.4046,0.9486],[33.40779898998463,0.9365795527850304],[33.407821257858714,0.936192395511824],[33.407445919996945,0.9350545729652732],[33.3968,0.9082],[33.37918513397495,0.8810396479166837],[33.378869931641816,0.880626827003721],[33.36283776848782,0.8637151852660241],[33.36282407932216,0.863701637217232],[33.35226884543621,0.860761007806837],[33.35109402014797,0.865186827836823],[33.353555619207576,0.870080515890053],[33.35438964509582,0.871737651206561],[33.35438935827507,0.8717379990200638],[33.35438999706236,0.87173926893675],[33.35090646970201,0.875961622284316],[33.35090632762107,0.8759617000782147],[33.35090629503678,0.875961739591593],[33.35074688697523,0.8760489989761481],[33.3482207656274,0.8774321319191033],[33.34751602074087,0.880442520607929],[33.34729285534822,0.881395914393993],[33.34500763647345,0.883867470589678],[33.34614412099747,0.885899551447645],[33.3396728658422,0.8854611890509431],[33.33934722689029,0.8854391924129627],[33.32866686814656,0.886888143722803],[33.3276081177777,0.891106039864113],[33.327843632050595,0.9003827467114236],[33.327932571322826,0.903885544923328],[33.327932560870984,0.9038855772907776],[33.327932561319095,0.903885594941601],[33.327047754668776,0.906625930595373],[33.32704757917243,0.906626203510387],[33.327047477749275,0.906626517599309],[33.32375234765478,0.911750664260022],[33.326589301168696,0.916764888837501],[33.32197537383385,0.9263254444710638],[33.32189150327694,0.926499259095343],[33.33033273300469,0.934405095887986],[33.33454510560149,0.936666139715041]]]}},{"type":"Feature","properties":{"n":"Bulongo","c":"229103","d":"Luuka","od":"Luuka","dc":"229","k":"BULONGO","a":["BULONGO"],"lat":0.777125,"lon":33.369589},"geometry":{"type":"Polygon","coordinates":[[[33.2788,0.8055],[33.27950757690892,0.812841110430059],[33.28157567124497,0.82008695355089],[33.2815646399209,0.8309129001085205],[33.28617572194498,0.8373988176808487],[33.28640004644555,0.8371751555891064],[33.30170637032092,0.821913799154735],[33.301706868967095,0.8219135326530307],[33.301707017457076,0.821913384601525],[33.30503790179528,0.8201332604368125],[33.306077711110575,0.81957753381097],[33.30847762980998,0.817128955844036],[33.30847807967513,0.8171287657091504],[33.30847819025107,0.817128652902389],[33.31109761871389,0.8160216211498375],[33.31226083658974,0.815529988720047],[33.315758669768385,0.811404036564025],[33.3158301561787,0.8114392779473941],[33.31592980250795,0.811325074520611],[33.318142901020785,0.812578978353894],[33.31814310099604,0.8125795138980253],[33.31814425298315,0.812580081804839],[33.318637801169686,0.8139034108047862],[33.319502938269956,0.8140765019706102],[33.321135849475574,0.814403030157739],[33.32113660324813,0.814404450705702],[33.3249429384349,0.8198519091784272],[33.32494300042756,0.819851971171088],[33.33667262037477,0.821484241755726],[33.345060306423484,0.8116645996898105],[33.34508046863365,0.8116409903543914],[33.34825182611931,0.805714281886731],[33.35129226453136,0.803014902991165],[33.35398675105066,0.801780671191568],[33.362158023645044,0.798821482751181],[33.366161835700964,0.797956250431406],[33.36986719088077,0.798173657389697],[33.3737984767778,0.799634281602479],[33.377251428552455,0.8026543425066666],[33.378703242263576,0.803924129809484],[33.385128738743624,0.7913771128143103],[33.391,0.776],[33.3916,0.7632],[33.39161011123565,0.7631928948073764],[33.38859530419393,0.754195524837125],[33.38630469622195,0.750158994441256],[33.37930986116128,0.745088621314396],[33.371782470424755,0.743535456880589],[33.36818224925722,0.743952117065873],[33.36565900803112,0.745447217445604],[33.36272180726507,0.74196298202973],[33.3483930557707,0.73652468667803],[33.347335143295034,0.735032171104602],[33.346299960857245,0.72822721466766],[33.34462255634063,0.725431433218224],[33.338935552089595,0.724776965177662],[33.33382391878264,0.71959240748471],[33.332166062475316,0.718900007782048],[33.323735703687404,0.717370697571812],[33.324509721661016,0.718715526515761],[33.323067455626095,0.719734518873259],[33.32451548195977,0.720647239108295],[33.32378468940367,0.722404167824723],[33.32282653338249,0.722146702797052],[33.3202894337838,0.724115705252486],[33.320577796648344,0.725119661557324],[33.31912906504788,0.725898683689561],[33.3189944425135,0.727460416823758],[33.31703849432833,0.728669398669219],[33.31430806328243,0.732922682824951],[33.31339526622477,0.737003377433938],[33.31389533767232,0.742763498910612],[33.3129936294006,0.74852740010463],[33.315561240288076,0.748224927034093],[33.319958706808684,0.749274277742699],[33.32596235681143,0.742447942047731],[33.330741825036746,0.74120256954715],[33.33356888972337,0.742030607191634],[33.3367894242014,0.744521430116002],[33.340737484797636,0.742232348291031],[33.342468025604184,0.744247067935059],[33.344456045460305,0.74369333575957],[33.35017054728552,0.745955116195717],[33.348740091781096,0.752371745469187],[33.35180598839524,0.757656333383975],[33.348655325543085,0.760234892125115],[33.349740419639694,0.765888020957224],[33.34913865088119,0.767296532814289],[33.34663289193114,0.767347072424388],[33.34416352319805,0.768638511246528],[33.345914803101216,0.771807947234642],[33.34785858201891,0.773096168982478],[33.34823873416823,0.776724782220461],[33.34970769915408,0.778316477795216],[33.345619863043275,0.778651254818458],[33.34288782464039,0.779769694818272],[33.34026120580798,0.779393676535555],[33.34017529528864,0.785362442394329],[33.32740551497244,0.78182458183764],[33.325085541053646,0.782008989404629],[33.32346770606005,0.783139267880837],[33.3213302063218,0.781493948742882],[33.3156151409492,0.77962865685562],[33.313530163874674,0.777525133442383],[33.3141940582713,0.776447936261425],[33.30926374081963,0.770799890181015],[33.31176873380505,0.769042259479531],[33.31321828094953,0.76468188725085],[33.31255198818731,0.761826434403725],[33.31090912853114,0.759478117698051],[33.309422905202304,0.758790099851473],[33.30934392141903,0.756762451284935],[33.30759072158125,0.752734220894006],[33.30362059501167,0.753457530814016],[33.29933759729222,0.756039293449055],[33.29664851329817,0.761131528555791],[33.28873834158643,0.766579757252112],[33.28485502340633,0.771640896394219],[33.285026756523074,0.778150274959667],[33.2876036849848,0.786159842864138],[33.28719991840987,0.788932680987054],[33.282662816840904,0.799495800133305],[33.27863638332097,0.804824250594862],[33.27865127115894,0.8052534232372033],[33.2788,0.8055]]]}},{"type":"Feature","properties":{"n":"Ikumbya","c":"229104","d":"Luuka","od":"Luuka","dc":"229","k":"IKUMBYA","a":["IKUMBYA"],"lat":0.995304,"lon":33.35984},"geometry":{"type":"Polygon","coordinates":[[[33.30368545944398,0.9331910365246283],[33.30140380442604,0.9474761809848312],[33.30140241891581,0.9475166188475246],[33.30585690440816,0.9781205839893855],[33.3065142294413,0.980552748991066],[33.306432032147455,0.9820719245686191],[33.3068,0.9846],[33.302961318262426,0.9915576106493512],[33.30524475238471,1.005689773660194],[33.30759580388142,1.00870180019029],[33.30876123123803,1.0120167613855757],[33.317,1.0227],[33.31693283120369,1.0229114819527418],[33.316504482186424,1.027905407389466],[33.31452405661163,1.0304955445297102],[33.313834128043105,1.0326677948741863],[33.31296256406166,1.035697014659213],[33.31239833966719,1.039952092532088],[33.313299201366505,1.042057488251636],[33.31078676169671,1.044709496429241],[33.31052149295881,1.047505526041163],[33.30693292977061,1.054462748914122],[33.308601971019485,1.054800347826968],[33.3205,1.0569],[33.320754831067866,1.0572585209506522],[33.32126147523072,1.057361000454196],[33.32262355298886,1.0598876193774234],[33.3270294098597,1.0660862042163977],[33.32907799972215,1.068044333196379],[33.33067298960089,1.067938824853184],[33.333248110192116,1.069365915800259],[33.33735682812462,1.073469535245436],[33.33793766606145,1.071155446870627],[33.34198112073167,1.071332779037135],[33.34455717391938,1.069863578596748],[33.343565558647796,1.068239923916794],[33.34614837637715,1.06673436321604],[33.347213210521645,1.062022574560592],[33.34622670365201,1.059680816087748],[33.34671406566141,1.056355204636389],[33.34613934584189,1.053611509192638],[33.350501261832044,1.050678046346982],[33.35266478987274,1.0497859222854389],[33.3526,1.0494],[33.358906023749,1.0466899732648918],[33.36012580920612,1.045682435015431],[33.36119708834215,1.04570538352238],[33.364651785936296,1.0442207200934925],[33.36517126284736,1.043249993942624],[33.371,1.0315],[33.3715604900383,1.031310695417529],[33.37173976810149,1.030975685524862],[33.37273068895627,1.0309154626704011],[33.385830685215254,1.0264909606226613],[33.38609036229622,1.026341721153939],[33.38344855650781,0.999545784302259],[33.38373387694819,0.9996823246857643],[33.395972752171346,1.0039904087643146],[33.406412487964104,1.000850111892122],[33.41092058173522,1.0005675657041042],[33.41719853140927,0.9991233425396517],[33.41728440377412,0.9990501305863849],[33.413262373890674,0.9861895658973404],[33.411884261543875,0.985737631303773],[33.410958017010636,0.983825335873169],[33.411969064948,0.9820541706362051],[33.4092,0.9732],[33.40905086293481,0.9724024409122575],[33.40842759268784,0.969962822392983],[33.40843471022237,0.9691073633631332],[33.40648548715682,0.9586832574038846],[33.40633799635519,0.95865270373786],[33.40531527964911,0.956809480100091],[33.40597075984027,0.9559305852327493],[33.405630867201914,0.9541128985145726],[33.404971063837614,0.953178934731813],[33.40460382029344,0.948770716311664],[33.40086438054086,0.9455880347558444],[33.393479416955735,0.939302636801982],[33.38775546817482,0.9366704573212599],[33.386440487492706,0.9364647736429588],[33.378941795607396,0.9377163519686803],[33.361292511042194,0.944423038452261],[33.35604371466744,0.9460690233473805],[33.35604317921027,0.946069218669981],[33.35604307441835,0.9460692241249034],[33.35604305024761,0.946069231704676],[33.3519573417144,0.946281913153696],[33.351957319633094,0.9462819072843522],[33.35195720466474,0.946281913269007],[33.34690943493687,0.944940170651945],[33.34690934494888,0.9449401255324168],[33.34690930534284,0.944940115004897],[33.339707948801234,0.941329395892266],[33.33970791345482,0.9413293639668437],[33.33970782917962,0.941329321711683],[33.33837157867943,0.9401223658905521],[33.3345448409804,0.9366659976763486],[33.33454101421875,0.9366639436140378],[33.33097371018987,0.93492737362972],[33.330611532525815,0.9345547450279297],[33.33033273300469,0.934405095887986],[33.322793281538296,0.9273438412222849],[33.32150932792863,0.9264685031371533],[33.31671617002535,0.926082847035408],[33.31341421396583,0.9241594967252579],[33.310946366537316,0.9227220699058534],[33.308116314906776,0.9222811904311068],[33.30731770942235,0.9221568105319464],[33.303539978369294,0.923852199870872],[33.30047055529226,0.9270428999751562],[33.30016139294057,0.927364293860401],[33.30381657261252,0.93292722924253],[33.30368545944398,0.9331910365246283]]]}},{"type":"Feature","properties":{"n":"Luuka Town Council","c":"229105","d":"Luuka","od":"Luuka","dc":"229","k":"LUUKATOWNCOUNCIL","a":["LUUKA","LUUKATOWNCOUNCIL","TOWNCOUNCIL"],"lat":0.763132,"lon":33.33091},"geometry":{"type":"Polygon","coordinates":[[[33.310097929994534,0.7591025892969859],[33.31090912853114,0.759478117698051],[33.310909310169116,0.759478377332825],[33.31090945545742,0.759478444622622],[33.312422558099726,0.761562878463945],[33.31245572059397,0.7616888287374066],[33.31255198818731,0.761826434403725],[33.31301960858619,0.7638304603740836],[33.31320879356609,0.764548979909415],[33.31319621865393,0.7645873374547849],[33.31321828094953,0.76468188725085],[33.31176873380505,0.769042259479531],[33.311725887476676,0.7690723226464321],[33.31166164086908,0.769268295559277],[33.309331512131784,0.7707523383756365],[33.30926374081963,0.770799890181015],[33.3141940582713,0.776447936261425],[33.313530163874674,0.777525133442383],[33.31561501339724,0.7796285281690579],[33.31658252728838,0.7799443939071989],[33.3213302063218,0.781493948742882],[33.323467644888936,0.7831392207949803],[33.32454592583653,0.782385984257473],[33.325085541053646,0.782008989404629],[33.32740551497244,0.78182458183764],[33.328752314583056,0.7821977119230591],[33.340175297583244,0.7853622829732946],[33.34026120580798,0.779393676535555],[33.340836138337366,0.7794759820226367],[33.34288911123471,0.7797691681131744],[33.345619863043275,0.778651254818458],[33.345621832481925,0.7786510935295046],[33.3456229427337,0.77865063893857],[33.3462369083552,0.7786007213364073],[33.34970769915408,0.778316477795216],[33.348317040558065,0.7768096310326394],[33.34823899974361,0.776725261766801],[33.348238977093594,0.7767250454420076],[33.34823873416823,0.776724782220461],[33.34785861241846,0.773096459151083],[33.34676395957325,0.7723707179410398],[33.345914803101216,0.771807947234642],[33.34416352319805,0.768638511246528],[33.34663289193114,0.767347072424388],[33.346633097625,0.7673470682756698],[33.346633241686966,0.767346992728821],[33.34916020113757,0.7672460918580105],[33.34926455468848,0.7670018398730016],[33.34968194345516,0.7655833714288308],[33.34934693633618,0.7638380496091457],[33.348584078204325,0.762434041192379],[33.348655427224486,0.7602354218653875],[33.348655325543085,0.760234892125115],[33.34865544765876,0.760234792183469],[33.348655453063806,0.760234625626909],[33.34897525128666,0.759973059183504],[33.35180598839524,0.757656333383975],[33.348740091781096,0.752371745469187],[33.3501504324831,0.7460453456573594],[33.34996056887263,0.7458720074522409],[33.344456045460305,0.74369333575957],[33.342468025604184,0.744247067935059],[33.34246757638189,0.7442465449442298],[33.34246744141482,0.74424658249812],[33.3423615496046,0.7441231070974005],[33.340737484797636,0.742232348291031],[33.33809133764778,0.7437665819227783],[33.336790109609105,0.744521511087619],[33.3367897560667,0.7445212377008109],[33.3367894242014,0.744521430116002],[33.33359153923297,0.7420481247552968],[33.33356888310282,0.7420306052524989],[33.33356764315648,0.7420302420764273],[33.33055900539758,0.7412502063428038],[33.32596246753931,0.74244791319568],[33.3199611251421,0.749271922889664],[33.319960827917114,0.7492718659768255],[33.319958706808684,0.749274277742699],[33.31989893619657,0.7492600149088878],[33.31490002606002,0.7483028202611464],[33.312993830775106,0.7485273763820464],[33.312993625422976,0.748527412200736],[33.312874430902866,0.749846650146934],[33.31086651330999,0.750747827820794],[33.30753861609946,0.751170594283073],[33.30836520397251,0.7545137062889328],[33.30934392141903,0.756762451284935],[33.30942289940874,0.7587899511208112],[33.310097929994534,0.7591025892969859]]]}},{"type":"Feature","properties":{"n":"Bukanga","c":"229201","d":"Luuka","od":"Luuka","dc":"229","k":"BUKANGA","a":["BUKANGA"],"lat":0.707816,"lon":33.376947},"geometry":{"type":"Polygon","coordinates":[[[33.32200091902678,0.691069078190251],[33.32407560771797,0.693972703444808],[33.32379027218229,0.696132573603999],[33.32499869021269,0.699045591496025],[33.32227693482494,0.704289367152834],[33.322771236855374,0.706441739106086],[33.32224838319648,0.709191054686427],[33.324018584527174,0.715040309592502],[33.323735702629115,0.717370685681488],[33.32677211340466,0.7179215178274951],[33.332166062475316,0.718900007782048],[33.332166150442326,0.7189000445212581],[33.33216615604239,0.71890004553716],[33.33217904470897,0.718905429780737],[33.33382391878264,0.71959240748471],[33.338935552089595,0.724776965177662],[33.34462255634063,0.725431433218224],[33.34462262480963,0.7254315473375967],[33.3446226530697,0.725431550590215],[33.34499026002808,0.7260442962086797],[33.346299960857245,0.72822721466766],[33.34630048276869,0.7282306455456773],[33.34781807851991,0.7357135018958186],[33.34812330759695,0.736144122728285],[33.36272092392845,0.741962636715615],[33.36272093639393,0.7419626515016662],[33.36272180726507,0.74196298202973],[33.36565900803112,0.745447217445604],[33.36818224925722,0.743952117065873],[33.371782470424755,0.743535456880589],[33.37178461840682,0.743535900084544],[33.37668058929806,0.744236922593883],[33.37806251671986,0.7448312504549653],[33.37930986116128,0.745088621314396],[33.38025651859778,0.74577482854941],[33.3816425926827,0.74637093977291],[33.386298924973204,0.7501548110138709],[33.38630469622195,0.750158994441256],[33.38859530419393,0.754195524837125],[33.390458240955304,0.7597552608472015],[33.39161012186303,0.7631928873394871],[33.4027,0.7554],[33.40474189537845,0.7482023187909804],[33.40438456566361,0.744428828650165],[33.40647151105485,0.741548262223628],[33.40663949933339,0.7415132648498153],[33.4067,0.7413],[33.41597595476483,0.734704711061701],[33.4161393460283,0.734449498611088],[33.419798412367385,0.730676202602032],[33.42146456710093,0.729992518367659],[33.42213449407103,0.728709341807093],[33.42250988559071,0.729242497192016],[33.4235250384757,0.728049570263895],[33.42789981942396,0.7262267338958039],[33.4285,0.7258],[33.43042303458934,0.7194814577778782],[33.42997246987928,0.71941756326571],[33.42987431890049,0.718651233683018],[33.43131434292561,0.716552873244408],[33.43159652798836,0.7156256937525096],[33.43113347543013,0.71454313769135],[33.431960925766866,0.714230352467899],[33.432650371615146,0.712024938726747],[33.432649590396174,0.711839723310925],[33.429942912792,0.7032338765694444],[33.42757677411139,0.701200776149635],[33.42830196244758,0.6980164959871595],[33.42497405182564,0.6874354468302569],[33.4244263789247,0.686832730612808],[33.419085944859475,0.687564865277673],[33.414093269211406,0.690110207811466],[33.41109121927243,0.692941684118764],[33.40516189491283,0.692609624359988],[33.39989376507617,0.694536970130323],[33.39594601151727,0.694458348249863],[33.39413570474218,0.693307507310934],[33.39343031518776,0.688171496155279],[33.399341405993084,0.683031379873666],[33.400609944310354,0.682840353653818],[33.39780353328201,0.6800422482089],[33.39000887893666,0.679361358554248],[33.38977933714222,0.681085060500684],[33.39127854155583,0.684006684443473],[33.39139278835125,0.686314019961798],[33.38997019151005,0.687862035137233],[33.38796667476932,0.692687437571612],[33.38598646763287,0.694800992713912],[33.379267306855716,0.699169147379497],[33.37889931185519,0.690846205033157],[33.37500273389241,0.686846898828451],[33.3727829678833,0.686022068549517],[33.37188804506491,0.681842486062629],[33.36835552247832,0.676846208377171],[33.36681735390985,0.671647830175614],[33.36746709979086,0.666671839234316],[33.36979390111778,0.665308375923385],[33.370358564705626,0.664037302488116],[33.374811126665016,0.665403495071704],[33.377500425372475,0.667307281232982],[33.38037421263159,0.66378806117735],[33.38187897928959,0.655247710082255],[33.37724612840465,0.654873717840666],[33.37482094397772,0.652970842863219],[33.36813051373746,0.655444407674458],[33.360557907723766,0.654236916167827],[33.355275668434764,0.655550335025529],[33.353277100615145,0.654651052170864],[33.351952184690546,0.652540716445538],[33.34734067118371,0.654139783776533],[33.346462472308204,0.654725951416957],[33.34712968071278,0.656786373918147],[33.34590694495398,0.660823826584101],[33.34161050508272,0.667736062962661],[33.336497463063424,0.672790674211783],[33.3325665177956,0.674129637236761],[33.33190826792666,0.676169783505543],[33.3278742171037,0.677403774427182],[33.32284216864909,0.68154469515818],[33.32052890390452,0.685884431923871],[33.32247985516766,0.689167644424179],[33.32200091902678,0.691069078190251]]]}},{"type":"Feature","properties":{"n":"Bulanga Town Council","c":"229202","d":"Luuka","od":"Luuka","dc":"229","k":"BULANGATOWNCOUNCIL","a":["BULANGA","BULANGATOWNCOUNCIL"],"lat":0.57977,"lon":33.409597},"geometry":{"type":"Polygon","coordinates":[[[33.377385191945116,0.61140749031692],[33.37973950398009,0.613816675334964],[33.383006959809364,0.610889891515371],[33.386636891811094,0.609037623332965],[33.391238761226504,0.60910485278669],[33.399754467002204,0.607147617975511],[33.40858591847488,0.607839730552043],[33.41118435880468,0.610223755535739],[33.41309720724701,0.610602434868134],[33.413868508966615,0.6116682941390182],[33.4143625287953,0.6093419098548556],[33.41400752538492,0.608857595750087],[33.41451311893287,0.6086327672070277],[33.41466394576626,0.607922509937077],[33.41455605806799,0.607318850617995],[33.41492666017854,0.6066853638865054],[33.41565348515107,0.6032626790158647],[33.415330520991965,0.602671499632192],[33.41581302313016,0.6025114001688453],[33.415960342189514,0.6018176613257384],[33.415445525759374,0.598880655489371],[33.41647167094682,0.59697810849406],[33.41613512801268,0.594360423237784],[33.41775657913939,0.592231086524143],[33.41826859044449,0.58931585721738],[33.41873745972156,0.5887399624020886],[33.42307071120625,0.5683342872287565],[33.423472390806424,0.565522302655353],[33.422921493329845,0.5647455372887636],[33.41026221961104,0.562519730920623],[33.41023506192692,0.562529511258921],[33.41023054929799,0.5625141625139328],[33.40674286013387,0.5619009424411192],[33.40544149986617,0.562268464733894],[33.40193962163307,0.567735693134362],[33.399092055972446,0.5683541899607601],[33.3967,0.5708],[33.401098504546816,0.5921158297269007],[33.401905168093336,0.593356521474783],[33.401890979383026,0.5959562847023666],[33.4019,0.596],[33.401890726943265,0.5960025386315003],[33.40188997629465,0.596140078170749],[33.39923500301354,0.597348961526802],[33.39517533455833,0.5978409730486689],[33.393868321462065,0.5981987865198906],[33.38939092621615,0.600458129850377],[33.38490227443791,0.600777328476267],[33.381926615553894,0.60220232138003],[33.37561260508054,0.60340554393077],[33.377484384830254,0.608443159792478],[33.377385191945116,0.61140749031692]]]}},{"type":"Feature","properties":{"n":"Busalamu Town Council","c":"229203","d":"Luuka","od":"Luuka","dc":"229","k":"BUSALAMUTOWNCOUNCIL","a":["BUSALAMU","BUSALAMUTOWNCOUNCIL"],"lat":0.675287,"lon":33.385676},"geometry":{"type":"Polygon","coordinates":[[[33.36930075254394,0.6781831090674693],[33.37188804506491,0.681842486062629],[33.371888249028316,0.6818434386385147],[33.371888306439836,0.681843519854115],[33.372156459907764,0.683096071235955],[33.3727829678833,0.686022068549517],[33.37500273389241,0.686846898828451],[33.37889931185519,0.690846205033157],[33.379267306855716,0.699169147379497],[33.379364544978856,0.6991059324668972],[33.38728348972528,0.6934166285922885],[33.38739549760434,0.6932970780541556],[33.38855121939998,0.6912795815620054],[33.38997019151005,0.687862035137233],[33.39135615883422,0.686353878793608],[33.390555800843615,0.6825982196937265],[33.38977933714222,0.681085060500684],[33.389953932550604,0.6797739683485745],[33.38987677163407,0.679411892750226],[33.39000231813597,0.679410625682051],[33.39000887893666,0.679361358554248],[33.390513784192116,0.6794054637511929],[33.39532947922872,0.679356861728607],[33.39780064343186,0.6800419957706283],[33.39780353328201,0.6800422482089],[33.39780475801602,0.6800434693183077],[33.40108655372887,0.683029948117845],[33.4060189346186,0.683022950829747],[33.40372220713755,0.677766556704158],[33.40329152777508,0.673727356315232],[33.40708788895537,0.668506967255718],[33.40721640346982,0.666570208158232],[33.406538526869724,0.66483664898152],[33.402380764959666,0.666144357778693],[33.40243001286138,0.663536337231052],[33.40090480819381,0.662644972722009],[33.40029598937779,0.660247818642145],[33.40181876566093,0.658042854095544],[33.40052133123261,0.656337576262023],[33.39717126122972,0.654450642280358],[33.3975195277042,0.651778856947056],[33.387043164592015,0.652058601548606],[33.38263801772307,0.655514186770207],[33.38187899256258,0.655247703140212],[33.38131827986287,0.6584299775371908],[33.38037421263159,0.66378806117735],[33.380372560153035,0.6637900847911902],[33.37759474698816,0.667242442053545],[33.377567871879734,0.6672246867054021],[33.377500425372475,0.667307281232982],[33.37481124576472,0.6654035793837841],[33.37480760666728,0.6654024150205233],[33.3704001603698,0.6640500654071775],[33.3697992820541,0.6652962632861195],[33.36979390111778,0.665308375923385],[33.369793260794076,0.6653087511414442],[33.36979311810358,0.665309047075895],[33.36879592539821,0.665893171566694],[33.36746709979086,0.666671839234316],[33.366817390649054,0.6716475488133917],[33.36694270077879,0.6720714511262027],[33.368355399016124,0.6768457911256387],[33.36930075254394,0.6781831090674693]]]}},{"type":"Feature","properties":{"n":"Irongo","c":"229204","d":"Luuka","od":"Luuka","dc":"229","k":"IRONGO","a":["IRONGO"],"lat":0.717154,"lon":33.254072},"geometry":{"type":"MultiPolygon","coordinates":[[[[33.22049057276856,0.7238422014440914],[33.22511846449626,0.729317076587015],[33.22448541053883,0.7346922694743698],[33.23097538186187,0.7422283217014433],[33.234806940641896,0.74039194843248],[33.24083080425972,0.744236648172727],[33.24491802142772,0.749228676839186],[33.2494442364185,0.744461813093671],[33.252264324939496,0.746402324262609],[33.258741943331415,0.755048225629762],[33.25535021004805,0.757908239627385],[33.24996629776919,0.760649625507578],[33.25237190073906,0.772502282522834],[33.256624660404775,0.771996012195383],[33.260750987298394,0.769668739553369],[33.263422878448615,0.765969027708467],[33.26583796359841,0.760555936707468],[33.26765458435822,0.759514467179637],[33.262010575858795,0.754421714866459],[33.26028465692226,0.753986366105522],[33.26299894703224,0.746052372284622],[33.26678703699526,0.741845483460198],[33.272463659536875,0.738432559682424],[33.27541859483419,0.739906743563545],[33.277473591816154,0.742618244066204],[33.27851488057379,0.74957520098586],[33.285178636158896,0.760107632546049],[33.285825859815496,0.763876684983195],[33.28396693752966,0.769934135927559],[33.28520225698239,0.7711883459304824],[33.28873834158643,0.766579757252112],[33.28873851073701,0.7665796407475527],[33.28873851271294,0.766579637981119],[33.28873852718408,0.7665796294194333],[33.29664851329817,0.761131528555791],[33.296650662418436,0.7611274588332874],[33.298731303788486,0.756669364649463],[33.299163362067105,0.7563692373006186],[33.29933759729222,0.756039293449055],[33.30161203647823,0.7546682765840579],[33.30299027694231,0.753710888016302],[33.29917919812739,0.746112937394798],[33.29897933598029,0.743800136027458],[33.29997767709209,0.741390018516394],[33.293826783479425,0.734879037807948],[33.291573080197146,0.734598111035577],[33.28701662683367,0.738750263141532],[33.28131350638996,0.740296033280703],[33.27960188701336,0.739797900970601],[33.277583923777165,0.736547667446268],[33.278202524403895,0.732407233784663],[33.28020126761025,0.728290610920626],[33.28067454374198,0.723185302290034],[33.285448592222515,0.720706197810448],[33.287076781435005,0.717543246828015],[33.287148059269406,0.712846684968088],[33.28835108664364,0.711525287016592],[33.28696444466235,0.707498907219763],[33.2860261847307,0.706487061512855],[33.28030297597697,0.707211075215418],[33.27821117559781,0.706421816642796],[33.27717612986872,0.699427506394298],[33.27103017373009,0.696008338099696],[33.268538688673786,0.693538340585621],[33.263599039776096,0.693823838445077],[33.259340305795824,0.696409352034782],[33.258071722766765,0.696022499573732],[33.25668330949329,0.692368439712033],[33.255528508301204,0.692084795269326],[33.254889118335456,0.688304219066227],[33.25723049850295,0.683435707893412],[33.25728788163649,0.675407133281803],[33.26150121794015,0.672552557726022],[33.26710472171215,0.667056099560982],[33.26820395041586,0.664329492136052],[33.26720598380946,0.664392627793412],[33.267122344836814,0.662544813391626],[33.26673508508839,0.6621082660191469],[33.25984823630174,0.6639496694380367],[33.259716886752145,0.664033414470189],[33.25942103088625,0.6640638954849591],[33.25026137989816,0.6665130000272297],[33.25003734681672,0.666740852308328],[33.24466676446555,0.66802710668399],[33.24089001607033,0.672059145007906],[33.236291784620065,0.674393744031341],[33.23258550700859,0.679078051030819],[33.22669597628137,0.682517704567968],[33.22430896254741,0.6830798835114509],[33.22340757816773,0.6837464887038656],[33.222547332311514,0.704769535342605],[33.22162996137916,0.7070454080556121],[33.220970655674186,0.7167648502224576],[33.22115915567222,0.717567906382305],[33.22064667314845,0.7215409797147623],[33.22049057276856,0.7238422014440914]]],[[[33.27115257105644,0.792874497605349],[33.271170300286705,0.7928952268317916],[33.2712,0.7929],[33.2712612914653,0.793001614797731],[33.27550100354876,0.797958736484618],[33.27863637691754,0.804824240319355],[33.28356269752593,0.7974007298006647],[33.28605276325431,0.791603446982304],[33.2874032740429,0.7875361506975553],[33.287423189795305,0.7873993806899826],[33.28410621442952,0.784743608229969],[33.28178035863877,0.784469965561458],[33.27985293390532,0.784553250722349],[33.2773797476731,0.786582793460048],[33.27433088843111,0.787217633477426],[33.27026696949436,0.780983194804498],[33.27060157784939,0.77669031932373],[33.26844834918115,0.775862344651024],[33.260304648397685,0.776761628050941],[33.25635514979007,0.781053774581455],[33.26060032795626,0.789970965260645],[33.266177468011634,0.790259966561261],[33.27115257105644,0.792874497605349]]]]}},{"type":"Feature","properties":{"n":"Kyanvuma Town Council","c":"229205","d":"Luuka","od":"Luuka","dc":"229","k":"KYANVUMATOWNCOUNCIL","a":["KYANVUMA","KYANVUMATOWNCOUNCIL"],"lat":0.762131,"lon":33.275331},"geometry":{"type":"Polygon","coordinates":[[[33.25635514145859,0.78105376504295],[33.26030441210697,0.776761770328216],[33.2603045293946,0.7767617573784157],[33.260304648397685,0.776761628050941],[33.26844834918115,0.775862344651024],[33.27060157784939,0.77669031932373],[33.27032060486317,0.7802950770207396],[33.27026725783152,0.7809836371411645],[33.27433027973806,0.7872166996843216],[33.277274518493215,0.7866047045058155],[33.277379675727204,0.786582808440777],[33.279016189812104,0.7852398985273424],[33.27985293390532,0.784553250722349],[33.28178035863877,0.784469965561458],[33.28178038587156,0.7844699687654632],[33.28178042427412,0.784469967105795],[33.281869118275004,0.7844804083515104],[33.28410621442952,0.784743608229969],[33.285639703458806,0.7859714129262959],[33.287423191540405,0.787399368705627],[33.28743592991606,0.7873118888204045],[33.2872822056293,0.785160625863741],[33.285026756523074,0.778150274959667],[33.2850267466823,0.7781499019545143],[33.28502667644243,0.778149703953114],[33.28471812972758,0.772484586396707],[33.284869908880026,0.7722051159533833],[33.28485502340633,0.771640896394219],[33.285202321310614,0.7711882620913306],[33.285202321310614,0.7711882620913304],[33.28520225698239,0.7711883459304824],[33.28396693752966,0.769934135927559],[33.28397100822044,0.7699208712473352],[33.28568978001238,0.7630842357141854],[33.285362238595255,0.7611768258660929],[33.28407800750333,0.7583680285284902],[33.27851488057379,0.74957520098586],[33.277864589261675,0.7452305380761594],[33.277559829612294,0.745001352407694],[33.27772786149073,0.7443170458241869],[33.27750313237662,0.7428156075785514],[33.275419464810206,0.739907891468097],[33.27541859483419,0.739906743563545],[33.27246366157416,0.7384325606988005],[33.27176330935888,0.7388536272728305],[33.26678703699526,0.741845483460198],[33.26299894703224,0.746052372284622],[33.26299667082886,0.74605902573094],[33.26030793648461,0.7539922381823674],[33.262010575858795,0.754421714866459],[33.26765458435822,0.759514467179637],[33.26583796359841,0.760555936707468],[33.263422878448615,0.765969027708467],[33.26342285984886,0.7659690534631612],[33.26342284544298,0.765969085751925],[33.263317282938765,0.7661152436044744],[33.260750987298394,0.769668739553369],[33.2607506216635,0.7696689457736033],[33.260750593881056,0.769668984240117],[33.26020314898358,0.7699777235857033],[33.256624660404775,0.771996012195383],[33.25257357804174,0.7724782738221093],[33.25237190312107,0.772502294006258],[33.252807301356626,0.775192125677547],[33.25635514145859,0.78105376504295]]]}},{"type":"Feature","properties":{"n":"Nawampiti","c":"229206","d":"Luuka","od":"Luuka","dc":"229","k":"NAWAMPITI","a":["NAWAMPITI"],"lat":0.700337,"lon":33.30082},"geometry":{"type":"Polygon","coordinates":[[[33.2636000438935,0.693823537203532],[33.26651313836237,0.6936554117155955],[33.268538688673786,0.693538340585621],[33.27103015346083,0.6960083180052474],[33.271196615110746,0.6961009341219944],[33.27717612986872,0.699427506394298],[33.27717618094944,0.6994278515716741],[33.27717638256285,0.699427963745568],[33.277575015726086,0.7021229732338374],[33.27821117559781,0.706421816642796],[33.28030297597697,0.707211075215418],[33.2860261847307,0.706487061512855],[33.28696444466235,0.707498907219763],[33.28724029762915,0.7082998989879166],[33.2880140618693,0.70945446056207],[33.28835066570253,0.711523891427845],[33.28835062241403,0.7115239390372788],[33.28835108664364,0.711525287016592],[33.287148092271856,0.712846648718398],[33.2871767352631,0.717229030388178],[33.28707855701493,0.7174262522389541],[33.287076781435005,0.717543246828015],[33.285448592222515,0.720706197810448],[33.28067454374198,0.723185302290034],[33.28021347123826,0.7281589683483249],[33.28020135905039,0.728290188011952],[33.28020128941228,0.7282903757384779],[33.28020126761025,0.728290610920626],[33.28020099029737,0.7282911820758171],[33.27788449880835,0.7345358508991157],[33.27765932235889,0.7360430077153745],[33.279600453592465,0.739795592230503],[33.27960188701336,0.739797900970601],[33.280989107469985,0.7402016235155351],[33.28131375938568,0.7402959647089029],[33.28701590260312,0.7387504594365181],[33.287926223519506,0.7379213763970843],[33.291573080197146,0.734598111035577],[33.293826783479425,0.734879037807948],[33.29832508719868,0.739640682307295],[33.299974838452464,0.741386614839156],[33.29997472392846,0.7413868924679461],[33.29997767709209,0.741390018516394],[33.29897933598029,0.743800136027458],[33.29917919812739,0.746112937394798],[33.302507069751755,0.752747542844996],[33.30299028748696,0.753710883353971],[33.3033144740703,0.7536420584883249],[33.30362059501167,0.753457530814016],[33.30759037405896,0.7527342842084409],[33.307590724453426,0.752734209819637],[33.30753969233304,0.7511749470803054],[33.30753861609946,0.751170594283073],[33.307546038918105,0.7511696513096033],[33.30832271222306,0.750747855120609],[33.31287142366476,0.7498479998317269],[33.312873872632046,0.7498469007056217],[33.31287530422466,0.749836984272618],[33.312993625422976,0.748527412200736],[33.312993830775106,0.7485273763820464],[33.3129936294006,0.74852740010463],[33.31389533767232,0.742763498910612],[33.31339526622477,0.737003377433938],[33.313395375712965,0.7370028879627073],[33.31339534939532,0.7370025853216],[33.313659303361625,0.7358229891845329],[33.31430806328243,0.732922682824951],[33.31703849432833,0.728669398669219],[33.3189944425135,0.727460416823758],[33.31909678905743,0.7262731119674869],[33.31912844459643,0.725901183139341],[33.31912886934473,0.7259009540085597],[33.31912906504788,0.725898683689561],[33.32038493115639,0.725223370544365],[33.32057771397192,0.7251193737133386],[33.32032065212985,0.724224394196878],[33.32028915083573,0.724116473647393],[33.32028956273803,0.7241161542160283],[33.3202894337838,0.724115705252486],[33.32282653338249,0.722146702797052],[33.322828471430455,0.7221472235677434],[33.32282873830897,0.722147016602725],[33.3229200394042,0.7221718286950634],[33.32378437627984,0.7224040836855707],[33.32404632490783,0.7217751590497105],[33.32451543938104,0.720647341473596],[33.3230734193422,0.719796975134148],[33.32311589549423,0.7197650515001894],[33.323067455626095,0.719734518873259],[33.32450894981849,0.718716071839315],[33.32373397026704,0.717805097466331],[33.323757553081805,0.7174086601243624],[33.323735703687404,0.717370697571812],[33.32375955398125,0.7173750241371231],[33.323759554664306,0.7173750126545833],[33.323735702629115,0.717370685681488],[33.32378298082479,0.7169812087390637],[33.32391817541904,0.714708528987565],[33.32384322989758,0.7144608874049357],[33.322682146035845,0.71232219082388],[33.32270679864449,0.710705791322201],[33.32224838319648,0.709191054686427],[33.322771236855374,0.706441739106086],[33.32277069036845,0.7064393595019953],[33.32221991811348,0.705946432716377],[33.32230189309896,0.7043980446125574],[33.32227693482494,0.704289367152834],[33.322311135117246,0.7042234763453576],[33.322325906719115,0.703944462296475],[33.32385607409603,0.7012469732236433],[33.3249111573314,0.6992142336870691],[33.32481493877907,0.6986026394708601],[33.32379027218229,0.696132573603999],[33.32380977246411,0.6959849646611215],[33.32247680509913,0.694466677295047],[33.32285751241237,0.693534207189895],[33.32039306991935,0.692868264296927],[33.31819461358129,0.690846045064945],[33.31585232235213,0.69069702479298],[33.314400516048394,0.689758894035172],[33.313777499243166,0.687874685567798],[33.31070504165901,0.685353390677576],[33.30885771625976,0.680658121487103],[33.311237026328094,0.672892295060901],[33.31090422805609,0.668511973422707],[33.31164663187802,0.662685845350145],[33.31409515580687,0.6570485103300571],[33.3132,0.6579],[33.299948997684766,0.6454335965060588],[33.29522562169056,0.646538661298243],[33.29147152821937,0.649695090259724],[33.28757135826221,0.654891470313518],[33.28388878076499,0.656436835593803],[33.283635641675986,0.656609230180237],[33.2821,0.658],[33.28126606234706,0.658222977982071],[33.2756845984105,0.662024106329474],[33.26820396268333,0.664329491638098],[33.26820392431145,0.6643295568873461],[33.26710472171215,0.667056099560982],[33.26591312604983,0.6682249317727688],[33.265320122915725,0.66923330058214],[33.26331146173668,0.6707768956222805],[33.26150121794015,0.672552557726022],[33.25728788163649,0.675407133281803],[33.257232423030175,0.6831664439220659],[33.257230622398005,0.683434773046793],[33.257230503416125,0.6834350204821082],[33.25723049850295,0.683435707893412],[33.254889118335456,0.688304219066227],[33.25491191808709,0.688439029124365],[33.255529035924646,0.6920849248651886],[33.25668330949329,0.692368439712033],[33.258071722766765,0.696022499573732],[33.259340305795824,0.696409352034782],[33.263599039776096,0.693823838445077],[33.26359960295858,0.6938238058947085],[33.2636000438935,0.693823537203532]]]}},{"type":"Feature","properties":{"n":"Waibuga","c":"229207","d":"Luuka","od":"Luuka","dc":"229","k":"WAIBUGA","a":["WAIBUGA"],"lat":0.651449,"lon":33.357571},"geometry":{"type":"Polygon","coordinates":[[[33.31377722698545,0.687874388877909],[33.31377726023255,0.6878744894328689],[33.313777499243166,0.687874685567798],[33.314400516048394,0.689758894035172],[33.31585232235213,0.69069702479298],[33.31819461358129,0.690846045064945],[33.3181949703467,0.6908463732306064],[33.318195315664255,0.69084639512012],[33.319285240859784,0.6918492432723942],[33.32039286307394,0.6928680740330828],[33.320603587105985,0.6929251503572368],[33.32285751241237,0.693534207189895],[33.322498696984326,0.6944130572888622],[33.322476883375764,0.6944667664543372],[33.32247775928572,0.6944677641404389],[33.3238472588921,0.695647199443804],[33.32407263450268,0.6939952094357855],[33.32407560771797,0.693972703444808],[33.32200091902678,0.691069078190251],[33.322479834861554,0.6891677250418323],[33.322219992325635,0.6887303270255338],[33.32052890390452,0.685884431923871],[33.320531634866086,0.6858793085784506],[33.32124247173831,0.684195511708544],[33.322839973333764,0.6815488136191772],[33.32284216864909,0.68154469515818],[33.32284903071327,0.681539048300027],[33.32761768326137,0.677584367120381],[33.327679540484525,0.677563975676324],[33.3278742171037,0.677403774427182],[33.33190826792666,0.676169783505543],[33.3325665177956,0.674129637236761],[33.33568597550964,0.673067084020548],[33.33649764834644,0.6727904910461459],[33.341610144968435,0.6677364189616337],[33.344992234581134,0.6622954390131078],[33.345906915041965,0.6608238747074108],[33.34712964781434,0.6567862723236694],[33.346462472308204,0.654725951416957],[33.347338902882164,0.6541409640571856],[33.347340317843994,0.654140015976057],[33.347340329200534,0.6541400120385764],[33.34734067118371,0.654139783776533],[33.351952184690546,0.652540716445538],[33.351952337929674,0.6525409605259322],[33.351952712631935,0.652540830611126],[33.35303079246396,0.6542587307554263],[33.353277065815114,0.6546509967411219],[33.35444498648058,0.6551765583481772],[33.355275668434764,0.655550335025529],[33.357630701488425,0.6549647604890575],[33.36055774550774,0.654236924145632],[33.36055782479101,0.6542369367889003],[33.360557907723766,0.654236916167827],[33.36813051373746,0.655444407674458],[33.368146276900774,0.6554385797673304],[33.3741859814517,0.652789877383004],[33.3745817192265,0.6530592882853127],[33.37482094397772,0.652970842863219],[33.37724083768534,0.6548695665780772],[33.377247044052865,0.6548737917574261],[33.38187897928959,0.655247710082255],[33.38184823045794,0.6554222260556263],[33.381848241612865,0.6554222273840804],[33.38187899256258,0.655247703140212],[33.38263801772307,0.655514186770207],[33.38264545352335,0.655508353811091],[33.386382114823654,0.652219623429023],[33.386895320722864,0.6521745765897403],[33.387043164592015,0.652058601548606],[33.388729640225755,0.6520135685109829],[33.39586048721707,0.651387655755773],[33.39751082461987,0.6517790893407628],[33.3975195277042,0.651778856947056],[33.3975192373175,0.6517810846978266],[33.39751965373067,0.651781183464356],[33.39747011878113,0.6521579058813362],[33.39717126122972,0.654450642280358],[33.40052133123261,0.656337576262023],[33.40099953863462,0.6569661062784016],[33.40152068535546,0.657308403793751],[33.40172609688989,0.6579210552611229],[33.40181876566093,0.658042854095544],[33.40178387357566,0.6580933774795965],[33.4018216449137,0.658206032622077],[33.40030579865552,0.6602336149079007],[33.400296096863116,0.6602476630044849],[33.40082870222111,0.662345314205963],[33.40090480819381,0.662644972722009],[33.40243001286138,0.663536337231052],[33.402430008604135,0.6635365626819836],[33.40243004444099,0.663536583630681],[33.40242958516376,0.6635589868087803],[33.402380764959666,0.666144357778693],[33.406538526869724,0.66483664898152],[33.40721640346982,0.666570208158232],[33.4071817852787,0.6670919165183025],[33.40732578452744,0.667593819775325],[33.407124250565886,0.6679589849497652],[33.40708788895537,0.668506967255718],[33.40598424958719,0.6700245854721313],[33.40409308553061,0.673451239954132],[33.403296678244864,0.6737202738868646],[33.40329152777508,0.673727356315232],[33.4037222019439,0.6777665079946529],[33.40375337318257,0.677837884720784],[33.4060189346186,0.683022950829747],[33.40601776654425,0.6830229524868275],[33.4060178103991,0.68302305290682],[33.40601573337338,0.6830229553711714],[33.40108655372887,0.683029948117845],[33.400810251875015,0.682778509667374],[33.400534950418916,0.6827655817070662],[33.400609944310354,0.682840353653818],[33.399585757298986,0.6829945835817084],[33.397852854083006,0.6843257822371209],[33.39384391599983,0.687811840663889],[33.393467164017274,0.6884397961297879],[33.39413570474218,0.693307507310934],[33.39413805398922,0.6933090007648051],[33.39720943372063,0.6944835100609946],[33.39823171348528,0.6945038693757932],[33.40516122134841,0.6926098707835916],[33.40516189491283,0.692609624359988],[33.40516208415502,0.6926096349581123],[33.405162104671746,0.692609629350406],[33.40516219396406,0.6926096411077444],[33.41042467682233,0.6929043557636647],[33.41246323921241,0.6916476210511446],[33.414093269211406,0.690110207811466],[33.419085944859475,0.687564865277673],[33.4244263789247,0.686832730612808],[33.424712016313194,0.6871470757010105],[33.42489877803175,0.6871331990691601],[33.42485437888064,0.6847060454750724],[33.424742355094644,0.684513629269875],[33.424850493332514,0.6844936355108975],[33.4246873286266,0.6755739649206526],[33.42409864111334,0.67460898423504],[33.42446886264991,0.6704489757800756],[33.424388242805705,0.6702331751869849],[33.4233046392041,0.669484553425074],[33.42185193995246,0.6634440816909345],[33.41871009243463,0.6550340858098558],[33.417537900416924,0.65458008075386],[33.417115853343056,0.65353738442237],[33.41762504288187,0.6521296602393618],[33.417528347779985,0.651870829916111],[33.417044188869454,0.651599037918935],[33.417393786545105,0.651510640752038],[33.417136843453164,0.6508228637887769],[33.41609481291344,0.64936973434256],[33.416261458214976,0.6484796608784587],[33.4147,0.6443],[33.41465761802941,0.6436843461113808],[33.41419277546791,0.643722331491114],[33.41462294047831,0.643180609053343],[33.4128,0.6167],[33.413868508966615,0.6116682941390179],[33.41381695797102,0.611597055990342],[33.41217934917097,0.6104207299950364],[33.41118435880468,0.610223755535739],[33.40858591847488,0.607839730552043],[33.40492926055481,0.6075531616972645],[33.40351379927924,0.607908782664254],[33.399755223503995,0.6071476772618477],[33.399754467002204,0.607147617975511],[33.391238761226504,0.60910485278669],[33.38663714089464,0.6090376269718668],[33.382647934802996,0.6112114837982869],[33.38196107557305,0.6118267295997822],[33.38129151308444,0.612850898014386],[33.380847086639605,0.6128245716383522],[33.379823152363784,0.6137417483126187],[33.379035102445094,0.615214462803953],[33.37632864661835,0.616684289357084],[33.37574923351965,0.618430055437524],[33.37391116494354,0.6203863802804008],[33.3739,0.6205],[33.37378493395744,0.6205207326202815],[33.373498528068964,0.620825565074331],[33.37160659199393,0.6209132266677604],[33.35189447946289,0.6244649586553351],[33.345686388138894,0.629623659481029],[33.34194448484554,0.630589974451395],[33.3418632353794,0.6306349712244791],[33.31354743185881,0.6575695160367437],[33.31354743185881,0.657569516036748],[33.31409515580687,0.6570485103300571],[33.31164690342863,0.6626852201482699],[33.311646611369916,0.6626860062906615],[33.31164648915405,0.6626869653984476],[33.311210581273635,0.6725442228081169],[33.311237026328094,0.672892295060901],[33.31118813152375,0.673051882736641],[33.311180078713896,0.673233982265408],[33.3108588211532,0.6741267183421732],[33.30893861578092,0.6803940736659898],[33.31070376140787,0.6853501367171515],[33.310705014419106,0.6853533214430562],[33.31377722698545,0.687874388877909]]]}}]}
