{"type":"FeatureCollection","name":"Madi Okollo sub-counties","metadata":{"source":"Uganda Bureau of Statistics NPHC 2024 Map Explorer","retrieved":"2026-07-26","display_only":true,"clipped_to_dashboard_district":true,"positive_area_overlaps_removed":true,"source_gap_ratio":0.01721094},"features":[{"type":"Feature","properties":{"n":"Ewanga","c":"336101","d":"Madi-Okollo","od":"Madi Okollo","dc":"336","k":"EWANGA","a":["EWANGA"],"lat":3.15417,"lon":31.4604},"geometry":{"type":"Polygon","coordinates":[[[31.463974969531446,3.184890707970963],[31.467271736996103,3.187158349944632],[31.476565968761353,3.1887799997578403],[31.476622863436578,3.188784886348354],[31.480630075389378,3.184332299399084],[31.48835250855049,3.17813109535456],[31.490201659474565,3.173772237923375],[31.49124080911306,3.173042863137834],[31.493734728132537,3.172419838674376],[31.4953990566705,3.170856417747994],[31.495564950411605,3.1709158606165007],[31.5006,3.1714],[31.507155543964988,3.167875330907137],[31.53898712217567,3.150650707374282],[31.53897825513924,3.1506354006861277],[31.530670137919312,3.1462270119571865],[31.530243964598448,3.146188439584469],[31.52435194951417,3.14289742368566],[31.52428232926311,3.142700181767543],[31.51023898288191,3.1188529897994637],[31.504968262092873,3.121463091543081],[31.49443611557159,3.124370077868156],[31.489878675967717,3.124126568356222],[31.48398941510653,3.121827817999273],[31.482644728573703,3.126327394342875],[31.481076756783676,3.125693643591038],[31.480131254491607,3.127113172578259],[31.478482231528545,3.126874572180102],[31.475494294011142,3.127975320051264],[31.474791462476084,3.127579520630801],[31.475890092789445,3.126396898866958],[31.47510690831257,3.12465819618983],[31.470545152431146,3.127889685693526],[31.466298923538524,3.129699989178286],[31.46378712104876,3.128590605906123],[31.462450608325174,3.128982085643554],[31.46182368052933,3.128034851628193],[31.460254835536222,3.127873708326367],[31.460411038563066,3.126927046986892],[31.458606712119675,3.125028870885617],[31.456012290965937,3.125655235175091],[31.454288178616675,3.123126976145134],[31.45279572217802,3.122887829047534],[31.452633866634574,3.12344031294868],[31.4487887067678,3.122881889309728],[31.446033190548288,3.127456557734265],[31.444618626712572,3.126903636892008],[31.444064554443454,3.128484153349218],[31.441002126124083,3.130608319743834],[31.44021514436373,3.129345419088905],[31.43880149379753,3.128948406856271],[31.438405573657253,3.12997378051339],[31.436993703763918,3.129419571368818],[31.43353444825213,3.130993893118585],[31.432666918570995,3.132335392100797],[31.428667590747853,3.133065537214744],[31.427628164757717,3.132103696669392],[31.42413256493951,3.132165727815109],[31.423794209808133,3.130810258828453],[31.42171214482974,3.129235495441488],[31.41678114376179,3.127729823082926],[31.41410993712656,3.129903623757532],[31.414053779099376,3.131544881470057],[31.411674810116843,3.133923980295169],[31.399063729665684,3.139277862491731],[31.39651332958451,3.144306756642481],[31.39380516806256,3.145900624590967],[31.392643843190662,3.145663180640724],[31.38937201293372,3.149262227876527],[31.388301331713347,3.151076448998866],[31.388747227367286,3.152683059943491],[31.387885094810663,3.155656113477402],[31.386665448647495,3.157828071942042],[31.38823700759969,3.165033174631176],[31.39057755089222,3.166766165670449],[31.38943656658458,3.169182561818441],[31.387951473142692,3.169201994260032],[31.38798954185868,3.173523088739979],[31.3888655969254,3.173828916329068],[31.38918856008697,3.175235973582203],[31.386258259098092,3.178661770444604],[31.383154476046666,3.178586590866463],[31.38320838033552,3.1802255218886],[31.380889232035237,3.183421652226234],[31.381917325438675,3.188160540847078],[31.379080527999424,3.190445240819371],[31.376587160788763,3.190464860944015],[31.375623291983306,3.1915043275129267],[31.3832,3.192],[31.3886,3.18],[31.4088,3.184],[31.44,3.1824],[31.458209692546625,3.1855772119807906],[31.460129467219215,3.184803525040436],[31.463974969531446,3.184890707970963]]]}},{"type":"Feature","properties":{"n":"Inde Town Council","c":"336102","d":"Madi-Okollo","od":"Madi Okollo","dc":"336","k":"INDETOWNCOUNCIL","a":["INDE","INDETOWNCOUNCIL"],"lat":2.872152,"lon":31.188371},"geometry":{"type":"Polygon","coordinates":[[[31.109923826134697,2.9112691796661085],[31.110008857519034,2.9113981229098735],[31.1251,2.9082],[31.12521588303688,2.908447964777837],[31.127637714764166,2.909386312064118],[31.130536422941194,2.91386097500212],[31.13086679012424,2.915827591137196],[31.133118186811352,2.913550871034112],[31.138540614988823,2.913829382358039],[31.14141600351503,2.911336376910429],[31.14418294966582,2.913096024494293],[31.146016232295406,2.911394501968771],[31.14724201035622,2.911261518660461],[31.147862011358445,2.911900922696001],[31.146987585195987,2.912577391176457],[31.147893440501637,2.91303464878825],[31.151076063288613,2.907858242219992],[31.153239995805357,2.908367664538247],[31.154552353051763,2.906853000724497],[31.156960623792724,2.90782480279745],[31.16005008666696,2.905720611218649],[31.16468595855793,2.904695314190848],[31.167929420149612,2.902048289837964],[31.170129704920104,2.902078150722442],[31.17501328038318,2.904348074609743],[31.179942868941144,2.90338309620011],[31.185010108707377,2.903644554015123],[31.196404264123505,2.898446701586071],[31.20272058338296,2.893617092571505],[31.20644523964819,2.900428102228346],[31.21310805272597,2.907852835320085],[31.215963077170365,2.914895479766578],[31.216534153657186,2.927458780821743],[31.23310141509825,2.939522691538536],[31.239275848008425,2.942372050026489],[31.2428279967562,2.942556994323175],[31.24745579757711,2.934787406421306],[31.260095141034032,2.929880269765941],[31.268969988258537,2.934448660393112],[31.27365379579424,2.931410420741642],[31.27389389394043,2.930127800760605],[31.27791979441821,2.930302931348846],[31.279328900268467,2.931486732455576],[31.287758544791995,2.930993294082294],[31.289475395178332,2.928227381324548],[31.28997124826955,2.920826499091906],[31.277287096434147,2.914402481855662],[31.27511666876272,2.909802076858042],[31.276877924018578,2.901849078327592],[31.282403573083524,2.899690469588389],[31.28359349789695,2.896418518238754],[31.286864781197483,2.892255058638829],[31.29281371378549,2.888834178451754],[31.295451451001323,2.879339909018634],[31.291413005897564,2.877509492025436],[31.288428194989702,2.877504880440736],[31.278153124722028,2.874488546101525],[31.273076609686225,2.869814503702003],[31.2739685528974,2.863923883294173],[31.273379734801157,2.849101722051417],[31.249922999478095,2.843237538970166],[31.21527804657851,2.848948223702269],[31.190531889057716,2.849223202096762],[31.187672818936992,2.856686894840986],[31.183658943098088,2.863008189676127],[31.174626597152578,2.857846605247592],[31.15336960839535,2.834026669148144],[31.1455299289597,2.820759569928971],[31.128659061026855,2.804591182824988],[31.128873834783764,2.805398347452443],[31.12553035239939,2.804024189707533],[31.120944242937778,2.806208354839876],[31.111313593120812,2.817600044507935],[31.10889536566347,2.826952313619146],[31.11070915531641,2.828500603429043],[31.113805195530343,2.829334007414786],[31.112086722182973,2.83155748304179],[31.110917628421586,2.832322723445728],[31.109602673542973,2.831968990101638],[31.110016302818075,2.831210370897767],[31.109179118179178,2.830874436801993],[31.106753312405427,2.831683573060721],[31.105832703561994,2.830335452485215],[31.10047928475233,2.829594224236928],[31.097389320912985,2.830701308715252],[31.097946420336804,2.835334098578297],[31.096368525171385,2.837987590381],[31.10233595750251,2.847238910633149],[31.10387942685525,2.852603142673856],[31.104112119323307,2.859638288462417],[31.103916771440463,2.860457453096444],[31.1041,2.861],[31.10248880978849,2.866445415018649],[31.09984438725782,2.877534439291777],[31.096484148426924,2.8867396502532996],[31.09625118014232,2.8875270240759563],[31.097685586723777,2.8902513337212703],[31.109923826134697,2.9112691796661085]]]}},{"type":"Feature","properties":{"n":"Ogoko","c":"336103","d":"Madi-Okollo","od":"Madi Okollo","dc":"336","k":"OGOKO","a":["OGOKO"],"lat":2.937155,"lon":31.308616},"geometry":{"type":"MultiPolygon","coordinates":[[[[31.155286755455656,2.955905278382532],[31.156833859497045,2.956508855392022],[31.15788987177994,2.959635157630477],[31.160436130735704,2.962355634091863],[31.16008023364494,2.965445364326885],[31.16030020858778,2.9657646694956035],[31.1774,2.9768],[31.178463030645144,2.9806977790321953],[31.178618759909906,2.980930765110103],[31.178577871796673,2.981118863254465],[31.1822,2.9944],[31.184242784265596,2.9951165787737954],[31.18505562049608,2.995328917577194],[31.18496511260486,2.995369960966103],[31.20120407932523,3.0010663524334573],[31.20304256774818,3.000131812591571],[31.205595138185306,2.996817588998127],[31.212927208794945,2.994198211106482],[31.216674945611746,2.994079086818255],[31.219411218065634,2.992056616780392],[31.22108070756617,2.982220034353079],[31.22296708105414,2.982046983623629],[31.224312846852964,2.980327486907046],[31.227920056428392,2.98225758436807],[31.229270346206416,2.977870751218896],[31.22826697981901,2.976316516336498],[31.23024562551478,2.976994511487244],[31.231690327244642,2.97655794282166],[31.23165993748821,2.975409390152565],[31.23374225236378,2.974400493034842],[31.235424723340305,2.972242554762472],[31.233549216107296,2.969813768202435],[31.234925822790874,2.969236833477439],[31.23439333691933,2.967074218178244],[31.23694573953284,2.965729002708371],[31.239363026418694,2.966441706689379],[31.242624053969042,2.964151108180491],[31.240982647599786,2.961480358569069],[31.241220270893525,2.959257046875649],[31.24545059663088,2.96054307543201],[31.246794858381556,2.959903735963595],[31.246903800780924,2.957683577753807],[31.24935872677358,2.958455452307019],[31.249365786084024,2.959668072727903],[31.251197851296094,2.957085109427634],[31.2537332472559,2.958020145916432],[31.256023605601083,2.957218950039949],[31.25751195826839,2.955213773320864],[31.257772899273835,2.951814183567379],[31.25923281016586,2.952096665329977],[31.26249090600046,2.94875857309695],[31.262964982283428,2.949252734559047],[31.266140161853283,2.947706681560852],[31.271537676592,2.95042170048729],[31.272451571580177,2.955504104316288],[31.274734349803108,2.959117790011674],[31.277484920215894,2.960726223404439],[31.281901109640103,2.961878804926416],[31.28324559561723,2.963421758526913],[31.284792114687267,2.963808393947954],[31.289163897043025,2.964762613536776],[31.290154812922008,2.955518188523927],[31.297629471204694,2.958369091663601],[31.3060996511332,2.957609269066984],[31.304241280062413,2.960251244375054],[31.30371683107452,2.963388961685082],[31.30080557231216,2.97015954830751],[31.29912456602357,2.970007050075455],[31.297839662081014,2.971563211851942],[31.298681985706164,2.972491195151041],[31.30006313280789,2.972487632376178],[31.299650472752063,2.984524991103431],[31.31164029023567,2.980510287327133],[31.32302258961366,2.978050020049673],[31.326936358368418,2.977920261307838],[31.33951515083873,2.975145032917267],[31.350236296534106,2.975139432098614],[31.350081022507748,2.973377266342956],[31.35797226491296,2.97359529571264],[31.357706981280657,2.975292358228926],[31.360560407827705,2.975875141771914],[31.360284796731037,2.973836204308142],[31.36152181885798,2.971000585853004],[31.36616654452851,2.966926667322823],[31.364140942926213,2.961791366720099],[31.365045342277543,2.960201946926374],[31.364166749443083,2.958946420882613],[31.386273988614132,2.949138231746009],[31.382477914975343,2.945972564278271],[31.37632654555402,2.946562367199884],[31.374248554387666,2.943734805051632],[31.369808762352857,2.934196479271032],[31.36544055400304,2.92995491956703],[31.37998677736181,2.922707228079678],[31.392843167192993,2.919108804918589],[31.3797,2.903],[31.379496364352082,2.9024312245696056],[31.379072276637928,2.902017253090562],[31.376649165256236,2.894478702957071],[31.37581892268221,2.8921597495606637],[31.371798760595787,2.884305816868434],[31.370949430834187,2.878417986937063],[31.37272321485263,2.869677108818098],[31.36470878847481,2.872060259988962],[31.35796646407751,2.871606012648773],[31.34347561164829,2.877920231075485],[31.30821006416071,2.880757745278843],[31.2954514616746,2.879339913826618],[31.295316947023696,2.879824042538742],[31.29281371378549,2.888834178451754],[31.286864781197483,2.892255058638829],[31.28359349789695,2.896418518238754],[31.282403573083524,2.899690469588389],[31.276877924018578,2.901849078327592],[31.27530553399876,2.908949250477722],[31.275116701108676,2.9098021454180283],[31.277287096434147,2.914402481855662],[31.28997124826955,2.920826499091906],[31.289475395178332,2.928227381324548],[31.287758544791995,2.930993294082294],[31.287173591718002,2.931027534944109],[31.286953416386247,2.931295414116976],[31.286072979744617,2.9310919604581676],[31.27933064972928,2.931486630048992],[31.279330487101056,2.931486652708864],[31.279330472468025,2.9314866404251716],[31.279328900268467,2.931486732455576],[31.27791979441821,2.930302931348846],[31.276490822460246,2.9302407696781936],[31.273893866106903,2.9301279494491093],[31.27365379579424,2.931410420741642],[31.268969988258537,2.934448660393112],[31.2600951480727,2.9298802733891445],[31.259271203646385,2.9302001576913255],[31.24745579757711,2.934787406421306],[31.2428279967562,2.942556994323175],[31.239275848008425,2.942372050026489],[31.239274987794808,2.9423716530577293],[31.239274972728893,2.942371652277663],[31.23889219189512,2.9421950015721916],[31.23310141509825,2.939522691538536],[31.216534153657186,2.927458780821743],[31.215963077170365,2.914895479766578],[31.213108076990622,2.9078528951750178],[31.213108052724493,2.907852835318438],[31.20644523964819,2.900428102228346],[31.20272058338296,2.893617092571505],[31.196404264123505,2.898446701586071],[31.185010108707377,2.903644554015123],[31.179942868941144,2.90338309620011],[31.17501328038318,2.904348074609743],[31.170462715557463,2.9022329366587254],[31.170129522158177,2.902078148242112],[31.167929420149612,2.902048289837964],[31.16468595855793,2.904695314190848],[31.16005008666696,2.905720611218649],[31.156960623792724,2.90782480279745],[31.154552353051763,2.906853000724497],[31.153239995805357,2.908367664538247],[31.151076063288613,2.907858242219992],[31.14890043945337,2.911396805934449],[31.14789434225492,2.913034199419686],[31.14789386468678,2.91303395886836],[31.147893440501637,2.91303464878825],[31.147056351229033,2.912612102892387],[31.146988952084815,2.912578153907447],[31.14698900902759,2.9125781098981274],[31.146987585195987,2.912577391176457],[31.147860342319618,2.911902213888107],[31.147241913841256,2.911261529131263],[31.146016232295406,2.911394501968771],[31.14418294966582,2.913096024494293],[31.14141600351503,2.911336376910429],[31.138540614988823,2.913829382358039],[31.138539225198755,2.9138293109744704],[31.13853920417352,2.913829329199968],[31.138366825451786,2.9138204560334366],[31.133118186811352,2.913550871034112],[31.133116327890658,2.913552750863704],[31.13078107369306,2.916582506594256],[31.132367816476297,2.918359159623737],[31.131421849396673,2.919756121538841],[31.133430073063636,2.924160282991674],[31.134044265146898,2.9273388039164843],[31.1344,2.9281],[31.151487022563877,2.9530020173799136],[31.155038233318987,2.954905707913962],[31.155286755455656,2.955905278382532]]],[[[31.185864047335837,3.004016772083567],[31.1890045755007,3.003561386395308],[31.192175959953538,3.004421612974668],[31.193210548978914,3.002584912927158],[31.180620377211223,3.004895985553008],[31.181935118900434,3.00611447459539],[31.185864047335837,3.004016772083567]]],[[[31.19610406290196,3.002619521714187],[31.19604032861674,3.002065473925146],[31.19445864527313,3.002355810319727],[31.19450152510752,3.002485313113319],[31.19610406290196,3.002619521714187]]],[[[31.2009146587092,3.001213470627604],[31.20104625436634,3.001146577965631],[31.197838460892264,3.0017354058088173],[31.19787160120833,3.001866113431689],[31.2009146587092,3.001213470627604]]]]}},{"type":"Feature","properties":{"n":"Pawor","c":"336104","d":"Madi-Okollo","od":"Madi Okollo","dc":"336","k":"PAWOR","a":["PAWOR"],"lat":2.814451,"lon":31.31572},"geometry":{"type":"Polygon","coordinates":[[[31.273968553888608,2.863923741386478],[31.273968548635896,2.8639237760204628],[31.2739685528974,2.863923883294173],[31.273076644569937,2.869814273321077],[31.276687525579838,2.873139141542889],[31.278153124722028,2.874488546101525],[31.288428194989702,2.877504880440736],[31.291413005897564,2.877509492025436],[31.29505685888721,2.8791610609490195],[31.2954514689278,2.8793399146326477],[31.30821006416071,2.880757745278843],[31.34347561164829,2.877920231075485],[31.35796646407751,2.871606012648773],[31.36470878847481,2.872060259988962],[31.37272321485263,2.869677108818098],[31.372627147291926,2.870150511910338],[31.373389446563987,2.8681750568014857],[31.374936708694058,2.8613597355142613],[31.374913520496897,2.859911333630461],[31.36462016126222,2.849539399134448],[31.362941893256785,2.848291234909693],[31.362574663923976,2.8474782873127067],[31.3621,2.847],[31.362070057337064,2.8463612231906334],[31.362030551101885,2.846273766944402],[31.36115481180749,2.836071052910163],[31.361544342044347,2.8351459636127525],[31.3615,2.8342],[31.363764839391234,2.829872539020322],[31.366337804260684,2.823762044793856],[31.369655857369725,2.818616486811414],[31.377116002948004,2.804362280081491],[31.378280197737872,2.801866235417868],[31.381963450248445,2.789228326075381],[31.3817488150313,2.785727759589543],[31.385866907113137,2.7787833676164966],[31.38636396888911,2.777251723771929],[31.386527248848154,2.7755969431637],[31.359764661955747,2.771110427777304],[31.35840026855985,2.770487657997461],[31.3437231756149,2.765392501379266],[31.342323262235762,2.765171722697583],[31.336752683146653,2.762631796471995],[31.331125199730735,2.759051667120338],[31.327552307232423,2.75508579176244],[31.325739571399918,2.751226001958259],[31.3256,2.7511],[31.32563497818951,2.751003295593718],[31.3255421304698,2.750805598458014],[31.32565188742046,2.746544417847104],[31.3171938478481,2.748085501365206],[31.308961000103036,2.752130536491667],[31.30179563974556,2.756387601703108],[31.30302956143466,2.7588281298323],[31.306353584395556,2.761438056921447],[31.301899792670252,2.763896035576458],[31.299328855925367,2.763082054532049],[31.297431356628003,2.766014510013276],[31.285051866055756,2.773276045690036],[31.288762264720102,2.776649135715337],[31.294234292781876,2.778125234372511],[31.293635403038536,2.780032735245591],[31.294549091678647,2.785800428581027],[31.29720707050578,2.793064656976751],[31.29142702859442,2.791270570871958],[31.289521226513685,2.792713632303131],[31.286461319851743,2.788780827869739],[31.279605631142633,2.786268109496591],[31.27949614453339,2.788797308752157],[31.277818883870268,2.790982267987065],[31.277953290550176,2.793443355539513],[31.271723406451127,2.79367017481285],[31.27142605262824,2.792904907628133],[31.26928421072131,2.794581184787641],[31.260946648343893,2.810285522439143],[31.256035437133537,2.825533106700061],[31.25463499087011,2.844415523849643],[31.255017168627106,2.8445110810946446],[31.273379734801157,2.849101722051417],[31.273965942350983,2.863858168703878],[31.273968553888608,2.863923741386478]]]}},{"type":"Feature","properties":{"n":"Rhino Camp","c":"336105","d":"Madi-Okollo","od":"Madi Okollo","dc":"336","k":"RHINOCAMP","a":["RHINOCAMP"],"lat":3.012451,"lon":31.257565},"geometry":{"type":"Polygon","coordinates":[[[31.172091651981592,3.029143451146613],[31.17824228036144,3.038003846207035],[31.17978896046907,3.04467821770255],[31.18560646270577,3.047057593268045],[31.19097369910218,3.052243780646322],[31.216242504598775,3.069037775744958],[31.223304854674726,3.069762992925272],[31.225118582001848,3.071695665533509],[31.225311969037442,3.0721794815049677],[31.242685763916203,3.0762290126421226],[31.24660087724149,3.073213836035671],[31.253206026738294,3.079269600674922],[31.26073501093792,3.079371000402618],[31.267079045763786,3.076983857820261],[31.273227472979233,3.076749368838609],[31.27885510012913,3.073756232401409],[31.279256423328444,3.068909826291831],[31.27756800552223,3.067933749938392],[31.27890401806445,3.064451036417087],[31.278808551565433,3.061666059539465],[31.28022598743537,3.059931657707815],[31.281270703502432,3.05579019093311],[31.285402885858826,3.052334780718999],[31.286993047583735,3.048440074378133],[31.29285025692841,3.047309742287115],[31.29447362650488,3.045024310185172],[31.297126789390695,3.044495048861993],[31.299345693055585,3.042617563962103],[31.304787173184877,3.040600551910714],[31.3055214699507,3.037410564711904],[31.306467793236685,3.037483952734222],[31.308543549257045,3.039747373794563],[31.309401081763422,3.038899354066543],[31.3115969950152,3.039173420312112],[31.313905467156943,3.038046902543181],[31.318892795453657,3.039058263268619],[31.324708873479196,3.037114055816001],[31.32822150916415,3.03724603669172],[31.329216023613654,3.036117235024852],[31.328470357168396,3.033429522797004],[31.329932223118544,3.032139306403771],[31.33020155352651,3.030295224889709],[31.341727645442514,3.017498579400705],[31.35325688913734,3.009168759014655],[31.370090105251077,2.99998822737304],[31.37691310311298,2.997312376816656],[31.36309457655309,2.982644974184042],[31.35878186874685,2.9755118931339015],[31.357706981280657,2.975292358228926],[31.35770726911095,2.975290516931746],[31.357706061740547,2.975290341158305],[31.357746911013137,2.9750369212398757],[31.35797226491296,2.97359529571264],[31.356809606585784,2.973563172296679],[31.350081081011037,2.973377930282022],[31.350236296534106,2.975139432098614],[31.34133087833179,2.9751440843656196],[31.33951511163502,2.975145041566686],[31.326936358368418,2.977920261307838],[31.323022610360646,2.978050019361819],[31.311640271987788,2.9805102934373044],[31.299650472752063,2.984524991103431],[31.30006313280789,2.972487632376178],[31.298681985706164,2.972491195151041],[31.297839662081014,2.971563211851942],[31.298511670941938,2.9707493342785307],[31.299123664756127,2.970007617321997],[31.29912406702997,2.9700076544122753],[31.29912456602357,2.970007050075455],[31.30080557231216,2.97015954830751],[31.30362811069962,2.9635952947638176],[31.30371684044415,2.963388905627679],[31.304124015900562,2.9609528222195824],[31.304241218280314,2.960251452468986],[31.304241253690552,2.960251402154838],[31.304241280062413,2.960251244375054],[31.3060996511332,2.957609269066984],[31.297629471204694,2.958369091663601],[31.2976292015643,2.9583689888202835],[31.297629017764375,2.958369005400877],[31.296817309573417,2.9580593257777283],[31.290154812922008,2.955518188523927],[31.289273539422158,2.963739740885691],[31.289164798547933,2.964757959550663],[31.28916440506622,2.9647578741008442],[31.289163897043025,2.964762613536776],[31.284792114687267,2.963808393947954],[31.28479146907062,2.963808232541432],[31.284791469001625,2.963808232526449],[31.28479145884199,2.963808229984237],[31.28324559561723,2.963421758526913],[31.28324521143663,2.9634213176351145],[31.283245062417514,2.963421280346556],[31.28308751268402,2.963240340025624],[31.281901109640103,2.961878804926416],[31.277484920215894,2.960726223404439],[31.277484688609732,2.9607260879695922],[31.277484673645283,2.960726084066919],[31.27473479376321,2.9591181678504],[31.27473467532344,2.9591179803641086],[31.274734349803108,2.959117790011674],[31.272451571580177,2.955504104316288],[31.271537676592,2.95042170048729],[31.266140161853283,2.947706681560852],[31.262964982283428,2.949252734559047],[31.262491162615216,2.948758840583698],[31.25923415613536,2.952095794190415],[31.259233738936164,2.9520957137554698],[31.25923281016586,2.952096665329977],[31.257772899273835,2.951814183567379],[31.25751195826839,2.955213773320864],[31.2575118365947,2.9552139372452197],[31.257511831188257,2.955214007689],[31.25739048470482,2.9553774280560594],[31.256023605601083,2.957218950039949],[31.2537332472559,2.958020145916432],[31.251197851296094,2.957085109427634],[31.251036082607527,2.9573131813231934],[31.249368683665338,2.95966616542419],[31.24936867133292,2.9596640049185456],[31.249365786084024,2.959668072727903],[31.24935872677358,2.958455452307019],[31.24690396344234,2.957683628897592],[31.246795285481213,2.959902592033193],[31.24679490563713,2.959902772933108],[31.246794858381556,2.959903735963595],[31.24545059663088,2.96054307543201],[31.241220960758113,2.959257256596039],[31.240982853253893,2.961480693191037],[31.242254854495325,2.9635503798237393],[31.242623953238773,2.964150740538779],[31.242623865779848,2.964150801975867],[31.242624053969042,2.964151108180491],[31.239363026418694,2.966441706689379],[31.23694590496351,2.9657290514833416],[31.23439339823009,2.9670744671831435],[31.234925822790874,2.969236833477439],[31.234925103038304,2.9692371351251468],[31.234925117330732,2.969237193082072],[31.234909417197294,2.9692437090481687],[31.23355132914003,2.969812882632159],[31.234425731022096,2.970948857210501],[31.235424723340305,2.972242554762472],[31.235423120536094,2.9722446105201037],[31.235423506892772,2.972245112453338],[31.233742552511107,2.974400147523478],[31.23374250306649,2.974400171483395],[31.23374225236378,2.974400493034842],[31.23165993748821,2.975409390152565],[31.231690327244642,2.97655794282166],[31.23024562551478,2.976994511487244],[31.228373996608294,2.976353186299361],[31.228267073036882,2.976316660732873],[31.229270346206416,2.977870751218896],[31.229269820162244,2.9778724602357656],[31.22927009419117,2.977872884848314],[31.2279210719164,2.98225500969588],[31.22792088041861,2.9822549073815052],[31.227920056428392,2.98225758436807],[31.22431295263003,2.9803275435048238],[31.22416082539686,2.9805217260494348],[31.22296708105414,2.982046983623629],[31.222965810984793,2.9820471001363074],[31.222965263540846,2.982047798920188],[31.222728284408774,2.982068890172854],[31.22108070756617,2.982220034353079],[31.21946767615712,2.9917239673864158],[31.219411481167068,2.99205525794286],[31.219411444029532,2.9920552854078255],[31.219411218065634,2.992056616780392],[31.216674945611746,2.994079086818255],[31.212927208794945,2.994198211106482],[31.205595138185306,2.996817588998127],[31.20304256774818,3.000131812591571],[31.20120407932523,3.0010663524334573],[31.20120392813926,3.001066299399636],[31.2013,3.0011],[31.20104625436634,3.001146577965631],[31.2009146587092,3.001213470627604],[31.19787160120833,3.001866113431689],[31.1978713482662,3.001865115811019],[31.197869920827152,3.001865421473062],[31.197838131310974,3.001735466307301],[31.19604032861674,3.0020654739251467],[31.19610406290196,3.002619521714187],[31.19450152510752,3.002485313113319],[31.19445864527313,3.002355810319727],[31.19445923440086,3.0023557021784724],[31.193210548978914,3.0025849129271585],[31.192175959953538,3.004421612974668],[31.1890045755007,3.003561386395308],[31.185864047335837,3.004016772083567],[31.181935118900434,3.00611447459539],[31.181934772502007,3.0061141535569007],[31.181934333456812,3.006114387962373],[31.18049372338412,3.0049192343377094],[31.16498846794912,3.0077654045134494],[31.164897073393124,3.008079453707481],[31.167556040432125,3.015734055789455],[31.16897322805466,3.01762439412253],[31.172091651981592,3.029143451146613]]]}},{"type":"Feature","properties":{"n":"Rhino Camp Refugee Settlement","c":"336106","d":"Madi-Okollo","od":"Madi Okollo","dc":"336","k":"RHINOCAMPREFUGEESETTLEMENT","a":["RHINOCAMPREFUGEESETTLEMENT"],"lat":3.08529,"lon":31.262822},"geometry":{"type":"MultiPolygon","coordinates":[[[[31.380565597197837,3.107508371754221],[31.38425659551447,3.11235107083577],[31.38675069356502,3.118820203681362],[31.391120803482206,3.121332450097272],[31.396143296672353,3.116872018924132],[31.400770324728654,3.115671395416413],[31.403682781192387,3.11325386637379],[31.402274202822028,3.108362010263311],[31.40197194123683,3.099392872140756],[31.40345490257501,3.098929667981068],[31.40466082678164,3.09982212500088],[31.408158500182132,3.099922034673178],[31.41623567294595,3.097388092437395],[31.413689589194682,3.096671840651262],[31.410529173948248,3.094377846576926],[31.408835057559337,3.091896125698364],[31.405344396493987,3.091010965611926],[31.403094051234174,3.096921773769521],[31.39479148329581,3.098679933752355],[31.39277350121958,3.098450849357232],[31.390454419084858,3.095467084057468],[31.3850247541024,3.096546207083516],[31.382597458239175,3.096258985725687],[31.38023713289418,3.10119127363427],[31.38098617313395,3.105389824373753],[31.380565597197837,3.107508371754221]]],[[[31.3456074750924,3.102412898266674],[31.357471576678254,3.110902960326143],[31.365151987508796,3.11055680463176],[31.36702545064391,3.107418950627362],[31.368460463809058,3.099344849414615],[31.36595286625442,3.098417410082702],[31.36095019058761,3.097774978798511],[31.359492002091454,3.098458772353432],[31.356132717082108,3.097596732327134],[31.353871289646573,3.095246802145834],[31.349885694000637,3.09316477335342],[31.342482936787672,3.092861912244804],[31.343536097528112,3.09550585550171],[31.341625386424667,3.101055861165375],[31.344198860436872,3.102622001611927],[31.3456074750924,3.102412898266674]]],[[[31.306936102839614,3.068757460196318],[31.315330360677372,3.078350846130494],[31.3165970902385,3.08169796619386],[31.32536366369935,3.078828408638353],[31.32719984959491,3.074593633192766],[31.32889674163764,3.073108870155782],[31.32849328825881,3.071770496942658],[31.329392890758083,3.068202961364608],[31.330687038457103,3.067867961125541],[31.325862313800233,3.05783144575286],[31.327123181855487,3.055403902745872],[31.329788155157946,3.053262370088298],[31.327739816704387,3.050202956393825],[31.327218361068642,3.04355417189936],[31.32775766049923,3.0372286084246043],[31.324708873479196,3.037114055816001],[31.318892795453657,3.039058263268619],[31.318892321023284,3.0390581670607464],[31.313581165157395,3.0382051595818456],[31.3132098254357,3.038386370689935],[31.313297557566454,3.045442599319689],[31.30720140957481,3.046692725172025],[31.305178870322777,3.049815763643921],[31.30794494231588,3.064716645213414],[31.306936102839614,3.068757460196318]]],[[[31.293461107212945,3.068525484211678],[31.300989722130307,3.069517543659085],[31.29581322226981,3.061438074163306],[31.292541542433415,3.051355275719529],[31.290159011109925,3.048281618147244],[31.28699522347661,3.0484396544714163],[31.286993047583735,3.048440074378133],[31.285402885858826,3.052334780718999],[31.28540229007489,3.0523352789249634],[31.285402195740975,3.052335509964584],[31.281270610462567,3.0557905597620416],[31.28022598743537,3.059931657707815],[31.278808656587977,3.0616659310318584],[31.278903960260863,3.064447781522257],[31.27890391053391,3.064447899504491],[31.27890401806445,3.064451036417087],[31.27772499504315,3.0675245101221935],[31.290718948643384,3.066812326997732],[31.293461107212945,3.068525484211678]]],[[[31.283706855516048,3.080073404593942],[31.285464100144992,3.077916786185694],[31.285245715053154,3.074019907762163],[31.28218803352557,3.074343075761709],[31.28199774846283,3.073096677857349],[31.281263751196303,3.073261836640954],[31.279081509529505,3.0710220971630062],[31.278856017263756,3.0737451570216443],[31.27885628094538,3.073754270760793],[31.278855248707195,3.0737544381626734],[31.27885510012913,3.073756232401409],[31.27545083812615,3.0755668393182294],[31.274781218321397,3.076118961770572],[31.274179725342353,3.076242899385401],[31.273227472979233,3.076749368838609],[31.27137973132804,3.076819838089193],[31.268773954949236,3.077356758253548],[31.267080966960393,3.076983784549582],[31.267079045763786,3.076983857820261],[31.26073501093792,3.079371000402618],[31.253206026738294,3.079269600674922],[31.24973079880875,3.0760834256429606],[31.24907084825903,3.077717265383684],[31.252,3.0784],[31.2459,3.0877],[31.2537,3.0988],[31.275250657092414,3.0884699329639655],[31.280372701986146,3.082880841906418],[31.283706855516048,3.080073404593942]]]]}},{"type":"Feature","properties":{"n":"Rhino Camp Town Council","c":"336107","d":"Madi-Okollo","od":"Madi Okollo","dc":"336","k":"RHINOCAMPTOWNCOUNCIL","a":["RHINOCAMP","RHINOCAMPTOWNCOUNCIL"],"lat":2.955623,"lon":31.394324},"geometry":{"type":"Polygon","coordinates":[[[31.373871573329232,2.993883106024329],[31.392911644308626,2.990182626509418],[31.40519987332903,2.986492802492589],[31.402739076975617,2.984345564786427],[31.402729911398893,2.9843196498240907],[31.4027,2.9843],[31.40270412558672,2.984246742425968],[31.401043335230693,2.979550985593714],[31.40207534331072,2.972362161919739],[31.403763696657723,2.970148888179969],[31.403796712270008,2.9701424416053626],[31.4038,2.9701],[31.41481898821393,2.964203874727633],[31.415866701565754,2.9608798366722713],[31.4177,2.9523],[31.41219418252272,2.95047409114274],[31.404832772893943,2.951547571545664],[31.401546576432395,2.94986095167276],[31.39909051478461,2.947171506707034],[31.3983423949024,2.9458803860645717],[31.3981,2.9458],[31.39812218914746,2.9454187501026885],[31.397430723548542,2.939979746894477],[31.39917288623795,2.9268667682608696],[31.39284316719299,2.9191088049185896],[31.37998680591487,2.922707220087855],[31.36544123242984,2.9299555783240194],[31.369808762352857,2.934196479271032],[31.374248554387666,2.943734805051632],[31.37632654555402,2.946562367199884],[31.382477914975343,2.945972564278271],[31.386273988614132,2.949138231746009],[31.364166749443083,2.958946420882613],[31.365045342277543,2.960201946926374],[31.364140942926213,2.961791366720099],[31.36616654452851,2.966926667322823],[31.36152181885798,2.971000585853004],[31.360284796731037,2.973836204308142],[31.360560407827705,2.975875141771914],[31.358783466432328,2.9755122194450188],[31.36350840941623,2.9830842289193398],[31.36726379343077,2.9870703072571865],[31.373871573329232,2.993883106024329]]]}},{"type":"Feature","properties":{"n":"Rigbo","c":"336108","d":"Madi-Okollo","od":"Madi Okollo","dc":"336","k":"RIGBO","a":["RIGBO"],"lat":3.086358,"lon":31.40361},"geometry":{"type":"Polygon","coordinates":[[[31.27921468233183,3.068885695771757],[31.279256423328444,3.068909826291831],[31.27924563144428,3.0690401498152275],[31.279490975073966,3.070264556999941],[31.27912603064908,3.070484457110562],[31.279081508438235,3.071022110341234],[31.279081508438235,3.0710221103412345],[31.279081509529505,3.0710220971630062],[31.281263751196303,3.073261836640954],[31.28199774846283,3.073096677857349],[31.28218658331587,3.074333576653854],[31.2821880478791,3.0743430742446773],[31.285245715053154,3.074019907762163],[31.285464100144992,3.077916786185694],[31.285464077037346,3.0779168145450773],[31.2889,3.0737],[31.3017,3.0761],[31.30596070146705,3.080183990346298],[31.310002639424592,3.080328749892787],[31.31121569869767,3.083272861547174],[31.31772563222853,3.089442311924614],[31.3188843447081,3.09257162995062],[31.3234,3.0969],[31.323698577321856,3.097001074813236],[31.326160221799466,3.096564364362384],[31.328712626286777,3.097437132378337],[31.33244426307823,3.096890303661684],[31.33605741365667,3.097448864782252],[31.33659676191297,3.098805875298368],[31.341625376367464,3.101055855780561],[31.343536042579153,3.0955057175532206],[31.342482936787672,3.092861912244804],[31.342530314260642,3.0928638505488135],[31.3464952184465,3.092837616255494],[31.349879189468666,3.093164507240443],[31.349885694000637,3.09316477335342],[31.349886544713108,3.0931652177557174],[31.34988655994389,3.093165219227008],[31.350717661499708,3.0935993834948645],[31.353871289646573,3.095246802145834],[31.356132717082108,3.097596732327134],[31.359492002091454,3.098458772353432],[31.36095019058761,3.097774978798511],[31.365952307522903,3.098417338331777],[31.36595244257487,3.098417355674361],[31.36595244257676,3.0984173556750605],[31.36595286625442,3.098417410082702],[31.368460463809058,3.099344849414615],[31.36702545064391,3.107418950627362],[31.36524186739157,3.110406265267098],[31.36515293370401,3.110555229818074],[31.365152927589758,3.110555230094871],[31.365151987508796,3.11055680463176],[31.35752423209038,3.11090058714961],[31.357471590895297,3.110902970257979],[31.360403904883757,3.116173182013306],[31.360463505674623,3.122419238304014],[31.363794726554545,3.132769898375177],[31.364865526036887,3.142109387361712],[31.367661188709857,3.151804350985292],[31.366709416527026,3.154482663930965],[31.362341895222617,3.159203825193274],[31.362303435639884,3.160062882775485],[31.364321864910174,3.161974254543587],[31.36582617812529,3.166724416856532],[31.369844053278875,3.173995985282656],[31.3689080713998,3.174772257202569],[31.369522054685838,3.176312860911397],[31.36939866451789,3.180677034785428],[31.37010744998762,3.1831048286932293],[31.372331366911645,3.185571595691283],[31.374060293788226,3.186093639062886],[31.37379702286095,3.18938737158767],[31.37212675375555,3.18922921772971],[31.372333713121836,3.190730419658705],[31.3725,3.1913],[31.375623291983306,3.1915043275129267],[31.37658642408577,3.1904656554277966],[31.376586602058097,3.190465270636804],[31.37658678219485,3.190465269231651],[31.376587160788763,3.190464860944015],[31.379080527999424,3.190445240819371],[31.381916991047255,3.1881608101592454],[31.38127211879343,3.1851865285452545],[31.380889232035237,3.183421652226234],[31.38320838033552,3.1802255218886],[31.383162069936073,3.1788174790053234],[31.383154008039387,3.178588459881821],[31.383154537935475,3.1785884725625406],[31.383154476046666,3.178586590866463],[31.386258105795815,3.178661766731329],[31.38695582866003,3.17784624616035],[31.38918856008697,3.175235973582203],[31.389022777427325,3.1745137063967963],[31.38886544924555,3.173828864774578],[31.38798954185868,3.173523088739979],[31.3879895175691,3.1735203316844496],[31.387989368269917,3.17352027928372],[31.38798616205499,3.173139454811398],[31.387951473142692,3.169201994260032],[31.389436428036053,3.1691825636313475],[31.389689603105893,3.168646676731054],[31.39057755089222,3.166766165670449],[31.38823700759969,3.165033174631176],[31.386665448647495,3.157828071942042],[31.386665465873897,3.157828041265085],[31.3866654516432,3.157827976077646],[31.386862510089838,3.157477142893373],[31.387885094810663,3.155656113477402],[31.388747227367286,3.152683059943491],[31.388301331713347,3.151076448998866],[31.389371939963617,3.1492623515210814],[31.389371942705047,3.149262346874745],[31.38937194270691,3.1492623468726992],[31.38937201293372,3.149262227876527],[31.392643843190662,3.145663180640724],[31.393804829461775,3.145900555360806],[31.396513410085028,3.1443065979110787],[31.399063729665684,3.139277862491731],[31.39906417320389,3.1392776741929325],[31.399064188341526,3.13927764434422],[31.401311568525244,3.1383235695984655],[31.411674810116843,3.133923980295169],[31.414053779099376,3.131544881470057],[31.41410993712656,3.129903623757532],[31.414113636526736,3.1299006132234584],[31.41562813017441,3.12816782084214],[31.416271504410933,3.1281445623809208],[31.41678114376179,3.127729823082926],[31.41794166106183,3.1280841849652745],[31.418825447993726,3.128052235404794],[31.420034257090524,3.12872315542069],[31.42171214482974,3.129235495441488],[31.423793050828174,3.130809382237558],[31.42379315639588,3.130809440830339],[31.423793162889783,3.1308094669950086],[31.423794209808133,3.130810258828453],[31.42413254730414,3.132165657166865],[31.42431433890215,3.1321625021463397],[31.427628164757717,3.132103696669392],[31.428667590747853,3.133065537214744],[31.432666918570995,3.132335392100797],[31.43353444825213,3.130993893118585],[31.433535503838858,3.1309934127166197],[31.433535549876826,3.130993341498478],[31.436992402392157,3.129420160344865],[31.436992406269212,3.1294201618641218],[31.436993703763918,3.129419571368818],[31.438405573657253,3.12997378051339],[31.43880149379753,3.128948406856271],[31.44021514436373,3.129345419088905],[31.441002008466615,3.1306081309342577],[31.444064792800802,3.1284834734239904],[31.444441534186808,3.1274088014111854],[31.444616578000595,3.126908041660316],[31.44461702201729,3.126908214358598],[31.444618626712572,3.126903636892008],[31.446033190548288,3.127456557734265],[31.446287775191163,3.1270338999691285],[31.448786555359657,3.122884174131086],[31.448787268478632,3.1228842771367313],[31.4487887067678,3.122881889309728],[31.452100090504473,3.1233627938807387],[31.45263398423052,3.1234399115421887],[31.45279572217802,3.122887829047534],[31.454288178616675,3.123126976145134],[31.456012290965937,3.125655235175091],[31.458606712119675,3.125028870885617],[31.460411038563066,3.126927046986892],[31.460254835536222,3.127873708326367],[31.46182368052933,3.128034851628193],[31.462083380021053,3.1284272352391334],[31.463197101027504,3.128763429463224],[31.46378712104876,3.128590605906123],[31.466297308801142,3.129699276000141],[31.466299233542532,3.1296998570136396],[31.470545152431146,3.127889685693526],[31.47510690831257,3.12465819618983],[31.475890092789445,3.126396898866958],[31.474791462476084,3.127579520630801],[31.475494294011142,3.127975320051264],[31.478482231528545,3.126874572180102],[31.480131254491607,3.127113172578259],[31.481076756783676,3.125693643591038],[31.482241709757933,3.1261645001638323],[31.482644901802654,3.1263268146859327],[31.48398941510653,3.121827817999273],[31.489878675967717,3.124126568356222],[31.49443611557159,3.124370077868156],[31.504968262092873,3.121463091543081],[31.508600862748224,3.119664199572912],[31.510238978368626,3.118852982135401],[31.5085,3.1159],[31.508455390492447,3.115777838579312],[31.507948835490666,3.115144953549725],[31.50604667561641,3.110505362329676],[31.50528711509259,3.107101638253555],[31.502641538604,3.0998568287924906],[31.500987740397985,3.096815050056218],[31.4775,3.067],[31.47743673777898,3.0666836888949134],[31.47721266886097,3.066482863755469],[31.475691585607578,3.0579579280378963],[31.4742,3.0505],[31.478194988288454,3.0365639943426013],[31.478210958712467,3.035541110579115],[31.47806833340689,3.0354691666719207],[31.467320960599867,3.0347014971857047],[31.463894836305847,3.035040995823631],[31.45832763558125,3.03511295805106],[31.455623451639056,3.034388934333182],[31.45482200360107,3.0338087145429333],[31.4547,3.0338],[31.45415904818639,3.0333287584716513],[31.452525214377054,3.032145921075809],[31.45131678393009,3.0308527653823965],[31.4353,3.0169],[31.435291128531073,3.0168750916449363],[31.435283360610217,3.016869790517892],[31.435281667373317,3.016848527625074],[31.430108451129964,3.00232372817259],[31.405086823335225,2.98652882002552],[31.39291175739925,2.990182594680831],[31.392911737775833,2.990182598443734],[31.392911644308626,2.990182626509418],[31.37403897894193,2.993850570376687],[31.37686493285199,2.9972612474426406],[31.37691310311298,2.997312376816656],[31.376908720702364,2.9973140955151107],[31.376908729930037,2.997314106652096],[31.37404463196298,2.9984373368823114],[31.370090105251077,2.99998822737304],[31.35325688913734,3.009168759014655],[31.353255725881347,3.0091695994612406],[31.340984067093824,3.0183241244849213],[31.336213144316137,3.0236209595168138],[31.33292485743457,3.027920471718085],[31.33020288172969,3.030293750274954],[31.33020155352651,3.030295224889709],[31.329932223118544,3.032139306403771],[31.328822597584033,3.033118641790049],[31.32847042182102,3.0334297558337027],[31.329216023613654,3.036117235024852],[31.32822150916415,3.03724603669172],[31.32775883309107,3.037228652482603],[31.327445603229286,3.0464516075594936],[31.327739816704387,3.050202956393825],[31.329498317563235,3.0528294664805524],[31.32978767223677,3.053260820543711],[31.3297873118009,3.0532611104438794],[31.329788155157946,3.053262370088298],[31.327123181855487,3.055403902745872],[31.325862313800233,3.05783144575286],[31.330687038457103,3.067867961125541],[31.329392890758083,3.068202961364608],[31.32850241395614,3.0717343073478864],[31.328493291486293,3.0717705076491724],[31.32889674163764,3.073108870155782],[31.32719984959491,3.074593633192766],[31.32536366369935,3.078828408638353],[31.325362918297614,3.078828652630283],[31.32536283261987,3.078828850181473],[31.32467413053128,3.079054113142061],[31.3165970902385,3.08169796619386],[31.315330394883187,3.0783509365136097],[31.314880544961472,3.0778367737913688],[31.306936102839614,3.068757460196318],[31.307944922751858,3.0647167235753328],[31.307709810682326,3.063449986705032],[31.305178870322777,3.049815763643921],[31.30720140957481,3.046692725172025],[31.313297557566454,3.045442599319689],[31.3132098254357,3.0383863706899352],[31.3115969950152,3.039173420312112],[31.311596790773315,3.039173394821211],[31.311596738371225,3.039173428291346],[31.311485243515666,3.0391594728968903],[31.309401081763422,3.038899354066543],[31.308543549257045,3.039747373794563],[31.306467793236685,3.037483952734222],[31.3055214699507,3.037410564711904],[31.304787173184877,3.040600551910714],[31.299345693055585,3.042617563962103],[31.297126789390695,3.044495048861993],[31.29505717869665,3.0449079013484552],[31.294473599200295,3.0450243486254513],[31.293966175343346,3.0457387163139726],[31.292850918842188,3.047309261693973],[31.292850487670993,3.0473094174402564],[31.29285025692841,3.047309742287115],[31.292848821447812,3.0473100193080804],[31.2901590269951,3.048281618281961],[31.292541420941316,3.051355091615113],[31.292541436217295,3.0513551386921685],[31.292541542433415,3.051355275719529],[31.295196758528824,3.059538230670336],[31.29581325131937,3.0614381195037925],[31.300989722130307,3.069517543659085],[31.29362127036574,3.068546589205173],[31.293461540140644,3.068525563701707],[31.29346149463281,3.0685255352627063],[31.293461107212945,3.068525484211678],[31.290719009573007,3.0668123650633725],[31.2775766343856,3.0679387382946284],[31.27760517703019,3.067955238831606],[31.279160110961577,3.068613352944268],[31.27921468233183,3.068885695771757]],[[31.380237173772,3.101191502764282],[31.38023713289418,3.10119127363427],[31.382597458239175,3.096258985725687],[31.3850247541024,3.096546207083516],[31.390454419084858,3.095467084057468],[31.39277350121958,3.098450849357232],[31.39277806091297,3.098451366980562],[31.396528263126687,3.098312151540838],[31.39946041976327,3.0976912351568817],[31.399820010574345,3.097285436852023],[31.403094068894102,3.096921727383551],[31.405344396493987,3.091010965611926],[31.405346151853593,3.0910114107351365],[31.405346192606796,3.091011303704651],[31.40600254692865,3.091177859069849],[31.408835057559337,3.091896125698364],[31.41050939359509,3.0943488702233877],[31.41052920505721,3.0943778691574315],[31.413689530204845,3.096671797833364],[31.41369844022013,3.0966743305783053],[31.41623567294595,3.097388092437395],[31.408158500182132,3.099922034673178],[31.40815779031926,3.0999220143962227],[31.408157670072033,3.099922052117112],[31.40466176212669,3.099822278060437],[31.40466158464991,3.0998221466490907],[31.40466082678164,3.09982212500088],[31.40345490257501,3.098929667981068],[31.40197194123683,3.099392872140756],[31.402274200559944,3.1083619431395193],[31.40229906750132,3.108448362883725],[31.403682781192387,3.11325386637379],[31.400770324728654,3.115671395416413],[31.396143296672353,3.116872018924132],[31.391120803482206,3.121332450097272],[31.38675069356502,3.118820203681362],[31.384256611615484,3.1123511125982053],[31.38056596375472,3.107508972616365],[31.380565957054895,3.1075088438973375],[31.380565597197837,3.107508371754221],[31.380565862833198,3.107507033681719],[31.38023714288668,3.101191567235965],[31.380237173772,3.101191502764282]]]}},{"type":"Feature","properties":{"n":"Anyiribu","c":"336201","d":"Madi-Okollo","od":"Madi Okollo","dc":"336","k":"ANYIRIBU","a":["ANYIRIBU"],"lat":2.588501,"lon":31.11287},"geometry":{"type":"Polygon","coordinates":[[[31.017726091180467,2.595352620713236],[31.019091975547745,2.597596058143037],[31.019037664467934,2.599495801241365],[31.023944224301633,2.601321216599931],[31.024839903422134,2.60275393345492],[31.026466818664762,2.603323647110254],[31.02993293197807,2.599706823576958],[31.034856467375185,2.599804290606969],[31.037564807581184,2.597694218037626],[31.03939502630438,2.599437538572432],[31.04493354743409,2.597215913175574],[31.046191654358648,2.597888138675993],[31.047232981630675,2.597413740431317],[31.0481523529602,2.598419791891285],[31.050702785608475,2.597727293901281],[31.051805509424746,2.598696218242541],[31.054906980610788,2.599345656732119],[31.056278636842762,2.599296212055955],[31.0566387280103,2.597802013267834],[31.05847211615215,2.59754428355095],[31.05936885977059,2.598704883598018],[31.064098369961588,2.600204106074502],[31.065608821724386,2.599280479449332],[31.065967855754803,2.597815808931591],[31.066991284498403,2.598510814171695],[31.070216198519862,2.597641243717714],[31.07146778617582,2.598286190270316],[31.07515572160651,2.595874705933678],[31.076455796526187,2.598113776575554],[31.079573861676657,2.599404473473206],[31.081027749117524,2.602442390506229],[31.083177615981914,2.601725761849148],[31.087267750075917,2.603713167243611],[31.08626831946193,2.604431143405965],[31.089104081203313,2.606133164960457],[31.08837884915751,2.607207417424974],[31.08871801366844,2.608282851764245],[31.089803418351156,2.60743003383399],[31.091062897757855,2.608862952836416],[31.09160101125282,2.612245678488615],[31.0906198996727,2.616289091385556],[31.089727265798142,2.616470092575532],[31.089816526365652,2.619979678909852],[31.090232932351622,2.621437093614398],[31.09252088662368,2.621793664909254],[31.091958043419513,2.622835035104128],[31.092671880124353,2.625868841083519],[31.09493248830855,2.626999949566517],[31.096002731414888,2.629199920895753],[31.096002135039736,2.631639129683033],[31.103196365177368,2.618465373070302],[31.105470676544407,2.609573279665102],[31.10497778467364,2.608215299964355],[31.107949794667316,2.603994958377072],[31.113345670271357,2.609359209371046],[31.113999164600944,2.611691532384643],[31.11584841081232,2.609443153352944],[31.116901082063745,2.605809158156714],[31.12136281558269,2.603136108880975],[31.127255365117843,2.603814373069901],[31.12856729747255,2.60280509680496],[31.134413125630473,2.607198579788487],[31.144866596477073,2.607973648784569],[31.151332117535553,2.607592051691535],[31.15341935536679,2.60510146501573],[31.15724307253812,2.603764044204926],[31.161743469813473,2.604568563328497],[31.162726383643303,2.603882437577264],[31.16376650046469,2.60452166485137],[31.165819940677633,2.603308326526879],[31.168729089770512,2.603417620417335],[31.17037282855896,2.606902542772909],[31.169904384169254,2.608360752440435],[31.1748587329974,2.614000709948032],[31.174709718247623,2.615781199729323],[31.178665033611566,2.619021687713343],[31.179775346476976,2.619262661964996],[31.17993928511977,2.617589711442453],[31.18612250328965,2.618952790361877],[31.18870193010525,2.617521090725882],[31.189611473995935,2.620154633909839],[31.193971469945037,2.622514607057564],[31.19658947604526,2.622119834562651],[31.197580723047672,2.622838981716591],[31.19984332724212,2.621446422876742],[31.201985669523822,2.621329767726667],[31.20400891349427,2.621732333999556],[31.20587087470595,2.623170159542544],[31.206826081396912,2.622735130035595],[31.209877555516673,2.623715317785016],[31.214060752798364,2.617171791537823],[31.221487542093616,2.613682493000385],[31.2215,2.6136295683448525],[31.2215,2.601766584699135],[31.220963530642017,2.6005199089241327],[31.213609632006825,2.5911972500244005],[31.208488011684782,2.584908041347521],[31.20547391172795,2.584668446845546],[31.20234657806519,2.582919195717231],[31.198949186520565,2.5778877972739846],[31.198173434751276,2.577319836157185],[31.193070824000376,2.580805962234269],[31.191684178158027,2.579874024639177],[31.191687214013193,2.577306227753639],[31.188218275534233,2.570772582282174],[31.18613371175556,2.569132775107379],[31.182423733912977,2.569362012029119],[31.180998376378174,2.5680693535873],[31.178412636743463,2.567767465203552],[31.177787574886228,2.567954117190276],[31.176141532479498,2.5675023108986217],[31.1667,2.5664],[31.16659037719057,2.5662958194577064],[31.16515097265306,2.566651204259435],[31.158898075150706,2.562212177427172],[31.153573699146577,2.556843220587706],[31.153343894111554,2.554509010182339],[31.15238515900428,2.5529021279908393],[31.15092000024729,2.5522346667793214],[31.14754981981678,2.552402429032351],[31.140136546551645,2.548196316203454],[31.13526922172936,2.547493289569585],[31.13411126119358,2.545854611202057],[31.13156088260974,2.545388979922534],[31.129478342563313,2.542818661407226],[31.125074976256663,2.541356416386182],[31.101299339835688,2.548021641083741],[31.095970640070796,2.548104227202523],[31.093921820598005,2.549436194428913],[31.094390291729283,2.550518954425883],[31.093536343534574,2.550354668834204],[31.09268851240711,2.551347142564227],[31.086602846538153,2.552121099050619],[31.085383786474516,2.55525566607701],[31.086290392639143,2.556936582092782],[31.08547117172904,2.557841112598949],[31.083433029902995,2.5578297391488],[31.07782000095068,2.553930994654541],[31.07627086270668,2.553595501949871],[31.07368248726109,2.554543368936399],[31.073230018253422,2.551346901139683],[31.07226116105802,2.55145933177233],[31.07165957591371,2.549947775958345],[31.066806558663327,2.550013571534531],[31.02042049818471,2.575499532108163],[31.02140421170497,2.580410912313166],[31.01501241570939,2.58580523083023],[31.013197870226932,2.59293042123862],[31.010644330381496,2.594612724697096],[31.012940245456175,2.59566873394303],[31.017726091180467,2.595352620713236]]]}},{"type":"Feature","properties":{"n":"Offaka","c":"336202","d":"Madi-Okollo","od":"Madi Okollo","dc":"336","k":"OFFAKA","a":["OFFAKA"],"lat":2.678858,"lon":31.03146},"geometry":{"type":"Polygon","coordinates":[[[30.9816,2.7062],[30.9972,2.7338],[31.0142,2.7511],[31.01469375439331,2.7721339371549547],[31.014698741680515,2.772125199816057],[31.014937012181583,2.762103938638121],[31.0188109314526,2.755641153234329],[31.011849020855035,2.748339327478864],[31.01621264802086,2.746941529121674],[31.02152182372743,2.746809930539064],[31.02908567763185,2.748074204372223],[31.03381319347187,2.74771550354325],[31.035407383902665,2.749608223161526],[31.03686665830925,2.753808608955582],[31.044456450079984,2.752269760821973],[31.04528187994266,2.756012844609667],[31.048613118842884,2.756108022988258],[31.057884655546847,2.744231359470797],[31.06061294218816,2.746113691372529],[31.061592406296043,2.744786837821088],[31.06350044751616,2.745293094699995],[31.063946643624195,2.738984788500333],[31.06485291293163,2.738704425657814],[31.065372520042885,2.736134327425249],[31.06631901751391,2.735937902276024],[31.064484037649553,2.734324356807425],[31.067101648007363,2.730757688075769],[31.062974009312345,2.725647079297866],[31.062498165008307,2.722649242301278],[31.063258945641383,2.719415622362536],[31.065782261107223,2.718747041669259],[31.07067281157323,2.719568948064042],[31.070159906031662,2.714293513067387],[31.06790875831108,2.708225398922961],[31.06846978631543,2.704359693997892],[31.069184929038894,2.703761166836307],[31.0689518177982,2.701206449574918],[31.070384680531287,2.699131870468146],[31.07368153664614,2.699616051773039],[31.07734597133671,2.698806938313957],[31.078535631038644,2.696951058489914],[31.078583220195725,2.694999904196472],[31.076207931176626,2.692593214576187],[31.076061759686343,2.687991202870242],[31.07965029923641,2.680972096451289],[31.083531103213037,2.680434968307619],[31.08463437920573,2.677281014903093],[31.084147586672067,2.675336098035225],[31.082936535132053,2.674616795699797],[31.082576386527528,2.665288665616214],[31.07892534939026,2.657963122037843],[31.081242434581206,2.647276777123063],[31.08157893855933,2.625688799276853],[31.093230366806825,2.628349233927527],[31.0960021261366,2.631639138725516],[31.096002148565923,2.631583806805823],[31.096002731414888,2.629199920895753],[31.09493248830855,2.626999949566517],[31.092671880124353,2.625868841083519],[31.091958043419513,2.622835035104128],[31.092520885956773,2.6217936661431676],[31.092519138164477,2.6217933924167616],[31.090232932351622,2.621437093614398],[31.089816526365652,2.619979678909852],[31.08981652287098,2.619979541504721],[31.089519267166093,2.617420943464805],[31.08972735243542,2.616473499018182],[31.089727265798142,2.616470092575532],[31.0906198996727,2.616289091385556],[31.090620034417856,2.6162885360661434],[31.09141149713623,2.6110543419589805],[31.091184130290056,2.609625053026048],[31.08980933907816,2.607436769888732],[31.089803418351156,2.60743003383399],[31.08871801366844,2.608282851764245],[31.08871748997496,2.608281191219192],[31.088717429003346,2.608281239130139],[31.08866100202729,2.6081020773180508],[31.08837884915751,2.607207417424974],[31.088379108219375,2.6072070336886974],[31.08837908588425,2.607206962772235],[31.088430264705984,2.6071312579667976],[31.089104081203313,2.606133164960457],[31.08809787673906,2.605529241978707],[31.08627066079331,2.604433322512359],[31.086271245425152,2.6044328995663637],[31.08626831946193,2.604431143405965],[31.08703452249014,2.6038807144896605],[31.08726677525404,2.603712693575459],[31.083177615981914,2.601725761849148],[31.082597234669958,2.601919224005839],[31.081029101511923,2.602443054340895],[31.081028641282675,2.6024420931152026],[31.081027749117524,2.602442390506229],[31.079573899355953,2.5994045522045917],[31.078766929593712,2.59907045071043],[31.076455796526187,2.598113776575554],[31.07645565831441,2.598113538538551],[31.076455455662405,2.598113454636601],[31.075155352600138,2.5958749472212768],[31.07176362390595,2.5980927465222328],[31.071468229328598,2.598286035158187],[31.071468114100895,2.598285975845146],[31.07146778617582,2.598286190270316],[31.070779015183696,2.597931264688565],[31.070215799298936,2.597641351364219],[31.066991284498403,2.598510814171695],[31.065968794915015,2.597816446710502],[31.065696650030464,2.5989221860296654],[31.065608821724386,2.599280479449332],[31.06560840386069,2.5992807349689353],[31.06560831346498,2.599281102251565],[31.064840282864317,2.599750433519446],[31.064098369961588,2.600204106074502],[31.06061738835673,2.5991006586451753],[31.05937191375911,2.598706205517407],[31.059371551279494,2.5987057367879847],[31.05936885977059,2.598704883598018],[31.05847211615215,2.59754428355095],[31.05663972784383,2.5978018727155927],[31.05627926237754,2.599294672201777],[31.05627900563809,2.599294681739244],[31.056278636842762,2.599296212055955],[31.054906980610788,2.599345656732119],[31.051805509424746,2.598696218242541],[31.050703441662144,2.597727870352391],[31.04815369440397,2.59841952788298],[31.04815362084645,2.598419447632565],[31.0481523529602,2.598419791891285],[31.047627815604372,2.5978458001257247],[31.047232140832794,2.597414123474237],[31.046191654358648,2.597888138675993],[31.046191147503418,2.597887867855602],[31.04619080402403,2.597888024808476],[31.04597349578043,2.5977715732581017],[31.044934628610477,2.5972164908644197],[31.04016943435554,2.599126906085222],[31.03939502630438,2.599437538572432],[31.039394904863578,2.5994374228975996],[31.039394765191506,2.599437478893565],[31.03756466424208,2.597694329713371],[31.036851389671366,2.598250043173128],[31.034857763610212,2.599803901717375],[31.03485698628002,2.59980388632731],[31.034856467375185,2.599804290606969],[31.02993324403216,2.599706829754427],[31.029931221747407,2.599708608170232],[31.026466818664762,2.603323647110254],[31.02600454160219,2.603161766793324],[31.02585107524097,2.60329672652241],[31.025575990724416,2.6030116967216466],[31.024839903422134,2.60275393345492],[31.023944224301633,2.601321216599931],[31.023891106004264,2.6013014546976763],[31.019039198964425,2.599496896721845],[31.019039213356503,2.599496377483187],[31.019037664467934,2.599495801241365],[31.01908902807656,2.5976991575117188],[31.019091889659247,2.5975959170729195],[31.01880853941066,2.5971305200241943],[31.017725272220165,2.5953526748069535],[31.012940245456175,2.59566873394303],[31.01293948760217,2.595668385367056],[31.012939305782297,2.595668397461103],[31.01075112835542,2.59476437021694],[31.010644647653812,2.5946128706269267],[31.010644330381496,2.594612724697096],[31.010644477134747,2.5946126280142483],[31.009513675311208,2.593003735416208],[31.003470690717357,2.590291582868345],[31.00270717292469,2.588963893123209],[31.002912178114357,2.586066107221139],[31.001792780558787,2.586223947316822],[30.98461892878406,2.596179350905758],[30.98456656936983,2.596318170744741],[30.981646989368013,2.612032380754528],[30.983058616130457,2.62907647947785],[30.982215135106873,2.6300795886895396],[30.9838,2.6581],[30.97719405781103,2.6857333074665406],[30.97721789767843,2.689744758629202],[30.9816,2.7062]]]}},{"type":"Feature","properties":{"n":"Okollo","c":"336203","d":"Madi-Okollo","od":"Madi Okollo","dc":"336","k":"OKOLLO","a":["OKOLLO"],"lat":2.750017,"lon":31.197641},"geometry":{"type":"Polygon","coordinates":[[[31.068238000018802,2.73187921247998],[31.067772237237385,2.732476528377493],[31.07396800531377,2.738932008105261],[31.075203868320717,2.738388460586166],[31.083180367820972,2.740281092917843],[31.08568006714427,2.74302340862112],[31.08617876622762,2.745378597112849],[31.084944355154242,2.747380362559983],[31.07987606231062,2.751949009997761],[31.081494185850538,2.755089980427176],[31.083973713317796,2.756941251250968],[31.084803097296103,2.756643399050551],[31.08780945944921,2.759415864141129],[31.08769295567031,2.762647041710795],[31.086540835621783,2.765696544891],[31.087643589878592,2.767235271892468],[31.09332934664212,2.76757279352433],[31.096831489322522,2.761903791262739],[31.100853877705134,2.762387064502502],[31.111322669518355,2.75828818700108],[31.110362903773176,2.759260428848807],[31.112833023689053,2.761680164313431],[31.11495841162732,2.761783025861436],[31.115989792606843,2.760627439904301],[31.117247665728485,2.762048903585439],[31.12197937371709,2.76327594861308],[31.120954938976894,2.764259589357112],[31.121145209593486,2.76723689522208],[31.119606552197055,2.768809147914695],[31.119855827622825,2.76967926128057],[31.118097521333116,2.768975250935268],[31.11731150893859,2.772005852429166],[31.116164349467528,2.772231337565055],[31.117219976448865,2.773075731538224],[31.114877128055774,2.773381384427646],[31.113226394783702,2.775228951588237],[31.11255536969744,2.775007273402244],[31.113808332413722,2.776694524548357],[31.107739774073245,2.776440568391695],[31.108749528283017,2.779907391385539],[31.11771521552423,2.790414956714153],[31.121312987429572,2.793555902335141],[31.126986349270144,2.795639706332646],[31.125817212735,2.799360536837134],[31.12865905644222,2.804591161939929],[31.135964924332534,2.811592839558073],[31.1455299289597,2.820759569928971],[31.15336960839535,2.834026669148144],[31.17462628303742,2.8578462532596833],[31.174626615958633,2.8578466159944167],[31.183658943098088,2.863008189676127],[31.187672800843686,2.8566869233354226],[31.187679929313255,2.8566683329794413],[31.190531889057716,2.849223202096762],[31.21527804657851,2.848948223702269],[31.235956967246818,2.8455396234112214],[31.24992197824282,2.843237699866719],[31.249921996177495,2.8432377043487547],[31.249922999478095,2.843237538970166],[31.25449335905149,2.8443801287174786],[31.254634979508065,2.844415520933139],[31.25521618225611,2.8365792373167062],[31.256035437133537,2.825533106700061],[31.260946648343893,2.810285522439143],[31.26928421072131,2.794581184787641],[31.27142605262824,2.792904907628133],[31.271723406451127,2.79367017481285],[31.277953290550176,2.793443355539513],[31.277826416442007,2.791120195049592],[31.277818773914774,2.790982799913568],[31.277818903688818,2.7909826308796672],[31.277818883870268,2.790982267987065],[31.279496092522063,2.7887973765070577],[31.27949706467864,2.7887760529045234],[31.279605631142633,2.786268109496591],[31.286461319851743,2.788780827869739],[31.289521226513685,2.792713632303131],[31.29142702859442,2.791270570871958],[31.291428463718287,2.7912710163247465],[31.291428657055945,2.791270869807988],[31.291696922047446,2.7913543439831696],[31.29720707050578,2.793064656976751],[31.294549091678647,2.785800428581027],[31.293635403038536,2.780032735245591],[31.294234292781876,2.778125234372511],[31.288762264720102,2.776649135715337],[31.285051866055756,2.773276045690036],[31.297431356628003,2.766014510013276],[31.299328855925367,2.763082054532049],[31.299329010295203,2.7630821034068886],[31.299329096494912,2.763081970203035],[31.299593974624422,2.7631659934294093],[31.301899792670252,2.763896035576458],[31.306353584395556,2.761438056921447],[31.30302956143466,2.7588281298323],[31.30179563974556,2.756387601703108],[31.30179965122012,2.7563852184163022],[31.301799648514923,2.756385213044222],[31.301799775474443,2.756385144594648],[31.308961000103036,2.752130536491667],[31.3171938478481,2.748085501365206],[31.324586183908878,2.746738592644092],[31.32565188986232,2.746544405768507],[31.32667358337047,2.743490937091236],[31.33044584656792,2.737409118882917],[31.33004258132264,2.736608627008127],[31.325068431643462,2.7336474275335663],[31.32284878896317,2.73323874081097],[31.30818928485475,2.723920208628082],[31.306874224262046,2.7228160933733934],[31.3008,2.7192],[31.295571441615774,2.713326359737202],[31.294910817008507,2.712771704149045],[31.292223951710117,2.7095658678301957],[31.2854,2.7019],[31.291992403809125,2.6754304998573124],[31.291265886763448,2.675336041648265],[31.290836071487604,2.6748217425225027],[31.28952928576075,2.6741725113970594],[31.288551674985683,2.67614600775192],[31.286975351760077,2.676271227011557],[31.28674180001614,2.673865372078212],[31.2831907925992,2.671427606113729],[31.28278416579205,2.6708214326864974],[31.280077346388136,2.669476643428502],[31.27995912144936,2.669470047118236],[31.279555811618952,2.6692175369826647],[31.276393305853812,2.6676463557745067],[31.275540787941413,2.667600889725243],[31.275361541542306,2.669101439266101],[31.274292747502553,2.669624509932031],[31.271663296064304,2.666618857759199],[31.27147804068466,2.665153466522847],[31.27027441383274,2.664525767546746],[31.268027490202563,2.659669914550024],[31.26852419543343,2.658213281564075],[31.2667658358366,2.657270988543378],[31.267218898567002,2.6553255442169394],[31.2672,2.6553],[31.26301915540134,2.6527503701791795],[31.261931900912813,2.652696602947668],[31.2605128021964,2.651473961959762],[31.2583272742204,2.651706859375643],[31.258196847371796,2.6498095528234553],[31.254164164054792,2.6473502770957102],[31.253418420285005,2.648622543704998],[31.25226254486276,2.64619060112942],[31.252049502706154,2.646060680338834],[31.247080285187618,2.645966169941086],[31.24567455337256,2.6421730063190036],[31.24150916443489,2.6396328019176725],[31.240327791323327,2.639490400805105],[31.237747742096165,2.638003740334984],[31.23715144389324,2.6369753067676815],[31.2367,2.6367],[31.236651018764984,2.6361122251798172],[31.236494896013134,2.635842960778492],[31.20914925082445,2.656769517094256],[31.197825130399785,2.666625703068394],[31.200530361348587,2.668150988990084],[31.201162963514648,2.672971025886642],[31.19584198242179,2.674377487572116],[31.191960009080226,2.669225393217],[31.189144010841947,2.668902084694],[31.186206703701238,2.669814722010803],[31.184377252462493,2.669413086081382],[31.181569626764347,2.667335051528111],[31.180559973039294,2.66887888974632],[31.179452033267374,2.669116552144222],[31.17679339903185,2.668115800924031],[31.174528103360323,2.670426146391676],[31.172862571253532,2.670503010179614],[31.17096075962283,2.669064486676052],[31.16552694983738,2.668577640598903],[31.165261110898108,2.669983967711362],[31.16236342404741,2.672172514057771],[31.154707113434043,2.672161538581976],[31.149818099694897,2.678736172882616],[31.154811783712294,2.681096907474131],[31.15540524421613,2.682133950006854],[31.153894499486647,2.685005295146388],[31.155806521602962,2.694527269450057],[31.149036457633862,2.697324214561724],[31.14776476577059,2.698757537567855],[31.142497681058973,2.697564005209684],[31.13849243451719,2.6953833492427],[31.13682467924067,2.695919204207046],[31.132939681119474,2.694856211820326],[31.12660684889288,2.698156933609777],[31.12517063983862,2.697741636843504],[31.124252284571064,2.696434584331127],[31.12342098396581,2.692732013650998],[31.12112832653639,2.692975321041417],[31.12080817239243,2.694484651833366],[31.11896246175368,2.695492868020809],[31.110309680625832,2.691280822616856],[31.107326048803337,2.696661498363017],[31.101037283335415,2.700929604380948],[31.098735710022204,2.701045373106603],[31.091443384268572,2.698002955898954],[31.090663602017184,2.696820067588219],[31.081784569997613,2.697796829656163],[31.078207748173842,2.69746257736087],[31.078185036785342,2.697497988675134],[31.07734597133671,2.698806938313957],[31.077344708051168,2.69880721724957],[31.075489385088215,2.699425757217815],[31.074739331486633,2.6993824888596127],[31.07368153664614,2.699616051773039],[31.070384680531287,2.699131870468146],[31.06901956353732,2.7011083634905324],[31.068951835016335,2.7012066382722466],[31.069184929038894,2.703761166836307],[31.068469797593348,2.7043596845590194],[31.068375819036834,2.7050071657262946],[31.06790875831108,2.708225398922961],[31.070159906031662,2.714293513067387],[31.070388028586642,2.7166398431662837],[31.07067308468172,2.719564482775126],[31.070672365751413,2.7195643626115222],[31.07067281157323,2.719568948064042],[31.065782261107223,2.718747041669259],[31.063258945641383,2.719415622362536],[31.062498165008307,2.722649242301278],[31.062974009312345,2.725647079297866],[31.0629800772368,2.725654592258732],[31.068238000018802,2.73187921247998]]]}},{"type":"Feature","properties":{"n":"Okollo Town Council","c":"336204","d":"Madi-Okollo","od":"Madi Okollo","dc":"336","k":"OKOLLOTOWNCOUNCIL","a":["OKOLLO","OKOLLOTOWNCOUNCIL"],"lat":2.65277,"lon":31.147214},"geometry":{"type":"Polygon","coordinates":[[[31.07820775460793,2.69746256639937],[31.07961030582512,2.6975936457051484],[31.081784569997613,2.697796829656163],[31.090663602017184,2.696820067588219],[31.091443384268572,2.698002955898954],[31.098735710022204,2.701045373106603],[31.098738330975735,2.7010452412731096],[31.10212250001514,2.7001930814711472],[31.107326048803337,2.696661498363017],[31.110309680625832,2.691280822616856],[31.11896246175368,2.695492868020809],[31.120807337895666,2.6944851076757534],[31.120972534016403,2.69370978739772],[31.12112832653639,2.692975321041417],[31.12342098396581,2.692732013650998],[31.124216625071004,2.6962757587287465],[31.124252466598453,2.696434843402275],[31.12517063983862,2.697741636843504],[31.12660684889288,2.698156933609777],[31.132939681119474,2.694856211820326],[31.136101234956467,2.695721259255121],[31.136824884851933,2.695919138143507],[31.13849243451719,2.6953833492427],[31.142497681058973,2.697564005209684],[31.14776476577059,2.698757537567855],[31.149036457633862,2.697324214561724],[31.149037120488757,2.6973239407136824],[31.149037213340204,2.697323836031618],[31.149158228300312,2.697273906932161],[31.155806521602962,2.694527269450057],[31.153894499486647,2.685005295146388],[31.15540524421613,2.682133950006854],[31.154811783712294,2.681096907474131],[31.149818099694897,2.678736172882616],[31.154707113434043,2.672161538581976],[31.16236342404741,2.672172514057771],[31.165261110898108,2.669983967711362],[31.16552694983738,2.668577640598903],[31.17096075962283,2.669064486676052],[31.172862571253532,2.670503010179614],[31.174528103360323,2.670426146391676],[31.176687072650893,2.6682242418112083],[31.17679300235348,2.668116166918839],[31.176793029972192,2.668116177323157],[31.17679339903185,2.668115800924031],[31.179452033245685,2.669116552136058],[31.179452055834403,2.669116547303404],[31.180559973039294,2.66887888974632],[31.181492778864257,2.667452557879251],[31.181569346071203,2.667335343743299],[31.18156940644405,2.6673353884147897],[31.181569626764347,2.667335051528111],[31.183920600638924,2.669075100049692],[31.184377439057492,2.6694131270462655],[31.186206703701238,2.669814722010803],[31.189144010841947,2.668902084694],[31.191960009080226,2.669225393217],[31.19584149008393,2.674376834149002],[31.19596614997852,2.674344667137675],[31.201162963514648,2.672971025886642],[31.200530361348587,2.668150988990084],[31.197825130399785,2.666625703068394],[31.20914905685723,2.6567696859177],[31.209149158069522,2.656769597825234],[31.20914915807162,2.656769597823628],[31.20914925082445,2.656769517094256],[31.220212782815857,2.648303027323327],[31.23649489251987,2.635842949103982],[31.23540513651146,2.631109804966029],[31.23381253630145,2.62925424569742],[31.235446307180755,2.625403931782381],[31.234582203523257,2.624325844047259],[31.23545144830332,2.621949432001872],[31.235224011379984,2.6210088404270433],[31.229421273870585,2.6180031058898],[31.22938052878326,2.618025249494204],[31.227904049607183,2.617670456014956],[31.227292499486207,2.6169004313885393],[31.226020575417465,2.616241593021997],[31.223968924849636,2.617022252599933],[31.22247103450043,2.61630541439304],[31.221339425214396,2.6137520821578906],[31.21406086639406,2.617171738167614],[31.2137267938677,2.6176941835937386],[31.209877555516673,2.623715317785016],[31.206826081396912,2.622735130035595],[31.205986826787854,2.6231173515194244],[31.205871546769938,2.623170359383132],[31.20587113472196,2.623170041123528],[31.20587087470595,2.623170159542544],[31.20400891349427,2.621732333999556],[31.201985669523822,2.621329767726667],[31.19984332724212,2.621446422876742],[31.197580723047672,2.622838981716591],[31.19658947604526,2.622119834562651],[31.193971469945037,2.622514607057564],[31.189611473995935,2.620154633909839],[31.18870193010525,2.617521090725882],[31.187130272254336,2.6183934325808456],[31.18612361435286,2.618952236948981],[31.186123532770136,2.61895221895321],[31.18612250328965,2.618952790361877],[31.17993928511977,2.617589711442453],[31.179775346476976,2.619262661964996],[31.178669160492507,2.619022583381652],[31.17866634590784,2.619021979510242],[31.17866633430335,2.619021970006055],[31.178665033611566,2.619021687713343],[31.175705981428937,2.6165974124888414],[31.174710806114252,2.615782354320939],[31.174710826719494,2.615782107871771],[31.174709718247623,2.615781199729323],[31.174858706713817,2.6140010239951237],[31.169905688008814,2.608362369366342],[31.169905719163026,2.608362272177621],[31.169904384169254,2.608360752440435],[31.17037282855896,2.606902542772909],[31.168729089770512,2.603417620417335],[31.165820396796875,2.6033083436628335],[31.165720546246938,2.603367056784153],[31.16376650046469,2.60452166485137],[31.162726383643303,2.603882437577264],[31.161743469813473,2.604568563328497],[31.158116358882957,2.603920158325922],[31.157242827393315,2.603764129949176],[31.156548770385207,2.6040068901338174],[31.153418962367066,2.605101933960793],[31.151332117535553,2.607592051691535],[31.145221385383678,2.6079527090313492],[31.144867043233948,2.607973649446953],[31.14486684024231,2.6079736343974678],[31.144866596477073,2.607973648784569],[31.139636206125626,2.607585843293139],[31.134413299712513,2.607198625108773],[31.134413251861645,2.6071985891478535],[31.134413125630473,2.607198579788487],[31.132161894050558,2.6055066471193875],[31.128567207699298,2.602805165867981],[31.127255365117843,2.603814373069901],[31.12136281558269,2.603136108880975],[31.116901123974387,2.6058091330478166],[31.115848483053437,2.609443003710842],[31.115848438455497,2.609443057924116],[31.11584841081232,2.609443153352944],[31.113999164600944,2.611691532384643],[31.113345721249537,2.609359391312306],[31.113052520795534,2.609067778010787],[31.107949794667316,2.603994958377072],[31.10497778467364,2.608215299964355],[31.105470676544407,2.609573279665102],[31.105470374291308,2.609574461413052],[31.105470409869174,2.609574559348729],[31.10398829210879,2.615369100349521],[31.103196365177368,2.618465373070302],[31.103196304241322,2.6184654846536968],[31.103196294130434,2.618465524183592],[31.103155094908274,2.6185409453650412],[31.096002135039736,2.631639129683033],[31.096002135932213,2.6316354794009973],[31.09600212761377,2.631635494629121],[31.0960021261366,2.631639138725516],[31.09600091941187,2.6316377064188083],[31.095997270506363,2.631644386272211],[31.093374190003097,2.628519943057428],[31.093230419456738,2.6283492964196773],[31.09307118648523,2.6283128874098054],[31.08157893855933,2.625688799276853],[31.081242434581206,2.647276777123063],[31.08091859646454,2.6487703112515386],[31.07892540647796,2.65796323658021],[31.082576386527528,2.665288665616214],[31.082871154146176,2.67292337711202],[31.082936769178943,2.6746169347116138],[31.08381916038779,2.6751410297119604],[31.08414636195317,2.675334272924818],[31.084146685354213,2.6753355626987703],[31.084147586672067,2.675336098035225],[31.084571615618557,2.677030251074678],[31.084634358991703,2.677280481463193],[31.084634292960384,2.6772806703209167],[31.08463437920573,2.677281014903093],[31.08421410070582,2.6784824720311553],[31.083531608407775,2.68043448424011],[31.083531255463047,2.68043453306799],[31.083531103213037,2.680434968307619],[31.079650374845304,2.680972085986533],[31.076075668725274,2.6884291101519207],[31.076207931176626,2.692593214576187],[31.078583220195725,2.694999904196472],[31.078535631038644,2.696951058489914],[31.078207758153283,2.697462543136999],[31.07820775460793,2.69746256639937]]]}},{"type":"Feature","properties":{"n":"Uleppi","c":"336205","d":"Madi-Okollo","od":"Madi Okollo","dc":"336","k":"ULEPPI","a":["ULEPPI"],"lat":2.782894,"lon":31.061314},"geometry":{"type":"Polygon","coordinates":[[[31.015644779384065,2.807820986135269],[31.016048832697045,2.807818883219689],[31.01688819520759,2.806906426538006],[31.02007210833656,2.806687147047991],[31.02660195755331,2.808773290082343],[31.027206594841036,2.806891897871974],[31.029629991619952,2.808293438528014],[31.033103956149816,2.816097934198111],[31.032461347241078,2.818501582804148],[31.028760423165014,2.823495894053441],[31.029768951182625,2.826653478850824],[31.03796832407448,2.8359792501741663],[31.038525582867493,2.8363690697054293],[31.04098896507821,2.837840270378064],[31.04160014656755,2.8379495500340304],[31.05983038343723,2.833379435557058],[31.063311117321067,2.831801856283113],[31.07541654547288,2.828874516930163],[31.079477766235225,2.829016945285145],[31.085258243850348,2.830527666450573],[31.09021712469859,2.833139764975258],[31.09642497238802,2.837833958995347],[31.097926554480264,2.8353675063031174],[31.097946420336804,2.835334098578297],[31.097941920506333,2.835296678383433],[31.09722444284171,2.83133424957249],[31.097420289015623,2.8309588367360106],[31.097389320912985,2.830701308715252],[31.097592639048774,2.8306284630885723],[31.09793135716139,2.829979182457333],[31.09924015438039,2.8300381847726226],[31.10047928475233,2.829594224236928],[31.105832703561994,2.830335452485215],[31.106127857465793,2.8307676697656494],[31.106755976821415,2.8316826843351657],[31.109179118179178,2.830874436801993],[31.109526433373915,2.8310138027321257],[31.109762973970398,2.83095653831852],[31.109740082091378,2.831099532791398],[31.110016302818075,2.831210370897767],[31.109602673542973,2.831968990101638],[31.110917628421586,2.832322723445728],[31.110924391697566,2.8323182964851092],[31.113786313844077,2.829358437801951],[31.113805195530343,2.829334007414786],[31.11070915531641,2.828500603429043],[31.10889536566347,2.826952313619146],[31.111313593120812,2.817600044507935],[31.111313973774795,2.817599594248385],[31.111314020655623,2.817599412891814],[31.113204897161904,2.8153629006896552],[31.120944242937778,2.806208354839876],[31.12553035239939,2.804024189707533],[31.128873834783764,2.805398347452443],[31.128870063285742,2.8053841733753115],[31.12582837267223,2.799381077533188],[31.125817212735,2.799360536837134],[31.126986349270144,2.795639706332646],[31.12154449488592,2.7936409341340194],[31.121313312031166,2.793556063869186],[31.121313228364304,2.7935559908295415],[31.121312987429572,2.793555902335141],[31.118509849789163,2.7911086924707265],[31.117715605640047,2.790415331816598],[31.117715490156122,2.7904151964747244],[31.11771521552423,2.790414956714153],[31.113845111900986,2.785879290283273],[31.108750045737413,2.779908105909621],[31.108749997922068,2.779907941790977],[31.108749528283017,2.779907391385539],[31.107739774073245,2.776440568391695],[31.107783620129158,2.776442403255137],[31.109425236404117,2.776013854063287],[31.113805705203333,2.7766944146052346],[31.113808332413722,2.776694524548357],[31.11255536969744,2.775007273402244],[31.112556248065392,2.7750075635777054],[31.1125561784664,2.77500746990363],[31.112566717062773,2.775011022089759],[31.113226394783702,2.775228951588237],[31.11477460528727,2.7734961320392095],[31.11487666854389,2.773381682484731],[31.114876887177545,2.77338165402826],[31.114877128055774,2.773381384427646],[31.117219976448865,2.773075731538224],[31.116164349467528,2.772231337565055],[31.11616453749869,2.772231300605737],[31.116164420397492,2.772231207298278],[31.116216980880008,2.772220992358923],[31.117310912871957,2.7720059695917487],[31.11739437990475,2.7716863296384457],[31.118097521333116,2.768975250935268],[31.118101865082693,2.7689769901343237],[31.118103332814247,2.768971369404439],[31.119622024487555,2.769585648565336],[31.119855827622825,2.76967926128057],[31.119606552197055,2.768809147914695],[31.11960698231469,2.7688087084058006],[31.11960693606248,2.768808546888693],[31.119759019107395,2.768653352017004],[31.121145209593486,2.76723689522208],[31.120954938976894,2.764259589357112],[31.120955283903054,2.7642592581662506],[31.120955261433508,2.7642589068801],[31.120998651714245,2.764217617303837],[31.121977228747014,2.7632780081683435],[31.11742983784435,2.7620961451712445],[31.117247665728485,2.762048903585439],[31.11604459898328,2.7606893740312493],[31.11598975724114,2.7606274795289507],[31.11495841162732,2.761783025861436],[31.11495792005706,2.761783002071107],[31.114957911745087,2.761783011382748],[31.11493516802669,2.7617819009502145],[31.112833023689053,2.761680164313431],[31.110362903773176,2.759260428848807],[31.111322669518355,2.75828818700108],[31.100853877705134,2.762387064502502],[31.096831489322522,2.761903791262739],[31.09332934664212,2.76757279352433],[31.087643589878592,2.767235271892468],[31.086540835621783,2.765696544891],[31.08769295567031,2.762647041710795],[31.08780945944921,2.759415864141129],[31.084803097296103,2.756643399050551],[31.083973713317796,2.756941251250968],[31.08397221809918,2.7569401348872105],[31.083972078447744,2.756940185165451],[31.081494682962784,2.755090422304729],[31.08149462372027,2.7550903073505393],[31.081494185850538,2.755089980427176],[31.080766978986475,2.7536783853296813],[31.079878557959624,2.751954492950135],[31.079878782498,2.751954290205304],[31.07987606231062,2.751949009997761],[31.08494435289974,2.74738036459223],[31.084951163959534,2.7473693211561376],[31.08617876622762,2.745378597112849],[31.085838899008973,2.743773518241039],[31.085679717597895,2.743023025148392],[31.083180411188764,2.740281140494836],[31.082317529007295,2.740076361928298],[31.075204713454266,2.73838866111612],[31.07504116630554,2.73846001890307],[31.07396800531377,2.738932008105261],[31.067772237237385,2.732476528377493],[31.068238000018802,2.73187921247998],[31.06823736798892,2.731878464247998],[31.067101657389507,2.730757696081224],[31.067036825485072,2.7308460130866576],[31.064484037649553,2.734324356807425],[31.06547905557744,2.7351993019225764],[31.06631740441507,2.735932627734158],[31.06631387852921,2.7359333834332658],[31.06631901751391,2.735937902276024],[31.065492557129744,2.7361094163151605],[31.065372347532595,2.736135180701467],[31.06485291293163,2.738704425657814],[31.064852777361935,2.7387044675975614],[31.064852738639086,2.738704659306546],[31.064779646283753,2.738727091377035],[31.063946643624195,2.738984788500333],[31.06350044751616,2.745293094699995],[31.061592406296043,2.744786837821088],[31.06061294218816,2.746113691372529],[31.057884655546847,2.744231359470797],[31.048613118842884,2.756108022988258],[31.04528187994266,2.756012844609667],[31.044456450079984,2.752269760821973],[31.03686665830925,2.753808608955582],[31.035407383902665,2.749608223161526],[31.033813194797517,2.7477155051171382],[31.03377106904825,2.7477186997389236],[31.02908567763185,2.748074204372223],[31.029084911150367,2.74807407625731],[31.02908485607836,2.748074080433716],[31.02629036189892,2.7476069763451854],[31.02152182372743,2.746809930539064],[31.016212846477384,2.746941524202531],[31.01621264801802,2.7469415291225845],[31.011849020855035,2.748339327478864],[31.0188109314526,2.755641153234329],[31.014937012181583,2.762103938638121],[31.014698741680515,2.772125199816057],[31.014697556079156,2.7721272768973315],[31.014693770304543,2.7721346149735195],[31.0147,2.7724],[31.008727830040108,2.7910029661969014],[31.00911704852614,2.79167359065864],[31.009429623939138,2.794340238108421],[31.00683709588708,2.796892494420709],[31.006033679211104,2.7993950911930034],[31.00616147085563,2.7996393081891706],[31.015644779384065,2.807820986135269]]]}}]}
