{"type":"FeatureCollection","name":"Maracha sub-counties","metadata":{"source":"Uganda Bureau of Statistics NPHC 2024 Map Explorer","retrieved":"2026-07-26","display_only":true,"clipped_to_dashboard_district":true,"positive_area_overlaps_removed":true,"source_gap_ratio":0.01342175},"features":[{"type":"Feature","properties":{"n":"Agaii Town Council","c":"320101","d":"Maracha","od":"Maracha","dc":"320","k":"AGAIITOWNCOUNCIL","a":["AGAII","AGAIITOWNCOUNCIL"],"lat":3.195866,"lon":30.860205},"geometry":{"type":"Polygon","coordinates":[[[30.841526098842078,3.21427318465573],[30.848064912535175,3.213156782910811],[30.84870658042199,3.214960659335436],[30.851999626858795,3.216698496563127],[30.857885134075037,3.216593854072655],[30.85910930152734,3.218927353297429],[30.862296581965712,3.218947283835047],[30.86221813637483,3.221777776661338],[30.86799978429474,3.22040733994714],[30.8751931231836,3.217452576506647],[30.8802951491756,3.217237688003424],[30.88433496489458,3.215166714807558],[30.882444533740262,3.211284229751238],[30.878305115445986,3.208951295847948],[30.87684607075404,3.208982849971575],[30.875879161999833,3.204498205519265],[30.87594297985168,3.201434920960962],[30.877873370093997,3.200270904915116],[30.87885846610979,3.198204345161422],[30.87905911234766,3.192495317916431],[30.87998000296245,3.190422617657532],[30.87914829360618,3.186738286376106],[30.87795066409934,3.186649829723964],[30.879282877862593,3.182366563710809],[30.880774716606627,3.180432358798972],[30.878582932166648,3.179957893706727],[30.876402350895173,3.177663633754829],[30.87360018705836,3.177749163025998],[30.874096435171776,3.173798217131991],[30.86602144881813,3.171040061090781],[30.86406880064847,3.172043950139586],[30.862451358707506,3.174756027117366],[30.856890587524607,3.17473070287641],[30.855616694611797,3.178177116042766],[30.85579040924261,3.180495508652982],[30.853072707390066,3.181681923109356],[30.849990618255607,3.181658388796269],[30.848087100552952,3.182955146860337],[30.846837379466365,3.184581539442249],[30.847197561204755,3.185278402746311],[30.845035210849854,3.185986627927651],[30.84367727896683,3.187466954062754],[30.843557252682043,3.190016170676983],[30.84147081569606,3.190521950052246],[30.83877920999513,3.193528445851194],[30.846186626454514,3.19996628159244],[30.84270395063013,3.201510050917472],[30.84231507905716,3.208870451547309],[30.83773556558718,3.209640077923298],[30.83676480359726,3.211808071280831],[30.839749469337896,3.212182154019901],[30.841526098842078,3.21427318465573]]]}},{"type":"Feature","properties":{"n":"Awiziru","c":"320102","d":"Maracha","od":"Maracha","dc":"320","k":"AWIZIRU","a":["AWIZIRU"],"lat":3.146953,"lon":30.890109},"geometry":{"type":"Polygon","coordinates":[[[30.86308092885567,3.154019434315635],[30.865753023370612,3.156627282612402],[30.86805608367887,3.156269612535336],[30.867199739070134,3.158093036310234],[30.8681893510202,3.160584027779848],[30.86495035934691,3.16115983129571],[30.867340268274315,3.162483867656884],[30.86799756214319,3.164011627343627],[30.865753026175888,3.165555029451203],[30.864991549246692,3.167734952501233],[30.866346731399013,3.168935261226191],[30.86545176642555,3.171238469562203],[30.86557532225199,3.1712694222123026],[30.86602144881813,3.171040061090781],[30.869767893708765,3.172319726362723],[30.875984090350716,3.17387697999577],[30.87832950080361,3.172703773394479],[30.87831539970735,3.171989947525167],[30.88257485261182,3.168741926757395],[30.883611281607543,3.168989836274711],[30.886510101548385,3.164263507047715],[30.890992169354764,3.160509166597491],[30.891641977053332,3.159533684572189],[30.891378937711437,3.15747313187721],[30.892555157323052,3.156504322264503],[30.894129746511428,3.15747642841789],[30.895805225844157,3.156611494082477],[30.897539342492994,3.154227087590211],[30.898618772070694,3.154229974420934],[30.900665654786742,3.156024382825213],[30.901800451478884,3.155538239032439],[30.902345046821726,3.153205651061008],[30.901321919891025,3.15190335012114],[30.90290333033501,3.150813890294406],[30.90619984894081,3.152268184500119],[30.90886791018395,3.151522837463861],[30.909104079863813,3.150525418913814],[30.91192566717391,3.151526349867996],[30.91393597563192,3.150252931826498],[30.914306287749103,3.15092134848697],[30.913345385119904,3.15127454233795],[30.9125456142056,3.153185232263437],[30.91402862542917,3.15416430285032],[30.91620580639267,3.153314620358965],[30.91612267679701,3.152166148138084],[30.917673153240756,3.151630382149496],[30.91689569133114,3.150786044393678],[30.916242132813434,3.14669276338535],[30.916797065685707,3.146247344526161],[30.920894264643035,3.147214033910105],[30.921931326974867,3.1447332698618],[30.923521805138808,3.146120359993118],[30.924504609563698,3.144647490656316],[30.92547682326955,3.144862377042982],[30.925664712395925,3.143524753977687],[30.927355791347647,3.142944758384685],[30.92840184141557,3.143171457201562],[30.92861718624293,3.144305976455469],[30.92994501985276,3.143734512636096],[30.929983725892686,3.142851097221889],[30.931510693540833,3.143217458804623],[30.93436447692147,3.14530546448617],[30.934965468801572,3.142997517672936],[30.937890756187613,3.142140894360157],[30.938737903856428,3.140670995914495],[30.942494940843964,3.142960731091603],[30.94542121760208,3.143404873252966],[30.943775658201485,3.137457411822759],[30.939595412646558,3.127709783900878],[30.940280020314503,3.1259567816062392],[30.9402,3.1257],[30.922929910975988,3.1213010150599207],[30.922910319936644,3.121306171351191],[30.922819949555265,3.121273006018794],[30.919,3.1203],[30.9061,3.125],[30.884524715235266,3.1242259987528347],[30.88335262372271,3.127993935608229],[30.88073609398901,3.130897966971238],[30.875131913080978,3.1327146694514285],[30.873492395932338,3.134325168597438],[30.872607280406005,3.135510429436375],[30.871771099862613,3.135156428760818],[30.864371549471254,3.1336989415625194],[30.866330601658902,3.13971306259624],[30.864797340969293,3.140722162092422],[30.86654426291716,3.142052324587253],[30.862804328144538,3.149074654042132],[30.86535885710886,3.151020525096017],[30.86308092885567,3.154019434315635]]]}},{"type":"Feature","properties":{"n":"Kijomoro","c":"320103","d":"Maracha","od":"Maracha","dc":"320","k":"KIJOMORO","a":["KIJOMORO"],"lat":3.170671,"lon":30.951674},"geometry":{"type":"Polygon","coordinates":[[[30.923474858462043,3.152876608007664],[30.924133904049036,3.154563115289155],[30.9230585169634,3.157539822476707],[30.925057258141962,3.15885327924422],[30.927255947748836,3.158900873906755],[30.93164091247846,3.157290302483358],[30.930502522176834,3.162972050165235],[30.933992737534822,3.1669318584375],[30.9333386286982,3.171128354779247],[30.930440037845234,3.170213416402767],[30.927999343651265,3.176281598988319],[30.925663904664972,3.176039917366377],[30.923467150583466,3.17792731680299],[30.930392266135573,3.180275653508013],[30.92968483270809,3.182489236879808],[30.930485289925894,3.185561421858478],[30.93221270099852,3.186303860991799],[30.93274101384851,3.188830794619089],[30.935680132388008,3.188826551106101],[30.93673949247994,3.186840130677046],[30.938381303627732,3.185794170478595],[30.939118460278436,3.187624925658123],[30.941345681549418,3.189263441897424],[30.94330185121303,3.189593076029434],[30.94409311621101,3.189212326174823],[30.94398120484837,3.188069445658532],[30.944727287830744,3.188024140222713],[30.948214899285798,3.189729192082377],[30.950025411379578,3.199851041061166],[30.952390095036783,3.199988046762921],[30.95490034166929,3.198788456630236],[30.95841532557959,3.199732461654868],[30.961817913983268,3.199244664980237],[30.96214278968356,3.197995946675531],[30.96136607607335,3.197648951599528],[30.963268476864204,3.195456693582576],[30.96137016844359,3.195642305737052],[30.96062960009856,3.194463725103561],[30.961781708211664,3.193790044579896],[30.965720058485434,3.193796395719274],[30.964493972961986,3.188203225835485],[30.96487618752555,3.187698589496815],[30.966370194161826,3.188888334758157],[30.967936668485905,3.186504401501871],[30.968164377346717,3.182629386979683],[30.966521345335472,3.18149366563156],[30.96607753102989,3.180026788793677],[30.97236929350118,3.178425700867644],[30.969491162348938,3.1692429097805648],[30.9693,3.1689],[30.969104382431606,3.168710495480619],[30.963164425557125,3.169377397585364],[30.961863635523372,3.16802583575993],[30.96032790038135,3.169505052074079],[30.95836518075297,3.162115442114754],[30.96009446528104,3.161850986148005],[30.96009018839396,3.160435065749797],[30.958734005673175,3.158781030262572],[30.95735875901771,3.159632007893644],[30.956124341026968,3.159113429179528],[30.955046266655938,3.159655361088007],[30.953202706509124,3.157372093621048],[30.95352627301253,3.15599563192523],[30.95258292471766,3.15596752787435],[30.952611557219974,3.1527330710568493],[30.94690203199847,3.147201968498518],[30.94682705133466,3.147166352759191],[30.94542122066116,3.143404884808869],[30.94494584608784,3.1433327226844323],[30.942494940843964,3.142960731091603],[30.940996390578086,3.14204743604824],[30.93873778971241,3.1406711939674707],[30.937890756187613,3.142140894360157],[30.936958541820456,3.1424138783285787],[30.93496498010001,3.142999394399151],[30.93436447692147,3.14530546448617],[30.931510693540833,3.143217458804623],[30.93064879227326,3.1430106649587075],[30.929983721986105,3.142851186384597],[30.92994501985276,3.143734512636096],[30.929944327893054,3.143734810436915],[30.929944322320246,3.143734936113431],[30.92978419545928,3.143803727123111],[30.92861718624293,3.144305976455469],[30.92861702856364,3.1443051457404025],[30.928616970303352,3.144305170769208],[30.928401524825937,3.1431713885906056],[30.927444748545252,3.142964037090426],[30.927355535404484,3.142944846166457],[30.926227898176272,3.1433315960708312],[30.925664691907564,3.1435248998387277],[30.925579843683906,3.144128952575585],[30.925477528640236,3.144860785812147],[30.925477061169413,3.1448606833827304],[30.92547682326955,3.144862377042982],[30.924564662357067,3.144660764001156],[30.924504542653498,3.1446475909305702],[30.923521805138808,3.146120359993118],[30.92193236434863,3.144734174577716],[30.92128075215077,3.14628951444307],[30.920894264643035,3.147214033910105],[30.920884523950406,3.147211735699973],[30.920111101318692,3.147111010909257],[30.921923004552795,3.152010107117083],[30.923474858462043,3.152876608007664]]]}},{"type":"Feature","properties":{"n":"Obiba","c":"320104","d":"Maracha","od":"Maracha","dc":"320","k":"OBIBA","a":["OBIBA"],"lat":3.15252,"lon":30.837016},"geometry":{"type":"Polygon","coordinates":[[[30.809754807952462,3.1419897304085724],[30.80961206964592,3.1492218046068343],[30.809957361744694,3.154907405499181],[30.815777679176648,3.173950015536241],[30.81935287111207,3.180693868903921],[30.820447553721504,3.180842306559069],[30.82220513420636,3.178403980284674],[30.823196531590938,3.178140907207039],[30.828812696938385,3.180330667612775],[30.833301409282413,3.18045789960854],[30.834855460128697,3.181510510404852],[30.838766960299964,3.178998386746885],[30.840823146455396,3.179112016557709],[30.841815423642174,3.178191107643598],[30.844031771155052,3.179367748551361],[30.84683737309922,3.184581528858422],[30.846837423504397,3.1845814821309597],[30.848087100552952,3.182955146860337],[30.849990618255607,3.181658388796269],[30.85307258686325,3.1816819221890333],[30.85579037809054,3.1804950928979894],[30.855616694611797,3.178177116042766],[30.85561672041476,3.178177046234963],[30.855616716976503,3.178177000864683],[30.8568896604387,3.174732793726569],[30.856889814443633,3.1747327943838033],[30.856890587524607,3.17473070287641],[30.86245105886606,3.174756025751862],[30.863495124823057,3.1730058721470553],[30.86406880064847,3.172043950139586],[30.864075389110848,3.172040562900998],[30.865451754504615,3.171238474652578],[30.86545649916727,3.171226289766902],[30.86634579840789,3.168937662295496],[30.865315913198568,3.168022247372134],[30.864991549246692,3.167734952501233],[30.865753026175888,3.165555029451203],[30.86799756214319,3.164011627343627],[30.867340268274315,3.162483867656884],[30.86495035934691,3.16115983129571],[30.864958715096,3.161158345873644],[30.86495561429933,3.16115662096351],[30.866704282781015,3.160848032013162],[30.868189155816626,3.160584062481667],[30.867676466718063,3.159293026371227],[30.867199739070134,3.158093036310234],[30.86729180182277,3.157897006102038],[30.86805433306554,3.156269884409243],[30.865753023370612,3.156627282612402],[30.863649893861044,3.154574719471864],[30.863083777962984,3.15402234868654],[30.863083836258063,3.1540222718142092],[30.86308092885567,3.154019434315635],[30.86535885710886,3.151020525096017],[30.862804328144538,3.149074654042132],[30.866324429795718,3.142465096653533],[30.86654412385979,3.142052218704504],[30.865207897704217,3.1410347731804347],[30.86479887323308,3.140724505148477],[30.864799701878113,3.1407239597642476],[30.864797340969293,3.140722162092422],[30.866330601658902,3.13971306259624],[30.864371549471254,3.13369894156252],[30.861521849921715,3.133137637105792],[30.859611900566172,3.133102090528531],[30.859501033128268,3.1327395974343553],[30.8593,3.1327],[30.8341,3.1181],[30.821,3.1186],[30.8197,3.1295],[30.81939117032688,3.129568016058961],[30.819346650572367,3.129782197696374],[30.812500127313573,3.132181986132777],[30.80858397919822,3.1319481712480113],[30.80702058138184,3.1322924910051904],[30.80588753643208,3.132878558197361],[30.805028582317625,3.1327312050848093],[30.803502449890654,3.133067317583606],[30.810085220828185,3.139922276548245],[30.809754807952462,3.1419897304085724]]]}},{"type":"Feature","properties":{"n":"Okokoro Town Council","c":"320105","d":"Maracha","od":"Maracha","dc":"320","k":"OKOKOROTOWNCOUNCIL","a":["OKOKORO","OKOKOROTOWNCOUNCIL"],"lat":3.171609,"lon":30.904516},"geometry":{"type":"Polygon","coordinates":[[[30.876401631116966,3.177663655724317],[30.876402350895173,3.177663633754829],[30.878582624888075,3.1799575704090195],[30.88042931296526,3.1803575877733303],[30.880774716606627,3.180432358798972],[30.879297314832566,3.1823478458310483],[30.87928284629435,3.1823666652074265],[30.87795066409934,3.186649829723964],[30.87914829360618,3.186738286376106],[30.87998000296245,3.190422617657532],[30.879975174675977,3.190433484953241],[30.882577160556718,3.192645555606001],[30.89113184742979,3.189404564606934],[30.8939968105031,3.187077167067398],[30.897365827864792,3.190508508366829],[30.90056381815094,3.192421594453629],[30.90353806070773,3.191105133227379],[30.904864743883362,3.189233998884626],[30.904907888059796,3.187306404500157],[30.906254172673897,3.188437188157136],[30.91036172614052,3.187781104823959],[30.911046591700064,3.195373008901015],[30.91164805235092,3.19641434189511],[30.91420505112586,3.197076597399331],[30.914760583652164,3.192869868839491],[30.91181767516403,3.186712174162298],[30.913624166238048,3.185966152721337],[30.914927154756757,3.188897944654834],[30.917101253426768,3.188847745714016],[30.917114375853117,3.190933316993918],[30.91991086369072,3.189392322412373],[30.925806528590762,3.190389752754475],[30.926446519586612,3.190117882112854],[30.92624459018935,3.188812468261548],[30.930735943079796,3.189132023260005],[30.93229460854676,3.188460271008887],[30.93221283889991,3.1863045205776093],[30.93221270336105,3.186303872291838],[30.930486527095656,3.185563220292301],[30.930486155863232,3.18556179403727],[30.930485289925894,3.185561421858478],[30.92968483270809,3.182489236879808],[30.930392266135573,3.180275653508013],[30.923467150583466,3.17792731680299],[30.925663904664972,3.176039917366377],[30.927999343651265,3.176281598988319],[30.930440037845234,3.170213416402767],[30.93050991544126,3.1702354732219264],[30.933372492436195,3.170911098804912],[30.933992737534822,3.1669318584375],[30.930502522176834,3.162972050165235],[30.93050275042639,3.1629709109633577],[30.930502565356385,3.162970700957767],[30.93064968828161,3.1622375387472625],[30.93164091247846,3.157290302483358],[30.92730097542689,3.1588843355088416],[30.92725601686819,3.158900871438178],[30.927255957958632,3.158900870156758],[30.927255947748836,3.158900873906755],[30.925057258141962,3.15885327924422],[30.925056886825967,3.158853035236887],[30.925056776663332,3.158853032840593],[30.923092605692098,3.1575622236119223],[30.9230585169634,3.157539822476707],[30.924040216517042,3.154822445490903],[30.92347678363676,3.152881534557881],[30.923475063825222,3.152877133535034],[30.922981217517115,3.152600976187003],[30.921923004552795,3.152010107117083],[30.920151843745707,3.14722117190788],[30.92011108892125,3.147111008677662],[30.918502459781646,3.146649713653254],[30.91743144321913,3.1463970189826274],[30.916244397228382,3.146690945844575],[30.916242132813434,3.14669276338535],[30.916276955837784,3.146910862331908],[30.916917925113165,3.1508101906848185],[30.917673153240756,3.151630382149496],[30.917669208807283,3.1516317451455658],[30.917671277249013,3.151633475158535],[30.916122677812492,3.1521661621674526],[30.9161681943536,3.152794993363267],[30.91620600048479,3.153314409367141],[30.916205796871548,3.1533144888204387],[30.91620580639267,3.153314620358965],[30.91402862542917,3.15416430285032],[30.9125456142056,3.153185232263437],[30.91254579284875,3.15318480547664],[30.91254561529612,3.153184688367376],[30.913345191601675,3.151274795660365],[30.91334529219358,3.1512747643432633],[30.913345385119904,3.15127454233795],[30.914256772617517,3.1509395484996197],[30.914128563207314,3.1506005541105697],[30.913961715005463,3.1502993916243516],[30.91193675366987,3.1515193271924873],[30.91192566717391,3.151526349867996],[30.91192530817582,3.1515262225168774],[30.911925084824013,3.151526357074911],[30.91062621745896,3.1510653825825106],[30.909104079863813,3.150525418913814],[30.90886791018395,3.151522837463861],[30.90619984894081,3.152268184500119],[30.90619857528896,3.1522676226150756],[30.90619779656884,3.15226784005134],[30.90290280806104,3.1508142500975884],[30.90132303655008,3.1519025808362366],[30.901878173620364,3.15261138519752],[30.902345046821726,3.153205651061008],[30.901800451478884,3.155538239032439],[30.900665654786742,3.156024382825213],[30.899567184221706,3.1550614039508993],[30.898618433710638,3.154229973516023],[30.897539342492994,3.154227087590211],[30.895805225844157,3.156611494082477],[30.894129746511428,3.15747642841789],[30.892555157323052,3.156504322264503],[30.891378937711437,3.15747313187721],[30.891641977053332,3.159533684572189],[30.890992225551543,3.160509082235691],[30.890992224958964,3.160509083126297],[30.8909922249574,3.160509083127606],[30.890992169354764,3.160509166597491],[30.89018969327518,3.161181349289962],[30.886509888160393,3.164263854962358],[30.883611281607543,3.168989836274711],[30.88257485261182,3.168741926757395],[30.882564657314266,3.1687497011216013],[30.87832167955899,3.1723078462526595],[30.87832950080361,3.172703773394479],[30.87714005968595,3.1732987482183366],[30.876570146966063,3.17377667487418],[30.876177783410256,3.1737800920605275],[30.875984090350716,3.17387697999577],[30.875616837528213,3.1737849774699436],[30.87409644683125,3.173798218909563],[30.874094668757714,3.1738122806743987],[30.87360018705836,3.177749163025998],[30.876140568478206,3.177671624029714],[30.876401328867782,3.177663337747554],[30.876401631116966,3.177663655724317]]]}},{"type":"Feature","properties":{"n":"Olufe","c":"320106","d":"Maracha","od":"Maracha","dc":"320","k":"OLUFE","a":["OLUFE"],"lat":3.245868,"lon":30.869689},"geometry":{"type":"Polygon","coordinates":[[[30.87200851662972,3.278064343539692],[30.873862453823758,3.277550751804692],[30.875254548818905,3.279516170774421],[30.877158819113074,3.278717277477149],[30.87899627691114,3.280332807549962],[30.88025950065472,3.278365153933177],[30.880747334456334,3.275583962779965],[30.882436763091402,3.274034401829284],[30.88259324539244,3.27188110282969],[30.88464687551814,3.272110397465025],[30.889590600359632,3.27065020460374],[30.89090394341211,3.267904676494904],[30.890007864809817,3.264493022735304],[30.896796943369743,3.259092946127445],[30.89687992133228,3.257416397769335],[30.89921447773329,3.256890806825805],[30.899609748116944,3.255927334121016],[30.8988892840256,3.252788614315274],[30.90043066314091,3.252034532672862],[30.900926357275203,3.246850693832852],[30.900171766298495,3.246577566306916],[30.901365262417237,3.245157520475074],[30.901216014172682,3.242605907314097],[30.896500058276125,3.242720922680775],[30.896002114916232,3.240489656370291],[30.897574660509402,3.233990687364482],[30.897668920768155,3.231778878194823],[30.896888410393647,3.23101669065973],[30.897145940635426,3.225699881259362],[30.89813945249639,3.224707562195213],[30.899237553527016,3.225513436025292],[30.90053197483597,3.224009622290541],[30.899620132753604,3.221031180877625],[30.888714361797444,3.213038526235007],[30.88833387078902,3.211791196460628],[30.884312481330337,3.2151205390439044],[30.88433496489458,3.215166714807558],[30.88412945689248,3.2152720665348378],[30.883788266169994,3.215554541239928],[30.88029561959549,3.217237493664677],[30.88029553924369,3.2172374880387182],[30.8802951491756,3.217237688003424],[30.875651891434423,3.217433253982046],[30.87378496598341,3.2180309965530074],[30.86799978429474,3.22040733994714],[30.86221813637483,3.221777776661338],[30.862219349174005,3.221734016147423],[30.862147436218603,3.221757040866929],[30.86114989279236,3.224188656992062],[30.861256324377482,3.22795574415293],[30.85973021447207,3.230486380790285],[30.859451319247515,3.232610482246352],[30.856006571259687,3.23136229572453],[30.85315725535843,3.23396961625002],[30.85340516201,3.235548755675282],[30.852462909309384,3.236207228242125],[30.853310124612772,3.239029693448442],[30.849800766720968,3.238208956220053],[30.843211875336355,3.240350052279549],[30.842942723452726,3.242903249610264],[30.840242257482984,3.242965242863696],[30.839064215886673,3.244845578488581],[30.837143660823347,3.2491552017133194],[30.842,3.2662],[30.863935672740908,3.2728082361395203],[30.86521280377238,3.272837278233076],[30.87200851662972,3.278064343539692]]]}},{"type":"Feature","properties":{"n":"Oluvu","c":"320107","d":"Maracha","od":"Maracha","dc":"320","k":"OLUVU","a":["OLUVU"],"lat":3.209159,"lon":30.834794},"geometry":{"type":"Polygon","coordinates":[[[30.823159276517902,3.188087653147254],[30.8304,3.2015],[30.82933775850677,3.206280086719536],[30.829341094419743,3.20633836292689],[30.828299616960773,3.214764598929862],[30.82959374968484,3.2187308668109504],[30.838042296660504,3.2330991439804513],[30.841549096849292,3.234509431589555],[30.843211873718214,3.240350041177829],[30.84979936900111,3.238209150898239],[30.849799833860107,3.2382092593582588],[30.849800766720968,3.238208956220053],[30.85074260914324,3.238429225899882],[30.85330966636832,3.239028166824676],[30.852462909309384,3.236207228242125],[30.853404920722493,3.2355489242937456],[30.85337830486394,3.235377678465692],[30.85315725535843,3.23396961625002],[30.855774799140754,3.231574383195303],[30.85600635601054,3.231362378676397],[30.856006445113653,3.2313624111568497],[30.856006571259687,3.23136229572453],[30.859451319247515,3.232610482246352],[30.85973021447207,3.230486380790285],[30.86125618850522,3.227955969459983],[30.860917987474608,3.225810375608285],[30.86116143973876,3.2245973547811757],[30.86114989279236,3.224188656992062],[30.861333089455496,3.223742096021947],[30.862295405722158,3.2189472764798217],[30.85910930152734,3.218927353297429],[30.857885134075037,3.216593854072655],[30.851999626858795,3.216698496563127],[30.84870658042199,3.214960659335436],[30.848065222327687,3.2131576538090107],[30.845919414367923,3.213523093683692],[30.841526098842078,3.21427318465573],[30.840372563088128,3.2129155135175673],[30.839749019800383,3.2121820976771684],[30.839736930841667,3.212180582508911],[30.83677814863285,3.211910429391732],[30.836818516923515,3.211814803434431],[30.83676480359726,3.211808071280831],[30.83773556558718,3.209640077923298],[30.83773664948328,3.2096398957652954],[30.83773679916801,3.209639541186357],[30.838875708361254,3.2094484671862467],[30.84231507905716,3.208870451547309],[30.84270395063013,3.201510050917472],[30.846185024021064,3.1999669919047777],[30.843158574919336,3.1973345815244865],[30.83877920999513,3.193528445851194],[30.84147081569606,3.190521950052246],[30.843557252682043,3.190016170676983],[30.84367727896683,3.187466954062754],[30.843749078277455,3.187388683276621],[30.844854549519336,3.186138779808425],[30.844916519135772,3.186116017662563],[30.845035210849854,3.185986627927651],[30.847191583851963,3.1852803604826025],[30.847197457900396,3.1852782028777167],[30.847086575653957,3.1850636729324715],[30.84418005555063,3.1796433123258714],[30.844031771155052,3.179367748551361],[30.841815423642174,3.178191107643598],[30.840823146455396,3.179112016557709],[30.840822301600785,3.1791119698690036],[30.84082210633116,3.179112151438242],[30.840317811401512,3.1790840905226934],[30.838766960299964,3.178998386746885],[30.834855460128697,3.181510510404852],[30.833301409282413,3.18045789960854],[30.829564342600886,3.1803519729160374],[30.82881310062292,3.18033075434062],[30.82881289240786,3.180330673153333],[30.828812696938385,3.180330667612775],[30.823196531590938,3.178140907207039],[30.82220513420636,3.178403980284674],[30.820447553721504,3.180842306559069],[30.81939008992072,3.180698915729947],[30.81935287752325,3.180693883439921],[30.82245803467171,3.185809470776455],[30.823159276517902,3.188087653147254]]]}},{"type":"Feature","properties":{"n":"Ovujo Town Council","c":"320108","d":"Maracha","od":"Maracha","dc":"320","k":"OVUJOTOWNCOUNCIL","a":["OVUJO","OVUJOTOWNCOUNCIL"],"lat":3.219097,"lon":30.908306},"geometry":{"type":"Polygon","coordinates":[[[30.878304525154345,3.208951302256451],[30.878304536017303,3.2089513083789996],[30.878305115445986,3.208951295847948],[30.882444533740262,3.211284229751238],[30.882444837208865,3.211284853001817],[30.882444959826696,3.211284922111326],[30.88244565367974,3.2112865298340916],[30.884114799746577,3.2147145492287765],[30.888303330285964,3.211816481203223],[30.88833387078902,3.211791196460628],[30.888714361797444,3.213038526235007],[30.8907593063211,3.214537231407399],[30.899618918604958,3.221030219289117],[30.899618946906127,3.221030311790112],[30.899620132753604,3.221031180877625],[30.90053197483597,3.224009622290541],[30.900530873979072,3.2240109012278637],[30.900530935812803,3.224011103328413],[30.899239155898147,3.225512412524004],[30.89923871383079,3.225512088024652],[30.899237553527016,3.225513436025292],[30.89813945249639,3.224707562195213],[30.897145940635426,3.225699881259362],[30.896888410393647,3.23101669065973],[30.897668920768155,3.231778878194823],[30.897574660509402,3.233990687364482],[30.897573934215682,3.2339936889692735],[30.896094680602946,3.24090443988767],[30.896500058276125,3.242720922680775],[30.896507083431423,3.2427207513473637],[30.899383556913183,3.242152039770509],[30.90120572237391,3.242606158316234],[30.901216014172682,3.242605907314097],[30.901216181316936,3.2426087648852313],[30.901216208209128,3.242608771587281],[30.901365345526923,3.245157006632913],[30.901365239715805,3.245157132361502],[30.901365262417237,3.245157520475074],[30.900171766298495,3.246577566306916],[30.900926357275203,3.246850693832852],[30.900925684512057,3.2468577294128314],[30.901296481182374,3.248871253457304],[30.906839657718074,3.248162973279521],[30.909887520233028,3.249529315522716],[30.913241774607442,3.249576497850137],[30.915675518575778,3.251369068340926],[30.916876788701064,3.248209287019341],[30.92035602474058,3.247224742980281],[30.91732697482262,3.239819146376736],[30.91943035579538,3.232677040283613],[30.919131770353562,3.231205290111376],[30.920044299479763,3.230718852883196],[30.920388192331625,3.223875796125169],[30.915748724630046,3.2217071303046],[30.922504448787333,3.21716421656981],[30.92788688591149,3.210621361026295],[30.931902318210643,3.204875394087873],[30.930064822006017,3.201747137949007],[30.928548674986924,3.204129192062645],[30.92656926401346,3.205186141427033],[30.926471214451556,3.204242467907345],[30.923461070198023,3.202065902450273],[30.920146190191094,3.201156243183868],[30.918771252985604,3.201690654126882],[30.914317445360933,3.196544258619675],[30.914211394968955,3.1970285591213674],[30.91420505112586,3.197076597399331],[30.914201099814413,3.1970755740207584],[30.9142010918686,3.197075610306924],[30.91415504341177,3.1970636455417725],[30.91164805235092,3.19641434189511],[30.91164663370815,3.1964118857418704],[30.91164662638894,3.196411883840122],[30.911646613685146,3.1964118510752444],[30.911046591700064,3.195373008901015],[30.910986787695144,3.194710066718497],[30.910618317766303,3.193759730765786],[30.91036936099507,3.187865739074551],[30.91036172614052,3.187781104823959],[30.910242040360668,3.1878002217620627],[30.906255001152335,3.188437252881887],[30.90625480499361,3.1884370871591994],[30.906254172673897,3.188437188157136],[30.904907888059796,3.187306404500157],[30.90487364014782,3.1888365318141916],[30.904864844422075,3.189233572040373],[30.904864750470917,3.189233704566046],[30.904864743883362,3.189233998884626],[30.90353806070773,3.191105133227379],[30.90056381815094,3.192421594453629],[30.897365827864792,3.190508508366829],[30.8939968105031,3.187077167067398],[30.89113184742979,3.189404564606934],[30.891131745872393,3.189404603082522],[30.891131721002182,3.189404623291509],[30.88270896121714,3.192704437569847],[30.882619401662083,3.192629552326826],[30.882577160556718,3.192645555606001],[30.87997518286085,3.190433491911588],[30.879929343176943,3.19053664048375],[30.87905911234766,3.192495317916431],[30.87885846610979,3.198204345161422],[30.877873370093997,3.200270904915116],[30.877871161794946,3.2002722365088396],[30.877871116230537,3.200272332099114],[30.87778560094331,3.200323829291489],[30.87594297985168,3.201434920960962],[30.875942601972618,3.2014530593196717],[30.876846621747564,3.208982838055478],[30.87830198015359,3.20895136365355],[30.878304525154345,3.208951302256451]]]}},{"type":"Feature","properties":{"n":"Ajira","c":"320201","d":"Maracha","od":"Maracha","dc":"320","k":"AJIRA","a":["AJIRA"],"lat":3.313427,"lon":31.009435},"geometry":{"type":"Polygon","coordinates":[[[30.981451597032013,3.334076828111348],[30.982947123352556,3.335023844197661],[30.98232539863479,3.335520049939604],[30.986675095732984,3.338163327406968],[30.986919565220155,3.337984807526714],[30.98778208047075,3.3380279564903286],[31.0083,3.3317],[31.023433607820742,3.3318770012610615],[31.023140671888523,3.331376454488506],[31.024720598677543,3.32463838562621],[31.021898569363543,3.3218749868177],[31.022274438595858,3.315446922224791],[31.023553733396316,3.314481271586138],[31.024293712821372,3.31237222840709],[31.02406529790091,3.308831483389278],[31.022418768911308,3.306137402494368],[31.022609069125046,3.302730545162547],[31.021600480220275,3.301774119541218],[31.021181392790123,3.298123911593239],[31.01981368232751,3.297809238485235],[31.01953955626289,3.296667448870111],[31.02040459048029,3.290839386917214],[31.01662719972635,3.28967205395606],[31.013824627640755,3.290163358064611],[31.009052136783843,3.289526068374364],[31.007610188815377,3.29029701298332],[31.00780969026475,3.291338776347175],[31.007039920700194,3.291895235799539],[31.005311566145483,3.292010330070202],[31.005982044042884,3.295136976163898],[31.0016852069561,3.295279261031757],[31.000649472341504,3.295834016301486],[31.000649416056,3.29758521304913],[30.997229710166696,3.298008847500763],[30.996515872624517,3.300093246931455],[30.99878586839844,3.300611843299897],[30.996469452936427,3.303635032466017],[30.9985295478345,3.306739100764298],[30.99838676168408,3.308881356988313],[30.99674505869182,3.311807670478507],[30.991748423802463,3.316304690482658],[30.98787031184103,3.32310026774639],[30.98197222148373,3.32424109290797],[30.981630395574445,3.326619366147139],[30.98275776852778,3.327232919367636],[30.982735233805975,3.328445448639244],[30.98050253034032,3.331759001995962],[30.982383822433587,3.333318933632315],[30.981451597032013,3.334076828111348]]]}},{"type":"Feature","properties":{"n":"Alikua","c":"320202","d":"Maracha","od":"Maracha","dc":"320","k":"ALIKUA","a":["ALIKUA"],"lat":3.21687,"lon":30.980507},"geometry":{"type":"Polygon","coordinates":[[[30.961464333891524,3.1956330984599424],[30.963268476864204,3.195456693582576],[30.96326722281791,3.195458138700266],[30.96326861221036,3.195458003867906],[30.961573226452707,3.197741495570283],[30.961767885383864,3.1978284590143677],[30.965209944437476,3.196754188781007],[30.96589769326042,3.200474016018599],[30.96439873196779,3.200543982527706],[30.964914259111595,3.202673576888822],[30.963710356304105,3.204943600236238],[30.966897181428724,3.205647448263022],[30.964679985432376,3.207139844835988],[30.96602857155208,3.211877357616056],[30.963717096505626,3.212818411140459],[30.963703801420195,3.218708122217619],[30.96436767637023,3.219373223560651],[30.9658537031342,3.21853978191806],[30.96846363368706,3.225290255806176],[30.97136193120127,3.22918752472999],[30.970333835224725,3.231155877453907],[30.969252935048416,3.239801929116302],[30.970323655435752,3.245372909419429],[30.975009608352185,3.244011951067094],[30.976217853521486,3.246813266544297],[30.976184209269196,3.248805030084749],[30.97737509287139,3.249233747113375],[30.977473005914682,3.253461113451092],[30.97684374138102,3.253501861450105],[30.977845327933547,3.25559681148005],[30.979187065649867,3.256167746767924],[30.979215899334562,3.257248156319613],[30.9859507673841,3.256230331603764],[30.989493157171275,3.258032678431786],[30.993239646230236,3.257876634180784],[30.99522952538316,3.25638422927244],[30.994426698597547,3.254142927845587],[30.99783678370356,3.252169308909299],[30.997988249510538,3.248481138592041],[31.001213063854774,3.251844342255099],[31.003577432553804,3.246787367005051],[31.00323177097189,3.242961382621236],[31.004622433963764,3.243260413415076],[31.003720403555043,3.230826656586725],[31.005800994762822,3.230984721457808],[30.9963,3.2152],[30.997363704778568,3.2069942774224733],[30.997281917766273,3.206804553591508],[30.997440829048976,3.2063993187650373],[30.9991,3.1936],[30.979,3.1863],[30.978904935451595,3.1861294718410087],[30.978846016404145,3.186137410523671],[30.97624212303487,3.182334768876847],[30.975097028475894,3.179298793348508],[30.974572223763715,3.178357391081303],[30.974014531763938,3.17815683973849],[30.970540134583377,3.1788911736618655],[30.9662324034488,3.17998737783989],[30.966521308155787,3.181493542746789],[30.966521345335472,3.18149366563156],[30.96652149934334,3.1814937720872],[30.968093497000236,3.182414312436694],[30.968094684204726,3.182581212635765],[30.968164377346717,3.182629386979683],[30.968102515242286,3.1836821196321696],[30.968108768428262,3.184561208275845],[30.96800584923984,3.185327124406862],[30.967936668485905,3.186504401501871],[30.96782477125047,3.186674691902893],[30.967793027518578,3.186910926143451],[30.966372926364134,3.1888841767660043],[30.966370194161826,3.188888334758157],[30.9650569754983,3.1878425591611133],[30.964876042446964,3.187698781043484],[30.96463330175081,3.1880192706004817],[30.964494105497845,3.188203830438963],[30.964514736574092,3.188297945500375],[30.965749926454006,3.193730667979847],[30.965705795216248,3.1937313293873357],[30.965720058485434,3.193796395719274],[30.961787504760952,3.193790053927641],[30.961781539326548,3.193790143333313],[30.961778067104834,3.1937921736706723],[30.960715766049862,3.194600854272195],[30.961370127534707,3.1956422406324343],[30.961464333891524,3.1956330984599424]]]}},{"type":"Feature","properties":{"n":"Drambu","c":"320203","d":"Maracha","od":"Maracha","dc":"320","k":"DRAMBU","a":["DRAMBU"],"lat":3.276567,"lon":30.90477},"geometry":{"type":"Polygon","coordinates":[[[30.875126841183743,3.2959936919177752],[30.874686417860893,3.2996772324361854],[30.87465272863919,3.300459512440722],[30.879274442782666,3.3056758330821903],[30.879990381407147,3.304004064181476],[30.87905890561179,3.303230700674441],[30.880682093802413,3.302178750667414],[30.881570234436925,3.299560300221422],[30.883178256515,3.299580298154917],[30.8883409736813,3.295249847355304],[30.889857372998467,3.296747026593952],[30.890949480041638,3.294338470069086],[30.892209959110097,3.294290286320922],[30.895188931189246,3.291311214661942],[30.895477801716627,3.28911058832341],[30.89840224484065,3.288903028263505],[30.901511452598537,3.290174367303456],[30.90520386889442,3.287570078689146],[30.90780099988543,3.283474677635974],[30.912802480718334,3.283245866741386],[30.914801704033867,3.283893053009071],[30.91826406922947,3.280440520814081],[30.921025548643488,3.280084082602882],[30.923265050988693,3.281608678732537],[30.92409295399612,3.280138011153868],[30.926092192031586,3.279833098531626],[30.93100374014234,3.274250680257239],[30.93505432273281,3.271111945717531],[30.934545050743026,3.268871936569718],[30.935311899632932,3.269060073116496],[30.93546894410231,3.265548001717285],[30.92930596331519,3.262453736058874],[30.926889567906898,3.262067281425403],[30.927485850953385,3.257380504429557],[30.917055891022784,3.257032284687304],[30.914203142500174,3.255652996758582],[30.915719075419062,3.254839344180112],[30.915675515725756,3.251369081788081],[30.9153645991712,3.2511400611171117],[30.913241774607442,3.249576497850137],[30.909887520233028,3.249529315522716],[30.906839657718074,3.248162973279521],[30.90367261277183,3.2485676429022767],[30.901298717179422,3.248871034647189],[30.901298669990283,3.248870973782059],[30.901296481182374,3.248871253457304],[30.901295731789304,3.248867184054616],[30.900835279587497,3.248273287190923],[30.900432568490984,3.252014607023066],[30.90043066314091,3.252034532672862],[30.8988892840256,3.252788614315274],[30.899609748116944,3.255927334121016],[30.89921447773329,3.256890806825805],[30.89687992133228,3.257416397769335],[30.896796943369743,3.259092946127445],[30.890007864809817,3.264493022735304],[30.890858399845698,3.2677312777783416],[30.89090379681254,3.267903513112502],[30.890903727590686,3.2679038547947017],[30.89090394341211,3.267904676494904],[30.890903280271463,3.2679060627825742],[30.890542028752954,3.269689216585104],[30.889792493326322,3.2702281497461145],[30.889590600359632,3.27065020460374],[30.88893703581048,3.270843243318406],[30.88838308222521,3.271241548650154],[30.887114036601066,3.271381689635113],[30.88464687551814,3.272110397465025],[30.88259324539244,3.27188110282969],[30.88244643782024,3.2739012712210034],[30.882436914223852,3.274034002673183],[30.882436783392244,3.274034122476405],[30.882436763091402,3.274034401829284],[30.880747334456334,3.275583962779965],[30.88025950065472,3.278365153933177],[30.87899627691114,3.280332807549962],[30.87716983034093,3.2787269587714665],[30.87715879984388,3.2787172855611013],[30.875254548818905,3.279516170774421],[30.875253453732075,3.279514624684219],[30.875252732506425,3.279514926833948],[30.874793639088725,3.2788654387983796],[30.873862453823758,3.277550751804692],[30.872028888584904,3.27805869994624],[30.87200851864742,3.278064356344525],[30.869903141895726,3.280671012831015],[30.8757,3.2912],[30.875687299387184,3.2913062233071773],[30.876218991634087,3.29163588252697],[30.875126841183743,3.2959936919177752]]]}},{"type":"Feature","properties":{"n":"Maracha Town Council","c":"320204","d":"Maracha","od":"Maracha","dc":"320","k":"MARACHATOWNCOUNCIL","a":["MARACHA","MARACHATOWNCOUNCIL","TOWNCOUNCIL"],"lat":3.267505,"lon":30.954264},"geometry":{"type":"Polygon","coordinates":[[[30.93864992845304,3.2766862678932],[30.93983045445493,3.285402899249322],[30.940867420403375,3.287799010111667],[30.945042074101043,3.285357435952003],[30.945764020712268,3.287797833566658],[30.947048620757165,3.287480406253543],[30.948138907555645,3.29069672079026],[30.949465368715583,3.290938462576339],[30.951512700316343,3.290404478648631],[30.951548284646982,3.287799124322545],[30.95329321309282,3.288129741195124],[30.95347667073959,3.289896537112685],[30.95495363031881,3.291215958886677],[30.959333919539304,3.29050554509722],[30.959697087936668,3.294139123286838],[30.96100116762413,3.29349073977862],[30.964428741299855,3.296098581102929],[30.96534246809593,3.29535982300819],[30.964790490173574,3.293428085682264],[30.965903424756483,3.292656487635993],[30.965818271049574,3.290071572551929],[30.967331103063003,3.289087294297278],[30.967944437393736,3.286704534972498],[30.969040771309473,3.286728470780657],[30.96774974129807,3.28418627000665],[30.967071028277147,3.27921455965212],[30.965719361544664,3.276910309076003],[30.966504176366005,3.273254061894239],[30.967255779965214,3.272496941404105],[30.97009574769305,3.273678394077333],[30.97002032114029,3.274792128696589],[30.97423937936187,3.276696948662426],[30.974622569894386,3.273547510839156],[30.971758856958722,3.270276175339632],[30.971864183847917,3.269205608727361],[30.973186027779832,3.269246959415178],[30.973371624483917,3.268633063535258],[30.97270972960005,3.265819489628823],[30.97081577046818,3.264449033810019],[30.968791635538878,3.265372753552505],[30.96621857870416,3.263258357672843],[30.966924014082586,3.258996390369791],[30.97033580472304,3.255097413177141],[30.971394817876618,3.252115898418548],[30.968804952628684,3.251296086880662],[30.969105248352182,3.248830972415891],[30.97082624603825,3.248335778068852],[30.97039414753305,3.2453524361431705],[30.970323655435752,3.245372909419429],[30.96986606892402,3.242992077342261],[30.96826312891444,3.2432870516227],[30.968184156396735,3.241126608124158],[30.966758187574303,3.241039392545296],[30.966816993628335,3.240296259282708],[30.963801881471248,3.240407229078144],[30.961093216826242,3.243136772794853],[30.95981355544759,3.243940000412636],[30.959113907575333,3.243564946685076],[30.95839901472125,3.246464947190612],[30.95486592789983,3.251696763625878],[30.953618888857307,3.2521862592184],[30.95464932183444,3.253562429722287],[30.94995232274389,3.25485449317973],[30.94664909101393,3.252951092170918],[30.94586817356574,3.255364411762617],[30.94278660854613,3.254763857951139],[30.94379386253796,3.256135107753324],[30.94291745008567,3.260056408737497],[30.93954261145507,3.260661521136889],[30.93818172989674,3.265361965218822],[30.936496408611166,3.266376096592263],[30.93553131030455,3.265972010809209],[30.93531401588582,3.2690127461951963],[30.935311899632932,3.269060073116496],[30.93465559941382,3.268899058269244],[30.93551734757245,3.272304068630073],[30.93864992845304,3.2766862678932]]]}},{"type":"Feature","properties":{"n":"Nyadri","c":"320205","d":"Maracha","od":"Maracha","dc":"320","k":"NYADRI","a":["NYADRI"],"lat":3.240057,"lon":30.943363},"geometry":{"type":"Polygon","coordinates":[[[30.936496675011263,3.266375936287697],[30.93818167462065,3.265361998480858],[30.938301513863497,3.26494823499065],[30.93954261145507,3.260661521136889],[30.939543110265245,3.260661431699658],[30.93954314819673,3.260661300735352],[30.939666693676052,3.2606392730537426],[30.942917278642383,3.2600564394774727],[30.943151676286032,3.2590084188012467],[30.94379386253796,3.256135107753324],[30.94278660854613,3.254763857951139],[30.942793811716882,3.2547652617481133],[30.942790922297007,3.254761307845714],[30.945868730589645,3.2553626903556916],[30.946464444430667,3.2535217174245377],[30.94664827677718,3.25295130856053],[30.946648904047144,3.2529516699664516],[30.94664909101393,3.252951092170918],[30.94995232274389,3.25485449317973],[30.954649306453284,3.2535624339533786],[30.954643691046456,3.253554909655955],[30.953618888857307,3.2521862592184],[30.95486592789983,3.251696763625878],[30.95839897142914,3.2464650112978344],[30.95911159237583,3.243569643037732],[30.959112616707802,3.24357018315718],[30.959113907575333,3.243564946685076],[30.959788513491873,3.243926576404347],[30.95981374562374,3.2439398810414177],[30.96109318366678,3.2431367936086373],[30.961747659259274,3.2424772857541355],[30.963801881471248,3.240407229078144],[30.966816993628335,3.240296259282708],[30.966758187574303,3.241039392545296],[30.968184156396735,3.241126608124158],[30.968184207296705,3.2411280005897374],[30.968184661783624,3.241128028304891],[30.96826357549622,3.24328696944237],[30.96986606892402,3.2429920773422616],[30.969252935048416,3.239801929116302],[30.96925300134588,3.239801398807113],[30.969252990280214,3.239801354829753],[30.97033376961379,3.231156208046471],[30.970333801534597,3.231156146939102],[30.970333835224725,3.231155877453907],[30.97136187386093,3.2291876345115873],[30.970648098968258,3.22822765219624],[30.96846363368706,3.225290255806176],[30.9658537031342,3.21853978191806],[30.964424978874185,3.2193410853151114],[30.964367902728807,3.219373167623387],[30.964367853172213,3.219373124400839],[30.96436767637023,3.219373223560651],[30.96436572233189,3.2193712659125673],[30.96371665537783,3.218805159053481],[30.96371675985126,3.2187211045871202],[30.963703801420195,3.218708122217619],[30.96371307619015,3.214599407337719],[30.95827780989908,3.214169159778363],[30.95905386335167,3.217582728620787],[30.957182622531768,3.218187568225678],[30.948750495630325,3.217973442328218],[30.947931022323093,3.220390528638694],[30.944793692262365,3.222529391077972],[30.944452212860497,3.223712972228979],[30.94299614409465,3.224800225037776],[30.941552658800603,3.224320219015128],[30.939707979854376,3.225318994406144],[30.937602143566185,3.228233812155709],[30.933293863434223,3.22930720413495],[30.932594440627984,3.230007333673233],[30.932470563722987,3.232544697307561],[30.92734156711387,3.23636011680546],[30.92667216029415,3.235636539670335],[30.92752072676192,3.233142223757004],[30.92626339902906,3.232219729115682],[30.92624322446987,3.230701109254506],[30.92187620922951,3.231620945845302],[30.920616004817752,3.231005915563129],[30.91922989662903,3.2333577066260135],[30.91732719752871,3.23981839017016],[30.919371042144355,3.2448166005043504],[30.92035602474058,3.247224742980281],[30.917496173272657,3.248034015384729],[30.916876573438635,3.24820985323853],[30.916865081663733,3.248240080824252],[30.91567779977537,3.251551044765157],[30.915719075419062,3.254839344180112],[30.914203142500174,3.255652996758582],[30.917055891022784,3.257032284687304],[30.927485850953385,3.257380504429557],[30.926889567906898,3.262067281425403],[30.92930596331519,3.262453736058874],[30.93546894410231,3.265548001717285],[30.93545727105459,3.2658090524706145],[30.936496675011263,3.266375936287697]]]}},{"type":"Feature","properties":{"n":"Nyadri South","c":"320206","d":"Maracha","od":"Maracha","dc":"320","k":"NYADRISOUTH","a":["NYADRISOUTH"],"lat":3.211249,"lon":30.94661},"geometry":{"type":"Polygon","coordinates":[[[30.914317448930348,3.196544245914247],[30.91431873630341,3.1965457503097343],[30.91863638854263,3.2015348176332834],[30.92014437224193,3.2011569497848127],[30.920146190191094,3.201156243183868],[30.923461070198023,3.202065902450273],[30.92346125875107,3.202066038788607],[30.92346126486164,3.202066040465402],[30.92646948903811,3.204241019936305],[30.92646951181115,3.204241236767578],[30.926471214451556,3.204242467907345],[30.92656924456716,3.205185954266991],[30.92719292517991,3.20485312403837],[30.928548674986924,3.204129192062645],[30.930064822006017,3.201747137949007],[30.931902318210643,3.204875394087873],[30.92788688591149,3.210621361026295],[30.922504448787333,3.21716421656981],[30.922245617627485,3.217338268618663],[30.915749947226015,3.221707701793025],[30.920388192331625,3.223875796125169],[30.920388081719057,3.2238779971830587],[30.920388122279522,3.223878016132764],[30.92038804971663,3.223878633993083],[30.920044299479763,3.230718852883196],[30.919554025954195,3.2309802004807464],[30.919385572476497,3.232414552385125],[30.92061366782021,3.231009880715332],[30.920616004817752,3.231005915563129],[30.92187620922951,3.231620945845302],[30.92624322446987,3.230701109254506],[30.92626339902906,3.232219729115682],[30.92752072676192,3.233142223757004],[30.927520209022966,3.233143745623075],[30.92752028228506,3.233143799447992],[30.926973560262347,3.2359623297864335],[30.927166444923188,3.2361708232259847],[30.928031733863225,3.235846707288362],[30.93247028841215,3.2325449021090877],[30.932530323688002,3.2313206373262107],[30.932594440627984,3.230007333673233],[30.933293863434223,3.22930720413495],[30.933293959973874,3.2293071800824555],[30.933294116302925,3.229307023368754],[30.937141654166584,3.228348541377792],[30.937602143566185,3.228233812155709],[30.939707979854376,3.225318994406144],[30.941552658800603,3.224320219015128],[30.94299614409465,3.224800225037776],[30.944098695321742,3.223976945295353],[30.9444522420292,3.2237128711291034],[30.944793692262365,3.222529391077972],[30.947930877847824,3.220390627134142],[30.947997697881483,3.2201938650280484],[30.948750495630325,3.217973442328218],[30.95646328289837,3.218169301275194],[30.959004978597665,3.2175985295989307],[30.959052932635977,3.2175830294552425],[30.95810859876528,3.214265968483925],[30.95830244191198,3.214277506789102],[30.95827780989908,3.214169159778363],[30.96371307619015,3.214599407337719],[30.963717096505626,3.212818411140459],[30.963779551442197,3.212792984329874],[30.963782329280278,3.212705942014981],[30.966001980630725,3.2118881833787207],[30.966028326033644,3.2118774575721387],[30.964680003730876,3.207140350939807],[30.964680109289237,3.207140279938685],[30.964679985432376,3.207139844835988],[30.966897057767426,3.2056475314995505],[30.966581261829788,3.205577673682479],[30.963710356304105,3.204943600236238],[30.96371083333813,3.2049427007629845],[30.96371078821842,3.204942690781968],[30.964112243165708,3.2041858209926093],[30.964914259111595,3.202673576888822],[30.964823821708144,3.202299988443028],[30.96439857262996,3.200545005853794],[30.964398975064036,3.2005449867355296],[30.96439873196779,3.200543982527706],[30.965622664143183,3.200486853459653],[30.965897651427316,3.200473789755871],[30.96589593382578,3.2004644997640117],[30.96516057450597,3.196769597188305],[30.96248263144224,3.1976053860214404],[30.962111153601587,3.1981175456582007],[30.961817913983268,3.199244664980237],[30.961232793517553,3.199328548125529],[30.961103733302657,3.199506484533969],[30.959647926030748,3.199555755474193],[30.95841532557959,3.199732461654868],[30.957968946893054,3.1996125795348545],[30.957237940118233,3.199637320028875],[30.95498845186195,3.1988121200286224],[30.95490034166929,3.198788456630236],[30.952390095036783,3.199988046762921],[30.950025411379578,3.199851041061166],[30.94823287470744,3.189829685475278],[30.947636235137683,3.1894462900462477],[30.944919034749315,3.1881178830161145],[30.943988337602306,3.1880690125263826],[30.94398120484837,3.188069445658532],[30.94409311621101,3.189212326174823],[30.944092756444757,3.189212499291225],[30.944092782885882,3.18921275671126],[30.944081601206786,3.1892178670949898],[30.94330185121303,3.189593076029434],[30.94327173598626,3.1895880013128486],[30.943152484845502,3.189642502884956],[30.94135604928793,3.189265188964945],[30.941345681549418,3.189263441897424],[30.939118460278436,3.187624925658123],[30.938381303627732,3.185794170478595],[30.93673949247994,3.186840130677046],[30.935680132388008,3.188826551106101],[30.93274101384851,3.188830794619089],[30.932739107812797,3.1888216780024083],[30.93146086624352,3.188819596522235],[30.930735943079796,3.189132023260005],[30.92624459018935,3.188812468261548],[30.926437335897816,3.1900585122800202],[30.926446324409227,3.190115520191081],[30.926446164379563,3.19011558580431],[30.926446519586612,3.190117882112854],[30.925806528590762,3.190389752754475],[30.919911032181762,3.1893923509177378],[30.919870132872227,3.1894147669836515],[30.917114375853117,3.190933316993918],[30.917101253426768,3.188847745714016],[30.914927154756757,3.188897944654834],[30.913624166238048,3.185966152721337],[30.91181767516403,3.186712174162298],[30.914760583652164,3.192869868839491],[30.91476056105222,3.1928700399758787],[30.914760597621044,3.192870116404265],[30.914317448930348,3.196544245914247]]]}},{"type":"Feature","properties":{"n":"Oleba","c":"320207","d":"Maracha","od":"Maracha","dc":"320","k":"OLEBA","a":["OLEBA"],"lat":3.318905,"lon":30.947215},"geometry":{"type":"Polygon","coordinates":[[[30.911720140732672,3.306191220888502],[30.911228082798537,3.310098199792419],[30.913633534151042,3.310317129590422],[30.916161252593845,3.309459402015806],[30.916781742764954,3.310533639318176],[30.91853584759881,3.310917880002103],[30.916815057191403,3.313565080100983],[30.91669132484385,3.315078412811968],[30.91930568250196,3.317324159239921],[30.920206347563443,3.316892103241085],[30.922361484834614,3.32023232284205],[30.92410204784269,3.320846428190193],[30.922792971566842,3.322596145967147],[30.923332646028808,3.324213835198224],[30.922366856434486,3.32718149171686],[30.92474168439666,3.331601581812384],[30.926756058534554,3.332566279937903],[30.927393797081297,3.335983220795761],[30.92856347744059,3.337829130978286],[30.927982070768408,3.339370910937815],[30.92568057042064,3.339495261527367],[30.925680575351347,3.340599321953561],[30.927555974038842,3.342471380351959],[30.930296381264935,3.348428623393445],[30.933267138311862,3.350784603852426],[30.935764145799993,3.349508424516311],[30.9364,3.3488],[30.93715902408918,3.347537464881361],[30.93695641278495,3.347278542459895],[30.937230643193637,3.342236240526577],[30.939394189266068,3.340797609380421],[30.940507603167376,3.337621275472132],[30.94582093218396,3.332497238855246],[30.946147347842864,3.332586589726722],[30.9465,3.332],[30.957116728967453,3.3313800450237983],[30.957298955028943,3.329549330562065],[30.960051033799747,3.329782310961155],[30.96035553155963,3.328788998136285],[30.96263869228046,3.329532471741031],[30.961716595785884,3.326705910529154],[30.96235353755354,3.325939502570368],[30.96331544930902,3.326035720287882],[30.96319787628153,3.327848998444719],[30.96416155206265,3.327950127624349],[30.964151022647492,3.326890322572517],[30.96514974812127,3.326875251292467],[30.96548810769319,3.330127335928846],[30.971835118265982,3.330482558111937],[30.971834504879276,3.330520612853765],[30.97381717428459,3.330404836538126],[30.973090489594725,3.329512006959834],[30.973403771658532,3.323973006752602],[30.972377217371076,3.323752071234601],[30.97281366470203,3.322088471078766],[30.971655074724552,3.320861436588886],[30.973786455596667,3.317577585027725],[30.972372094385612,3.316558797389989],[30.969635818681624,3.311062765323132],[30.96874595619432,3.310756835822293],[30.969162515842953,3.308067346065834],[30.965806216383015,3.303401993779254],[30.966876098019217,3.299940267968783],[30.968676234522906,3.298051185753174],[30.966285618497025,3.294934464398052],[30.96443872793489,3.296090506799425],[30.964428741299855,3.296098581102929],[30.96100116762413,3.29349073977862],[30.959697087936668,3.294139123286838],[30.959333919539304,3.29050554509722],[30.95495363031881,3.291215958886677],[30.95347667073959,3.289896537112685],[30.953293253549493,3.2881301308146567],[30.95291842516824,3.28805872899299],[30.951548284646982,3.287799124322545],[30.951512700316343,3.290404478648631],[30.949465368715583,3.290938462576339],[30.948138907555645,3.29069672079026],[30.948126380267677,3.2906597656529017],[30.946975347081704,3.290746698870648],[30.94699428052974,3.29141821335813],[30.944843351779046,3.292609814390358],[30.94389775390239,3.297606156638975],[30.940929500091418,3.29761503890863],[30.93771644464645,3.300256313119907],[30.929089193537035,3.300532335265705],[30.930259702457924,3.305761114148953],[30.93253227416209,3.307035176877501],[30.93261475780457,3.308021195290214],[30.931580293254683,3.308414200901071],[30.92800637924775,3.308249677472197],[30.92650699417051,3.305621640723362],[30.92673570531809,3.304209724764702],[30.925448854800713,3.303782321030996],[30.925272327587717,3.301474411418123],[30.922438710759184,3.301938519128315],[30.92152363393284,3.304961458355113],[30.92030111437015,3.303503985908845],[30.918434297799966,3.303100227726746],[30.91821908508929,3.302076311252223],[30.914152958068414,3.301161094203385],[30.91423063541124,3.297880518810627],[30.913254571040245,3.297438182207272],[30.90968792886479,3.297092236258966],[30.91041695561726,3.297991354967006],[30.909227309120567,3.301465377534702],[30.91098114407623,3.306495890798795],[30.911720140732672,3.306191220888502]]]}},{"type":"Feature","properties":{"n":"Oleba Town Council","c":"320208","d":"Maracha","od":"Maracha","dc":"320","k":"OLEBATOWNCOUNCIL","a":["OLEBA","OLEBATOWNCOUNCIL"],"lat":3.289758,"lon":30.925553},"geometry":{"type":"Polygon","coordinates":[[[30.91182653109451,3.297299669676734],[30.913254571040245,3.297438182207272],[30.91423063541124,3.297880518810627],[30.914152964402636,3.3011608266878785],[30.915112078286334,3.3013769760906992],[30.91821908508929,3.302076311252223],[30.918434180995167,3.303099672005111],[30.920032068972144,3.3034457963242145],[30.92030111437015,3.303503985908845],[30.92041075412779,3.303634697048895],[30.921523933010043,3.3049604703591458],[30.922438710759184,3.301938519128315],[30.925272327587717,3.301474411418123],[30.925448854800713,3.303782321030996],[30.92673570531809,3.304209724764702],[30.926538670618292,3.305426090648031],[30.926507409058704,3.3056223679157575],[30.92800637924775,3.308249677472197],[30.93100463178553,3.308387700599555],[30.93258266704932,3.3076375789197217],[30.932575044517172,3.3075464583432868],[30.93026438507496,3.3057637393456973],[30.930259702457924,3.305761114148953],[30.929089193537035,3.300532335265705],[30.936475834527585,3.3002960054695056],[30.937716520030264,3.3002562511510667],[30.940929500091418,3.29761503890863],[30.940930149489148,3.297615036965358],[30.940930490563687,3.297614756584468],[30.94183113232282,3.2976123408440037],[30.94389775390239,3.297606156638975],[30.944773063715136,3.292981201881761],[30.944843046658495,3.292610437513253],[30.944843263602557,3.292610280296566],[30.944843351779046,3.292609814390358],[30.94484570690529,3.2926085096651945],[30.946984147056412,3.291058808450258],[30.946975347081704,3.290746698870648],[30.94746595974128,3.2907096447372974],[30.948009711059168,3.2903155948605614],[30.947048620757165,3.287480406253543],[30.945764020712268,3.287797833566658],[30.945042074101043,3.285357435952003],[30.940867420403375,3.287799010111667],[30.93983045445493,3.285402899249322],[30.93864993447928,3.276686312389058],[30.938649696286046,3.2766859431124327],[30.93551734757245,3.272304068630073],[30.935319809763172,3.2715235409544277],[30.93505432702076,3.27111195675391],[30.934032882648758,3.271903444026835],[30.93100374014234,3.274250680257239],[30.926092192031586,3.279833098531626],[30.926091613747875,3.279833186728229],[30.92609103647931,3.279833842794414],[30.924017110596957,3.2802727375979157],[30.923265050988693,3.281608678732537],[30.92133402247899,3.280294083729566],[30.91950888134844,3.2802798465745004],[30.918468089983808,3.280414186816314],[30.918129323250973,3.280574884118533],[30.914801704033867,3.283893053009071],[30.914800767166714,3.283892749727516],[30.914800550139997,3.283893031807514],[30.91345489071208,3.283457064152688],[30.91280249544775,3.283245871509576],[30.912744785627396,3.283248506212737],[30.90780099988543,3.283474677635974],[30.90520386889442,3.287570078689146],[30.902891158685776,3.2892012503615513],[30.907963788175056,3.296366063724952],[30.91182653109451,3.297299669676734]]]}},{"type":"Feature","properties":{"n":"Paranga","c":"320209","d":"Maracha","od":"Maracha","dc":"320","k":"PARANGA","a":["PARANGA"],"lat":3.330329,"lon":30.908654},"geometry":{"type":"MultiPolygon","coordinates":[[[[30.879319259771176,3.3057264159990445],[30.88133568593815,3.305740134403853],[30.882952758383514,3.306728780532159],[30.886918286115606,3.31277631238734],[30.888138889970097,3.313486530261683],[30.891566636109033,3.312909736721391],[30.89366018842161,3.317864624155018],[30.891685378211058,3.324902494651518],[30.89420933573773,3.32803808638183],[30.89428084856087,3.329055841645622],[30.888755258373784,3.3358791881639567],[30.892982854300325,3.3421593125475826],[30.89603578388821,3.344062203145766],[30.897867540035886,3.349158543202206],[30.90137726724025,3.352795666420678],[30.90252959384442,3.356194496696228],[30.904662342656312,3.358001220212036],[30.91017683217294,3.359744481469898],[30.91151339018977,3.363804973855031],[30.918,3.3693],[30.9310277387985,3.3547853997081893],[30.93108238281502,3.354411773113485],[30.93234825414823,3.3533141733674596],[30.932366654626286,3.3532936728348455],[30.931811151884588,3.351340969249517],[30.932721953556722,3.350352241121527],[30.930296381264935,3.348428623393445],[30.929377455881937,3.346431014501092],[30.92755592133177,3.342471327738763],[30.925680575351347,3.340599321953561],[30.92568057517935,3.3405608088749843],[30.925679857260857,3.339496100161762],[30.925680570424213,3.3394960615996054],[30.92568057042064,3.339495261527367],[30.927982070768408,3.339370910937815],[30.92856347744059,3.337829130978286],[30.92741785319965,3.336021184529585],[30.92739381526699,3.335983271715974],[30.92739380938827,3.335983240217794],[30.927393797081297,3.335983220795761],[30.926756058534554,3.332566279937903],[30.92474168439666,3.331601581812384],[30.922366856434486,3.32718149171686],[30.923162529235594,3.3247365662498676],[30.923332553693633,3.3242135584209644],[30.922792971566842,3.322596145967147],[30.92410204784269,3.320846428190193],[30.922361484834614,3.32023232284205],[30.921267804934395,3.3185372423992585],[30.920206149514225,3.3168921982468285],[30.91930568250196,3.317324159239921],[30.91669132484385,3.315078412811968],[30.916691343968477,3.3150781789044594],[30.91669131460342,3.315078153688923],[30.916725254505447,3.314663429440344],[30.916815057191403,3.313565080100983],[30.918535382295172,3.310918595807951],[30.91734987056132,3.31065808901401],[30.916781742764954,3.310533639318176],[30.916161252593845,3.309459402015806],[30.913633534151042,3.310317129590422],[30.913633429873375,3.3103171200996924],[30.91363335602298,3.310317145176817],[30.91352135271371,3.3103069195068175],[30.911228082798537,3.310098199792419],[30.911720140732672,3.306191220888502],[30.91098114407623,3.306495890798795],[30.90957923739081,3.3024748110767455],[30.9092273628458,3.301465611138657],[30.909227375392703,3.3014655676226314],[30.909227309120567,3.301465377534702],[30.909228075353525,3.301463139970354],[30.91027837008586,3.297820435527459],[30.909906457103702,3.2973617501378123],[30.907965258039322,3.2963664189839106],[30.907963788175056,3.296366063724952],[30.907962982312352,3.296364925487697],[30.905881549008534,3.294034085701503],[30.902879587676395,3.2892094114803343],[30.901511452598537,3.290174367303456],[30.89840224484065,3.288903028263505],[30.89686850895053,3.289011883966875],[30.895477661392167,3.2891116573203174],[30.895188931189246,3.291311214661942],[30.895188480362293,3.2913116655039634],[30.895188458179142,3.291311835487965],[30.894622709124203,3.291877455654419],[30.892209959110097,3.294290286320922],[30.89109470988489,3.294332918435292],[30.89094938381218,3.294338682295616],[30.889857372998467,3.296747026593952],[30.8883409736813,3.295249847355304],[30.883178256515,3.299580298154917],[30.881570234436925,3.299560300221422],[30.880682093802413,3.302178750667414],[30.880681846343755,3.302178911039537],[30.8806817904487,3.302179075930941],[30.87905998810725,3.3032315994229546],[30.879990381407147,3.304004064181476],[30.879274442782666,3.3056758330821903],[30.87927441237472,3.3056757987621106],[30.879319259771176,3.3057264159990445]]],[[[30.893063457514224,3.326743787848486],[30.893063458411916,3.326743786996246],[30.893063457496453,3.326743787829356],[30.893063457514224,3.326743787848486]]]]}},{"type":"Feature","properties":{"n":"Tara","c":"320210","d":"Maracha","od":"Maracha","dc":"320","k":"TARA","a":["TARA"],"lat":3.30031,"lon":31.041381},"geometry":{"type":"Polygon","coordinates":[[[31.010730632932468,3.289337528170336],[31.011254937781306,3.2898202171548303],[31.012250921689713,3.2899532148483854],[31.01662698904029,3.28967209089032],[31.01662719972635,3.28967205395606],[31.016627262413824,3.2896720733284677],[31.016627314303264,3.289672069995026],[31.01666501051215,3.2896837386822173],[31.02040459048029,3.290839386917214],[31.019678703494435,3.295729961462444],[31.019539589403287,3.296667586906456],[31.01981368232751,3.297809238485235],[31.021181392790123,3.298123911593239],[31.021600480220275,3.301774119541218],[31.022572263108458,3.3026956427190277],[31.022608992011374,3.302730286532666],[31.022608982174493,3.3027304627089973],[31.022609069125046,3.302730545162547],[31.022418768911308,3.306137402494368],[31.02406529790091,3.308831483389278],[31.024293712821372,3.31237222840709],[31.02418724463791,3.312675677379469],[31.02419390319863,3.312885536835091],[31.024042993026356,3.3130868143207293],[31.023553733396316,3.314481271586138],[31.022274615967845,3.3154467883390195],[31.022274173948443,3.315451448188987],[31.02196233106347,3.3207845428801606],[31.021996020765872,3.3219704135688493],[31.024720598677543,3.32463838562621],[31.02471633862736,3.324656553880384],[31.02332192378832,3.3316861640307085],[31.023433607820742,3.3318770012610615],[31.023284414868126,3.3318752563142473],[31.0425,3.3321],[31.0459,3.3223],[31.046638087849498,3.32081514091454],[31.04739464665788,3.315609520826767],[31.049864786512874,3.313581768097571],[31.051155731608233,3.3117267046469663],[31.0544,3.3052],[31.058994591296944,3.3022981528650885],[31.063048611121424,3.298846233505804],[31.064062284228598,3.297047739456338],[31.066169914984112,3.296495723119901],[31.067366209733997,3.297010814904845],[31.06862056208465,3.2962185923675897],[31.069633357542898,3.295393600203336],[31.0728,3.2758],[31.07108908420834,3.275105211861254],[31.070393793404353,3.275120099619513],[31.06885332258811,3.274197288360654],[31.06602493736298,3.2730487055281126],[31.063066262306837,3.274315464423065],[31.062171980948076,3.273070748053735],[31.0607403587382,3.272990475785157],[31.057413096253516,3.27066303656628],[31.056409764791432,3.271419994670064],[31.056176360828957,3.273056832306911],[31.053403704239592,3.268735430208622],[31.05247624740439,3.268603850307703],[31.04954292730637,3.270448739931351],[31.04885717786337,3.271804063733356],[31.04466691281954,3.272701332080914],[31.042609935318126,3.274390748517966],[31.04084406803413,3.274059750197623],[31.035326327661284,3.2768779509256896],[31.035119924417028,3.27763457810508],[31.033044541198326,3.277558719837627],[31.030927478231995,3.2734454370397836],[31.030460257089484,3.2729413300176],[31.029106277508028,3.272393493175611],[31.02821921030929,3.270523358491604],[31.027138816951737,3.2693576709216123],[31.026506232542395,3.269596069690649],[31.025020699107397,3.26757454203383],[31.02365251415322,3.267217625462462],[31.019640243199873,3.268377267632648],[31.019073164440908,3.271192635068624],[31.015356357009537,3.273977926776119],[31.011818206546693,3.272108373011324],[31.01128841254164,3.270627147450947],[31.00862488819648,3.276345642265488],[31.00689809698893,3.277018249329868],[31.008551095156143,3.279414933485783],[31.00730410035386,3.279408865178822],[31.007236614665928,3.28147396562986],[31.00813093889163,3.282370896620886],[31.007826321955815,3.283586175815283],[31.006632670619464,3.283873357379914],[31.011726405428664,3.285760085219713],[31.010730632932468,3.289337528170336]]]}},{"type":"Feature","properties":{"n":"Yivu","c":"320211","d":"Maracha","od":"Maracha","dc":"320","k":"YIVU","a":["YIVU"],"lat":3.280612,"lon":30.987263},"geometry":{"type":"Polygon","coordinates":[[[30.966268224002462,3.2949453523053687],[30.966285618497025,3.294934464398052],[30.9662873886196,3.2949367721625693],[30.966287677101892,3.294936643006885],[30.968068500161433,3.2972588633383055],[30.968676234522906,3.298051185753174],[30.96694693416472,3.299865931771267],[30.966876010595797,3.299940550837371],[30.966874588048473,3.299945153653819],[30.965916805491844,3.3035557158049267],[30.969162515842953,3.308067346065834],[30.96887006068976,3.3099555633747304],[30.968746542705457,3.3107570374613804],[30.969635818681624,3.311062765323132],[30.96963629930681,3.311063730697868],[30.969636485040272,3.3110637944077],[30.971049950815576,3.3139031646087895],[30.972372094385612,3.316558797389989],[30.973786455596667,3.317577585027725],[30.971655309576605,3.3208610747486893],[30.972163278201258,3.3213996625410487],[30.97281366470203,3.322088471078766],[30.972377217371076,3.323752071234601],[30.973403771658532,3.323973006752602],[30.973403613929023,3.3239757954975597],[30.973403823224253,3.323975840646912],[30.97333619144109,3.3251678623848697],[30.973090489594725,3.329512006959834],[30.97381717428459,3.330404836538126],[30.973816813727424,3.330404857592559],[30.973816813727424,3.3304048575925593],[30.9739,3.3304],[30.974939697851777,3.3310318163868495],[30.97563321782164,3.33117010768364],[30.97592820630264,3.329238417374726],[30.977165887795252,3.328209920491398],[30.978240956562782,3.32776281236363],[30.98001145484892,3.32851469367348],[30.979993146483075,3.326221283151167],[30.981296268666526,3.324679035256855],[30.981947885739196,3.3244104102370815],[30.98197222148373,3.32424109290797],[30.98270014595654,3.3241002957170145],[30.984290994188054,3.323444478588257],[30.987855141690144,3.323103201999477],[30.98787031184103,3.32310026774639],[30.991748423802463,3.316304690482658],[30.99674505869182,3.311807670478507],[30.99838676168408,3.308881356988313],[30.9985295478345,3.306739100764298],[30.996469452936427,3.303635032466017],[30.996470312855823,3.3036339101720915],[30.99646992203742,3.303633320908609],[30.99754177613089,3.302235527102125],[30.998785734290866,3.3006120183257353],[30.996560490033936,3.300103440089856],[30.996515872624517,3.300093246931455],[30.997124429046337,3.29831626745891],[30.997229562945197,3.298009079521727],[30.997229633710344,3.2980090707526526],[30.997229710166696,3.298008847500763],[31.000649416056,3.29758521304913],[31.000649472341504,3.295834016301486],[31.00167020133853,3.2952872982695833],[31.0016809185099,3.295281549230618],[31.001680935957847,3.295281548643617],[31.0016852069561,3.295279261031757],[31.005736911324917,3.2951450934547517],[31.005982016427158,3.295136847383217],[31.00556765083099,3.293204532272393],[31.005311327193933,3.292010987878071],[31.005311701858716,3.292010962943031],[31.005311566145483,3.292010330070202],[31.007039920700194,3.291895235799539],[31.00780969026475,3.291338776347175],[31.007610188815377,3.29029701298332],[31.007612027512902,3.2902960299146002],[31.007611985316956,3.290295807629623],[31.007613062128577,3.2902954767522155],[31.009052136783843,3.289526068374364],[31.009794445792988,3.28962519184944],[31.01073062110306,3.289337528479199],[31.0107355774377,3.2893197643884915],[31.011726405428664,3.285760085219713],[31.007755998144702,3.2842894397623827],[31.006637313085356,3.283876002900485],[31.006638822493088,3.283875636044129],[31.006632670619464,3.283873357379914],[31.007826321955815,3.283586175815283],[31.008050734608112,3.282690874224224],[31.008130774819907,3.2823707320709294],[31.007236614665928,3.28147396562986],[31.00730410035386,3.279408865178822],[31.008551095156143,3.279414933485783],[31.00689809698893,3.277018249329868],[31.008624552031822,3.2763457732058825],[31.011284198647168,3.27063392880397],[31.01128466032757,3.270635203325018],[31.01128841254164,3.270627147450947],[31.01181097296384,3.272088148985168],[31.011818320738744,3.272108433350244],[31.015356357009537,3.273977926776119],[31.019073164440908,3.271192635068624],[31.019640243199873,3.268377267632648],[31.019645232569363,3.2683758255856548],[31.021153831806792,3.267634181826237],[31.023043114945335,3.2673937563938376],[31.02365251415322,3.267217625462462],[31.023906504556898,3.267283883597931],[31.024425788529896,3.267217800822301],[31.024621494640847,3.2674704021008183],[31.025020699107397,3.26757454203383],[31.02629454976111,3.269308009801346],[31.027030000317925,3.269240263500919],[31.0231,3.265],[31.024999764339277,3.259979194246196],[31.02495681331428,3.259866543648172],[31.02504998669852,3.256530895254623],[31.02303416051415,3.25516450700809],[31.023866203266422,3.253687437672154],[31.02232095868496,3.25320453362109],[31.01903506616485,3.250067471039281],[31.01842206624157,3.2485438912035907],[31.0152,3.2466],[31.01512465200796,3.2464748186798875],[31.01511659989557,3.246477029094518],[31.012891222218986,3.243321380679607],[31.01010618190855,3.24304244212595],[31.010070185863977,3.240170353749236],[31.010828726770683,3.239337673047588],[31.007489676330277,3.233790255913794],[31.005468488729715,3.232731499447547],[31.00372646033756,3.230827116727354],[31.003720403555043,3.230826656586725],[31.004554744052836,3.242327362950175],[31.00462214709224,3.243255431974945],[31.00462207138681,3.2432554155861104],[31.004622433963764,3.243260413415076],[31.00323182886914,3.242961395070737],[31.0032318749114,3.2429625330844827],[31.003577432553804,3.246787367005051],[31.0034018182606,3.247162975570104],[31.00341070395664,3.247382600847252],[31.001268124870233,3.2517265762770076],[31.001213063854774,3.251844342255099],[31.001211066557268,3.2518422592457936],[31.001210536468605,3.25184333397491],[31.000485364990354,3.25108541500374],[30.99798885472043,3.2484817697738424],[30.99791310182653,3.250310973741574],[30.99783678370356,3.252169308909299],[30.994426698597547,3.254142927845587],[30.99522952538316,3.25638422927244],[30.993239646230236,3.257876634180784],[30.992729323543912,3.257897889526817],[30.991978530629606,3.25835250462015],[30.990029806208344,3.2580103265722924],[30.989493157171275,3.258032678431786],[30.9891432731879,3.257854659544678],[30.988660338178942,3.2577698606081],[30.98596062312947,3.2562353461483147],[30.985950786028095,3.2562303410897178],[30.985900617745564,3.2562379106002965],[30.979215899334562,3.257248156319613],[30.979187066453957,3.256167776897402],[30.97912445527102,3.2561411048436226],[30.977845327933547,3.25559681148005],[30.977844962580175,3.2555960472954113],[30.977844674707775,3.255595924663195],[30.976845871542494,3.253506925809967],[30.97684615384708,3.25350690744022],[30.97684374138102,3.253501861450105],[30.97747242550851,3.25346115103527],[30.97739439772931,3.2500672285759],[30.97737509287139,3.249233747113375],[30.976184209269196,3.248805030084749],[30.976217853521486,3.246813266544297],[30.975009608352185,3.244011951067094],[30.9735477318641,3.2444365291736217],[30.970394149241663,3.245352447939968],[30.97082624603825,3.248335778068852],[30.969105248352182,3.248830972415891],[30.968804952628684,3.251296086880662],[30.971394817876618,3.252115898418548],[30.97033580472304,3.255097413177141],[30.966924014082586,3.258996390369791],[30.96688944275113,3.2592052569631043],[30.966218784000656,3.2632585263741545],[30.968791635538878,3.265372753552505],[30.970737937088924,3.264484553294419],[30.970815517396876,3.264449054377513],[30.970815597857975,3.2644491125811794],[30.97081577046818,3.264449033810019],[30.971755713720846,3.2651291702914693],[30.9727092633553,3.265818945676251],[30.972709321944066,3.265819194651752],[30.97270972960005,3.265819489628823],[30.973371624483917,3.268633063535258],[30.973186027779832,3.269246959415178],[30.971864183847917,3.269205608727361],[30.97175892043708,3.2702755301310895],[30.972376530805427,3.270981769240714],[30.974622569894386,3.273547510839156],[30.97423937936187,3.276696948662426],[30.974231765509526,3.276693511161164],[30.97423169953651,3.276694043152022],[30.970022314868537,3.274793301529792],[30.970022333037058,3.274793037027532],[30.97002032114029,3.274792128696589],[30.97009574769305,3.273678394077333],[30.967255779965214,3.272496941404105],[30.96650420231102,3.273254035758782],[30.965719577557643,3.2769106773236],[30.967071028277147,3.27921455965212],[30.96707107953984,3.2792149351617237],[30.967071125653675,3.279215013763146],[30.967144109540413,3.279749894708483],[30.96774974129807,3.28418627000665],[30.968164468253114,3.2850029196405064],[30.96903885742958,3.286723770647761],[30.969038379809334,3.2867237616155296],[30.969040771309473,3.286728470780657],[30.967944637490437,3.286704539341127],[30.967331330320253,3.289086486457263],[30.967331308326536,3.289086496863367],[30.967331103063003,3.289087294297278],[30.96602151533836,3.2899393378212674],[30.965903543733642,3.292655717565536],[30.96590340260985,3.2926558153555767],[30.965903424756483,3.292656487635993],[30.964790490173574,3.293428085682264],[30.96532782366971,3.2953085724353004],[30.96534247833042,3.295359815584451],[30.966268224002462,3.2949453523053687]]]}}]}
