{"type":"FeatureCollection","name":"Masaka sub-counties","metadata":{"source":"Uganda Bureau of Statistics NPHC 2024 Map Explorer","retrieved":"2026-07-26","display_only":true,"clipped_to_dashboard_district":true,"positive_area_overlaps_removed":true,"source_gap_ratio":0.00248395},"features":[{"type":"Feature","properties":{"n":"Bukakata","c":"105101","d":"Masaka","od":"Masaka","dc":"105","k":"BUKAKATA","a":["BUKAKATA"],"lat":-0.281904,"lon":31.955111},"geometry":{"type":"Polygon","coordinates":[[[31.850664050366735,-0.261364625632308],[31.862149643193742,-0.2576001169465324],[31.86435746811002,-0.257933581319637],[31.867921123454728,-0.257834375320542],[31.870962648407225,-0.256884747480947],[31.874230017697077,-0.255292956015238],[31.876083369911914,-0.253936077069884],[31.87712855329601,-0.252733625498119],[31.87828594836856,-0.249874103820234],[31.878409552500692,-0.247632151944946],[31.878358877631662,-0.24744811988040402],[31.87937892772629,-0.2431925983918803],[31.879879251222835,-0.243036569015175],[31.88066231690974,-0.242440048650901],[31.883005780217193,-0.23940045854569],[31.883363088268723,-0.238613590592039],[31.883199198187825,-0.237727324599022],[31.88324869629716,-0.236795632597774],[31.884557868019993,-0.234651919270445],[31.884999571289633,-0.233349754859403],[31.88512118928399,-0.231965936353103],[31.884815008138013,-0.231730748470769],[31.88343918138965,-0.232082228310986],[31.883056676159203,-0.232589402839722],[31.88277225344939,-0.232562241576229],[31.882725700431365,-0.232200289279409],[31.88322629055305,-0.231033786023768],[31.883394954640952,-0.229826021718172],[31.88284997130749,-0.229721925492353],[31.882944578888146,-0.229198022834588],[31.88275015938072,-0.22912824133355714],[31.8835,-0.226],[31.884369208156713,-0.22552647615343424],[31.885148953565672,-0.2251541314164],[31.887000073304645,-0.224511939239862],[31.887807089676887,-0.223870628625227],[31.88780804220013,-0.2236530814879881],[31.889085708645002,-0.22295703932026095],[31.889421983113177,-0.223200514002653],[31.89096286866243,-0.223725304021805],[31.892029587263444,-0.223589684114297],[31.89265880153405,-0.223291152794346],[31.893680417774014,-0.222431980935864],[31.894320894711317,-0.222386798952319],[31.89498400591858,-0.222793838961231],[31.89566991316083,-0.223626293429052],[31.896073033020233,-0.223869725654879],[31.89680805070509,-0.22327413391511],[31.89685659880765,-0.223083499967561],[31.89681113678368,-0.22231487775761],[31.89617333969997,-0.22122004435278],[31.89612675677115,-0.220885351808624],[31.896462655536578,-0.219184912478739],[31.89691423880926,-0.218732549629352],[31.900573698089843,-0.2181828289096821],[31.90832242496254,-0.21709198871886565],[31.914492094143945,-0.216345720189852],[31.916874569382976,-0.21588804605773615],[31.9175,-0.2158],[31.917557512294024,-0.21574166442160334],[31.918952922059486,-0.215260559684195],[31.920211575646025,-0.214545997516899],[31.92375049046914,-0.212040770531045],[31.92831459936174,-0.207292014764039],[31.930619513427956,-0.205392443312077],[31.932332312518778,-0.203094833518745],[31.93593828309785,-0.197341985317437],[31.936660280655055,-0.1963654412987578],[31.94585212080015,-0.18704202061988945],[31.94882079359321,-0.184488779180285],[31.949677136608333,-0.183511679053561],[31.95048524973966,-0.1823425687712231],[31.9664,-0.1662],[32.000047642900924,-0.1538295430511302],[32.00039993675362,-0.15374136313462375],[32.000352886078836,-0.1845125044414815],[32.00027583111638,-0.218138360064086],[32.000301421488516,-0.21817034651136824],[32.0003,-0.2191],[32.03532153315031,-0.2562400379911638],[32.053249169794334,-0.27535746782236675],[32.06095980872316,-0.30005103299947466],[32.06085563475701,-0.30243510854583927],[32.0574,-0.3298],[32.04612345785791,-0.34501021963352085],[32.02429297543174,-0.3648234780481145],[32.01807784918303,-0.3702439762832918],[32.00276512559971,-0.383524445609923],[32.00274087979619,-0.38362005460697757],[32.0007,-0.3854],[32.00069450211573,-0.39168957960633294],[32.00066006721161,-0.391825367502325],[32.00065454899475,-0.406748540249199],[31.994362794786152,-0.407627661999269],[31.969053805529892,-0.407385622225947],[31.949442986487544,-0.406907309314683],[31.94275440041559,-0.40579379421762],[31.907818369633823,-0.3832111110795],[31.88218414287789,-0.366238309546461],[31.874834430638092,-0.361696450863094],[31.874668319532205,-0.360547644478944],[31.873670688007287,-0.358376572164968],[31.872875373950237,-0.354966528100888],[31.87204383378469,-0.353464628030457],[31.871782791206996,-0.352677629736418],[31.87156943152764,-0.350072655329365],[31.871640786170694,-0.349303401038141],[31.87013375369196,-0.338231785644799],[31.8695402431997,-0.33546385547205],[31.86878058199948,-0.333076177541577],[31.867867162009862,-0.331393852525114],[31.863073341270777,-0.324214543368513],[31.860712262344602,-0.321939891819328],[31.85978113310445,-0.320712035301678],[31.85950274447592,-0.319113175680946],[31.85927775168312,-0.313907133231421],[31.858840896153662,-0.313692657463196],[31.8595207306031,-0.311724377661503],[31.859468328451516,-0.310644182763169],[31.858411926213513,-0.308795545072275],[31.858228791446578,-0.307313391995518],[31.85719126399099,-0.306423221513222],[31.85696443065446,-0.304890298266798],[31.855747088472242,-0.302052312214355],[31.855515094610958,-0.300804880788445],[31.85622888271539,-0.289502797325169],[31.855563678025312,-0.284667605168325],[31.854292482540416,-0.279139516971689],[31.85071557510626,-0.268201405284404],[31.849055759379127,-0.262514765478372],[31.85026690685399,-0.261704414581901],[31.850664050366735,-0.261364625632308]]]}},{"type":"Feature","properties":{"n":"Buwunga","c":"105102","d":"Masaka","od":"Masaka","dc":"105","k":"BUWUNGA","a":["BUWUNGA"],"lat":-0.417051,"lon":31.851271},"geometry":{"type":"Polygon","coordinates":[[[31.700188845318255,-0.426814968648645],[31.700308281399504,-0.42432786226227],[31.700998517285502,-0.420113186740802],[31.702805812866696,-0.413989524891193],[31.70398342154905,-0.407911871058335],[31.70485155140667,-0.404718905016371],[31.70581501225617,-0.399898320221267],[31.706599582780147,-0.398369451861254],[31.70747929792895,-0.396090342961499],[31.709131446203177,-0.393160172441748],[31.71127031328269,-0.390845077279051],[31.71291033746204,-0.389551777991067],[31.715382078047544,-0.388313013032254],[31.719838190479003,-0.386766852042648],[31.723046252121627,-0.38550108773512],[31.723708092859976,-0.385074981443312],[31.723463521355466,-0.387677550837763],[31.723986030462395,-0.390501529244827],[31.724199207988228,-0.395550901824068],[31.72419841633242,-0.400695951551488],[31.724637116521915,-0.402953793368998],[31.724764899409926,-0.402834406962891],[31.730403859870393,-0.40254889978681],[31.732735772769036,-0.402120613106681],[31.734782296293105,-0.4015732747842],[31.736566903224464,-0.400669109103426],[31.737899331595564,-0.400240824534372],[31.739342489909596,-0.400040524914797],[31.739792660444337,-0.399554331879253],[31.741217079954463,-0.398597346322606],[31.74515046904412,-0.393991641728759],[31.749214825601914,-0.395112655607702],[31.74986513717559,-0.394677280351151],[31.751226241344146,-0.394375011197864],[31.752104012444953,-0.399856615090572],[31.754214364791704,-0.403131080809814],[31.756823073511168,-0.406051911557819],[31.75758892016557,-0.406618523964406],[31.75732850397219,-0.407467557395318],[31.757428687177637,-0.407757533466101],[31.757542206471832,-0.407888416202477],[31.759557825731378,-0.407916868351929],[31.761570334161256,-0.407688442280098],[31.761852935333298,-0.407378148636762],[31.762153887308667,-0.405367825796807],[31.76246481384891,-0.405502910645545],[31.763083233928675,-0.404156694517178],[31.763763895950408,-0.401653188910628],[31.765076696716847,-0.400158061277225],[31.765020627743812,-0.399700154380685],[31.76327943938057,-0.396913653025279],[31.763398294354754,-0.395909574322616],[31.763266932741406,-0.395661909963264],[31.76173102521285,-0.395558551386188],[31.76105342192211,-0.394571931826704],[31.760690012064746,-0.394339079454816],[31.759238822610076,-0.392150568213279],[31.758781098174687,-0.390781985182259],[31.75825264768418,-0.390224579264403],[31.757495961915552,-0.388468686642506],[31.755183286957298,-0.386027422894745],[31.75449796418343,-0.384713951762137],[31.754144189978955,-0.383585099541948],[31.75383910227684,-0.381603066966119],[31.753839104855643,-0.380437071708457],[31.75430419496972,-0.37815979666118],[31.755355503031325,-0.378384431754738],[31.756893222810586,-0.378247896634462],[31.75708704511334,-0.378550220143937],[31.75790516718253,-0.378162535667645],[31.75954668952706,-0.376292638376293],[31.760988642911972,-0.375236158774594],[31.76270184445015,-0.374607962188161],[31.765200078287673,-0.373294616586866],[31.769498546269023,-0.370750397968171],[31.77262024108274,-0.369665410845776],[31.775189957304757,-0.369189516368241],[31.779495889065934,-0.368099560103892],[31.781589664858508,-0.368170934514615],[31.783195775817738,-0.368420755706013],[31.786884023847335,-0.369658067693591],[31.78860922181825,-0.370479022761646],[31.78970004456368,-0.37130204259064],[31.79017250110025,-0.371705840151196],[31.790023185386968,-0.372205565754476],[31.792724170180083,-0.371910943812671],[31.79386635924342,-0.371299742130889],[31.79443698251521,-0.368484621052947],[31.79512228961465,-0.362431320125242],[31.795864723831507,-0.360679994674631],[31.796968713278332,-0.358814645578179],[31.798072781974632,-0.358034184482855],[31.799877317632024,-0.357200197077591],[31.80327048841706,-0.356353967952773],[31.805933137502016,-0.35640215669485],[31.807787259047995,-0.357599023041591],[31.810019102571175,-0.361041684423778],[31.810401301983482,-0.360805997397224],[31.810544844963577,-0.357455272193268],[31.808534730764485,-0.344435333650372],[31.8117789175741,-0.344203696730224],[31.81503397009116,-0.344204103249956],[31.817575642049306,-0.344403383021912],[31.81885899794635,-0.34423170783587],[31.821341817055448,-0.344268188865229],[31.823955298695118,-0.344648397317699],[31.824643714694655,-0.345082265069723],[31.824928361984604,-0.345082724624531],[31.825547453263468,-0.344702895326778],[31.826499039951557,-0.344865237981746],[31.828351023994077,-0.34386205508852],[31.830406527343474,-0.343636125069226],[31.831665573541798,-0.344405220941618],[31.83209303037635,-0.344929831886985],[31.832188237163464,-0.345716987046817],[31.833043131663324,-0.347417326920422],[31.83311422673663,-0.348231742181792],[31.833767317271317,-0.349769356548816],[31.833814639399368,-0.351062863175491],[31.834028554042852,-0.351777435001803],[31.834858999119987,-0.352446421543334],[31.83569145218194,-0.352664145235298],[31.8378772136564,-0.35550487070652],[31.83821060138794,-0.355649400542929],[31.840157851917414,-0.355269810613583],[31.84122716596007,-0.355360405283424],[31.84239127325151,-0.355677195547501],[31.844255827314804,-0.356997707666691],[31.844729689615107,-0.357124230190888],[31.84556278371298,-0.356645397773354],[31.84663200251073,-0.356690753622382],[31.849126529739568,-0.357595544658429],[31.850932029197953,-0.359205805631688],[31.85303509406089,-0.360454579147942],[31.853628693577566,-0.360599261781546],[31.85457917131772,-0.360454680478335],[31.85593359917137,-0.360979445485708],[31.856219140660183,-0.36096085120228],[31.857620425752472,-0.359984698852302],[31.858998444943147,-0.360844116132963],[31.859972166768255,-0.360934754331913],[31.861540418894158,-0.360509838374407],[31.86237254529905,-0.359315925211065],[31.862729151186617,-0.359144094053129],[31.863809941557435,-0.359162315427323],[31.86518835005799,-0.358610723899257],[31.866566356851745,-0.358466156521031],[31.867684619624224,-0.358900227297778],[31.869821773063265,-0.358204282435403],[31.870938387400596,-0.358828600146078],[31.87483442817439,-0.36169643382439487],[31.874834430638092,-0.361696450863094],[31.874834559528534,-0.36169653051276507],[31.874834650736325,-0.36169659764984],[31.881169673706133,-0.36561140396615693],[31.882184140034205,-0.3662383077891658],[31.90781835245783,-0.38321109976323],[31.907818356034095,-0.38321110207491815],[31.907818369633823,-0.3832111110795],[31.94275440041559,-0.40579379421762],[31.949442986487544,-0.406907309314683],[31.949443162672956,-0.4069073136118905],[31.949443162672978,-0.406907313611894],[31.949443376938557,-0.40690731883788345],[31.969053805529892,-0.407385622225947],[31.994362794786152,-0.407627661999269],[31.99927176547743,-0.4069417510812516],[32.00065454937695,-0.40674855188792],[32.000538101178634,-0.491791129848685],[31.945276118445705,-0.488818784030074],[31.920033374463642,-0.488437542923983],[31.849071367079315,-0.488031769873631],[31.83335858624295,-0.46794876300207],[31.83302546700647,-0.467712862030462],[31.8320749407036,-0.467423286699828],[31.81517048512279,-0.466235534542582],[31.80881652836147,-0.465609721963846],[31.808048471975972,-0.463337155287685],[31.80441088845698,-0.462583542513477],[31.803880163130323,-0.463177890194595],[31.803410476701885,-0.463225790461105],[31.80321393095556,-0.463558616619031],[31.803332884220012,-0.464129679382049],[31.803247791028298,-0.464809733858142],[31.79806373380334,-0.462306844043039],[31.794274484978335,-0.461193773200098],[31.79382355517022,-0.46122088502636],[31.793538006982246,-0.461410774935813],[31.793157633535774,-0.462224711380151],[31.79289123795821,-0.463497261116832],[31.79258708087599,-0.467411144763982],[31.79207301793553,-0.468743895885669],[31.79134964620975,-0.469809843448127],[31.790493133286457,-0.470399878682569],[31.788590224311502,-0.471294255813034],[31.788037527196543,-0.47203694681335],[31.78669273001368,-0.472622186932215],[31.786036111528624,-0.469406092749075],[31.78520709198014,-0.46707321224943],[31.784638528646525,-0.467152927583467],[31.781300800879336,-0.46679959970547],[31.78004182814025,-0.466012615210636],[31.778568678446568,-0.465559996795577],[31.772533942815574,-0.4642925539242],[31.767946417318814,-0.464121390339803],[31.766290764803344,-0.464463956287911],[31.764063175464557,-0.464492584512595],[31.76257428660294,-0.464855993302108],[31.76266446045024,-0.465963018409541],[31.761886744592683,-0.466677971490664],[31.761924454200102,-0.466934386796387],[31.762815166791366,-0.467171796153064],[31.762590238894152,-0.467888615435299],[31.76185614095571,-0.469172189233659],[31.760733035113496,-0.470181080545831],[31.7603999139735,-0.47034288276863],[31.759836643721528,-0.470105758707581],[31.75864506115989,-0.470618832550062],[31.75777394265912,-0.471332735975298],[31.757473318494974,-0.47094718424526],[31.756785167011085,-0.47084845054273],[31.756825375568422,-0.470584045983829],[31.75396751857721,-0.471730323077566],[31.7534917662536,-0.473098095483157],[31.75388241580017,-0.475487211386256],[31.75237277947955,-0.479557267046762],[31.75183720425,-0.480244594336204],[31.750866735498303,-0.480814276575771],[31.747974421142207,-0.480044938004738],[31.745622109781397,-0.479040455263256],[31.7438043164693,-0.477683345721563],[31.740900924729228,-0.474518790768145],[31.7414321946107,-0.472997746402918],[31.74038606987446,-0.471997920502614],[31.740936296748657,-0.471045759262621],[31.73991017495488,-0.470170491071692],[31.73908216254652,-0.469106932229348],[31.738070853286366,-0.467286587623928],[31.73792720026297,-0.465963635693686],[31.73865259004186,-0.465233356702319],[31.739152162269825,-0.463698461052039],[31.738819293769396,-0.46288942271523],[31.738831256236516,-0.461319226530133],[31.73772777121668,-0.459047698953236],[31.7365701139384,-0.458945285913608],[31.736184532801637,-0.458773944177035],[31.734315393852604,-0.456435977205603],[31.733464804304607,-0.457496169016289],[31.733284559726734,-0.45736951566043],[31.732666165768237,-0.4579080354147],[31.7290039446122,-0.453706426912266],[31.72834541307573,-0.453187292375139],[31.727828983762507,-0.451463291560813],[31.72737223951483,-0.450564086884541],[31.725802798071598,-0.448941740368522],[31.726611369654336,-0.448080917081287],[31.72737812578731,-0.448345757918452],[31.727714357707956,-0.445541732818793],[31.728083202976748,-0.44428990221533],[31.726310449272557,-0.443652569388908],[31.72563950687816,-0.442758002033611],[31.725509095231278,-0.442318055705553],[31.72481614260148,-0.442781686319497],[31.724344767361234,-0.442600944962155],[31.71913347725359,-0.441926914866022],[31.719760068345916,-0.441376349623142],[31.719212376727807,-0.440864517992168],[31.720010402486125,-0.440199122724665],[31.71952948948169,-0.439960997288518],[31.718951375494544,-0.440082760661783],[31.71838639923606,-0.439309623543275],[31.717242626286133,-0.438686811091046],[31.716760218651185,-0.438169529229694],[31.71780769468822,-0.437360670190377],[31.718546362949922,-0.437967376311763],[31.719485215015627,-0.437824664841041],[31.720212153191603,-0.437967090946295],[31.722769019338163,-0.436721020874917],[31.723054349381368,-0.435436995113537],[31.722792472622135,-0.432795894814371],[31.721769475300178,-0.431082868844585],[31.7203406333594,-0.429338163052185],[31.720105012246037,-0.429509504924746],[31.71962957056255,-0.429509423068179],[31.717148645898188,-0.428694693828678],[31.71675715922394,-0.430617662118052],[31.7144824496685,-0.431036438621149],[31.712981432711185,-0.431453939759929],[31.71263850656976,-0.431715421941911],[31.71237062186101,-0.433364746559797],[31.711951557586207,-0.433152944914149],[31.711863936689017,-0.433457069281281],[31.71146401414242,-0.436391592614056],[31.7111500597091,-0.43756213398962],[31.71149222430145,-0.439637604970094],[31.711828104146225,-0.439815478824428],[31.71222785311543,-0.440453171190996],[31.712313512056003,-0.44144302514647],[31.712141650139,-0.44282723274548],[31.712658583748183,-0.443964858770256],[31.71262289347784,-0.444521649535582],[31.712188815002655,-0.445482612843247],[31.71252176498142,-0.445669743397999],[31.71221542587714,-0.446311102962587],[31.711705948236347,-0.446621072104561],[31.71155858316886,-0.447177268767706],[31.71001670763311,-0.447612673043693],[31.70581696452951,-0.447422071874724],[31.704471364779508,-0.445315550449898],[31.70372897111938,-0.444630271380069],[31.701301939161127,-0.442959869451578],[31.699959924042027,-0.44097540092914],[31.699874237901753,-0.439590561648134],[31.698956570041364,-0.436466007480834],[31.699618122102216,-0.429564802907227],[31.700188845318255,-0.426814968648645]]]}},{"type":"Feature","properties":{"n":"Kyanamukaka","c":"105103","d":"Masaka","od":"Masaka","dc":"105","k":"KYANAMUKAKA","a":["KYANAMUKAKA"],"lat":-0.518677,"lon":31.839327},"geometry":{"type":"Polygon","coordinates":[[[31.66495584731348,-0.4855029295586259],[31.6651,-0.4852],[31.665107748635744,-0.48502741674929145],[31.665567808007598,-0.482977730111939],[31.666687788861136,-0.475073396842664],[31.665967530662193,-0.471513978770106],[31.666459011063502,-0.47139023934377],[31.667024159016364,-0.472014837191032],[31.667144943065047,-0.471925486041209],[31.67034720146179,-0.466807553690455],[31.670335812061552,-0.466524683357739],[31.668379922031303,-0.466992894382171],[31.668379786153462,-0.464260049033704],[31.669045973107377,-0.45897812984478],[31.669039885512202,-0.458010253676476],[31.669943753682563,-0.454948798640183],[31.67037151350722,-0.454351799578186],[31.67366919820409,-0.450757127480699],[31.67503746545563,-0.44975768165349],[31.681111211451203,-0.447106863435822],[31.690168726859625,-0.444306434112251],[31.693412822440145,-0.442452829411147],[31.695908659752092,-0.44166602868307],[31.697025356279248,-0.440924659786472],[31.698593563228975,-0.439008000336979],[31.698956566105746,-0.436466032695222],[31.69935418977785,-0.4378198572322158],[31.699874237901753,-0.439590561648134],[31.699959924042027,-0.44097540092914],[31.701301939161127,-0.442959869451578],[31.701302147950273,-0.44296001315046596],[31.701302158608975,-0.442960028911109],[31.70205283279686,-0.44347667112489536],[31.70372897111938,-0.444630271380069],[31.704471364779508,-0.445315550449898],[31.70581696452951,-0.447422071874724],[31.709953096723712,-0.4476097861257576],[31.710016403517532,-0.447612675620776],[31.7100164534954,-0.44761266150990553],[31.71001670763311,-0.447612673043693],[31.71155858316886,-0.447177268767706],[31.711696845961086,-0.44665542661756324],[31.71170608222704,-0.4466209905838499],[31.71221542587714,-0.446311102962587],[31.712323044910725,-0.44608578893784234],[31.712520191852704,-0.445673432714359],[31.71252004300779,-0.44567334856705054],[31.71252176498142,-0.445669743397999],[31.712188815002655,-0.445482612843247],[31.71262289347784,-0.444521649535582],[31.712655955896764,-0.4440058549125588],[31.71265850488798,-0.443966194854372],[31.712658498944624,-0.4439661817593418],[31.712658583748183,-0.443964858770256],[31.712141650139,-0.44282723274548],[31.712313512056003,-0.44144302514647],[31.71222785311543,-0.440453171190996],[31.711828104146225,-0.439815478824428],[31.71149232448076,-0.4396376580226369],[31.711332093557697,-0.4386662984142166],[31.7111500597091,-0.43756213398962],[31.711431841846476,-0.43651154315321816],[31.71146397647538,-0.436391756576145],[31.711463984455538,-0.43639170329803045],[31.71146401414242,-0.436391592614056],[31.71146414645899,-0.4363906217109031],[31.71194642982589,-0.43317074291567276],[31.711951557586207,-0.433152944914149],[31.71237062186101,-0.433364746559797],[31.712371409027327,-0.433359900098833],[31.71237152780097,-0.433359958975706],[31.71243773324169,-0.4329515521941598],[31.71263850656976,-0.431715421941911],[31.712981432711185,-0.431453939759929],[31.712982554195747,-0.43145362782402435],[31.714681294007146,-0.43099983116214363],[31.71675715922394,-0.430617662118052],[31.716757284273545,-0.43061704787894006],[31.716757325520735,-0.430617044778132],[31.716763015957007,-0.43058889405846335],[31.717148645898188,-0.428694693828678],[31.71962957056255,-0.429509423068179],[31.720105012246037,-0.429509504924746],[31.7203406333594,-0.429338163052185],[31.721769475300178,-0.431082868844585],[31.722792472622135,-0.432795894814371],[31.723054349381368,-0.435436995113537],[31.722769019338163,-0.436721020874917],[31.720658071448433,-0.43774977593554804],[31.720211820802966,-0.4379670258227114],[31.719485215015627,-0.437824664841041],[31.71903202592695,-0.43789355245786876],[31.718546246595466,-0.4379672807438824],[31.71780769468822,-0.437360670190377],[31.716760218651185,-0.438169529229694],[31.717242626286133,-0.438686811091046],[31.7183863631081,-0.43930960387071316],[31.71844601646544,-0.4393912062509438],[31.718951375494544,-0.440082760661783],[31.719529036455388,-0.4399610927057058],[31.71975582627335,-0.4400730685919192],[31.720010402486125,-0.440199122724665],[31.71931209093011,-0.44078137611657886],[31.719214244242465,-0.440862082805615],[31.719214739988985,-0.4408625475008795],[31.719212376727807,-0.440864517992168],[31.719760068345916,-0.441376349623142],[31.71913347725359,-0.441926914866022],[31.724344767361234,-0.442600944962155],[31.724512027062268,-0.442665078040884],[31.72481437531944,-0.442781334634179],[31.72481468502884,-0.4427811274363924],[31.72481614260148,-0.442781686319497],[31.725509095231278,-0.442318055705553],[31.72563950687816,-0.442758002033611],[31.725639827719235,-0.44275842981094965],[31.72563985732735,-0.442758531603733],[31.72574410684338,-0.4428974651455462],[31.726310449272557,-0.443652569388908],[31.728083202976748,-0.44428990221533],[31.72771885691024,-0.4455264628951034],[31.727714447115627,-0.445541330479204],[31.727714427370348,-0.44554149639034174],[31.727714357707956,-0.445541732818793],[31.72737812578731,-0.448345757918452],[31.726611369654336,-0.448080917081287],[31.726432455331683,-0.4482713932477134],[31.725802806111584,-0.448941168084564],[31.725803074728724,-0.4489414458331934],[31.725802798071598,-0.448941740368522],[31.72737223951483,-0.450564086884541],[31.727828983762507,-0.451463291560813],[31.72834541307573,-0.453187292375139],[31.7290039446122,-0.453706426912266],[31.732666165768237,-0.4579080354147],[31.733284559726734,-0.45736951566043],[31.733464804304607,-0.457496169016289],[31.734315393852604,-0.456435977205603],[31.736131685866468,-0.45870784187413816],[31.736184212290343,-0.45877360128668],[31.73618428423432,-0.4587736332626527],[31.736184532801637,-0.458773944177035],[31.7365701139384,-0.458945285913608],[31.736570586148368,-0.4589453276880253],[31.73657067918226,-0.458945369037551],[31.736587271942295,-0.4589468038095916],[31.73772763041069,-0.45904768649672606],[31.738667057213913,-0.4609812222969673],[31.73883121983764,-0.4613191516029245],[31.73881929370354,-0.462889154016881],[31.738819295778065,-0.4628891590568967],[31.738819293769396,-0.46288942271523],[31.739152162269825,-0.463698461052039],[31.73865260624171,-0.4652333069295753],[31.738637620237323,-0.465248427405098],[31.73792720026297,-0.465963635693686],[31.738070853286366,-0.467286587623928],[31.73908216254652,-0.469106932229348],[31.739082206665326,-0.4691069888987253],[31.739082206666236,-0.469106988900361],[31.739082221379903,-0.4691070077991847],[31.73991017495488,-0.470170491071692],[31.740936296748657,-0.471045759262621],[31.74038606987446,-0.471997920502614],[31.7414321946107,-0.472997746402918],[31.740900924729228,-0.474518790768145],[31.7438043164693,-0.477683345721563],[31.745622109781397,-0.479040455263256],[31.747974421142207,-0.480044938004738],[31.7479745151396,-0.48004496300749067],[31.747974544177296,-0.480044975407249],[31.750397986337514,-0.480714659405412],[31.75084720725875,-0.48080908217915264],[31.750866735498303,-0.480814276575771],[31.75086810240463,-0.48081347417769577],[31.75086831703858,-0.480813519292097],[31.751836988258148,-0.480244724920759],[31.75183699370766,-0.480244717928263],[31.75183720425,-0.480244594336204],[31.75237277947955,-0.479557267046762],[31.752372878537617,-0.47955699998121487],[31.75276235817105,-0.478725174127422],[31.75294380467451,-0.47801775432089305],[31.75388241580017,-0.475487211386256],[31.7534917662536,-0.473098095483157],[31.75396751857721,-0.471730323077566],[31.755324444795598,-0.4711860644086363],[31.75682525492518,-0.4705848393130487],[31.756785167011085,-0.47084845054273],[31.757473318494974,-0.47094718424526],[31.75777394265912,-0.471332735975298],[31.75864506115989,-0.470618832550062],[31.759836643721528,-0.470105758707581],[31.760389791560037,-0.4703386214610604],[31.760398953270172,-0.470342503801654],[31.760398981428168,-0.470342490188095],[31.7603999139735,-0.47034288276863],[31.760733035113496,-0.470181080545831],[31.76185614095571,-0.469172189233659],[31.762590238894152,-0.467888615435299],[31.762815166791366,-0.467171796153064],[31.761924454200102,-0.466934386796387],[31.761886744592683,-0.466677971490664],[31.76266446045024,-0.465963018409541],[31.76257428660294,-0.464855993302108],[31.76361557783271,-0.46460183438192515],[31.76406327605082,-0.4644925832198944],[31.766290764803344,-0.464463956287911],[31.76686989188888,-0.4643441308914116],[31.767946525870965,-0.4641213943899548],[31.772533902440667,-0.4642925524177858],[31.774476296451624,-0.4647004959485463],[31.778568678446568,-0.465559996795577],[31.78004182814025,-0.466012615210636],[31.781300800879336,-0.46679959970547],[31.781301236975086,-0.46679964587004563],[31.781301262062563,-0.466799661548346],[31.784638103096615,-0.467152892375654],[31.784638142956204,-0.4671528867547501],[31.784638528646525,-0.467152927583467],[31.78520709198014,-0.46707321224943],[31.786036111528624,-0.469406092749075],[31.78669273001368,-0.472622186932215],[31.788037527196543,-0.47203694681335],[31.788590222920636,-0.47129425768202277],[31.788719845799722,-0.47123333303837317],[31.790493133286457,-0.470399878682569],[31.791348743339867,-0.46981046541777555],[31.791348968324822,-0.469810310434778],[31.791348968330944,-0.46981031042576327],[31.79134964620975,-0.469809843448127],[31.79207274237752,-0.4687443019429931],[31.792072776448496,-0.468744251761657],[31.792072776470874,-0.46874425170364087],[31.79207301793553,-0.468743895885669],[31.79258708087599,-0.467411144763982],[31.792587105181166,-0.4674108320057635],[31.79258714217744,-0.467410736091303],[31.792885979413395,-0.463564927904023],[31.79289123795821,-0.463497261116832],[31.793157633535774,-0.462224711380151],[31.793538006982246,-0.461410774935813],[31.79382355517022,-0.46122088502636],[31.794274484978335,-0.461193773200098],[31.797618474278718,-0.46217605152523733],[31.798063812994336,-0.46230688227686384],[31.798165841069345,-0.46235614196261093],[31.8032421771638,-0.464807591896205],[31.803242248385626,-0.46480705784140675],[31.803247791028298,-0.464809733858142],[31.803332884220012,-0.464129679382049],[31.80321393095556,-0.463558616619031],[31.803410476701885,-0.463225790461105],[31.803880163130323,-0.463177890194595],[31.80441088845698,-0.462583542513477],[31.808048471975972,-0.463337155287685],[31.80881652836147,-0.465609721963846],[31.81517048512279,-0.466235534542582],[31.815170521651403,-0.46623553710918003],[31.815170522991686,-0.466235537241191],[31.815526748440437,-0.466260566553939],[31.8320749407036,-0.467423286699828],[31.83302546700647,-0.467712862030462],[31.83335858624295,-0.46794876300207],[31.849071367079315,-0.488031769873631],[31.920033374463642,-0.488437542923983],[31.925996174678584,-0.4885275990823372],[31.945276118445733,-0.48881878403007545],[31.952829672841453,-0.4892250628987197],[32.00053810057982,-0.491791141371884],[32.000515780747165,-0.596146825244897],[32.00050576472601,-0.6076051534536568],[31.79209855128828,-0.579155427347073],[31.79088434754265,-0.578809900429114],[31.79043823859952,-0.57919817910639],[31.79023045258438,-0.579198135564063],[31.78907064614256,-0.578401973108334],[31.788358571718046,-0.578194031620283],[31.787408657736552,-0.578582443942529],[31.786457707024635,-0.578320179323143],[31.785864365225624,-0.578437386213306],[31.785209585997237,-0.577722852548951],[31.784399739097143,-0.577324506758569],[31.784317043432555,-0.57665514838893],[31.78470175727207,-0.5760577194347],[31.784907481214944,-0.575189694391251],[31.784458977555342,-0.573579998697494],[31.783714526941836,-0.572421816656933],[31.783594753705863,-0.571942515735176],[31.783712487008508,-0.571435887596896],[31.784230389268135,-0.570756474887397],[31.78422944249137,-0.570278257906575],[31.78396280471578,-0.569863951476862],[31.783604905418443,-0.569807704659647],[31.78244792329625,-0.570142124282945],[31.780043405902806,-0.570268296061725],[31.77909385897889,-0.570476315562374],[31.77782007071856,-0.57188688781013],[31.777107732446353,-0.571977296965983],[31.774794336844217,-0.573116390181591],[31.773905399015728,-0.573297512303543],[31.773726649915407,-0.573749337773388],[31.773074307281256,-0.574138139742455],[31.772479995569423,-0.574229103329677],[31.771933246240973,-0.574662126637254],[31.77178491859288,-0.575232428147843],[31.770066913971426,-0.577059146069633],[31.769592201032875,-0.577185639552148],[31.769027698864132,-0.576977527173911],[31.76801703908976,-0.576172585812007],[31.767481781993084,-0.576027517467139],[31.76694656515804,-0.576118891514431],[31.76668053674997,-0.576389832389341],[31.766326611720192,-0.577374872717389],[31.765970405296528,-0.577429082096633],[31.765436235702982,-0.577438004285491],[31.764752581478955,-0.577048994360848],[31.763416084975564,-0.576759273946507],[31.761723415129953,-0.576668305427199],[31.760861846161337,-0.576252951226455],[31.760268553033953,-0.576649943360939],[31.759882666522827,-0.576613651286678],[31.75945179398583,-0.576450765939455],[31.758321577691405,-0.57547364819099],[31.75846758458535,-0.574577578749715],[31.757366067927546,-0.572823196018123],[31.757275539335218,-0.572072435099096],[31.757393000431694,-0.571502730763811],[31.757748160771676,-0.571112165836161],[31.757418975605287,-0.569630251191938],[31.75738744132007,-0.568734778792826],[31.758139847729172,-0.566890614333755],[31.757159432661165,-0.56612065837188],[31.756682061823067,-0.56498990460891],[31.756736994832075,-0.562837162479205],[31.7572391345332,-0.562057530905969],[31.757001424033266,-0.561553209920703],[31.75661515340889,-0.561371809391583],[31.756494923164674,-0.560865253804116],[31.755558799247908,-0.560231898789128],[31.754695517152754,-0.558893585573744],[31.753833196196492,-0.558476768217026],[31.753594637916304,-0.558024451923259],[31.75338313892774,-0.556089161724746],[31.75290456884842,-0.555011485379811],[31.75159792740919,-0.554270279470196],[31.75092510591925,-0.553624327997365],[31.748812376690967,-0.55244420405374],[31.7474032872624,-0.55118769281662],[31.74468181937407,-0.550160020847799],[31.743691728908466,-0.549963666640962],[31.742084379380753,-0.550424033116169],[31.74120319748749,-0.551011828319604],[31.736911652662652,-0.552765671501167],[31.734561886567988,-0.552973203081219],[31.733400785653117,-0.55265641535686],[31.73173879587164,-0.552936420186687],[31.730885398410656,-0.552737174252016],[31.73001075964614,-0.552158175092982],[31.72961364427931,-0.550918527498165],[31.728468322729665,-0.549950864141107],[31.727307660752363,-0.549606873145465],[31.726031531355627,-0.548675361432375],[31.725319660241464,-0.548647677938681],[31.722810283234157,-0.547561727379871],[31.721842389408565,-0.546720648214946],[31.72108458301123,-0.546403588868743],[31.720328236254687,-0.545824515820135],[31.718591959647124,-0.544376965135555],[31.716354977442265,-0.541120098793038],[31.713065434648936,-0.537184695469852],[31.71072730571238,-0.535239829228023],[31.70780843987921,-0.533464258908149],[31.708158215183353,-0.533165711602027],[31.707597191461495,-0.532634180673151],[31.707102369583616,-0.531846586631948],[31.70706739261715,-0.5318235649993696],[31.7071,-0.5318],[31.706900495501614,-0.5317137143044472],[31.69891078069022,-0.526454931242647],[31.694124104540162,-0.525304935177872],[31.69065171841438,-0.524680117576609],[31.69063869214279,-0.5246804843517571],[31.678380047425065,-0.519378620511341],[31.67786306829407,-0.517975108053326],[31.677818869694132,-0.517305584076909],[31.67691226213886,-0.516056679992139],[31.67580788134093,-0.515625597913341],[31.675467673088388,-0.51533343322606],[31.672669603089975,-0.515269592332511],[31.671982042831168,-0.515124788234306],[31.669513694839218,-0.515395561970778],[31.669007159946357,-0.5153248466767996],[31.6671,-0.5145],[31.666991245322944,-0.5143191495257909],[31.665846108049756,-0.51121589062012],[31.664025707680636,-0.509236412592521],[31.66393705301279,-0.508371599215598],[31.66231951122425,-0.506016568518585],[31.66184359896037,-0.504755463275019],[31.661058395201046,-0.503351572976718],[31.660558541489873,-0.501852325461265],[31.659154825396303,-0.499829970722011],[31.658721241850444,-0.4986046366911012],[31.664558206568504,-0.4863385514140114],[31.664626214526304,-0.486381588502526],[31.66495584731348,-0.4855029295586259]]]}},{"type":"Feature","properties":{"n":"Kyesiiga","c":"105104","d":"Masaka","od":"Masaka","dc":"105","k":"KYESIIGA","a":["KYESIIGA"],"lat":-0.672102,"lon":31.856968},"geometry":{"type":"Polygon","coordinates":[[[31.67700896692821,-0.608777202362012],[31.676720212828293,-0.6078221674004495],[31.680657343025874,-0.5909968246757458],[31.682943770339012,-0.589634526799044],[31.68263710999664,-0.589129342662263],[31.687025707543956,-0.584372352912656],[31.686940452333964,-0.583336303421593],[31.683386410503577,-0.582457579086206],[31.68296042915795,-0.582240314466865],[31.682793184100603,-0.5818692987153693],[31.684936043567447,-0.5727117796262888],[31.686207542373594,-0.56926167658566],[31.686684647989193,-0.566512114891264],[31.686752147163944,-0.5649506531455324],[31.68765875251878,-0.5610762712872752],[31.68772197071695,-0.560922584635332],[31.689129117954494,-0.559565974584238],[31.69131308885147,-0.557015187069415],[31.691292269178582,-0.556418411789469],[31.69089248890281,-0.555776734727462],[31.688783473943914,-0.554462217750267],[31.68650395636973,-0.553486685809431],[31.684313033172895,-0.5517397942630606],[31.6833,-0.549],[31.691856774851942,-0.5428161122918724],[31.693727356630237,-0.542137492713385],[31.696440265220446,-0.540555215957321],[31.69789360820059,-0.539442658447176],[31.701148402991052,-0.53625082984315],[31.70495356845386,-0.534478816252675],[31.70704271306269,-0.534153773590795],[31.707808430434874,-0.533464265580424],[31.709298288718816,-0.5343705463265855],[31.71072730571238,-0.535239829228023],[31.712286145628124,-0.5365364793319344],[31.71306545280058,-0.5371847171853444],[31.71635497274938,-0.5411200931787616],[31.71635497744292,-0.5411200987939907],[31.718591959647124,-0.544376965135555],[31.718592474530958,-0.5443773943992124],[31.718592485403132,-0.544377410226762],[31.71859281282645,-0.5443776764394511],[31.720328236254687,-0.545824515820135],[31.721083947289564,-0.5464031021484921],[31.721084133994438,-0.546403253949552],[31.721084159498755,-0.5464032646197686],[31.72108458301123,-0.546403588868743],[31.721842389408565,-0.546720648214946],[31.722810283234157,-0.547561727379871],[31.725319660241464,-0.548647677938681],[31.726031531355627,-0.548675361432375],[31.727307660752363,-0.549606873145465],[31.728006387363468,-0.5498139581257053],[31.728468355754092,-0.5499508920429041],[31.72875555370674,-0.5501935408737807],[31.729613690316537,-0.5509186712093894],[31.73001075964614,-0.552158175092982],[31.73075712910933,-0.552652261690843],[31.730885252971575,-0.552737093812165],[31.730885289936978,-0.5527371024438936],[31.730885398410656,-0.552737174252016],[31.73173879587164,-0.552936420186687],[31.732432762419446,-0.5528195037126572],[31.733400839999373,-0.5526564301843628],[31.734561886567988,-0.552973203081219],[31.734562228008258,-0.5529731729251798],[31.73456229581485,-0.552973191423734],[31.735865725127155,-0.5528580479272949],[31.736911652662652,-0.552765671501167],[31.74120319748749,-0.551011828319604],[31.742084379380753,-0.550424033116169],[31.743691728908466,-0.549963666640962],[31.74468181937407,-0.550160020847799],[31.7474032872624,-0.55118769281662],[31.748812376690967,-0.55244420405374],[31.75092510591925,-0.553624327997365],[31.75159792740919,-0.554270279470196],[31.75219204867537,-0.554607300920991],[31.752904677583878,-0.5550117302376345],[31.753383080305685,-0.5560890297156498],[31.753440773183762,-0.5566165354560848],[31.753594637916304,-0.558024451923259],[31.753833196196492,-0.558476768217026],[31.754695436716347,-0.5588935466934509],[31.75494859271612,-0.5592859189406024],[31.755558799247908,-0.560231898789128],[31.756494923164674,-0.560865253804116],[31.75661515340889,-0.561371809391583],[31.757001424033266,-0.561553209920703],[31.7572391345332,-0.562057530905969],[31.756736994832075,-0.562837162479205],[31.75673697589226,-0.5628379047020786],[31.756736931680734,-0.562837973122579],[31.75669818270479,-0.5643581514631494],[31.756682061823067,-0.56498990460891],[31.757159432661165,-0.56612065837188],[31.758139847729172,-0.566890614333755],[31.75738744132007,-0.568734778792826],[31.757418975605287,-0.569630251191938],[31.757748160771676,-0.571112165836161],[31.757393000431694,-0.571502730763811],[31.757392749585087,-0.5715039474083303],[31.75739274956535,-0.571503947429974],[31.757392733444007,-0.5715040256950465],[31.757275539335218,-0.572072435099096],[31.757366067927546,-0.572823196018123],[31.75846758458535,-0.574577578749715],[31.758321577691405,-0.57547364819099],[31.75945179398583,-0.576450765939455],[31.759882666522827,-0.576613651286678],[31.760268553033953,-0.576649943360939],[31.760861846161337,-0.576252951226455],[31.76168998554346,-0.5766521893416783],[31.76172324193531,-0.5766682526587],[31.76172331366617,-0.576668256512474],[31.761723415129953,-0.576668305427199],[31.763416084975564,-0.576759273946507],[31.764752581478955,-0.577048994360848],[31.765436235702982,-0.577438004285491],[31.765970232142333,-0.5774290849888126],[31.76597023692991,-0.577429084911065],[31.765970236945794,-0.5774290849085809],[31.765970405296528,-0.577429082096633],[31.766326611720192,-0.577374872717389],[31.76664361157189,-0.5764926021469722],[31.766680646627886,-0.5763897204824263],[31.76694641511478,-0.5761190443283809],[31.7669465654048,-0.5761188914723029],[31.767481781993084,-0.576027517467139],[31.76801703908976,-0.576172585812007],[31.769027698864132,-0.576977527173911],[31.7690283296084,-0.5769777597074548],[31.76902832962634,-0.576977759721739],[31.76902834749771,-0.5769777663026224],[31.769592201032875,-0.577185639552148],[31.770065788601883,-0.5770594459390932],[31.770065819569208,-0.57705943770281],[31.770065819588506,-0.5770594376823017],[31.770066913971426,-0.577059146069633],[31.771630464427734,-0.5753966559898667],[31.771784266070394,-0.575233207679251],[31.771784296841,-0.5752330892434471],[31.77178491859288,-0.575232428147843],[31.771933246240973,-0.574662126637254],[31.772479995569423,-0.574229103329677],[31.773074307281256,-0.574138139742455],[31.773726649915407,-0.573749337773388],[31.773905399015728,-0.573297512303543],[31.774794336844217,-0.573116390181591],[31.777107732446353,-0.571977296965983],[31.77782007071856,-0.57188688781013],[31.77909385897889,-0.570476315562374],[31.780043405902806,-0.570268296061725],[31.78244792329625,-0.570142124282945],[31.7824479857815,-0.5701421062219113],[31.78244804150858,-0.570142103297836],[31.78360494727071,-0.5698077112370747],[31.78396280468388,-0.5698639514718487],[31.78396283740094,-0.5698640022636309],[31.78422944249137,-0.570278257906575],[31.78423038921125,-0.5707564461535823],[31.784230389256347,-0.570756474902863],[31.783712487008508,-0.571435887596896],[31.783594753705863,-0.571942515735176],[31.783595017340534,-0.5719435707316505],[31.783595017332253,-0.571943570767389],[31.78359503543369,-0.5719436431356969],[31.783714526941836,-0.572421816656933],[31.784458977555342,-0.573579998697494],[31.784907481214944,-0.575189694391251],[31.784759527869888,-0.5758139640167428],[31.78470167492059,-0.5760578473197766],[31.784317043432555,-0.57665514838893],[31.784399739097143,-0.577324506758569],[31.785209585997237,-0.577722852548951],[31.785864365225624,-0.578437386213306],[31.786457707024635,-0.578320179323143],[31.787408657736552,-0.578582443942529],[31.788358571718046,-0.578194031620283],[31.78907064614256,-0.578401973108334],[31.79023045258438,-0.579198135564063],[31.79043823859952,-0.57919817910639],[31.79088434754265,-0.578809900429114],[31.79209855128828,-0.579155427347073],[31.792098717758503,-0.5791554500719687],[31.792098718730628,-0.579155450348684],[32.000505764715946,-0.607605164962134],[32.0005,-0.6142],[32.0005,-0.8186839475353569],[31.89217590583079,-0.796377445729848],[31.84684832485673,-0.7747187167078239],[31.801,-0.7528],[31.7919,-0.7528],[31.79167954600845,-0.7526995468265107],[31.78496536543525,-0.748887401578718],[31.78475524543804,-0.748940718214851],[31.77648326596539,-0.7457751335063971],[31.75189788633905,-0.7345724358934105],[31.751207272938796,-0.7341941569400086],[31.726168166851426,-0.7056133351889635],[31.726017723761245,-0.705163358494117],[31.72534611302847,-0.7046750040160489],[31.725069832019447,-0.7043596437853554],[31.725043445576553,-0.703263973739704],[31.724833300644875,-0.702740315885098],[31.72388700393824,-0.702097072070565],[31.723156040775557,-0.701110551602391],[31.721641717532314,-0.700432171567664],[31.720878781370118,-0.6994976790514612],[31.717741981227697,-0.6843713316980004],[31.717955693323223,-0.68405961098441],[31.718124522190646,-0.683443556608827],[31.717829655843413,-0.6830916753193],[31.717470923218812,-0.6830642297440452],[31.716658943372686,-0.6791486824860621],[31.716713424281203,-0.678894115818734],[31.71662194839541,-0.678270917019793],[31.716427234499672,-0.678031330809524],[31.7164,-0.6779],[31.710473308036594,-0.6663042983324636],[31.71054054119744,-0.666121072910533],[31.710427248839284,-0.6651718669059],[31.709415287447133,-0.6642342580487343],[31.707696948188005,-0.6608722899330557],[31.70754548697406,-0.660422007912986],[31.707216321252748,-0.659870448890805],[31.70687538144643,-0.6597647422693466],[31.700058343075124,-0.6569243096146347],[31.699972588607285,-0.6568568474114692],[31.699971658898264,-0.6568553838101386],[31.69895263627714,-0.654450272106871],[31.696175457206646,-0.650216570371866],[31.69451959334486,-0.647005102590523],[31.69173846706359,-0.643485782511079],[31.689202311742566,-0.6399016590798806],[31.679911597687965,-0.6252756834889772],[31.679793814174122,-0.6250768845453959],[31.67977164099818,-0.6249940268879299],[31.679540836974805,-0.623665318227358],[31.679933432157096,-0.621159036453199],[31.67953805491644,-0.619685623346431],[31.678594749874343,-0.618581837218986],[31.67759791450678,-0.616419765957425],[31.676132864593914,-0.6113964940088362],[31.676,-0.6109],[31.676025391986034,-0.6107914872391582],[31.67671985446723,-0.609698779351476],[31.67700896692821,-0.608777202362012]]]}},{"type":"Feature","properties":{"n":"Kimaanya-Kabonera Division","c":"127101","d":"Masaka City","od":"Masaka","dc":"127","k":"KIMAANYAKABONERADIVISION","a":["KABONERA","KIMAANYA","KIMAANYAKABONERA","KIMAANYAKABONERADIVISION"],"lat":-0.381735,"lon":31.690111},"geometry":{"type":"Polygon","coordinates":[[[31.602934572892433,-0.36938621440770275],[31.6031,-0.3694],[31.6201,-0.3811],[31.620527813383244,-0.38120287115703977],[31.63270759810962,-0.38487206349006],[31.638950581056672,-0.388112952128142],[31.64089454035927,-0.386816318603178],[31.645903816323703,-0.387339609541438],[31.645944086227637,-0.38731441768069147],[31.6463,-0.3874],[31.6472008280231,-0.3865282309453877],[31.656983488288173,-0.38040843946224],[31.658061866770957,-0.3760175482861708],[31.6587,-0.3754],[31.6708,-0.3722],[31.6809,-0.3801],[31.6936,-0.3796],[31.7031,-0.3696],[31.7093,-0.3454],[31.6959,-0.3336],[31.6962,-0.3213],[31.7146,-0.3194],[31.712341816897172,-0.304672718894609],[31.71363559667047,-0.31127346660386],[31.71916586881604,-0.30849083564643],[31.73170944705784,-0.318955205416862],[31.735634876405605,-0.319401068368821],[31.736176807485688,-0.321642263743281],[31.738487059938628,-0.323170448245866],[31.737458028384637,-0.33938926491736],[31.737962879955322,-0.340062692183376],[31.736381223057002,-0.343718324729422],[31.736577193263557,-0.345975251151718],[31.73336032631067,-0.347072059467421],[31.732536738538602,-0.345370705290081],[31.731271882756864,-0.345544823319346],[31.732102971622385,-0.347770812135434],[31.734111636399284,-0.349399198973008],[31.739005944561995,-0.347972145924376],[31.74061443797112,-0.351867123592099],[31.73950123551211,-0.352351764128219],[31.739997057462052,-0.354913608306038],[31.738937564291497,-0.356669791822717],[31.737687773950395,-0.355444979448028],[31.736716921723655,-0.356102143823105],[31.736519047593795,-0.357848384475832],[31.737260409429005,-0.359053384745854],[31.73551507965609,-0.360568822021674],[31.725068318832175,-0.362971022419786],[31.726469624148578,-0.378536738778938],[31.724567489507006,-0.384017837642272],[31.723046357365284,-0.38550101997715075],[31.723046252121627,-0.38550108773512],[31.719838190479003,-0.386766852042648],[31.715382078047544,-0.388313013032254],[31.71291033746204,-0.389551777991067],[31.71127031328269,-0.390845077279051],[31.709131990405286,-0.39315958340109186],[31.70913179140854,-0.393159773414899],[31.709131754682282,-0.39315983854606545],[31.709131446203177,-0.393160172441748],[31.707485798729852,-0.3960788134544587],[31.707479385483698,-0.396090186847881],[31.70747938386931,-0.3960901905418201],[31.70747929792895,-0.396090342961499],[31.70747915178465,-0.3960907215826589],[31.705815530420868,-0.39989731048971877],[31.70581501225617,-0.399898320221267],[31.70581494747486,-0.3998986443484083],[31.705814908592345,-0.399898733316816],[31.700998584487827,-0.4201129590390817],[31.700998517285502,-0.420113186740802],[31.70099848881784,-0.42011336056826487],[31.700998487849247,-0.420113364633475],[31.700998486793498,-0.42011337292918227],[31.700308281399504,-0.42432786226227],[31.700215045788212,-0.4262693767682472],[31.70007707732301,-0.4273534844365242],[31.699618122102216,-0.429564802907227],[31.699076208018028,-0.4352179633727502],[31.698596388851396,-0.4389882136046425],[31.69859357335238,-0.4390079294467178],[31.695908483485304,-0.44166608425032794],[31.693412822440145,-0.442452829411147],[31.690168726859625,-0.444306434112251],[31.681111211451203,-0.447106863435822],[31.67503746545563,-0.44975768165349],[31.67366919820409,-0.450757127480699],[31.67037151350722,-0.454351799578186],[31.67037128635239,-0.4543521166047339],[31.67037126841958,-0.454352134261922],[31.67037126296791,-0.4543521492410643],[31.669943753682563,-0.454948798640183],[31.669039885512202,-0.458010253676476],[31.66903988565594,-0.45801027652999854],[31.669039862080663,-0.458010341306057],[31.664336804738117,-0.45718776985116194],[31.657532542307873,-0.44436134412059275],[31.657494194345045,-0.44425496376854],[31.65254048138744,-0.44108873647919],[31.645318094147566,-0.4397809058934522],[31.6451,-0.4397],[31.644461289574657,-0.4398212741313941],[31.631061111609892,-0.441555254595493],[31.62139859117618,-0.444194432610374],[31.621377641571986,-0.4441885546142292],[31.60934044433748,-0.43802665602990054],[31.60346029292248,-0.434024837421717],[31.596243753753104,-0.43132239775456527],[31.596209906640865,-0.4313050712566344],[31.584412560724097,-0.382358831456101],[31.58440642052292,-0.3822670034537587],[31.5851,-0.3679],[31.58616708287953,-0.36798892357329416],[31.597031721536034,-0.370322513915628],[31.602934572892433,-0.36938621440770275]]]}},{"type":"Feature","properties":{"n":"Nyendo-Mukungwe Division","c":"127202","d":"Masaka City","od":"Masaka","dc":"127","k":"NYENDOMUKUNGWEDIVISION","a":["MUKUNGWE","NYENDO","NYENDOMUKUNGWE","NYENDOMUKUNGWEDIVISION"],"lat":-0.321802,"lon":31.798513},"geometry":{"type":"MultiPolygon","coordinates":[[[[31.709995706878107,-0.29147347760890024],[31.708223089860642,-0.28152952848652046],[31.70821922853114,-0.281392894445805],[31.708263136647055,-0.2812687941553401],[31.721,-0.2548],[31.7398,-0.2756],[31.7817,-0.2741],[31.7924,-0.2457],[31.80098083616399,-0.24058347657302495],[31.80551118564193,-0.242914426418764],[31.807042517211624,-0.242002944348168],[31.80846967460316,-0.23611808222420277],[31.8085,-0.2361],[31.817513147478067,-0.24159954761373598],[31.81752696005714,-0.241630004383255],[31.82031886437954,-0.243519812702898],[31.82056430412798,-0.24346127031537826],[31.8262,-0.2469],[31.826563056499186,-0.24688250330124412],[31.826665652732725,-0.247011868693562],[31.83067526411579,-0.2466843246209257],[31.83416931670285,-0.24651593654444082],[31.834723038552873,-0.24678099345244056],[31.845522720279774,-0.2603868916910558],[31.846528168353345,-0.261821527769082],[31.84690569214438,-0.26212921844960885],[31.8472,-0.2625],[31.84731455705431,-0.262462452871832],[31.847582884266934,-0.262681145798258],[31.84905574908071,-0.262514771093598],[31.849057600746963,-0.2625210741278619],[31.85071557510626,-0.268201405284404],[31.85082141386691,-0.2685250581063313],[31.855563684147253,-0.2846676496670555],[31.856228877271242,-0.28950275775315776],[31.856067620698422,-0.2920562116562699],[31.855515094610958,-0.300804880788445],[31.855747088472242,-0.302052312214355],[31.856207466375896,-0.3031255897927616],[31.857191026283118,-0.306422443484326],[31.85719119520109,-0.3064227566360566],[31.85719126399099,-0.306423221513222],[31.857191602731007,-0.30642351214298996],[31.858394342142716,-0.3086532330194158],[31.858411926213513,-0.308795545072275],[31.85946756070424,-0.31064283925356123],[31.859468332704946,-0.31064427044146053],[31.859468349741167,-0.31064462161867357],[31.858843053639685,-0.31368641103634254],[31.858840896153662,-0.313692657463196],[31.85884277847106,-0.31369358159358407],[31.859471870923734,-0.3183988015837198],[31.85950274447592,-0.319113175680946],[31.85978113310445,-0.320712035301678],[31.860712262344602,-0.321939891819328],[31.863073320077852,-0.32421452295135456],[31.86877963625923,-0.33307443568952366],[31.868780517131505,-0.33307605806858653],[31.870133716173907,-0.3382316106734195],[31.870133750991293,-0.3382317730498141],[31.871782616416457,-0.35267549566456696],[31.871782791206996,-0.352677629736418],[31.87204383378469,-0.353464628030457],[31.87205737020542,-0.3534890770614131],[31.873581025523283,-0.3579921290400937],[31.873670688007287,-0.358376572164968],[31.87382398903306,-0.3587101899431211],[31.874834412322112,-0.3616964221557053],[31.870938387400596,-0.358828600146078],[31.869821773063265,-0.358204282435403],[31.869821096561374,-0.3582045027321804],[31.866892238733172,-0.35859265255119416],[31.866566356851745,-0.358466156521031],[31.86518835005799,-0.358610723899257],[31.864412163406584,-0.3589213270194065],[31.862730997736765,-0.35914412518468064],[31.862729151186617,-0.359144094053129],[31.86237254529905,-0.359315925211065],[31.862296342688314,-0.35942525872037645],[31.859972659929486,-0.3609346207104926],[31.859972325887686,-0.360934711218702],[31.857620896079077,-0.359984884266426],[31.85762080711981,-0.3599849366963634],[31.857620425752472,-0.359984698852302],[31.857616112048202,-0.3599877038315057],[31.855933477594945,-0.360979398381647],[31.85457917131772,-0.360454680478335],[31.85374031771365,-0.36058228214869054],[31.853035027477755,-0.36045453961171264],[31.850932029197953,-0.359205805631688],[31.849126529739568,-0.357595544658429],[31.84663200251073,-0.356690753622382],[31.84556278371298,-0.356645397773354],[31.844729951445405,-0.35712407970028404],[31.84386121240745,-0.3567182339963748],[31.84239127325151,-0.355677195547501],[31.84122716596007,-0.355360405283424],[31.840894331326187,-0.35533220679115185],[31.840799779028266,-0.355288035132887],[31.84063850823081,-0.35531053288812725],[31.840157851917414,-0.355269810613583],[31.83821362193253,-0.35564881172896257],[31.83821030918432,-0.3556492738671774],[31.838208196878554,-0.3556483581429986],[31.837440738661734,-0.35493760586568757],[31.83569145218194,-0.352664145235298],[31.834858999119987,-0.352446421543334],[31.834028554042852,-0.351777435001803],[31.834027115944394,-0.3517726311014029],[31.833812879084697,-0.35101474660115034],[31.833767317271317,-0.349769356548816],[31.83311422673663,-0.348231742181792],[31.833043131663324,-0.347417326920422],[31.83247853774635,-0.34629437952798725],[31.83209319451903,-0.3449311889935687],[31.83209303037635,-0.344929831886985],[31.83209269430327,-0.34492941942986144],[31.832092616188874,-0.34492914309231],[31.832092224141412,-0.3449288424077231],[31.831665573541798,-0.344405220941618],[31.830407450424037,-0.3436366889384875],[31.830406973874027,-0.343636323443857],[31.830406888847968,-0.3436363458964007],[31.830406527343474,-0.343636125069226],[31.828351023994077,-0.34386205508852],[31.82720851429386,-0.3444809298521712],[31.826045914053193,-0.3447879337673263],[31.825547453263468,-0.344702895326778],[31.82492868424745,-0.3450825269075299],[31.824483915605448,-0.34498155318671014],[31.823955298695118,-0.344648397317699],[31.821341817055448,-0.344268188865229],[31.81885899794635,-0.34423170783587],[31.8182886823006,-0.3443079992565211],[31.816634255845184,-0.34432957364321604],[31.81503397009116,-0.344204103249956],[31.8117789175741,-0.344203696730224],[31.808534730764485,-0.344435333650372],[31.810544844963577,-0.357455272193268],[31.810401311163034,-0.3608057831188545],[31.808919572166044,-0.3593456377139733],[31.807787259047995,-0.357599023041591],[31.805933137502016,-0.35640215669485],[31.80327048841706,-0.356353967952773],[31.8032699541136,-0.3563541012036987],[31.80326995411024,-0.356354101203638],[31.80326995409808,-0.35635410120756905],[31.799877317632024,-0.357200197077591],[31.798072781974632,-0.358034184482855],[31.796968713278332,-0.358814645578179],[31.795864723831507,-0.360679994674631],[31.79512228961465,-0.362431320125242],[31.795122096127894,-0.36243302918904535],[31.793866200442157,-0.3712998271077133],[31.79385904635968,-0.37130365535942883],[31.790023288883223,-0.3722052193761336],[31.79017250110025,-0.371705840151196],[31.78970010238955,-0.37130209201305964],[31.78970010238909,-0.37130209201175],[31.789700102385705,-0.3713020920097744],[31.78970004456368,-0.37130204259064],[31.78860922181825,-0.370479022761646],[31.786884023847335,-0.369658067693591],[31.786883953809042,-0.3696580441975523],[31.786883932601267,-0.369658031816601],[31.786883890323224,-0.3696580228996989],[31.783195775817738,-0.368420755706013],[31.781589664858508,-0.368170934514615],[31.779495889065934,-0.368099560103892],[31.77949534500434,-0.36809969782166807],[31.779495286242565,-0.368099685428167],[31.779493019590614,-0.3681002864513531],[31.775189957304757,-0.369189516368241],[31.77262024108274,-0.369665410845776],[31.769498546269023,-0.370750397968171],[31.7694983247197,-0.3707505291009191],[31.760989001204464,-0.3752360273959355],[31.760988642911972,-0.375236158774594],[31.75954668952706,-0.376292638376293],[31.758968022097406,-0.37695181226016294],[31.757086496890363,-0.3785493650272039],[31.756893222810586,-0.378247896634462],[31.755680406963517,-0.3783555833273077],[31.754347560790645,-0.3781690627227624],[31.75430419496972,-0.37815979666118],[31.753839104855643,-0.380437071708457],[31.75383910227684,-0.381603066966119],[31.75383910777876,-0.38160310270988956],[31.753839104360633,-0.381603127980666],[31.75383913109725,-0.3816032542007868],[31.754144189978955,-0.383585099541948],[31.75449796418343,-0.384713951762137],[31.754498118067502,-0.3847142466921967],[31.7544981183934,-0.384714248230723],[31.754498120916836,-0.38471425215315147],[31.755183286957298,-0.386027422894745],[31.75568077775626,-0.38655257505589025],[31.75919189709283,-0.39201026225261854],[31.759238822610076,-0.392150568213279],[31.760690012064746,-0.394339079454816],[31.760690171732655,-0.3943391817609323],[31.760690212487447,-0.39433924511022],[31.76172592118134,-0.39555111969660117],[31.76173102521285,-0.395558551386188],[31.761732348667728,-0.39555864044780836],[31.761732464166357,-0.395558775591843],[31.76181852382213,-0.3955644395868661],[31.763266728084055,-0.39566189619089015],[31.76339315793303,-0.39595296646244793],[31.76327943938057,-0.396913653025279],[31.76502047897046,-0.3996999162920577],[31.764576873428695,-0.4007273019640349],[31.763763895950408,-0.401653188910628],[31.763083233928675,-0.404156694517178],[31.76246481384891,-0.405502910645545],[31.762153887308667,-0.405367825796807],[31.761931359696497,-0.40685428336438095],[31.76157195349718,-0.40768666426325467],[31.761570334161256,-0.407688442280098],[31.761570227757062,-0.4076884543573105],[31.757428571775794,-0.4077571994403236],[31.757428453159978,-0.4077568561118433],[31.757588705110123,-0.40661929469252],[31.75758868962404,-0.4066192755976435],[31.75758892016557,-0.406618523964406],[31.757586819733024,-0.4066169699573046],[31.752103985253523,-0.39985644528246117],[31.751226241344146,-0.394375011197864],[31.74986513717559,-0.394677280351151],[31.74921494718488,-0.3951125742094672],[31.748504570836488,-0.3949167560997955],[31.74515046904412,-0.393991641728759],[31.74513347955797,-0.3940115351470353],[31.73984224316789,-0.39952102009858703],[31.739792660444337,-0.399554331879253],[31.739342489909596,-0.400040524914797],[31.737899331595564,-0.400240824534372],[31.736566903224464,-0.400669109103426],[31.735286892163696,-0.40131762281914773],[31.732736044414136,-0.4021205404557827],[31.732735820740874,-0.4021206002767158],[31.726859137829237,-0.402728373217606],[31.724764899409926,-0.402834406962891],[31.724637116521915,-0.402953793368998],[31.724633048900095,-0.40293285869228695],[31.724198943395024,-0.3972705193397795],[31.724199207988228,-0.395550901824068],[31.723986030462395,-0.390501529244827],[31.723463521355466,-0.387677550837763],[31.723678778500247,-0.38538692561521065],[31.723708105116476,-0.38507497449981],[31.723998998009616,-0.3845721461887353],[31.724567489507006,-0.384017837642272],[31.724939019723124,-0.38294725420367265],[31.725993680435714,-0.381124200848387],[31.726469556612283,-0.3785369333882505],[31.726469624148578,-0.378536738778938],[31.72646961371782,-0.37853662291398316],[31.726469624223377,-0.37853656579686],[31.72644996113811,-0.3783183218214199],[31.725068318832175,-0.362971022419786],[31.73551507965609,-0.360568822021674],[31.73605824024161,-0.3600972058200655],[31.736497165818957,-0.359982477366463],[31.73725917695767,-0.359054454877717],[31.737260409429005,-0.359053384745854],[31.737260257896256,-0.3590531384464149],[31.7372602689698,-0.359053124960396],[31.737085309569906,-0.3587687796212411],[31.73651908268749,-0.3578484415166834],[31.7365359706546,-0.35769903833965555],[31.736716921723655,-0.356102143823105],[31.737687773950395,-0.355444979448028],[31.738937564291497,-0.356669791822717],[31.739034299792422,-0.3565094460112261],[31.739075206561782,-0.356541797673506],[31.739374204508845,-0.35594603033586675],[31.739997057462052,-0.354913608306038],[31.739967915186302,-0.3547630341544286],[31.740029737553513,-0.354639850207908],[31.739514284686603,-0.3524191874274694],[31.73950123551211,-0.352351764128219],[31.74061443797112,-0.351867123592099],[31.739005944561995,-0.347972145924376],[31.734111701126718,-0.34939918010017107],[31.732102944737754,-0.3477707401276275],[31.73202937430922,-0.3475736890565464],[31.731272346664785,-0.3455447594585217],[31.732536412470417,-0.3453707501761076],[31.732805698422435,-0.34592631822826947],[31.73336032631067,-0.347072059467421],[31.736577193263557,-0.345975251151718],[31.736381223057002,-0.343718324729422],[31.737962879955322,-0.340062692183376],[31.737458028384637,-0.33938926491736],[31.738487059938628,-0.323170448245866],[31.73620917267052,-0.3216636726476712],[31.73617679418936,-0.32164220875535443],[31.735634876405605,-0.319401068368821],[31.73170944705784,-0.318955205416862],[31.71916586881604,-0.30849083564643],[31.71363559667047,-0.31127346660386],[31.71363125110392,-0.31125129591527284],[31.71127298187818,-0.29414502735717],[31.709995706878107,-0.29147347760890024]]],[[[31.741615006911577,-0.398126136689934],[31.741615006827146,-0.398126136611893],[31.741615006913754,-0.39812613668751],[31.741615006911577,-0.398126136689934]]]]}}]}
