{"type":"FeatureCollection","name":"Mayuge sub-counties","metadata":{"source":"Uganda Bureau of Statistics NPHC 2024 Map Explorer","retrieved":"2026-07-26","display_only":true,"clipped_to_dashboard_district":true,"positive_area_overlaps_removed":true,"source_gap_ratio":0.00484441},"features":[{"type":"Feature","properties":{"n":"Bukabooli","c":"214101","d":"Mayuge","od":"Mayuge","dc":"214","k":"BUKABOOLI","a":["BUKABOOLI"],"lat":0.273688,"lon":33.648653},"geometry":{"type":"Polygon","coordinates":[[[33.599586020721944,0.369725059413839],[33.60082841008955,0.370396859179599],[33.601384819673676,0.372594518303601],[33.60454476258211,0.371747598599715],[33.60530097457721,0.373976124922884],[33.60792225385364,0.372987762086437],[33.610038518282565,0.373138688230603],[33.61012066206165,0.374329768574598],[33.613018306910824,0.375129416210445],[33.61336881601661,0.376732631766668],[33.62430858291791,0.376691594905654],[33.62925487205388,0.374854473702049],[33.63294252822636,0.380528265250981],[33.63756495886269,0.383975927221368],[33.6417406548232,0.38213935235532],[33.649355664417456,0.36934423656118],[33.65260991049213,0.37418927753902],[33.65715389820406,0.385784252014589],[33.65538565470104,0.389507796316971],[33.65554688555132,0.394783995234445],[33.65476633450796,0.397607546875311],[33.653157528633166,0.399428491394177],[33.64664865770863,0.401507838383597],[33.6486736870062,0.40395342917039],[33.64896345353178,0.407297396858607],[33.64785960123969,0.41016147316778],[33.65022639647003,0.416442864106365],[33.65599848411675,0.417512086767289],[33.66108516312173,0.411560499458314],[33.663946720652184,0.40970649253415464],[33.66655481250198,0.40681523642637707],[33.66695688302625,0.406050149049861],[33.669242347472085,0.406339431196675],[33.67157231970085,0.407803703455048],[33.67531815316056,0.41192210984242134],[33.67623081895325,0.4125766479361658],[33.67773659198423,0.41310844998220136],[33.68040738584759,0.4127243558814515],[33.68417673201803,0.411642360046997],[33.6849515765638,0.41207084350420303],[33.705989041209776,0.4090453887223397],[33.707186204385664,0.4082349843369164],[33.7091,0.4014],[33.7090862055411,0.4013020239714011],[33.70774615526363,0.398602979012344],[33.70800874059341,0.39364926011216206],[33.70592426467462,0.3788441362787261],[33.70503398437323,0.374753646917011],[33.70525276386779,0.3740747587533101],[33.7052,0.3737],[33.70559313294377,0.37301856956412704],[33.705609452834274,0.372967927795721],[33.705640363534016,0.3729367032077068],[33.71118202380521,0.36333115873763355],[33.70519563348685,0.361239076052831],[33.70346191771031,0.3577626567101299],[33.7003,0.3555],[33.700308271114814,0.3554586444259278],[33.70038960580749,0.353047367786732],[33.69905148535772,0.350286056042383],[33.69885030852305,0.342708731729758],[33.70233295407574,0.33686010735415],[33.704284106342,0.335525902540477],[33.704294181279046,0.3354636329940152],[33.70255608774358,0.3246005483973758],[33.701460526732234,0.320745106748404],[33.701380494293254,0.31725308933283175],[33.70043333387587,0.3113333367241993],[33.699630440764224,0.30984090262728736],[33.69877435563048,0.3089981938237573],[33.693945541252454,0.305069637653946],[33.693493046585544,0.30367342339166686],[33.6592,0.2593],[33.659199959988854,0.25929729924792694],[33.6591955334068,0.25929159726237],[33.6585414316171,0.25718617429325],[33.65888467224491,0.16888048856246618],[33.65894240478329,0.12563881731939971],[33.627941448499406,0.125741063321692],[33.62853690433295,0.223743553262181],[33.62664668816737,0.244333358920113],[33.62797023908682,0.25377854478877],[33.6262749977793,0.288076500945984],[33.6241365856847,0.294405083472084],[33.622376834751634,0.297164248316944],[33.60418545078976,0.314765860759123],[33.594601749831455,0.322882352822524],[33.59611202486683,0.325021036308429],[33.597227250027984,0.332609678883099],[33.595779087572694,0.337585019026089],[33.59415458812353,0.33987071892182],[33.58951710928667,0.341845254793667],[33.587405490049655,0.343457640973965],[33.58578617713614,0.346073007041088],[33.584224111261605,0.352744503640504],[33.58678487392914,0.362154875312892],[33.585628807132636,0.367536789615772],[33.5927328802956,0.369534470706745],[33.599586020721944,0.369725059413839]]]}},{"type":"Feature","properties":{"n":"Buwaaya","c":"214102","d":"Mayuge","od":"Mayuge","dc":"214","k":"BUWAAYA","a":["BUWAAYA"],"lat":0.504848,"lon":33.496019},"geometry":{"type":"Polygon","coordinates":[[[33.45925843834492,0.50092848662746],[33.46145821537598,0.501922672708944],[33.463843743741464,0.501815757758491],[33.46912450262793,0.505337130400492],[33.47017691317435,0.510324077551258],[33.47733686218218,0.516437968794287],[33.47813465929901,0.519378091157849],[33.48044254563625,0.522238059902461],[33.47821890923814,0.528068768938244],[33.48160779059191,0.533537368208601],[33.483425497897855,0.542586575250907],[33.485556349897855,0.540433592224088],[33.487950944824576,0.5403678689051404],[33.4905,0.5364],[33.498016632770295,0.5400916007096718],[33.50285988741211,0.539958670180998],[33.5054164662604,0.541653848611302],[33.507381777233206,0.5446910503571372],[33.5074,0.5447],[33.5232,0.5452],[33.529,0.5517],[33.530242154388795,0.5508141224514032],[33.53642630753242,0.543615362424016],[33.54182004263996,0.5425570238536679],[33.5419,0.5425],[33.54521171863618,0.5298326762166071],[33.54521081118202,0.529826347142738],[33.54532806171475,0.5293876639410876],[33.5459,0.5272],[33.55515654856388,0.5266153758801759],[33.55519258571871,0.526604356218628],[33.55524566967638,0.5266097471783335],[33.5554,0.5266],[33.55213381375011,0.5162026404378592],[33.55060940758392,0.514780252208542],[33.54849413253877,0.514155601968997],[33.54456975730721,0.5094371437695],[33.5416169571107,0.509412114847112],[33.53674403069309,0.512472119586744],[33.533512281186525,0.51329614695902],[33.52754790076531,0.510088478692603],[33.525386366826254,0.507947428440709],[33.524602222291605,0.505554478429122],[33.52298660400386,0.504357891783527],[33.51504960713854,0.501160874007357],[33.51336334885846,0.498721065709993],[33.510868030338976,0.491603360957738],[33.51191601435123,0.488709598544564],[33.512589667765106,0.479334625637575],[33.51755929222921,0.476800303534593],[33.520593828794624,0.474065572219827],[33.52473755014201,0.468242773345836],[33.52491660927196,0.466039518941867],[33.52309940711014,0.461380073757939],[33.520105772310984,0.458911414606623],[33.51395023918701,0.465923261101149],[33.512479116790246,0.463821267037741],[33.507630673948505,0.462733854207297],[33.50207466167647,0.470673692499168],[33.50147967031039,0.469110414220072],[33.496447242264175,0.466445445979157],[33.49462714951074,0.467265328129294],[33.49157503468323,0.466778563506971],[33.489923412563066,0.467601717431376],[33.48949658622965,0.465997723402168],[33.48795514978627,0.465814190714648],[33.48834876967421,0.464849354223998],[33.4864464102677,0.462992160987675],[33.486947652185606,0.461691181789935],[33.48477145723174,0.462608258783644],[33.48453056694086,0.465266926256843],[33.48194172929508,0.464737888772529],[33.482204417994666,0.465315873137174],[33.48101246226783,0.465211848338476],[33.479183814622616,0.467126790310301],[33.478030068475874,0.465464001616821],[33.47598744526158,0.466577293867218],[33.473808499326914,0.470641236113379],[33.466557578502766,0.477708042649918],[33.463628978315406,0.483535210570155],[33.457269497810195,0.488128783337932],[33.45484330581353,0.493967891313409],[33.45567114018912,0.497604086380531],[33.45165846722884,0.501544385987754],[33.45430951660181,0.502169988521533],[33.45925843834492,0.50092848662746]]]}},{"type":"Feature","properties":{"n":"Kigandalo","c":"214103","d":"Mayuge","od":"Mayuge","dc":"214","k":"KIGANDALO","a":["KIGANDALO"],"lat":0.411093,"lon":33.599035},"geometry":{"type":"Polygon","coordinates":[[[33.549700175958556,0.406841973317175],[33.55060031798986,0.40859881964523],[33.55040736263854,0.410611327765055],[33.54931007824909,0.411573741500162],[33.55197321039016,0.416001312889274],[33.55086015541048,0.41622275646833],[33.54904403526071,0.419216439324971],[33.55264812731125,0.421835515577553],[33.557650651077864,0.423935568033431],[33.56023472009269,0.423712179603319],[33.55934784994679,0.426280536916789],[33.56317663097678,0.427281175485916],[33.56653150679272,0.427209785267313],[33.57361981032295,0.424471077611795],[33.57375498485576,0.422702885300971],[33.57832624929847,0.422569032271407],[33.579027491443696,0.428702789950726],[33.57723480706218,0.44400245848745623],[33.58322539548011,0.44411170934006283],[33.58432848515772,0.443499946671327],[33.5909308325638,0.44425223402851916],[33.600520771388744,0.44442712652988586],[33.60599416908815,0.443605817555695],[33.60924020601831,0.44458614357480214],[33.60994632801843,0.4445990211796674],[33.617887730510716,0.442377896615852],[33.616411504654714,0.448869324613178],[33.61548421364581,0.454076263913199],[33.62291586235168,0.45311150695809],[33.624555326293546,0.450780943030518],[33.628308957390935,0.451852117141445],[33.634655659239165,0.448963974071392],[33.638909071770875,0.44240578755897025],[33.64465650957065,0.43340146833931464],[33.64694041282428,0.427817768772952],[33.649619969040785,0.42562538183610954],[33.6497,0.4255],[33.656214212096586,0.41827853059007264],[33.65599848401156,0.417512099318777],[33.655916156612285,0.4174968364040266],[33.65022639647003,0.416442864106365],[33.65021861498641,0.41642221232369725],[33.64925150532665,0.414541158985703],[33.64846002783852,0.4117549841520899],[33.64785960123969,0.41016147316778],[33.647944660337934,0.40994077720155053],[33.64782234886611,0.40951021391986],[33.64886284839147,0.4061363920192671],[33.64867369127242,0.4039534784035065],[33.648673678277824,0.40395341862928563],[33.648669493551786,0.40394836481231033],[33.64670195312704,0.402142499853108],[33.646828235280324,0.4017247109273079],[33.64664865770863,0.401507838383597],[33.64691998804235,0.4014211582329082],[33.646945892444485,0.401335456714042],[33.653101194706565,0.3994464880301586],[33.653157528633166,0.399428491394177],[33.65476633450796,0.397607546875311],[33.65554687578839,0.394784030550685],[33.65538553435578,0.389508493281184],[33.65538566743586,0.38950821305749456],[33.65538565470104,0.389507796316971],[33.65715383500802,0.38578438509198937],[33.653081702190335,0.3753931568285945],[33.65260991049213,0.37418927753902],[33.649355664417456,0.36934423656118],[33.64198162908254,0.38173445548507834],[33.641741051291014,0.382138836980525],[33.64174092970528,0.38213889048485333],[33.6417406548232,0.38213935235532],[33.640255088820425,0.3827927412055508],[33.637566419288625,0.38397590188514],[33.63756589882043,0.3839755138045931],[33.63756495886269,0.383975927221368],[33.63294252822636,0.380528265250981],[33.62925487205388,0.374854473702049],[33.62430858291791,0.376691594905654],[33.61336881601661,0.376732631766668],[33.613018306910824,0.375129416210445],[33.61012066206165,0.374329768574598],[33.6101074682248,0.37413845865543405],[33.609703316065094,0.374000914689188],[33.61003937047874,0.3731510450289571],[33.610038570859025,0.37313945058640574],[33.607922218223386,0.3729877755209509],[33.60530097457721,0.373976124922884],[33.60454476258211,0.371747598599715],[33.60242872528961,0.3723147334274966],[33.60138710145509,0.372595360806689],[33.601386755363386,0.3725939995050638],[33.601384819673676,0.372594518303601],[33.60088770176745,0.3706310443924853],[33.60082812418198,0.3703967045802093],[33.599586020721944,0.369725059413839],[33.5927328802956,0.369534470706745],[33.59273268555803,0.36953441594611053],[33.592732553009064,0.369534412262817],[33.58562880179665,0.367536799854002],[33.584683286678796,0.37024124284559],[33.585140535918384,0.375088886307105],[33.58977237971371,0.379285098964518],[33.58971931346936,0.380544218859942],[33.587382996423216,0.382787710451126],[33.58145495922624,0.385572200436353],[33.58104841281525,0.386603034553563],[33.582118123616304,0.389365593530448],[33.57828296472063,0.393584711229993],[33.571631509234386,0.392411785102661],[33.56484065081698,0.398334672460881],[33.56363072326232,0.398620081351959],[33.556961178522755,0.393204946568172],[33.55251709370891,0.390903276372862],[33.55076794721868,0.393570895186918],[33.549894313159186,0.398594037397798],[33.54504225609923,0.399549809541078],[33.54680654120225,0.405202121130804],[33.549700175958556,0.406841973317175]]]}},{"type":"Feature","properties":{"n":"Mpungwe","c":"214104","d":"Mayuge","od":"Mayuge","dc":"214","k":"MPUNGWE","a":["MPUNGWE"],"lat":0.466146,"lon":33.548293},"geometry":{"type":"Polygon","coordinates":[[[33.48949727153548,0.465999259885442],[33.48956432658255,0.4662522885802881],[33.489923412563066,0.467601717431376],[33.49146282773286,0.4668344864632071],[33.491574352605085,0.466778691397077],[33.491574674954656,0.46677874279252546],[33.49157503468323,0.466778563506971],[33.49462714951074,0.467265328129294],[33.496447242264175,0.466445445979157],[33.496447895409624,0.46644579185829455],[33.49644814416794,0.466445679805311],[33.501405203688144,0.4690709797400415],[33.50147967031039,0.469110414220072],[33.50207466167647,0.470673692499168],[33.507630673948505,0.462733854207297],[33.512479116790246,0.463821267037741],[33.512479292582235,0.46382151821583684],[33.51247951598565,0.46382156828062],[33.51252166677705,0.4638820640318286],[33.51395023918701,0.465923261101149],[33.520105772310984,0.458911414606623],[33.520131143138705,0.45893233630557306],[33.522130011819876,0.460291374367456],[33.52236366901729,0.4607733576092612],[33.52309940711014,0.461380073757939],[33.52491660927196,0.466039518941867],[33.52473755014201,0.468242773345836],[33.520593828794624,0.474065572219827],[33.520593375171444,0.47406598102607883],[33.52059337516888,0.474065981029681],[33.52059322736331,0.4740661142311075],[33.51755929222921,0.476800303534593],[33.512589711130204,0.4793346035230029],[33.51211297326559,0.4859685978342721],[33.51191601435123,0.488709598544564],[33.5115158212915,0.48981463795424035],[33.51086809846582,0.4916035552843368],[33.51336334885846,0.498721065709993],[33.51504960713854,0.501160874007357],[33.52298660400386,0.504357891783527],[33.52298683810677,0.5043580651687936],[33.52298684552439,0.504358068156271],[33.52301713676346,0.5043805054743097],[33.524602222291605,0.505554478429122],[33.52538631782698,0.5079472789111023],[33.5270210411783,0.5095666118687237],[33.52754790076531,0.510088478692603],[33.53351214471815,0.5132960735657707],[33.536443661974175,0.5125487072200547],[33.53674403069309,0.512472119586744],[33.54102576988253,0.509783357005351],[33.54161625247534,0.50941254114924],[33.54161628830547,0.5094125348303004],[33.5416169571107,0.509412114847112],[33.54161859118677,0.5094121286980875],[33.54323999575887,0.509126180557512],[33.54389992363724,0.5094314660352062],[33.54456975730721,0.5094371437695],[33.54498096850061,0.509931562043173],[33.545676128239364,0.51025314593116],[33.545567042472655,0.508681033634794],[33.547896987174035,0.504877999968082],[33.54754571325211,0.5015971871859025],[33.54692516131517,0.49962176351997956],[33.5446378828997,0.497167356439531],[33.5450873339423,0.495631254215305],[33.543608422293254,0.4890634776335291],[33.5434,0.4884],[33.54356662108936,0.4882688721604425],[33.55129710618683,0.480578210050585],[33.556452184352,0.478049243490091],[33.563281540720816,0.472206797895658],[33.565374926816624,0.4711061226827718],[33.5772,0.4618],[33.57719855236834,0.46154232156462227],[33.57635916958349,0.455747013896136],[33.57167173324063,0.447542782235102],[33.57710058264614,0.4441037110128438],[33.5771,0.444],[33.577234795740466,0.44400245828098117],[33.57756814789247,0.44115756048658966],[33.579027491443696,0.428702789950726],[33.57832624929847,0.422569032271407],[33.57375498485576,0.422702885300971],[33.57361981032295,0.424471077611795],[33.57361947034033,0.42447120897087076],[33.57361946998566,0.424471213747814],[33.57345173408827,0.4245360172223336],[33.56653150679272,0.427209785267313],[33.56317663097678,0.427281175485916],[33.56317644943841,0.42728112804149565],[33.563176151910234,0.427281134375287],[33.559349947353354,0.426281663602258],[33.559350131001196,0.42628113306240306],[33.55934784994679,0.426280536916789],[33.56023472009269,0.423712179603319],[33.557650651077864,0.423935568033431],[33.55264812731125,0.421835515577553],[33.55144804504417,0.420963421601377],[33.54899596861943,0.419182278272213],[33.54449495292963,0.425305041377114],[33.537276764943094,0.427841261019087],[33.53409132167827,0.430553579222578],[33.53264089361915,0.430579492347753],[33.52850516162956,0.434073445447783],[33.52717792895837,0.437059946471457],[33.51715224084787,0.435246852719093],[33.509927329950095,0.429750805349606],[33.5068495282771,0.42942772344476],[33.50640895647743,0.431481798324462],[33.50378931624602,0.435360728693336],[33.50373622783668,0.437855609592719],[33.497812466270545,0.445969417457929],[33.49088257521988,0.453126673348939],[33.48924618739021,0.459365087150187],[33.48679353883348,0.4620911847786009],[33.48648931875247,0.4628807915189794],[33.48830662204884,0.4648082072753695],[33.48834876967421,0.464849354223998],[33.48795514978627,0.465814190714648],[33.48949658622965,0.465997723402168],[33.489496985991025,0.46599922568731744],[33.48949727153548,0.465999259885442]]]}},{"type":"Feature","properties":{"n":"Malongo","c":"214105","d":"Mayuge","od":"Mayuge","dc":"214","k":"MALONGO","a":["MALONGO"],"lat":0.237441,"lon":33.523214},"geometry":{"type":"Polygon","coordinates":[[[33.41235178653743,0.303269400466589],[33.43332623416674,0.30267306710312],[33.44658411466166,0.300858089079732],[33.457928488456986,0.298063637525552],[33.47444255546811,0.292454790828488],[33.48181272267403,0.289518544800122],[33.49729075915128,0.281309203834543],[33.510001362960445,0.278450338776096],[33.517389948576174,0.278898602075435],[33.523609565906966,0.280566457234364],[33.52708715338392,0.282364744432508],[33.53286480665337,0.288790856896264],[33.538862383010446,0.290639134953019],[33.54330572919478,0.293707230999608],[33.54545725851615,0.291361324115841],[33.545799983486916,0.288448920448526],[33.54821261586301,0.28614234644631],[33.55739675511325,0.280669808069685],[33.559349175656365,0.280336434832343],[33.561467019973314,0.28088423255741],[33.567415011439486,0.286951188281356],[33.57622536165079,0.299409410241784],[33.57576385880495,0.304009387142635],[33.579281273180825,0.319323418708182],[33.591238923957334,0.320249894396302],[33.59465116589803,0.322837400928353],[33.614752382420114,0.30454151303217947],[33.62237640168754,0.29716466734093927],[33.62237690028971,0.29716414555788384],[33.62237762463437,0.2971630098367534],[33.624993148177836,0.2918701060277119],[33.625397450225506,0.2906735832056569],[33.626365720519196,0.28624100735477603],[33.627970208710714,0.25377915935512957],[33.62797022957919,0.2537784769399952],[33.62680153047306,0.24543835181165696],[33.626646697225496,0.244333457536988],[33.62664669899225,0.24433343616913356],[33.62664668816737,0.244333358920113],[33.626646861413725,0.24433147177681105],[33.62852405024028,0.22162797555415778],[33.62852240096958,0.22135653202148936],[33.62340240358338,0.212493363937997],[33.612581578746614,0.203394796569098],[33.605495691761156,0.196075861970589],[33.596440121832664,0.18906357964311],[33.597084441453276,0.194503309075427],[33.59508627384558,0.199451474665881],[33.59059671945498,0.202270961686631],[33.58989194621166,0.203660114217223],[33.58867402594535,0.203812928595562],[33.587147659901085,0.206650861007097],[33.57911811247738,0.207772352156508],[33.579194255734414,0.211351054613601],[33.580804266647945,0.213453372666034],[33.579188714912696,0.215224130275154],[33.56952711467839,0.217472823817999],[33.55393110411163,0.217103964603505],[33.549340996020184,0.21533647818571],[33.55550242763841,0.213754385427963],[33.555369219755505,0.211641552335255],[33.554645823311255,0.211089398861247],[33.54590201832763,0.210206343224207],[33.54437797216831,0.208540521787135],[33.53770392580626,0.20618572370436],[33.54148541124977,0.198946387718714],[33.541485380449494,0.196561284965136],[33.535968376735404,0.17826520724017],[33.53442984545126,0.150585094350757],[33.530682030012436,0.148984462120742],[33.529104160334946,0.147407797104449],[33.527938079352715,0.144039998981374],[33.52820192957052,0.140157850714125],[33.527312097013734,0.139952198931314],[33.526418502250806,0.14025983871626818],[33.5264,0.1403],[33.476444690761205,0.15984339443274267],[33.47634778489872,0.159888900270378],[33.42622444351022,0.210017068377882],[33.42622422712634,0.216060323032078],[33.42210713597051,0.21947069699845895],[33.41768939878701,0.229693135364935],[33.41773893674695,0.23055047658798106],[33.42122270599136,0.24686085077776543],[33.422421118926806,0.248571426232176],[33.42204967724776,0.25045872227082],[33.42198453485122,0.2505166547756099],[33.40357742756942,0.2703396933867826],[33.39714492498435,0.277831954073849],[33.3923,0.3007],[33.39205856720498,0.3010603474552533],[33.39195029846659,0.301639595654822],[33.399436736472985,0.302773642161906],[33.41235178653743,0.303269400466589]]]}},{"type":"Feature","properties":{"n":"Baitambogwe","c":"214106","d":"Mayuge","od":"Mayuge","dc":"214","k":"BAITAMBOGWE","a":["BAITAMBOGWE"],"lat":0.536321,"lon":33.394849},"geometry":{"type":"MultiPolygon","coordinates":[[[[33.3592966664058,0.541675342886468],[33.36168033071954,0.541648135677615],[33.36336208343355,0.540442814758157],[33.36624082474699,0.540873062918143],[33.36712507349316,0.544919176481362],[33.3704410113496,0.548562495802933],[33.36737039768823,0.547954321118068],[33.36173918541566,0.548854443326248],[33.360249638076795,0.550343196072372],[33.3599069674889,0.552783147859333],[33.353750821215996,0.557661139914567],[33.35575454572027,0.5621566050912049],[33.369221391078526,0.5809060251480078],[33.370832148489875,0.581877923996238],[33.37133587089028,0.583767869727537],[33.37127569058889,0.5837661548530445],[33.3713,0.5838],[33.36417589768671,0.5835638419122666],[33.36170365152999,0.583493393746076],[33.36168215447598,0.5834811763914688],[33.3532,0.5832],[33.35526811821979,0.5965883442649503],[33.357416175971736,0.598997687765072],[33.357160540381834,0.6077602964647074],[33.365564431544875,0.6056819147792236],[33.3658260587506,0.603243864065631],[33.36795063456897,0.598118645478976],[33.37121294527522,0.595752129626123],[33.375569118868725,0.601767692981107],[33.37561869651243,0.6031948815631366],[33.39386970446688,0.5981984079026028],[33.39438898843049,0.597936397976347],[33.39517463603587,0.5978411642791523],[33.40188990074407,0.5960027648153123],[33.401890210816546,0.595952560110966],[33.40109819956853,0.592114351755207],[33.399783658124605,0.590093284140869],[33.398084740768724,0.58904392931579],[33.398741450247606,0.587480629281684],[33.398147881399964,0.587105639982468],[33.39909123262231,0.586673996208881],[33.398223669295916,0.58636414585707],[33.39648683421507,0.582442577937642],[33.39612132932873,0.569001015777491],[33.39909101377317,0.5683552555802394],[33.4056,0.5617],[33.40674317201031,0.5619009972765382],[33.407497678637164,0.561687841697136],[33.40992993057338,0.561501420821809],[33.41022955825317,0.5625139882642933],[33.41026185311972,0.562519666482588],[33.41465947759256,0.56093604835155],[33.421266218348116,0.563125252801201],[33.42272582553235,0.564711134159535],[33.4238,0.5649],[33.4252910880559,0.5595401429341897],[33.42518360481916,0.555981452539393],[33.425988036546016,0.55454284147709],[33.42551126838585,0.553856472766331],[33.426529904420484,0.552724464972417],[33.4261138874958,0.551051624443155],[33.4282271589384,0.540801374838558],[33.43546956823805,0.528532231965193],[33.4348171934563,0.524308883590111],[33.435379774833955,0.521167733145137],[33.436823177180415,0.518584384565895],[33.434493039540705,0.515317871655262],[33.432736302035,0.50732784136194],[33.43051973431202,0.504970750782081],[33.42478159044638,0.503483724121753],[33.42263633031155,0.505859293868974],[33.418334386977484,0.507184796305158],[33.41605518105208,0.509059588106312],[33.415311233320466,0.508800089660824],[33.41373780557246,0.507002715294558],[33.41008185414309,0.496393872262253],[33.40636634697665,0.492689794075231],[33.39822109882138,0.479474636254713],[33.39547047612078,0.478359909845619],[33.3871469129401,0.477191551331242],[33.38293189078098,0.475429823765],[33.378573008483535,0.472588680847437],[33.374998619643705,0.468323608174486],[33.36856206655532,0.488598358333975],[33.3689480860557,0.490864481029382],[33.37250172301244,0.494732926278455],[33.37214822463517,0.498779614616941],[33.36930093967738,0.502741874952404],[33.363622857890746,0.507497068323672],[33.363192768885725,0.510230916326979],[33.36126531938265,0.511185920266925],[33.360570518583756,0.513041892130869],[33.36298257935562,0.51495427208146],[33.362368646201304,0.516622026236974],[33.35816677515206,0.516682604216724],[33.353503485383406,0.518713593448244],[33.35083770317403,0.518961854421528],[33.35023391594806,0.520119350636748],[33.35846453748718,0.532199319769965],[33.3592966664058,0.541675342886468]]],[[[33.38616013208563,0.476758167388688],[33.38616012968629,0.476758172851419],[33.386160132085635,0.476758167388691],[33.38616013208563,0.476758167388688]]]]}},{"type":"Feature","properties":{"n":"Bukatube","c":"214107","d":"Mayuge","od":"Mayuge","dc":"214","k":"BUKATUBE","a":["BUKATUBE"],"lat":0.383144,"lon":33.380826},"geometry":{"type":"MultiPolygon","coordinates":[[[[33.32525776575175,0.406236078461751],[33.335695235368455,0.423144375920176],[33.34028764669613,0.428509671632825],[33.36124495190847,0.444464597528837],[33.36998460065702,0.457520419204235],[33.37425052792458,0.466925138999434],[33.37485763542498,0.463545260217986],[33.37589339197074,0.462502038172816],[33.38353817560478,0.460523353237477],[33.39407582640355,0.455254406622976],[33.399541028472726,0.449626067303905],[33.40500491814804,0.442236870161717],[33.406649339178266,0.442019730416911],[33.409702132562636,0.439956650374069],[33.41295136084747,0.43968434875439],[33.41335432423249,0.438879223269136],[33.416226450174,0.438277075699761],[33.41749931510843,0.43913354713114],[33.417261726353175,0.442825265272224],[33.41914625131793,0.443158387858609],[33.42589559994738,0.440167447316601],[33.42715503489776,0.440892163929723],[33.43615569333366,0.439752447736732],[33.44122810717299,0.437792231858847],[33.4429419373197,0.436174235570901],[33.44644692117671,0.438555907302788],[33.44757525678416,0.43848068284733],[33.45018790270744,0.436696091868455],[33.450073633970874,0.434483045317324],[33.449616831061306,0.433312506027085],[33.44516947830035,0.431863284883613],[33.451329285234415,0.426369332378392],[33.453586166203024,0.428399705758118],[33.45903003751592,0.427714984733205],[33.46227254138839,0.428451976035033],[33.46514645134511,0.432307249194321],[33.46738170464217,0.431459624397065],[33.470056132844746,0.429037728919416],[33.46958112168219,0.423323357201409],[33.471411995975764,0.417382245523135],[33.47926999693198,0.406827275607489],[33.48391367273379,0.403608168029192],[33.482941566968876,0.400780955890857],[33.483094214083614,0.394489826503568],[33.48158223896064,0.392418826765946],[33.47756299040758,0.391108820565656],[33.474941250664,0.389268687523405],[33.47394595653138,0.384481512650476],[33.47465357153265,0.376043149800306],[33.472433373698394,0.370812589492286],[33.467686838557285,0.365514404653249],[33.461715717726456,0.355660536527698],[33.45021311941263,0.346374819897587],[33.44733775372322,0.34154360101322],[33.44370987051385,0.317020988318333],[33.44353230279701,0.301314626151173],[33.43332981753755,0.30267257654663465],[33.43332623416674,0.30267306710312],[33.433326104137514,0.3026730708000357],[33.433326104137514,0.302673070800036],[33.43332610413749,0.30267307080003647],[33.41235178653743,0.303269400466589],[33.40865816634338,0.303127616820656],[33.40633773127388,0.303170374530512],[33.404399086830736,0.3029641274010901],[33.399436736472985,0.302773642161906],[33.39195029846659,0.301639595654822],[33.39205856720498,0.30106034745525456],[33.391420315016774,0.302012962661532],[33.389804517565885,0.30621851289936],[33.38659826179306,0.30921005702528226],[33.3856,0.3107],[33.384186778205574,0.3114600520575048],[33.38386774521409,0.311757720534155],[33.3660706417166,0.321870990543658],[33.3500835568996,0.32980128032290257],[33.3499,0.3299],[33.349857449700494,0.3299037080871025],[33.3423927905932,0.332251784629058],[33.32612748837014,0.333375992943232],[33.307543810546456,0.33359117119420884],[33.30532355550326,0.33378465747248326],[33.30349661267975,0.3343636462160182],[33.29349085717154,0.343579473657791],[33.29195091718847,0.3470148764693011],[33.289111833796134,0.35845232670698884],[33.28970919271307,0.36360561511906025],[33.2912,0.3761],[33.291132154950425,0.3761964907371735],[33.28888373019567,0.381806570801258],[33.28262834654603,0.3882907960234228],[33.28259319278945,0.38834079247723335],[33.32091590563127,0.403588560891899],[33.32525776575175,0.406236078461751]]],[[[33.39211998382911,0.30096868085206746],[33.39210233885823,0.30099501662950484],[33.39211998382911,0.30096868085206807],[33.39211998382911,0.30096868085206746]]]]}},{"type":"Feature","properties":{"n":"Imanyiro","c":"214108","d":"Mayuge","od":"Mayuge","dc":"214","k":"IMANYIRO","a":["IMANYIRO"],"lat":0.49041,"lon":33.430682},"geometry":{"type":"MultiPolygon","coordinates":[[[[33.474000493243075,0.429578971574527],[33.477947559439045,0.427179145340145],[33.484361506967424,0.426499733410511],[33.48504402551225,0.436595345668865],[33.485767683827774,0.438092620883903],[33.48709404691191,0.438294864181805],[33.49355523494282,0.436384960781216],[33.49560902213738,0.43474628664636],[33.49824325181482,0.43057238435317],[33.50134407764433,0.429362141085642],[33.50489638730828,0.42621700938295],[33.50280879995147,0.422847285710949],[33.49895373213891,0.419160991750362],[33.49695280551746,0.413946392055096],[33.492344446249625,0.409289665020578],[33.483913678477656,0.403608178461915],[33.483631095834454,0.40380405712156997],[33.47926999693198,0.406827275607489],[33.471411995975764,0.417382245523135],[33.47141160346759,0.41738351919600764],[33.469702412846,0.42478248669296576],[33.470056127165314,0.4290376605960168],[33.47005614375226,0.429037726500929],[33.474000493243075,0.429578971574527]]],[[[33.3865548904418,0.47694410723350633],[33.3871469129401,0.477191551331242],[33.39547047612078,0.478359909845619],[33.39597573028997,0.4785646708132266],[33.396970397876316,0.478719364124553],[33.39760589112601,0.47922531515918215],[33.39822109882138,0.479474636254713],[33.39851213656041,0.47994682685955536],[33.3993638967884,0.480624959898441],[33.406366360345714,0.4926898074031749],[33.41008185414309,0.496393872262253],[33.413737737822565,0.5070025186978616],[33.41404057509092,0.5073485781230617],[33.415311233320466,0.508800089660824],[33.41605518105208,0.509059588106312],[33.418334386977484,0.507184796305158],[33.42263633031155,0.505859293868974],[33.42478159044638,0.503483724121753],[33.43051973431202,0.504970750782081],[33.432736302035,0.50732784136194],[33.43276834429004,0.5074735766169581],[33.433021854805,0.507755599167474],[33.43447007335887,0.5152134163863267],[33.434493039540705,0.515317871655262],[33.436823177180415,0.518584384565895],[33.435379774833955,0.521167733145137],[33.434817225506954,0.5243087046365473],[33.43505547432714,0.5258514679401752],[33.43546956823805,0.528532231965193],[33.4282271589384,0.540801374838558],[33.42611393644767,0.5510513870061456],[33.42654389052667,0.552185514480078],[33.42736339643025,0.5520910344534153],[33.4275,0.5516],[33.44186804288916,0.5519564590793112],[33.444826490106564,0.55026225059709],[33.44617658429465,0.548489011686261],[33.44822072088935,0.54793736148347],[33.449981320824755,0.548336147444878],[33.45503038141281,0.5522830056457375],[33.46143755438529,0.5524419622271158],[33.47119268947695,0.551862703426316],[33.47763520327475,0.552201504150114],[33.48032158555836,0.551214581583164],[33.482665345646105,0.547483135449108],[33.48321794154134,0.5415532843371661],[33.48290706859205,0.5400056459067162],[33.4822152140783,0.538609325065009],[33.4814311920519,0.533252393154527],[33.47821890923814,0.528068768938244],[33.48044254563625,0.522238059902461],[33.47824482809056,0.5195146140426142],[33.478135088714346,0.51937866812552],[33.47813507700079,0.5193786087804172],[33.47813465929901,0.519378091157849],[33.477399459304316,0.5166686580194304],[33.47019885355064,0.5103428124716212],[33.47017691317435,0.510324077551258],[33.46912450262793,0.505337130400492],[33.46425698764708,0.5020913215202548],[33.46319707751954,0.5018447401374376],[33.46145821537598,0.501922672708944],[33.45925843834492,0.50092848662746],[33.45430951660181,0.502169988521533],[33.45430860829818,0.5021697741773341],[33.454307162816946,0.502170136791113],[33.45313631937639,0.5018931339429921],[33.45165846722884,0.501544385987754],[33.455018139417696,0.4982453095025284],[33.455671019226095,0.4976035550602986],[33.45484330581353,0.493967891313409],[33.45484379413633,0.4939667160685992],[33.45484364582313,0.49396606508753],[33.45726917520881,0.48812938583587],[33.45726927845526,0.48812931125870845],[33.457269497810195,0.488128783337932],[33.463628978315406,0.483535210570155],[33.466557578502766,0.477708042649918],[33.4687364670761,0.4755844800865038],[33.46873619423569,0.472187667000343],[33.46605668426932,0.468555779189743],[33.460162800599605,0.467980856393864],[33.456161967173195,0.468826180750959],[33.45326927529148,0.47066020399345],[33.450910822635805,0.470660616894567],[33.448358945655,0.47306222535075],[33.447017282107424,0.471398269376584],[33.44623133308597,0.467910870720572],[33.44880303569171,0.463863904076211],[33.450981729844784,0.462353461957423],[33.45003418720154,0.458129501388904],[33.45308825182455,0.448563599537595],[33.45675407208456,0.450855967255355],[33.46172927367664,0.451918828387358],[33.46472773130931,0.451294787203006],[33.46726470441513,0.453245205328038],[33.47051570517728,0.452015665520927],[33.47610606322912,0.44829694417398],[33.473550243876346,0.447729448917877],[33.472384455987545,0.446632143388378],[33.46456413338396,0.436172175258254],[33.46514644446254,0.432307259609718],[33.46514635727152,0.4323071229971238],[33.46240003260158,0.42862300207957515],[33.459031641534104,0.4277153493117816],[33.45903003751592,0.427714984733205],[33.453586166203024,0.428399705758118],[33.451329285234415,0.426369332378392],[33.44516947830035,0.431863284883613],[33.449616831061306,0.433312506027085],[33.45007357456249,0.4344828930856944],[33.45007357487047,0.434482893872803],[33.4500735748706,0.4344828938752154],[33.450073633970874,0.434483045317324],[33.45018790270744,0.436696091868455],[33.44757525678416,0.43848068284733],[33.44644692117671,0.438555907302788],[33.442942136749444,0.43617437108541285],[33.441759195025945,0.43729084134689405],[33.44122810717299,0.437792231858847],[33.43615569333366,0.439752447736732],[33.42715503489776,0.440892163929723],[33.42589559994738,0.440167447316601],[33.41914625131793,0.443158387858609],[33.417261726353175,0.442825265272224],[33.41749931510843,0.43913354713114],[33.41634524542439,0.4383570093481684],[33.41622628299957,0.4382771107482512],[33.41369194086494,0.43880844119385415],[33.41335422079887,0.438879429930707],[33.41295136084747,0.43968434875439],[33.40989321100557,0.43994063704261477],[33.40970208787611,0.43995668057325493],[33.406649339178266,0.442019730416911],[33.40500520399006,0.44223683241732975],[33.40066472922669,0.44810640880176383],[33.399541028472726,0.449626067303905],[33.39407582640355,0.455254406622976],[33.390401254905065,0.4570917346409964],[33.383538332000654,0.460523289307692],[33.38353827284175,0.4605233046178721],[33.38353817560478,0.460523353237477],[33.37589339197074,0.462502038172816],[33.37485763542498,0.463545260217986],[33.374312212860964,0.4665817276472814],[33.37425053601376,0.466925154642818],[33.37857306226413,0.4725887159019166],[33.382931807762795,0.47542976965329947],[33.3865548904418,0.47694410723350633]]]]}},{"type":"Feature","properties":{"n":"Magamaga Town Council","c":"214109","d":"Mayuge","od":"Mayuge","dc":"214","k":"MAGAMAGATOWNCOUNCIL","a":["MAGAMAGA","MAGAMAGATOWNCOUNCIL"],"lat":0.516084,"lon":33.348544},"geometry":{"type":"Polygon","coordinates":[[[33.32795517855998,0.5162971082941926],[33.329585446315996,0.515745589283173],[33.333630223462514,0.515600591714793],[33.335852166656544,0.5168065913971962],[33.3373,0.5169],[33.337462647706076,0.5176807089891658],[33.33783260861124,0.51788151193288],[33.34043145520425,0.521230472872047],[33.341312100230745,0.525104916920639],[33.340123799264425,0.5304542364692316],[33.340731445428865,0.5333709380585546],[33.346626107351746,0.53526855803121],[33.355274317019145,0.539791407359839],[33.356765978168696,0.5412367350361547],[33.3569,0.5413],[33.35689115105005,0.5413413748200567],[33.35929665486433,0.541675344824089],[33.35924968219942,0.541140301481446],[33.35846453748718,0.532199319769965],[33.35023391594806,0.520119350636748],[33.35083770317403,0.518961854421528],[33.353503485383406,0.518713593448244],[33.357980815734344,0.5167635945891034],[33.35816628545301,0.516682813615873],[33.35816629465546,0.5166828134860284],[33.35816677515206,0.516682604216724],[33.362368646201304,0.516622026236974],[33.36298257935562,0.51495427208146],[33.360570518583756,0.513041892130869],[33.360661669766785,0.5127984064708923],[33.36053315478539,0.512679154712285],[33.36126337082223,0.5111911253175372],[33.36126531938265,0.511185920266925],[33.36126611966326,0.5111855237475177],[33.361266234555366,0.511185289621151],[33.36144745349454,0.511095677283036],[33.363192768885725,0.510230916326979],[33.363622857890746,0.507497068323672],[33.3684031810285,0.503493716179175],[33.3707158538043,0.5007728910936475],[33.3718208352659,0.49923520720122516],[33.37250168067056,0.49473288018561035],[33.3689480860557,0.490864481029382],[33.36888614042501,0.49050082997170846],[33.368886127377976,0.490500814700331],[33.36454207105774,0.492367786477791],[33.360773447582154,0.497152236549914],[33.3582801993756,0.498880510498012],[33.3559910870539,0.499129395702302],[33.354418462890386,0.500213438945091],[33.35072273167893,0.499807865762979],[33.35083011491504,0.498000221422561],[33.348703663783716,0.49781857938873],[33.34723501534825,0.500891641801689],[33.341068629418835,0.498089812485522],[33.33679319926606,0.495158420135232],[33.33204100160744,0.4990409406044299],[33.32495277170416,0.5159739342622731],[33.32634976938577,0.5161935335087593],[33.32795517855998,0.5162971082941926]]]}},{"type":"Feature","properties":{"n":"Mayuge Town Council","c":"214110","d":"Mayuge","od":"Mayuge","dc":"214","k":"MAYUGETOWNCOUNCIL","a":["MAYUGE","MAYUGETOWNCOUNCIL","TOWNCOUNCIL"],"lat":0.449702,"lon":33.484098},"geometry":{"type":"Polygon","coordinates":[[[33.44706190934629,0.471453616904549],[33.448358945655,0.47306222535075],[33.450910822635805,0.470660616894567],[33.450915929512874,0.4706606160004913],[33.45356643921808,0.47047179625059443],[33.456161967173195,0.468826180750959],[33.456899204806135,0.46867041197438875],[33.45744782551399,0.468340684141847],[33.45858618302421,0.46831397529591834],[33.460162800599605,0.467980856393864],[33.462609966418206,0.4682195668084653],[33.46512831022403,0.468160479873033],[33.46558061330714,0.4685093405316441],[33.46605668426932,0.468555779189743],[33.466605797216175,0.469300063272787],[33.46787876419154,0.470281900704369],[33.46807128144003,0.471286424344794],[33.46873619423569,0.472187667000343],[33.46873640060345,0.47475690778764235],[33.468843632729865,0.475316427554527],[33.47380804558952,0.47064167832954357],[33.473808499326914,0.470641236113379],[33.47598744526158,0.466577293867218],[33.478030068475874,0.465464001616821],[33.479183814622616,0.467126790310301],[33.48101246226783,0.465211848338476],[33.48126450368035,0.4652338445893528],[33.48220325840062,0.4653133217246838],[33.48194172929508,0.464737888772529],[33.484325799064834,0.4652250812681558],[33.48453999398043,0.46516288153440966],[33.484630687800674,0.4641619083982493],[33.484467950246234,0.463508199844208],[33.48473979998103,0.4629576547781796],[33.48477145723174,0.462608258783644],[33.484949340959204,0.46253329625617257],[33.48524768034377,0.461929104840277],[33.48694766017305,0.461691170466797],[33.489241296376115,0.45937052346998725],[33.48924595979639,0.45936534011874225],[33.490882465312,0.453126905103467],[33.49088253267976,0.4531268355249427],[33.49088257521988,0.453126673348939],[33.4978124116818,0.4459694738376922],[33.50373623031376,0.43785549318280087],[33.50378931624602,0.435360728693336],[33.503789365102406,0.43536065635114063],[33.503789366412455,0.43536059435305],[33.50540088560178,0.43297446005970736],[33.50640895647743,0.431481798324462],[33.50684950392925,0.4294278369615728],[33.50489639326971,0.426217019488292],[33.50134426761729,0.429361974765405],[33.50134426382581,0.4293619762449294],[33.50134407764433,0.429362141085642],[33.49824358647167,0.43057225373757707],[33.4963684525173,0.4335429791931712],[33.49560902213738,0.43474628664636],[33.49355523494282,0.436384960781216],[33.48709404691191,0.438294864181805],[33.485767683827774,0.438092620883903],[33.48576749699043,0.43809223431067795],[33.485767301920966,0.438092204522971],[33.48511505215262,0.4367423023554015],[33.48504402551225,0.436595345668865],[33.48504402231256,0.4365952983398788],[33.48504400806745,0.436595268858074],[33.48504272304396,0.4365760799434401],[33.484361506967424,0.426499733410511],[33.4782017147971,0.42715222335778064],[33.47794731855038,0.4271792918010632],[33.474000493243075,0.429578971574527],[33.47048277713749,0.42909626928942374],[33.4700561404576,0.429037737097977],[33.46967337333289,0.4293843463869918],[33.46738170464217,0.431459624397065],[33.465506345387745,0.4321707746769501],[33.46456479185535,0.4361678048512993],[33.46456413338396,0.436172175258254],[33.472384455987545,0.446632143388378],[33.473550243876346,0.447729448917877],[33.47610606322912,0.44829694417398],[33.47609911412676,0.4483015667357274],[33.476102675458634,0.448302365978745],[33.470606122801414,0.45195551947198187],[33.47051570517728,0.452015665520927],[33.470515523217834,0.45201573433862297],[33.470515502485384,0.452015748117953],[33.470494549283465,0.45202366675362404],[33.46726470441513,0.453245205328038],[33.46472773130931,0.451294787203006],[33.46199481604062,0.4518635635173427],[33.46173000840116,0.451918762280974],[33.46172980256049,0.4519187183156665],[33.46172927367664,0.451918828387358],[33.45675407208456,0.450855967255355],[33.45675404699973,0.4508559515689196],[33.45675392888105,0.450855926340067],[33.456728648719405,0.4508400691214007],[33.45308825182455,0.448563599537595],[33.45041078513583,0.45694992619272884],[33.45003429890597,0.4581299993454868],[33.450981729844784,0.462353461957423],[33.44880303569171,0.463863904076211],[33.44623133308597,0.467910870720572],[33.44701726989469,0.4713982151864423],[33.44706190934629,0.471453616904549]]]}},{"type":"Feature","properties":{"n":"Busakira","c":"214111","d":"Mayuge","od":"Mayuge","dc":"214","k":"BUSAKIRA","a":["BUSAKIRA"],"lat":0.393388,"lon":33.51658},"geometry":{"type":"Polygon","coordinates":[[[33.47207698629819,0.37041478219402857],[33.472433373698394,0.370812589492286],[33.47305695709797,0.37228168856454463],[33.474232429655395,0.374521038151639],[33.474218155759694,0.37501735452010576],[33.47465357153265,0.376043149800306],[33.47394597654516,0.38448127398465015],[33.47394596808326,0.38448156821278257],[33.47468393090933,0.3880310286007803],[33.47494126996233,0.38926870106841344],[33.477368109700336,0.39097203870941866],[33.47756308474193,0.3911088513123449],[33.48158223896064,0.392418826765946],[33.483094214083614,0.394489826503568],[33.48309420440065,0.39449022557301183],[33.4830944541034,0.394490567615006],[33.483042357166845,0.40107408785387266],[33.48361655129023,0.40274403844360357],[33.48422747133875,0.4038196431790924],[33.492344446249625,0.409289665020578],[33.49695280551746,0.413946392055096],[33.49695284883309,0.4139465049396229],[33.496953275432304,0.413946936016597],[33.49845242116745,0.41785452902906],[33.49895365861875,0.41916080015004975],[33.50041153188644,0.42055496940947634],[33.50280879995147,0.422847285710949],[33.50489638730828,0.42621700938295],[33.50488446240945,0.4262275674088247],[33.50488446851079,0.426227577344962],[33.50489639326971,0.426217019488292],[33.506839054454396,0.42941065854093985],[33.50684952621607,0.429427712008343],[33.50701374775109,0.4294449618330989],[33.509927329950095,0.429750805349606],[33.509927633554895,0.4297510363042023],[33.509927702202155,0.429751043514908],[33.51112389539992,0.430661042235012],[33.51715208481741,0.43524673402547925],[33.51716086060257,0.43524841155707295],[33.52696659917718,0.43702172857541405],[33.52719204418742,0.4370281847864678],[33.52850516162956,0.434073445447783],[33.53258301701916,0.43062838771294715],[33.53263993045575,0.430580304441125],[33.53263993239946,0.4305803044063046],[33.53264089361915,0.430579492347753],[33.53409125302471,0.43055358044913183],[33.53461691644175,0.43010604959290744],[33.537276764943094,0.427841261019087],[33.54449495292963,0.425305041377114],[33.54449777427216,0.4253012034851514],[33.550855964502254,0.41622966473930967],[33.55086015541048,0.41622275646833],[33.55197321039016,0.416001312889274],[33.54931007824909,0.411573741500162],[33.55038222619425,0.41063337461040017],[33.55040737153076,0.41061123501989466],[33.55048781448401,0.4097722217690331],[33.55060018548023,0.40859856102042136],[33.549700175958556,0.406841973317175],[33.54680654120225,0.405202121130804],[33.54504225609923,0.399549809541078],[33.54989379089622,0.3985941402746581],[33.55073759032235,0.3937454385276928],[33.55076794721868,0.393570895186918],[33.55076808320888,0.39357068778861143],[33.55215677611585,0.391084795886253],[33.5523439204663,0.39116738243981813],[33.55251709370891,0.390903276372862],[33.556961178522755,0.393204946568172],[33.55696124793632,0.39320500292641186],[33.55696127486445,0.39320501480976],[33.55696135961787,0.39320509360286704],[33.56335944649861,0.3983998264025501],[33.56410069541862,0.39850921997728533],[33.56446850309978,0.3984224581029834],[33.571613053016584,0.3924278823458044],[33.571631509234386,0.392411785102661],[33.57163211167268,0.3924118913373965],[33.57163250679858,0.392411559810265],[33.57336683003991,0.39271779378246197],[33.57828290197337,0.393584700165061],[33.582117802181884,0.38936476341679443],[33.58104841281525,0.386603034553563],[33.58145495922624,0.385572200436353],[33.58738270250181,0.3827878485105169],[33.58801910704708,0.3821768734767233],[33.58971931346936,0.380544218859942],[33.58977237971371,0.379285098964518],[33.58976425222172,0.37927773587407954],[33.58522990127171,0.375281637650255],[33.585218239677836,0.37515928192348186],[33.585140535918384,0.375088886307105],[33.584917728348394,0.3727267355011217],[33.57563692174268,0.372412132167212],[33.57552913698486,0.374171320287885],[33.571379576853296,0.37486851001867],[33.56930935160957,0.376929659721712],[33.561660975263955,0.376732307367671],[33.560211462759284,0.372798595864893],[33.556613695233885,0.371571507349536],[33.55435259999759,0.368875178233398],[33.54775885314215,0.370760505079528],[33.54255496031784,0.370024740368611],[33.539178936015205,0.365815120300226],[33.53599149450655,0.364271096237834],[33.52232275841334,0.364872753774511],[33.517596517109794,0.365876332122156],[33.503901682057084,0.354827737597395],[33.50154320131572,0.349972752779133],[33.495281906883335,0.352582247619692],[33.48656141197409,0.358299497765712],[33.47540721175421,0.361362660023111],[33.46716365811823,0.3646510238578613],[33.46718851765635,0.36469204841878505],[33.471380817259316,0.369088536132475],[33.47207698629819,0.37041478219402857]]]}},{"type":"Feature","properties":{"n":"Jaguzi","c":"214112","d":"Mayuge","od":"Mayuge","dc":"214","k":"JAGUZI","a":["JAGUZI"],"lat":-0.373238,"lon":33.589968},"geometry":{"type":"MultiPolygon","coordinates":[[[[33.5219,-0.1493],[33.5222,-0.0269],[33.5372,0.0164],[33.5435,0.0447],[33.5561,0.086],[33.55596565428808,0.08613278355248163],[33.553579495414496,0.08992570984168],[33.54831062556626,0.0936988003124178],[33.548178615519184,0.09382927535894231],[33.54703190650427,0.096174798365234],[33.5465371881628,0.0965898948883251],[33.542043694055195,0.10634354560531249],[33.54197973031731,0.109148129691216],[33.537438387793465,0.116845258386419],[33.53675717072769,0.120122071393627],[33.5338052438711,0.126066004409145],[33.538649910993676,0.140444021044985],[33.539028603977485,0.147136438409337],[33.5382408619035,0.151951669514097],[33.54695736371548,0.154622405081154],[33.554288796911614,0.158853070976086],[33.56347535761457,0.162526692258715],[33.57024267026042,0.166580389859217],[33.57613321513777,0.170889387987512],[33.60020360960061,0.19197787868483193],[33.605495691761156,0.196075861970589],[33.60893063646856,0.19962377851435487],[33.62185476425215,0.210946831360707],[33.62268518931235,0.2118903024836881],[33.62340240358338,0.212493363937997],[33.6237583739878,0.2131095801758421],[33.62498741645243,0.214505932634206],[33.62811216864929,0.220317341247708],[33.62794175182617,0.12579098604701777],[33.627941448499406,0.125741063321692],[33.65894240478328,0.12563881731939974],[33.65905331582465,0.0425664473409767],[33.65905355314761,0.007628639181001],[33.65909995040751,0.007637144778787866],[33.6591,0.0076],[33.681681345055715,0.009283696780470094],[33.68188395489883,0.009286278191457],[33.68690731672907,0.007573339058942062],[33.6935,0.0053],[33.70213074946099,-0.006143016139296904],[33.70254428770412,-0.00751688477189659],[33.70434070857978,-0.020177374752696396],[33.70447318963317,-0.02132365727425],[33.70447098460324,-0.021434675237808804],[33.6997149697857,-0.04350976288144918],[33.69570039325743,-0.0507771115242087],[33.68985560256583,-0.05892251131783198],[33.6897681900769,-0.059014516112927],[33.6777635949497,-0.065359586029061],[33.677444450244764,-0.06544778894559629],[33.6592,-0.0679],[33.65919998903297,-0.06793155213848014],[33.659150790138696,-0.067933612746158],[33.65802566206283,-0.93171371880593],[33.6579,-0.9991],[33.64045834003902,-0.9991281317096145],[33.52359993571794,-0.9991844848812507],[33.52215653826438,-0.6508060754918673],[33.521118243353214,-0.395823441542239],[33.52124652392262,-0.3506523163408706],[33.5219,-0.1493]]],[[[33.567803670833584,0.165244505786063],[33.56780367130244,0.165244504930001],[33.56780367081358,0.165244505774774],[33.567803670833584,0.165244505786063]]]]}},{"type":"Feature","properties":{"n":"Kityerera","c":"214113","d":"Mayuge","od":"Mayuge","dc":"214","k":"KITYERERA","a":["KITYERERA"],"lat":0.327819,"lon":33.474996},"geometry":{"type":"Polygon","coordinates":[[[33.45468250788204,0.349982828601755],[33.461715717726456,0.355660536527698],[33.46171576625746,0.35566061661620707],[33.46171581104208,0.355660652769801],[33.46172549144035,0.3556766656415604],[33.467163652079165,0.3646510138918609],[33.470506851012814,0.3633174200393395],[33.47540721175421,0.361362660023111],[33.48656141197409,0.358299497765712],[33.495281906883335,0.352582247619692],[33.50154320131572,0.349972752779133],[33.503901416576994,0.35482719110075733],[33.50411503344792,0.351892182459874],[33.506570290499916,0.349227270266691],[33.517243996058724,0.342299299006552],[33.5169562451472,0.338166357885697],[33.513152746205336,0.332960837440037],[33.513937192041915,0.328226352148567],[33.51062505600498,0.329014783179056],[33.5039345835493,0.327668288599517],[33.49961659287356,0.322279896475597],[33.492405838003215,0.316872550942648],[33.49742365948729,0.312156724163817],[33.5044270990667,0.313655440060926],[33.507257201979606,0.320206361410519],[33.513929674803556,0.322993741949789],[33.51519082722839,0.323803211810967],[33.51521472655292,0.324699088447949],[33.520853314403226,0.322483977277569],[33.52519121727699,0.329216185409025],[33.52997930136811,0.332775021125363],[33.53109533247223,0.330455528440738],[33.530315212968496,0.330128293479467],[33.52954853783606,0.327067025340819],[33.53225317525837,0.323693197602342],[33.534662744506726,0.32387714496846],[33.53660465855114,0.323001821639423],[33.538984728061294,0.323669525477814],[33.54029743445404,0.325686095054938],[33.540544640248655,0.327970061844011],[33.539763770191776,0.329797856913181],[33.53458660975328,0.334784602039825],[33.53462451551368,0.34055072003228],[33.53341194780772,0.341427661115162],[33.53587753127033,0.35012474278989],[33.53774302686881,0.352961061047378],[33.53955130220309,0.353322736329568],[33.55490893631566,0.350576897340839],[33.55440649096779,0.352260925734967],[33.555983287543945,0.354070359717611],[33.556827569517985,0.357913858932667],[33.55680801737182,0.364570418709388],[33.55434742936058,0.368873763979497],[33.55245756964908,0.36936725315743],[33.54775504304934,0.3707599663805336],[33.54775506204132,0.37075996906575914],[33.551930301755014,0.36956777744992614],[33.55435259999759,0.368875178233398],[33.556613695233885,0.371571507349536],[33.560211462759284,0.372798595864893],[33.56021177865062,0.3727994531361268],[33.56021218351267,0.372799591295326],[33.560341838692715,0.3731524122737652],[33.561660975263955,0.376732307367671],[33.56930935160957,0.376929659721712],[33.571379576853296,0.37486851001867],[33.57137992177911,0.37486845206584396],[33.57137999911795,0.374868375000939],[33.57147332515156,0.3748527588670409],[33.57552913698486,0.374171320287885],[33.57563692174268,0.372412132167212],[33.58390320609904,0.3726923449469886],[33.58491772733308,0.3727267247370161],[33.584683286678796,0.37024124284559],[33.58484501115247,0.36977866471107],[33.58482141402308,0.369287012390162],[33.58678446873919,0.36215676162048543],[33.58678487392914,0.362154875312892],[33.58678421500847,0.3621524538903637],[33.5842751234766,0.354342815539272],[33.584411237662685,0.3534321616598206],[33.584224111261605,0.352744503640504],[33.58502579108231,0.34932057364827745],[33.585267263912655,0.347705031756148],[33.5855229688308,0.34719715509570087],[33.58578617713614,0.346073007041088],[33.587405490049655,0.343457640973965],[33.58951710928667,0.341845254793667],[33.59415458812353,0.33987071892182],[33.595779087572694,0.337585019026089],[33.597227250027984,0.332609678883099],[33.59640354376815,0.32700470097359163],[33.596111938819284,0.3250209144574717],[33.59610809941367,0.32501547751837934],[33.59389431601539,0.32226348089303597],[33.591238923957334,0.320249894396302],[33.579281273180825,0.319323418708182],[33.57595221190603,0.30482943420765496],[33.57576390294988,0.304009672386262],[33.575763909458665,0.304009607677535],[33.57576385880495,0.304009387142635],[33.57622536165079,0.299409410241784],[33.567415011439486,0.286951188281356],[33.561467019973314,0.28088423255741],[33.56146388340322,0.2808834212579443],[33.55739873860664,0.28066946939079945],[33.557396850241766,0.280669791826617],[33.55443027808123,0.2824374379976293],[33.54821261586301,0.28614234644631],[33.545799983486916,0.288448920448526],[33.54545725851615,0.291361324115841],[33.54330572919478,0.293707230999608],[33.53891156419443,0.2906730941787638],[33.53886233533717,0.29063912026150607],[33.53286480665337,0.288790856896264],[33.528916832900066,0.28439977938442956],[33.52708704394456,0.28236468784057717],[33.523609565906966,0.280566457234364],[33.52195287899355,0.28012219938564026],[33.5173897544812,0.27889859029975045],[33.51738782616462,0.27889847330935513],[33.50873585782871,0.27873497579702133],[33.49912907945761,0.28089572940257196],[33.496779587544516,0.2815803223331948],[33.48181293648231,0.2895184313991063],[33.481812823995526,0.289518493341918],[33.48181280813792,0.28951849947123337],[33.48181272267403,0.289518544800122],[33.47444255546811,0.292454790828488],[33.472575584651594,0.2930888898115354],[33.466243522114894,0.295536371454552],[33.45907411689716,0.2976745356593407],[33.457928488456986,0.298063637525552],[33.457014594116664,0.2982887564704803],[33.45403639451626,0.299176958432416],[33.45042639969685,0.2999116217310792],[33.44658411466166,0.300858089079732],[33.44411405147269,0.30119623592047917],[33.44353231412659,0.301314624200524],[33.44370987558372,0.31702102258804943],[33.44733775372322,0.34154360101322],[33.450213089630985,0.34637476985815724],[33.45468250788204,0.349982828601755]]]}},{"type":"Feature","properties":{"n":"Wairasa","c":"214114","d":"Mayuge","od":"Mayuge","dc":"214","k":"WAIRASA","a":["WAIRASA"],"lat":0.449466,"lon":33.323159},"geometry":{"type":"MultiPolygon","coordinates":[[[[33.3027437679641,0.46836536531527956],[33.303,0.4683],[33.30302121309943,0.46838026578161973],[33.30308247196209,0.468383555749635],[33.30794984431377,0.471471177745431],[33.309885187234016,0.474130554329304],[33.30576403004681,0.4787584920690171],[33.3067,0.4823],[33.311987565086824,0.48432363602088413],[33.32288033379442,0.488462429568631],[33.33210458785148,0.498877109453707],[33.33671913244917,0.4952189323347115],[33.33679319926606,0.495158420135232],[33.34106854467001,0.498089754378605],[33.34723508338338,0.5008914994420769],[33.348703663783716,0.49781857938873],[33.35083011491504,0.498000221422561],[33.35072273167935,0.4998078657558787],[33.35072302881574,0.49980789837106565],[33.354418462890386,0.500213438945091],[33.35591607353239,0.4991811041161709],[33.35599063490588,0.499129624532087],[33.35599077759116,0.49912960902154263],[33.3559910870539,0.499129395702302],[33.3582801993756,0.498880510498012],[33.360773447582154,0.497152236549914],[33.36454207105774,0.492367786477791],[33.368428403826954,0.49069753336340627],[33.36888612479644,0.49050080335773],[33.36888612854657,0.4905007602395012],[33.36856206655532,0.488598358333975],[33.36923629963679,0.4864745651968097],[33.369397886392086,0.484616673979361],[33.37499861156045,0.468323595622023],[33.3745032291733,0.46725624417377704],[33.37425053601376,0.466925154642818],[33.37427816385738,0.46677131819109147],[33.37427815951936,0.4667713088443988],[33.37425052792458,0.466925138999434],[33.36998461163464,0.45752044340564846],[33.36794095953861,0.45446750314569495],[33.361244990384584,0.4444646550068176],[33.349024019842396,0.4351607264672248],[33.34028764669613,0.428509671632825],[33.335695235368455,0.423144375920176],[33.335695171921394,0.4231442731383913],[33.335695168956825,0.423144269674893],[33.33235524787911,0.417863059906545],[33.33185064518639,0.4169162883863911],[33.32525776575175,0.406236078461751],[33.32091590563127,0.403588560891899],[33.31528273419723,0.4013472453091328],[33.28259318576909,0.38834080246174246],[33.282583488584976,0.3883545940124862],[33.28153968945977,0.462623700812688],[33.28152841579865,0.46276002581341263],[33.2834,0.4733],[33.29649118898584,0.46996041097300006],[33.30059998984122,0.468250231583619],[33.3027437679641,0.46836536531527956]]],[[[33.333400056111664,0.419472539773084],[33.33340005107158,0.419472542923586],[33.333400056111685,0.419472539773121],[33.333400056111664,0.419472539773084]]]]}},{"type":"Feature","properties":{"n":"Bwondha Town Council","c":"214115","d":"Mayuge","od":"Mayuge","dc":"214","k":"BWONDHATOWNCOUNCIL","a":["BWONDHA","BWONDHATOWNCOUNCIL"],"lat":0.181676,"lon":33.562721},"geometry":{"type":"Polygon","coordinates":[[[33.54148504250658,0.198947229040293],[33.54144211601085,0.1990292728139476],[33.53770445473051,0.20618471112335113],[33.54409919666626,0.2084421616646328],[33.54437797216831,0.208540521787135],[33.54590192779931,0.2102062442744305],[33.55339102120715,0.21096267370286623],[33.554645823311255,0.211089398861247],[33.555369219755505,0.211641552335255],[33.55536929039973,0.21164267283541555],[33.555369655132154,0.211642951755266],[33.55542896494889,0.21258918110133765],[33.55550242763841,0.213754385427963],[33.549340996020184,0.21533647818571],[33.55393110411163,0.217103964603505],[33.56952711467839,0.217472823817999],[33.569539123837586,0.21747002874077692],[33.5793789431566,0.2150156268252083],[33.58080171390887,0.2134561706464673],[33.58080363085541,0.2134525424616419],[33.579194255734414,0.211351054613601],[33.57919055406102,0.21117707745274084],[33.579117837551664,0.207773987027923],[33.57911814634233,0.2077739437956091],[33.57911811247738,0.207772352156508],[33.58388746645416,0.20710621395579515],[33.58714829461274,0.2066496809043465],[33.58867402594535,0.203812928595562],[33.58989194621166,0.203660114217223],[33.59059671945498,0.202270961686631],[33.590597493285834,0.20227047571277765],[33.59059757662836,0.202270311417577],[33.59101412689408,0.20200882545783946],[33.59508627384558,0.199451474665881],[33.597084441453276,0.194503309075427],[33.59651103154999,0.18966224164878254],[33.59644010891741,0.189063569577069],[33.59233875315033,0.18508734133432736],[33.58013473171126,0.17439518616483182],[33.570242410197615,0.16658023407862388],[33.56347542817829,0.16252673452719082],[33.56087104109912,0.16148524999460548],[33.554288796911614,0.158853070976086],[33.55428859646678,0.15885295530769303],[33.55428846011946,0.158852900782913],[33.55271917546775,0.15794730756900802],[33.54695736371548,0.154622405081154],[33.5382408619035,0.151951669514097],[33.538262381386616,0.1518201273661552],[33.53442983880827,0.150584985675463],[33.53442984483401,0.15058509408713996],[33.53442984545126,0.150585094350757],[33.535968376735404,0.17826520724017],[33.541485380449494,0.196561284965136],[33.54148541124977,0.198946387718714],[33.54148504252486,0.19894709361155163],[33.54148504250658,0.198947229040293]]]}},{"type":"Feature","properties":{"n":"Bugadde Town Council","c":"214116","d":"Mayuge","od":"Mayuge","dc":"214","k":"BUGADDETOWNCOUNCIL","a":["BUGADDE","BUGADDETOWNCOUNCIL"],"lat":0.341872,"lon":33.525371},"geometry":{"type":"MultiPolygon","coordinates":[[[[33.49977254950159,0.3224745137245143],[33.503934370442266,0.3276680226646508],[33.51062510520237,0.32901477146795916],[33.51122123197644,0.32887286762054946],[33.51393407932554,0.328226306483825],[33.513933811522016,0.3282271568579014],[33.513937192041915,0.328226352148567],[33.513225604282034,0.3325211060062066],[33.513270222966916,0.3331216177356701],[33.5169562451472,0.338166357885697],[33.51695630883826,0.33816727267484364],[33.51695641526253,0.338167406129168],[33.51724399379575,0.342298299407724],[33.517243932803105,0.3422983904716683],[33.517243996058724,0.342299299006552],[33.517242807644045,0.3423000703696649],[33.51662998971098,0.343215026887545],[33.506572121284485,0.3492260819612054],[33.506570290499916,0.349227270266691],[33.50411503344792,0.351892182459874],[33.50391298133904,0.3546682959891831],[33.50390142692268,0.3548272123975845],[33.503901682057084,0.354827737597395],[33.517596517109794,0.365876332122156],[33.52232275841334,0.364872753774511],[33.522322900747426,0.3648727475093833],[33.5223229297105,0.364872741354619],[33.53599114116603,0.364271086946463],[33.53599118818603,0.3642711097211616],[33.53599149450655,0.364271096237834],[33.539178936015205,0.365815120300226],[33.542554953422005,0.3700247317700843],[33.542597544021554,0.3700307611664085],[33.54775504304934,0.3707599663805336],[33.55245756964908,0.36936725315743],[33.554347255759836,0.3688738093109517],[33.556811566845845,0.36336199453906864],[33.55681868892892,0.3609372698394738],[33.555983462308525,0.3540711553138109],[33.555983287543945,0.354070359717611],[33.55440649096779,0.352260925734967],[33.554406711390484,0.35226018695199823],[33.55440659298034,0.352260051014825],[33.554418152573625,0.35222183994100964],[33.55490893631566,0.350576897340839],[33.53955130220309,0.353322736329568],[33.53881404240601,0.3531752761280706],[33.538372116198936,0.353246659494335],[33.53823934588122,0.3530603303983826],[33.53774302686881,0.352961061047378],[33.53587753127033,0.35012474278989],[33.53569910867828,0.3494953762001176],[33.53540183916996,0.349078189891496],[33.53341697977984,0.34144541085802593],[33.53341194780772,0.341427661115162],[33.53462451551368,0.34055072003228],[33.53458660975328,0.334784602039825],[33.53458724705136,0.33478398818148625],[33.53458724560108,0.334783764624219],[33.5397638237724,0.3297977314961659],[33.540544640248655,0.327970061844011],[33.540378676723435,0.3264367030471769],[33.5402973456521,0.3256859586380748],[33.538984728061294,0.323669525477814],[33.53660465855114,0.323001821639423],[33.534662744506726,0.32387714496846],[33.53225317525837,0.323693197602342],[33.52954853783606,0.327067025340819],[33.530315212968496,0.330128293479467],[33.53109533247223,0.330455528440738],[33.52997930136811,0.332775021125363],[33.52519121727699,0.329216185409025],[33.520853314403226,0.322483977277569],[33.517611517832954,0.32375751242245837],[33.51522240587824,0.324697208327002],[33.51522236640223,0.3246960871440778],[33.51521472655292,0.324699088447949],[33.51519082722839,0.323803211810967],[33.513929716572775,0.3229937687593332],[33.51384847645315,0.3229598218863101],[33.507257201979606,0.320206361410519],[33.5044270990667,0.313655440060926],[33.49742365948729,0.312156724163817],[33.492405838003215,0.316872550942648],[33.49961659287356,0.322279896475597],[33.49961664223459,0.32227995807290494],[33.49961668858424,0.322279992820212],[33.49977254950159,0.3224745137245143]]],[[[33.54776557029011,0.3707569685563358],[33.54775506204132,0.37075996906575914],[33.547755071948515,0.3707599704665116],[33.54776557029011,0.3707569685563358]]]]}}]}
