{"type":"FeatureCollection","name":"Mbale sub-counties","metadata":{"source":"Uganda Bureau of Statistics NPHC 2024 Map Explorer","retrieved":"2026-07-26","display_only":true,"clipped_to_dashboard_district":true,"positive_area_overlaps_removed":true,"source_gap_ratio":0.01486044},"features":[{"type":"Feature","properties":{"n":"Bumbobi","c":"209101","d":"Mbale","od":"Mbale","dc":"209","k":"BUMBOBI","a":["BUMBOBI"],"lat":1.005578,"lon":34.213217},"geometry":{"type":"Polygon","coordinates":[[[34.15125966090419,1.005483506313374],[34.158224523384725,1.002952191083343],[34.16803022961263,1.00550038655417],[34.175881651063754,1.004889655700777],[34.18134681548456,1.007675862954973],[34.18271085318891,1.007263632427264],[34.1827572524059,1.008087041883527],[34.18460952412449,1.007645741870672],[34.186680708681166,1.005839209975236],[34.18744235647236,1.006508180063165],[34.18934092979625,1.005673249236476],[34.191353594655304,1.006975148056331],[34.192435384294726,1.005655249149415],[34.193052886519794,1.006117946899332],[34.196499138112024,1.004858478065498],[34.19930942109842,1.005413151299446],[34.20176249119164,1.00965224066011],[34.20371370113376,1.009976748380994],[34.2067969884558,1.013306977468814],[34.20720693481709,1.014755943438237],[34.217184138600736,1.018852358328314],[34.21855253987334,1.021225043562101],[34.220822691145635,1.022627708281741],[34.22252588403036,1.025025739235047],[34.22591478453622,1.026901002680251],[34.22885178863583,1.027738522925074],[34.23104121327177,1.027232392812271],[34.23601675279291,1.019948931400835],[34.232987143134906,1.014963772477242],[34.23030200711639,1.013354237091382],[34.226961377236904,1.009025031295336],[34.227662546483955,1.006818503138139],[34.226081419100375,1.00371867063294],[34.22660613479296,1.001586379475334],[34.22183484080605,0.997448950447179],[34.220404496428955,0.997644258113584],[34.219147957705445,0.996598057455303],[34.21858742183747,0.997130520129416],[34.214296496705146,0.995254745666296],[34.210471649572725,0.994885308746841],[34.20930034213692,0.995499965182079],[34.20757568530278,0.994147228875511],[34.20116947650816,0.992515472879933],[34.19809040740365,0.990503938468057],[34.188959849206256,0.989719090592535],[34.183218157563715,0.986559281540799],[34.181790366856895,0.985027258862368],[34.171635253191994,0.983538369183548],[34.15765912173184,0.987183010932864],[34.1547792643409,0.986946940461795],[34.14738875106291,0.991674429265886],[34.143110094761006,0.991427081896438],[34.130362510810855,0.997089459129202],[34.126167439134896,0.997614156947373],[34.12429463129265,0.999967303506257],[34.120882416647945,1.001942978809671],[34.12796232372633,1.008619529056005],[34.15125966090419,1.005483506313374]]]}},{"type":"Feature","properties":{"n":"Bungokho","c":"209102","d":"Mbale","od":"Mbale","dc":"209","k":"BUNGOKHO","a":["BUNGOKHO"],"lat":1.029569,"lon":34.163075},"geometry":{"type":"MultiPolygon","coordinates":[[[[34.10030116778524,1.0495997766629026],[34.103459216980184,1.049767317032232],[34.10422946420122,1.0505137862250362],[34.1046,1.0506],[34.10501679151066,1.0512768082329094],[34.10616433577658,1.052388927067615],[34.10897115200224,1.056994328476287],[34.120016812354386,1.052545228583494],[34.126023663024434,1.053432867299642],[34.13515403952628,1.047721009674549],[34.1381947837825,1.046829501289477],[34.14390923092678,1.045915658970144],[34.14886999764429,1.04697744743628],[34.15354085443747,1.046141272135336],[34.157193436357545,1.043538096674767],[34.159148522044205,1.03898046511004],[34.161528416235996,1.036421912027175],[34.170599003533844,1.033328988372813],[34.17237199184903,1.033134192334485],[34.17566608431057,1.034335002637552],[34.1759579688102,1.035113796562815],[34.1771854688627,1.035112727747171],[34.17748086973281,1.037091766232011],[34.17919391084071,1.037446294474166],[34.18170993739777,1.036526100692686],[34.18128649498566,1.035026522562585],[34.18332493489462,1.033738819180536],[34.1850561504296,1.034266051392173],[34.18675883384038,1.032632355295038],[34.19121211016971,1.03139850917597],[34.204863996338084,1.036694796949386],[34.21027096585401,1.035817288949136],[34.21330449553761,1.036492575617991],[34.21603195827129,1.036003150960554],[34.219359275340565,1.037729418160438],[34.21831495483125,1.035350263642185],[34.225148926234056,1.032245638195397],[34.228851781772434,1.027738532995456],[34.228851698065505,1.027738497097912],[34.22591478453622,1.026901002680251],[34.22252588403036,1.025025739235047],[34.220822691145635,1.022627708281741],[34.21855253987334,1.021225043562101],[34.21855231012596,1.0212246452007092],[34.2185521032481,1.021224517363152],[34.21733828899879,1.0191196413107042],[34.217184138600736,1.018852358328314],[34.20720693481709,1.014755943438237],[34.20720681451716,1.0147555182350445],[34.207206164420754,1.014755251308575],[34.20706079382747,1.0142394043475593],[34.2067969884558,1.013306977468814],[34.20371370113376,1.009976748380994],[34.20176249119164,1.00965224066011],[34.201750175523095,1.0096309582598901],[34.199258246198376,1.005403050769555],[34.196499138112024,1.004858478065498],[34.193052886519794,1.006117946899332],[34.193052694139425,1.0061178027476831],[34.19305258495643,1.006117842655126],[34.19300124120412,1.0060792487855672],[34.19243557184866,1.0056553896845946],[34.19213525523915,1.0060214386542374],[34.191353594655304,1.006975148056331],[34.19135307936395,1.006974814738442],[34.191352783805954,1.006975174987252],[34.190584017991114,1.006954317867975],[34.18998293400964,1.006606588237991],[34.18934064318747,1.0056733752777018],[34.18744235647236,1.006508180063165],[34.186680708681166,1.005839209975236],[34.18460952412449,1.007645741870672],[34.1827572524059,1.008087041883527],[34.182757249147144,1.0080869840530564],[34.18275712339235,1.008087014060339],[34.182709598946644,1.0072640114761344],[34.18134681548456,1.007675862954973],[34.175881651063754,1.004889655700777],[34.16803022961263,1.00550038655417],[34.15886324326252,1.0031181743447117],[34.15822447061323,1.0029522102626585],[34.15125966090419,1.005483506313374],[34.12796234717592,1.0086195258994877],[34.127962331536644,1.00861953756339],[34.133329111227035,1.014586455664098],[34.13191885280642,1.017021616726421],[34.12948668555457,1.018434993498468],[34.120149830391334,1.020227069029387],[34.117856511945355,1.023357308338678],[34.11436611595476,1.02247240861703],[34.11313350941245,1.023540338533432],[34.1111783211539,1.022961988313414],[34.10859377592884,1.02354180760421],[34.08120074759917,1.0404012849360624],[34.08137141215315,1.040694614638225],[34.08493825026543,1.0460252364478968],[34.10030116778524,1.0495997766629026]]],[[[34.19004036122665,1.006639009448009],[34.19004035827595,1.006639014678854],[34.19004036122675,1.006639009448065],[34.19004036122665,1.006639009448009]]]]}},{"type":"Feature","properties":{"n":"Busano","c":"209103","d":"Mbale","od":"Mbale","dc":"209","k":"BUSANO","a":["BUSANO"],"lat":1.010165,"lon":34.265875},"geometry":{"type":"Polygon","coordinates":[[[34.257031825277004,1.014829889142414],[34.25740499879309,1.017688562544468],[34.25946716160904,1.018881916531809],[34.26552114563538,1.028304257294366],[34.26423931724275,1.030530443654291],[34.26585263154237,1.03220572104759],[34.26733560997435,1.033013687929986],[34.27435994520778,1.032951158220358],[34.278914013029876,1.031351544790007],[34.28278060719279,1.032702968470559],[34.28902740605528,1.028658254178999],[34.28966131847137,1.0275465711385678],[34.2737,1.0055],[34.272760263482255,1.0000751573748337],[34.27173418549107,0.999313195785313],[34.27221387575235,0.9969210100249042],[34.27166743468302,0.9937665547610226],[34.27121502649578,0.992121658784247],[34.26817206718056,0.992031369394532],[34.265725126125716,0.990812310525344],[34.26470131858649,0.989320118263601],[34.260274909321026,0.98960398776094],[34.25855990199089,0.987306613129522],[34.25547896166165,0.987720215914218],[34.25364489454315,0.986882162511088],[34.24661874454619,0.990418279151273],[34.244200190616496,0.995102140394873],[34.25016813011629,1.001256077432652],[34.257031825277004,1.014829889142414]]]}},{"type":"Feature","properties":{"n":"Busoba","c":"209104","d":"Mbale","od":"Mbale","dc":"209","k":"BUSOBA","a":["BUSOBA"],"lat":0.961377,"lon":34.147947},"geometry":{"type":"Polygon","coordinates":[[[34.12887482638083,0.993448449917023],[34.12616744666318,0.99761414594463],[34.12616749786403,0.9976141496018371],[34.12945716997705,0.9972026944674494],[34.14306268129342,0.9914481425884429],[34.143110094761006,0.991427081896438],[34.14738875106291,0.991674429265886],[34.1547792643409,0.986946940461795],[34.15477958642871,0.9869469668642897],[34.154779760989975,0.986946855201705],[34.15507416113626,0.9869711140287282],[34.15765912173184,0.987183010932864],[34.166238451942064,0.984945726233983],[34.167161070634194,0.983416704027499],[34.16901909194832,0.982461361081666],[34.172136233356234,0.977156419020424],[34.18071073878881,0.968043188895775],[34.18428836873545,0.965708927766964],[34.18460907711706,0.964313740532617],[34.182281927476645,0.962213761815261],[34.18196100129735,0.960294843651945],[34.18136217387754,0.960217383351502],[34.17965861351669,0.96054097149022],[34.16635494867591,0.968341739403535],[34.16387005516669,0.968421119063066],[34.16124111070479,0.970600080318119],[34.15986352979482,0.969721779922555],[34.159442278025644,0.96803853689809],[34.161539439889246,0.968182085258815],[34.16319316050651,0.966813897161411],[34.16305818968817,0.965856954426473],[34.16979616506266,0.958759422882844],[34.17088821584825,0.950399570242129],[34.173660224271515,0.943659661712453],[34.17550396617713,0.943327092686353],[34.17889487538918,0.939970708050759],[34.186522293110734,0.940501502701988],[34.19000104316379,0.939306522511828],[34.18984243380967,0.937291355139926],[34.190680019136416,0.935958176824222],[34.19264084339888,0.933274647480934],[34.19503369701824,0.932376298991173],[34.19559932065464,0.92545061678498],[34.19445239078089,0.925169598790685],[34.193893303538,0.926668242373591],[34.19168032111371,0.926763801747051],[34.190109875812425,0.924479553216138],[34.18860924841714,0.92655030498963],[34.18356397727655,0.927982119966423],[34.18173652890228,0.929295476451306],[34.17963310743217,0.928762584398523],[34.177929418471564,0.93237936280294],[34.17813918941692,0.933663915221301],[34.173148045419225,0.935375588851763],[34.17315856990934,0.933245999569288],[34.172480432464894,0.933031852721254],[34.171134950127616,0.93648232413821],[34.16773322717535,0.936515122404273],[34.167177115407895,0.934907141467513],[34.16530041678208,0.934669246935229],[34.16449138955329,0.93376805571173],[34.16304326560703,0.934487781317335],[34.16104712229921,0.934184461799579],[34.16039218152723,0.936054530932399],[34.15733239100716,0.937414379544626],[34.15700521651293,0.939401223692208],[34.15858755016678,0.940306082932682],[34.15755249086543,0.941382130629811],[34.15736850192711,0.943041221987009],[34.1549819168091,0.943505553980684],[34.15313263444984,0.941078751617308],[34.15183583570365,0.941489208492429],[34.15254944416872,0.942553906037399],[34.15102103857644,0.942793248834008],[34.15170128850048,0.943877752571101],[34.14882875173395,0.946584880420719],[34.14754947315723,0.949990795736914],[34.14363152382018,0.951626128539419],[34.1441869253898,0.953063901548048],[34.1429233942938,0.952631212377369],[34.143348940885765,0.953700688987886],[34.14137103464179,0.953995818127672],[34.141179863443135,0.954759294297605],[34.140472605440145,0.954302242896368],[34.140549600123826,0.955885654688009],[34.14001367375072,0.954873312305234],[34.13927546764822,0.95579270261105],[34.13893255649549,0.954563081980662],[34.13738518009555,0.955185537561144],[34.13702912392591,0.954332744760393],[34.135388367520626,0.956032481984319],[34.1334921602124,0.955263596360784],[34.13216517239992,0.956032467828996],[34.1313297074125,0.954856232833586],[34.13103523099549,0.955605951601525],[34.13078338395119,0.955035168440626],[34.12987712585778,0.95553864420847],[34.12976871459876,0.954292679582768],[34.12889304660915,0.95406901156945],[34.12831602905014,0.967667193015146],[34.12673606757002,0.973949039219204],[34.12751911658002,0.976146187602046],[34.12557923258369,0.981754397369454],[34.12544966929849,0.986240690009947],[34.12962445279568,0.990311910469523],[34.12887482638083,0.993448449917023]],[[34.16945161174013,0.957322299788542],[34.168281162932914,0.954950319410223],[34.16938200665925,0.956969709681151],[34.16945161174013,0.957322299788542]],[[34.16809150623057,0.954969911980242],[34.16809577716313,0.954964172291564],[34.16810314684213,0.954980307578223],[34.16809150623057,0.954969911980242]],[[34.155140511952865,0.963019471315683],[34.15447785814429,0.962878030912246],[34.15486593104732,0.962944160912861],[34.155140511952865,0.963019471315683]],[[34.15442072867851,0.962868898616613],[34.153935372255816,0.962698593440454],[34.15441779219126,0.962862373930798],[34.15442072867851,0.962868898616613]],[[34.153675182098915,0.962734612649338],[34.1533746782971,0.962637126489849],[34.15345710332954,0.962637547185342],[34.153675182098915,0.962734612649338]],[[34.15134158057571,0.968208407640195],[34.150592934909405,0.967800193458718],[34.1511158893575,0.968032419899389],[34.15134158057571,0.968208407640195]],[[34.13288380438814,0.987846801381861],[34.132754023528,0.987828265456207],[34.13287990605952,0.987837816810453],[34.13288380438814,0.987846801381861]]]}},{"type":"Feature","properties":{"n":"Nabumali Town Council","c":"209105","d":"Mbale","od":"Mbale","dc":"209","k":"NABUMALITOWNCOUNCIL","a":["NABUMALI","NABUMALITOWNCOUNCIL"],"lat":0.976768,"lon":34.193758},"geometry":{"type":"Polygon","coordinates":[[[34.188957359069754,0.9897177202027],[34.188959849206256,0.989719090592535],[34.19809040740365,0.990503938468057],[34.20106139700839,0.992444865295095],[34.20116975865456,0.992515544746787],[34.20757568530278,0.994147228875511],[34.20930034213692,0.995499965182079],[34.210471649572725,0.994885308746841],[34.214296496705146,0.995254745666296],[34.214305910474266,0.9952588608878786],[34.21862796361889,0.9970920087930607],[34.219147957705445,0.996598057455303],[34.21915613081987,0.9966048624327616],[34.22069666195318,0.994926238959905],[34.21953550067826,0.989321005067384],[34.22189226444547,0.984860347662095],[34.21821480282865,0.985536085162688],[34.2191853295341,0.983602944754729],[34.21805736837237,0.982617819886436],[34.21636320975311,0.983428150319939],[34.215438998860215,0.982577262775057],[34.21409656102178,0.979363072078474],[34.2145129157147,0.977812523805804],[34.2151737712587,0.976435266684526],[34.22006275946343,0.977957941364363],[34.222251861084224,0.977101335834533],[34.22321453913064,0.972330780084994],[34.225307564596314,0.971442789104252],[34.2278909866958,0.968929745665742],[34.225072273182235,0.965699842700842],[34.22337442569159,0.96519397576915],[34.22024018046926,0.965873475723445],[34.21652498953023,0.964798454374944],[34.21218120457627,0.960427185093652],[34.20635066278107,0.9603395701996],[34.203481129272895,0.958192069141982],[34.18938021311957,0.957526611801615],[34.18925332890436,0.956983275153403],[34.18579613856542,0.957460153750679],[34.18383797620724,0.956530105342758],[34.18255278274223,0.957558804172337],[34.1838534040923,0.958830951564111],[34.18200942487108,0.960584383369049],[34.18218368630868,0.9616263470957519],[34.184596298787646,0.9643022095939362],[34.18460907711706,0.964313740532617],[34.18428836873545,0.965708927766964],[34.18171201612174,0.9673898952929477],[34.18071052640472,0.9680434146236779],[34.172136233356234,0.977156419020424],[34.16901909194832,0.982461361081666],[34.167161070634194,0.983416704027499],[34.167159453970726,0.9834193832647169],[34.16690893607053,0.984383485062202],[34.17163435790731,0.9835386026524416],[34.171635253191994,0.983538369183548],[34.181790366856895,0.985027258862368],[34.18179250131113,0.9850295491366181],[34.188957359069754,0.9897177202027]]]}},{"type":"Feature","properties":{"n":"Nyondo","c":"209106","d":"Mbale","od":"Mbale","dc":"209","k":"NYONDO","a":["NYONDO"],"lat":0.99382,"lon":34.232035},"geometry":{"type":"Polygon","coordinates":[[[34.21754421004096,0.982489616390541],[34.21786723283426,0.9827087633266007],[34.21805736837237,0.982617819886436],[34.2191853295341,0.983602944754729],[34.21821605551918,0.9855335899951934],[34.22189179022629,0.984859460458189],[34.221891220228585,0.9848605395380637],[34.22189226444547,0.984860347662095],[34.21953561842734,0.9893207822031862],[34.22072522706799,0.994669055433314],[34.22066185887686,0.9947582352664005],[34.22069666195318,0.994926238959905],[34.22001365656356,0.9956704685663768],[34.219296072417144,0.996680344866513],[34.220362550718015,0.9976093338970995],[34.22040399598529,0.997643841441596],[34.221085691291755,0.9975512437450507],[34.22183484080605,0.997448950447179],[34.22660613479296,1.001586379475334],[34.22608158936553,1.00371797872515],[34.22749325934854,1.0064866122541345],[34.227662546483955,1.006818503138139],[34.22766252240419,1.0068185789154012],[34.227662536910934,1.006818607366714],[34.22766247172174,1.0068187384093357],[34.22697617962499,1.0089784492664748],[34.22807032947842,1.010462150235382],[34.23009759485536,1.0130893341308114],[34.232967525022204,1.0149520129066363],[34.232987143134906,1.014963772477242],[34.23601675279291,1.019948931400835],[34.23601670743006,1.0199489978054037],[34.236016743737366,1.019949057536707],[34.24071475688241,1.016971369169359],[34.24118852897613,1.014112754011719],[34.25057130518557,1.008600868450822],[34.253452422934636,1.0077511753750927],[34.25304089694441,1.0069373314944856],[34.25006445608859,1.0011491722874237],[34.244200190616496,0.995102140394873],[34.24437954668371,0.9947547927828454],[34.24276442894918,0.992970465537681],[34.24237152213818,0.990142700220198],[34.23951287800457,0.988705597295117],[34.23548961280857,0.988451973851458],[34.23391363516082,0.984908623476491],[34.23500420002906,0.9827737500257],[34.23416350191391,0.981155079142749],[34.23400179939044,0.97693079161297],[34.23334690125829,0.976541132103977],[34.23404362724185,0.976044217216551],[34.233774155450725,0.974769176444827],[34.22881357935154,0.96938898408406],[34.22789099791511,0.968929752756822],[34.22586545660524,0.970900095421827],[34.225307564596314,0.971442789104252],[34.22321453913064,0.972330780084994],[34.22258034760291,0.9754735192906938],[34.2222526337124,0.977100678146854],[34.22225193897326,0.9771009498550425],[34.222251861084224,0.977101335834533],[34.22006275946343,0.977957941364363],[34.22006159665901,0.9779575792090908],[34.220061401525044,0.977957655524779],[34.21517373700832,0.9764353380640852],[34.21517007291022,0.976442974233971],[34.214098802274485,0.9793547254198175],[34.214096644967576,0.9793627594555975],[34.21636084912,0.9834259769704053],[34.21636320975311,0.983428150319939],[34.216371375314175,0.98342424466284],[34.21754421004096,0.982489616390541]]]}},{"type":"Feature","properties":{"n":"Bubyangu","c":"209201","d":"Mbale","od":"Mbale","dc":"209","k":"BUBYANGU","a":["BUBYANGU"],"lat":1.068518,"lon":34.291366},"geometry":{"type":"Polygon","coordinates":[[[34.25950614689323,1.048550438963302],[34.25787037389971,1.051077193717965],[34.257513563572125,1.054170220104732],[34.25458259855346,1.055595428132402],[34.25498696296285,1.058022880934405],[34.2646695500166,1.052092723104512],[34.26769146267778,1.049237370518931],[34.26833492522954,1.046999869278888],[34.27119046281784,1.045886067611036],[34.27266454784194,1.05045089652352],[34.27383351584639,1.05160607494408],[34.26979823409087,1.052023046212011],[34.26752332613657,1.054548332494554],[34.26860853352307,1.07084407736776],[34.26625507693923,1.074271595501449],[34.260025062302105,1.078140868074459],[34.261245466240666,1.081736797955573],[34.26401490846653,1.080124807281617],[34.2647740429631,1.080701752900559],[34.264479723600516,1.082284127772143],[34.265186764765886,1.083791771559641],[34.26639982825291,1.084353019653335],[34.26441615996689,1.086959088622926],[34.26675628826457,1.089306520469274],[34.2666244180472,1.090299221619956],[34.26810485561377,1.089992307981962],[34.268464068488086,1.091855998500761],[34.26743475620394,1.09309130096762],[34.26759958818776,1.09493635118652],[34.26974218987201,1.095960578009889],[34.27042942086176,1.100079969240601],[34.27332046105009,1.101552851540279],[34.2757551960986,1.100803922369918],[34.27696863364445,1.1036666822100274],[34.279998502047775,1.1027818533842773],[34.280076951728745,1.102281262301074],[34.281114689489556,1.1024558871402186],[34.2861,1.101],[34.287925390944515,1.101774408279492],[34.28795224076343,1.101626094057185],[34.28832696331342,1.101944772314787],[34.29264984307993,1.1037787213066375],[34.29294506302874,1.103718234573683],[34.29338730228303,1.104091582786741],[34.295952939789615,1.1051800350622611],[34.29638307778082,1.104780024237324],[34.2977537527186,1.104987635667756],[34.29823306785597,1.10613024962884],[34.298326299034635,1.1061869147419645],[34.2993,1.1066],[34.30091822175485,1.1062750292377561],[34.3006844693824,1.105535628379122],[34.30161607134268,1.105226821363208],[34.30399379523843,1.1056573935791678],[34.30532694247733,1.1053896713877502],[34.305397738652935,1.104728138470543],[34.30676851594538,1.105043152921984],[34.30679857595219,1.105094138435831],[34.316039262378666,1.1032384268173991],[34.316569171161845,1.102254660002403],[34.3177769395801,1.1028894670515386],[34.323279462787774,1.1017844521450781],[34.32354999324691,1.100703978712449],[34.32446334530749,1.099954692751628],[34.32357896157389,1.098677076991247],[34.32557146302642,1.097335041236312],[34.3267547856114,1.098284173377278],[34.328689788136245,1.096035862242252],[34.32887498040079,1.0960545668355057],[34.32962802109332,1.095233067898201],[34.3294680222048,1.094665647094107],[34.33115407193819,1.09086894167387],[34.333004612868585,1.090767450433819],[34.33379175929021,1.088830586882976],[34.3365762194625,1.0876532151318163],[34.3369,1.0873],[34.32707807978455,1.079852098414821],[34.325918912559956,1.079789851905471],[34.32205022941938,1.076707484619935],[34.32099907728134,1.0752424282702129],[34.3158,1.0713],[34.31574782280433,1.0710719663300228],[34.315453177831316,1.070948752213799],[34.31315411510522,1.066192120185347],[34.31162164765493,1.060096501278974],[34.30919732623863,1.058586571917868],[34.30791497502956,1.056172287050274],[34.30814091403478,1.053984651487691],[34.31071274807237,1.051612724178033],[34.31045283767621,1.0479309202145428],[34.3104,1.0477],[34.310085896578734,1.0473950010257262],[34.30420598626607,1.04205509187644],[34.30303264077857,1.0405461874226671],[34.2897,1.0276],[34.28966131847137,1.0275465711385714],[34.28902740605528,1.028658254178999],[34.28828311785797,1.029140170305155],[34.287314071214986,1.030292043418932],[34.28278332513467,1.0327012086414644],[34.28278060719279,1.032702968470559],[34.282780250201,1.0327028436974015],[34.28278005563767,1.032702947153916],[34.27891398211199,1.0313515556498964],[34.27435994520778,1.032951158220358],[34.269432232553335,1.0329950240711714],[34.2673359441928,1.033013689204809],[34.267335938951184,1.0330136850014775],[34.26733560997435,1.033013687929986],[34.26585263154237,1.03220572104759],[34.26423938259117,1.03053051151257],[34.264239309205564,1.030530452663589],[34.26125318970484,1.033389283912243],[34.258269022614165,1.038645305037764],[34.25486870248425,1.040781720263244],[34.25217874104557,1.046190503308376],[34.25653220656211,1.046913241590264],[34.25950614689323,1.048550438963302]]]}},{"type":"Feature","properties":{"n":"Budwale","c":"209202","d":"Mbale","od":"Mbale","dc":"209","k":"BUDWALE","a":["BUDWALE"],"lat":1.064198,"lon":34.253737},"geometry":{"type":"Polygon","coordinates":[[[34.24338973176071,1.075112773086098],[34.250066636617525,1.080962239239736],[34.25427481371965,1.081813646279207],[34.2665404913387,1.073855924765679],[34.26714148456242,1.0729806525441024],[34.26855816881482,1.0700877883427269],[34.26841516007396,1.0679403334095343],[34.26801801906987,1.066916151742097],[34.26752492166659,1.0545722913714792],[34.26752332613657,1.054548332494554],[34.267523937477826,1.0545476538685514],[34.26752392779512,1.054547411478303],[34.268764912093836,1.0531700965177728],[34.26979823409087,1.052023046212011],[34.26979844350359,1.0520230245731037],[34.269798497081155,1.052022965109677],[34.26987408660839,1.0520152082660335],[34.27383351584639,1.05160607494408],[34.27266454784194,1.05045089652352],[34.272664397655646,1.050450431438585],[34.2726643726893,1.050450406814872],[34.271858487009816,1.0479547516393692],[34.27119046281784,1.045886067611036],[34.268336224380604,1.0469993625453637],[34.26833484183467,1.0470001592664098],[34.26769146267778,1.049237370518931],[34.2646695500166,1.052092723104512],[34.25553391247111,1.0576878984662963],[34.255214805201874,1.057951573341929],[34.255206551918036,1.0578883923772961],[34.25498696296285,1.058022880934405],[34.25458259855346,1.055595428132402],[34.2548876470748,1.055447095552971],[34.254565158654074,1.052978365541182],[34.25214073370539,1.054558582375046],[34.25298652905712,1.056422315432784],[34.25000648510995,1.059568552987435],[34.247176906816655,1.058549518748466],[34.239434115987045,1.061479256915837],[34.23970783696262,1.067226983981681],[34.24338973176071,1.075112773086098]]]}},{"type":"Feature","properties":{"n":"Bufumbo","c":"209203","d":"Mbale","od":"Mbale","dc":"209","k":"BUFUMBO","a":["BUFUMBO"],"lat":1.107459,"lon":34.249571},"geometry":{"type":"MultiPolygon","coordinates":[[[[34.26093040046983,1.11183042673877],[34.26285851762463,1.110783565584174],[34.26359680991095,1.108581508076901],[34.26502079632744,1.109079724426696],[34.26634253664364,1.108242086871953],[34.26689352175289,1.1085927811341652],[34.26876525937576,1.107576530952422],[34.2699542148107,1.106218742215201],[34.27072108275053,1.10651462685017],[34.2748,1.1043],[34.27696848934085,1.1036667243517866],[34.275754929690194,1.1008040043176541],[34.27332046105009,1.101552851540279],[34.27168842850611,1.1007213889213114],[34.27042960972416,1.100080157925544],[34.27042959285467,1.1000800568648783],[34.27042942086176,1.100079969240601],[34.27015638101302,1.0984433172628247],[34.26974193045303,1.0959604539999617],[34.26759958818776,1.09493635118652],[34.26743475620394,1.09309130096762],[34.268464068488086,1.091855998500761],[34.26810485561377,1.089992307981962],[34.2666244180472,1.090299221619956],[34.266624484151016,1.090298723999387],[34.2666241682887,1.090298790550832],[34.266631109306736,1.0902488507236954],[34.26675628826457,1.089306520469274],[34.26441615996689,1.086959088622926],[34.26441652315563,1.0869586114791876],[34.26441639548764,1.08695848337571],[34.26534868917064,1.0857339667422936],[34.26639982825291,1.084353019653335],[34.265186764765886,1.083791771559641],[34.264479723600516,1.082284127772143],[34.26472833267786,1.0809475090957683],[34.264773660306716,1.080701462079993],[34.26401490846653,1.080124807281617],[34.261245466240666,1.081736797955573],[34.26003850801724,1.0781804859807083],[34.26002505198638,1.078140873221425],[34.25871777409305,1.079074452943573],[34.259605621994226,1.08115329243713],[34.25945015975778,1.083475503790764],[34.26113302962541,1.085509645737079],[34.260875535758075,1.088424017063643],[34.26183945103264,1.090628844182714],[34.2601384956483,1.092141512762722],[34.2609877176124,1.095169161592893],[34.262605546440774,1.095160925938956],[34.26294722627707,1.095852596496241],[34.26252523706402,1.099034424341262],[34.26447194933107,1.102570719393265],[34.26400403954749,1.104093850270694],[34.26287168210645,1.104442259647483],[34.26242419014287,1.10596785170945],[34.26124444262496,1.106743877424806],[34.261175160485685,1.108805945016386],[34.25832312328952,1.11117841082196],[34.2600322998155,1.112085306991389],[34.26093040046983,1.11183042673877]]],[[[34.23987134645226,1.11995622101316],[34.24182809128024,1.120361942541237],[34.24211108931886,1.122],[34.2422,1.122],[34.25218848144632,1.1165768060858947],[34.25223422970747,1.11641037982876],[34.252372095559124,1.1164771137608418],[34.25749795672094,1.1136940541729847],[34.25829604998287,1.111208157271834],[34.25743420509982,1.109768350034017],[34.25667113447981,1.101998428941718],[34.25803954429331,1.100841161411954],[34.256620739648326,1.098600296106672],[34.2577955296734,1.094749807652277],[34.25563057119739,1.095339979956179],[34.254220951287884,1.094592544429332],[34.25242342344422,1.100850748700789],[34.24936444087616,1.105755489187031],[34.243935046842665,1.106408880855431],[34.23993475864849,1.108509055217519],[34.238836355023146,1.110273327933705],[34.24084044125592,1.113482829014538],[34.23987134645226,1.11995622101316]]]]}},{"type":"Feature","properties":{"n":"Bukhiende","c":"209204","d":"Mbale","od":"Mbale","dc":"209","k":"BUKHIENDE","a":["BUKHIENDE"],"lat":0.959118,"lon":34.23299},"geometry":{"type":"Polygon","coordinates":[[[34.163868887026254,0.968421988265522],[34.16386901131274,0.9684219842457843],[34.16387005516669,0.968421119063066],[34.16596104010219,0.968354322771133],[34.16635523138558,0.9683415736332321],[34.17965861351669,0.96054097149022],[34.18136217387754,0.960217383351502],[34.18196095808191,0.9602948380618849],[34.18196100669853,0.960294832861682],[34.18384899636024,0.9588351428573149],[34.1838534040923,0.958830951564111],[34.18255278274223,0.957558804172337],[34.18255563908937,0.9575565178854492],[34.1825550440961,0.957555939888633],[34.182955488931974,0.9572364687439905],[34.18383797620724,0.956530105342758],[34.18383980162954,0.9565309723449726],[34.18384024589443,0.956530617914599],[34.18579620619418,0.9574601444220902],[34.18925332890436,0.956983275153403],[34.18938019144231,0.9575265189764514],[34.190888917636535,0.9575978113239965],[34.203481129272895,0.958192069141982],[34.20635055791253,0.9603394917180984],[34.20880414057586,0.9603764383337461],[34.21218120457627,0.960427185093652],[34.21652498953023,0.964798454374944],[34.2202400011906,0.9658734238476744],[34.220837856140506,0.9657439004788524],[34.22337442569159,0.96519397576915],[34.223375173862756,0.9651941986837849],[34.22337553291944,0.965194120895299],[34.22440513751733,0.9655010722731756],[34.225072273182235,0.965699842700842],[34.2278909866958,0.968929745665742],[34.227882165654535,0.9689383264005226],[34.2278821740894,0.9689383361217622],[34.22789099791511,0.968929752756822],[34.22881357935154,0.96938898408406],[34.231919616128394,0.9727577612190044],[34.23252138124987,0.973105127525203],[34.233039152974385,0.9739719999416758],[34.233774155450725,0.974769176444827],[34.233915907454396,0.9754398944572679],[34.23410425313702,0.975755229708881],[34.23400444773091,0.9758588342729102],[34.23404362724185,0.976044217216551],[34.233347758810886,0.9765405204852581],[34.23334707184448,0.9765412336014903],[34.23400179939044,0.97693079161297],[34.2341634997833,0.9811550234830267],[34.234163643842415,0.9811553524103243],[34.23500420002906,0.9827737500257],[34.23493326461379,0.9829126121321113],[34.234998712659134,0.983062048345676],[34.233919923251214,0.9848963140049114],[34.23391363516082,0.984908623476491],[34.23548961280857,0.988451973851458],[34.23951287800457,0.988705597295117],[34.24113564677864,0.9895213986481175],[34.24183946444519,0.989654484188641],[34.241961764202934,0.9899367059446647],[34.24237152213818,0.990142700220198],[34.24252278208147,0.9912313238062226],[34.24374668344182,0.9940556269568317],[34.24437954668371,0.9947547927828454],[34.24661874454619,0.990418279151273],[34.25364489454315,0.986882162511088],[34.253645111038104,0.9868822614356758],[34.253645135588364,0.986882249076918],[34.25547903323022,0.9877202063064501],[34.25558338533417,0.9877061974922022],[34.258557942533905,0.987306121439931],[34.25855854663626,0.9873067950799624],[34.25855990199089,0.987306613129522],[34.25856744588265,0.9873167187105469],[34.26059991614751,0.9895831447889207],[34.26470131858649,0.989320118263601],[34.265725126125716,0.990812310525344],[34.26817206718056,0.992031369394532],[34.26818094595592,0.992031632841764],[34.27050095698417,0.991832942333514],[34.27098309614925,0.9921147770460195],[34.27121502649578,0.992121658784247],[34.271257202807746,0.9922750062430802],[34.27171926470657,0.9925451047786185],[34.27560261727536,0.9880307074173935],[34.27647379518748,0.986221950339807],[34.27730111551387,0.9860562032151214],[34.2795,0.9835],[34.2796126468451,0.9830071700526773],[34.27960452752237,0.979647632260251],[34.2806654885683,0.9784009875136604],[34.2807547511599,0.9780104636754371],[34.28076432479117,0.973935948311476],[34.28174686946269,0.973422010410345],[34.281869432046776,0.9731337347953589],[34.282794592365015,0.9690861584030594],[34.281847382779254,0.968693199208024],[34.282885281751206,0.967103755463631],[34.28279538438957,0.96490194885963],[34.28393924699746,0.9640782943861208],[34.2843,0.9625],[34.276542329970624,0.962928337608984],[34.27588508227399,0.963311002027952],[34.2679838754477,0.963404458556537],[34.26202875428086,0.95939994385097],[34.257322522917875,0.957664908036283],[34.256773123370046,0.9552977557007125],[34.25337268764481,0.9528437195624357],[34.249608660571624,0.951065616835469],[34.249417791032364,0.9499895385120304],[34.2371,0.9411],[34.23697594071887,0.9408040513534612],[34.233704775555005,0.938510560794743],[34.232586465305936,0.940056842172955],[34.23114662543499,0.940533095764415],[34.22895774805221,0.939343373136116],[34.226888502549535,0.940987046110495],[34.225839169899366,0.940001688980437],[34.22442357513355,0.942059703693916],[34.2217319645895,0.943347583154384],[34.22106100815172,0.940539841534715],[34.21943345886887,0.939526193623211],[34.21406428076486,0.939472143729622],[34.213312599315685,0.938004359268644],[34.20906332833694,0.935782206305842],[34.20809940506945,0.933949808814299],[34.20597097564527,0.934485259943886],[34.2047923363578,0.933640796665531],[34.20383182468603,0.93244574274591],[34.203947242607,0.930511483157897],[34.202623908526014,0.927563839736757],[34.20144772190082,0.928834135248712],[34.19952115898838,0.928964150276016],[34.198569445825036,0.926547381596785],[34.199438174052474,0.925228961347524],[34.198736229287306,0.923361207682165],[34.19743973394929,0.925286867514333],[34.19559328061355,0.9255245730385625],[34.19545219258988,0.9272521012961377],[34.19560841453752,0.927991780694037],[34.195132475895434,0.9311668178661029],[34.19503369701824,0.932376298991173],[34.19264084339888,0.933274647480934],[34.190680019136416,0.935958176824222],[34.18984243380967,0.937291355139926],[34.19000104316379,0.939306522511828],[34.186522293110734,0.940501502701988],[34.186453494582835,0.940496714988511],[34.18643982041668,0.940501408604134],[34.17888949350021,0.9399760351439742],[34.17550396617713,0.943327092686353],[34.173660224271515,0.943659661712453],[34.17088821584825,0.950399570242129],[34.16979616506266,0.958759422882844],[34.16305818968817,0.965856954426473],[34.16319316050651,0.966813897161411],[34.161539439889246,0.968182085258815],[34.161538779512966,0.9681820400568044],[34.161538677920795,0.968182124107038],[34.16143142207301,0.9681746915613043],[34.159442278025644,0.96803853689809],[34.15944368084872,0.9680441423158532],[34.160718960507396,0.9702671744818089],[34.161100203403436,0.9705102424453478],[34.163868887026254,0.968421988265522]]]}},{"type":"Feature","properties":{"n":"Bumasikye","c":"209205","d":"Mbale","od":"Mbale","dc":"209","k":"BUMASIKYE","a":["BUMASIKYE"],"lat":0.877632,"lon":34.175558},"geometry":{"type":"Polygon","coordinates":[[[34.15810933370388,0.884821639440514],[34.17009082359125,0.894355855334221],[34.17357811183237,0.898770287391588],[34.18051233887038,0.904787640577271],[34.180150688591766,0.905297820193866],[34.18694973734038,0.909527229243114],[34.19164799200041,0.913829212188621],[34.192545337677366,0.914172070456279],[34.19391094380402,0.913291270082473],[34.19526048535008,0.915209473317322],[34.19722021130489,0.915935359597013],[34.19733452042337,0.914251342082026],[34.20051381145981,0.914888854986779],[34.202403470561556,0.915691385362053],[34.202249604968124,0.917010678065235],[34.20622330691321,0.917489425321853],[34.205889083485744,0.918475566242505],[34.21436498927842,0.927417037231323],[34.215144553393266,0.929955223315294],[34.21723936732189,0.930923682757437],[34.21967913031932,0.928881274787227],[34.22160184693367,0.92842110021899],[34.22246523946153,0.926484342004433],[34.22083082531747,0.914432861138871],[34.21978700497346,0.913153182804172],[34.21537567307935,0.911784936408293],[34.21485348016269,0.909720733201512],[34.21522458526423,0.907951058659293],[34.2168356385804,0.906692188263725],[34.21752804909298,0.903951205872338],[34.2158154931575,0.902051189452413],[34.216963218571806,0.896533992272237],[34.2144520494262,0.8963564513663],[34.19924352998396,0.899470863209041],[34.19933219316856,0.898279061679719],[34.196167745955854,0.895067283652796],[34.19676575086785,0.893423305046754],[34.192488981827,0.882956968961247],[34.19153760884221,0.872306753455018],[34.19095257848068,0.868689216281007],[34.18945338670465,0.867311953174229],[34.18862870804175,0.858278150267712],[34.189740435987716,0.85222913093576],[34.19392214202647,0.845893711401743],[34.19517919193717,0.845606516074232],[34.195827575311775,0.843326798610168],[34.19518647987809,0.841584724935226],[34.19213159210951,0.839991828215484],[34.1914996347141,0.838655364388566],[34.19187067343973,0.8379408412171417],[34.1831,0.8292],[34.183086216276536,0.8293098759670936],[34.18356787546974,0.829861760322805],[34.184264006327346,0.833795491499877],[34.18191142942484,0.8386746054420188],[34.18069302891051,0.8483869981133701],[34.180731965164895,0.848847611247028],[34.18014944469285,0.854077843551196],[34.179887652535875,0.8548069983568918],[34.1796,0.8571],[34.17892014936154,0.8575017299227284],[34.17811470013741,0.859745101837688],[34.175458780892875,0.860140509454946],[34.16865524891715,0.86400458531229],[34.167211749675346,0.8644203297372968],[34.16205018156447,0.867470347257361],[34.161792941157636,0.868999568104502],[34.159807004655114,0.8687958608856166],[34.15577085741198,0.8711808569838289],[34.162256826369926,0.883741269512609],[34.15810933370388,0.884821639440514]]]}},{"type":"Feature","properties":{"n":"Bunambutye","c":"209206","d":"Mbale","od":"Mbale","dc":"209","k":"BUNAMBUTYE","a":["BUNAMBUTYE"],"lat":0.9022,"lon":34.171074},"geometry":{"type":"Polygon","coordinates":[[[34.144487708887574,0.88771057369209],[34.14591767924245,0.88907788646389],[34.14759108337968,0.893108838184672],[34.14913740444336,0.892757412301458],[34.15351752977784,0.899849062072337],[34.158683775827306,0.896619302615121],[34.16048294927403,0.898817876149201],[34.16410785809994,0.900653115202375],[34.16512539614244,0.903747304409467],[34.167152797056225,0.903990367424537],[34.16933942040331,0.905811485846783],[34.17185638578991,0.905995298652912],[34.17148786408834,0.90662391509086],[34.17817084959827,0.910711362765275],[34.17644419908153,0.918587322086074],[34.178226387901375,0.924551540951497],[34.180821131359224,0.925626783870808],[34.18077914475541,0.9290529276276047],[34.18077931780294,0.9290529714683893],[34.18313106388707,0.9282932475558382],[34.18356397727655,0.927982119966423],[34.18792734096188,0.9267438258688898],[34.188528339776326,0.926549675159409],[34.19002889826293,0.924479473502665],[34.1900637080201,0.9245432612612798],[34.190109875812425,0.924479553216138],[34.19160792089146,0.9266584939714881],[34.19381074338101,0.926668645599511],[34.19436913060693,0.925170939159038],[34.19445072463464,0.9251740649261756],[34.19445239078089,0.925169598790685],[34.194474305489585,0.9251749682798096],[34.19742954093201,0.9252881797254066],[34.19743973394929,0.925286867514333],[34.19866723786128,0.9234636793332109],[34.198735954055884,0.92336154781837],[34.19873597062707,0.9233615918652874],[34.198736229287306,0.923361207682165],[34.199121118671926,0.9243853317935591],[34.19943819474772,0.92522813352508],[34.1994379831178,0.9252284533033639],[34.199438174052474,0.925228961347524],[34.198569445825036,0.926547381596785],[34.199468944622915,0.9288315577597691],[34.199521188474506,0.9289641482861308],[34.201196994760714,0.9288510556906847],[34.2014478251465,0.9288340237421497],[34.202623908526014,0.927563839736757],[34.203947242607,0.930511483157897],[34.20383182468603,0.93244574274591],[34.203840641589245,0.9324567126019394],[34.20596655910222,0.934482095609844],[34.20597046970786,0.9344848974533648],[34.21599230830614,0.9303471513232103],[34.215144553393266,0.929955223315294],[34.215132352617175,0.9299154987570506],[34.215056456850746,0.929878540878822],[34.2143758851367,0.9274525131021549],[34.214365054277856,0.9274172488632616],[34.21116262794239,0.9240387763489809],[34.205889083485744,0.918475566242505],[34.20622317802143,0.9174898056227166],[34.20225268961569,0.917011877282974],[34.202252783885115,0.9170110610576712],[34.202249604968124,0.917010678065235],[34.202403470561556,0.915691385362053],[34.20051381145981,0.914888854986779],[34.200398464544,0.9148657255700291],[34.19733448078973,0.9142519259702521],[34.19722021130489,0.915935359597013],[34.197216285074425,0.915933905313665],[34.19721623646969,0.915934621165022],[34.19574634723608,0.9153894374985416],[34.19526048535008,0.915209473317322],[34.19472796562173,0.9144525636330432],[34.193910211575,0.9132917423618355],[34.192545337677366,0.914172070456279],[34.19164799200041,0.913829212188621],[34.18694973734038,0.909527229243114],[34.18096815235569,0.9058063308353409],[34.18015458558327,0.905300395152086],[34.180154659623994,0.90530029040996],[34.180150688591766,0.905297820193866],[34.18051233887038,0.904787640577271],[34.17367729141694,0.8988563530173468],[34.173578314918146,0.898770478101144],[34.17357827855194,0.8987704320667671],[34.17357811183237,0.898770287391588],[34.17009082359125,0.894355855334221],[34.17009031236759,0.8943554485303281],[34.1593636476639,0.886452540148949],[34.15812412553848,0.8848334099753895],[34.15810933370388,0.884821639440514],[34.162256826369926,0.883741269512609],[34.15577085741198,0.8711808569838307],[34.15387424465461,0.8723015827040941],[34.14834278633209,0.876212350079866],[34.13985099584755,0.880658070292673],[34.144810601732175,0.88660367758589],[34.144487708887574,0.88771057369209]]]}},{"type":"Feature","properties":{"n":"Busiu","c":"209207","d":"Mbale","od":"Mbale","dc":"209","k":"BUSIU","a":["BUSIU"],"lat":0.916408,"lon":34.127414},"geometry":{"type":"Polygon","coordinates":[[[34.128810579347,0.954068990574055],[34.128892164028166,0.9540898107568074],[34.12889304660915,0.95406901156945],[34.12976871459876,0.954292679582768],[34.1298731931415,0.9554934457169887],[34.13070284219363,0.955036085590518],[34.13071826877368,0.9550713434709339],[34.13078338395119,0.955035168440626],[34.13099157124327,0.9555070016557549],[34.13124914595311,0.954856773840052],[34.13129933768586,0.9549335522816788],[34.1313297074125,0.954856232833586],[34.13208003403529,0.9559126031722579],[34.13267465873088,0.955309275402783],[34.1328671124663,0.9556257559629492],[34.133382660146594,0.9553270419143715],[34.13340994747646,0.955263648018954],[34.13344530547714,0.955290744514485],[34.1334921602124,0.955263596360784],[34.13497484864951,0.9558648058480222],[34.13699804520441,0.954332751000758],[34.137004825806756,0.9543579163321574],[34.13702912392591,0.954332744760393],[34.137351202496454,0.9551041575588688],[34.138760128870274,0.954513539370358],[34.13879082625864,0.9546200951138942],[34.13893255649549,0.954563081980662],[34.13922611004891,0.9556157147181517],[34.13984598159295,0.954850557925785],[34.139931261200104,0.9549759520691985],[34.14001367375072,0.954873312305234],[34.14053002952806,0.9558486866555597],[34.14039019433838,0.954302198416805],[34.14047527395783,0.9543571215213263],[34.140472605440145,0.954302242896368],[34.14110941560011,0.9547137687818386],[34.14128871163628,0.953996152102609],[34.14326642164714,0.95370072434047],[34.14284095102268,0.952631283418188],[34.14293640939398,0.9526639217104693],[34.1429233942938,0.952631212377369],[34.144092508636696,0.9530315690579885],[34.143549169309,0.951626272616937],[34.14746731375935,0.949990479019059],[34.1487465253285,0.946584745072013],[34.151619154005644,0.943878179984162],[34.1509381171586,0.942793965283569],[34.15246719322017,0.942554009814458],[34.15175406506488,0.941488788534378],[34.15305011632218,0.941078822966471],[34.15306611171252,0.9410998070933135],[34.15313263444984,0.941078751617308],[34.154971485961205,0.9434918656403413],[34.15728567982026,0.943041709923353],[34.15739940788893,0.9427625323298362],[34.15755249086543,0.941382130629811],[34.15826237593103,0.9406441340830697],[34.158435506406875,0.940219136541337],[34.15784341141516,0.9398805463690366],[34.15698791369647,0.939507820861518],[34.15707390799049,0.938231910285477],[34.1541282610999,0.936319298928044],[34.15280796035488,0.933106600038707],[34.15001226981303,0.932695019072356],[34.14361958442907,0.928261464652435],[34.1390438182593,0.922260354244104],[34.13681966281523,0.920586365559473],[34.13828950954088,0.918881707814226],[34.13894348148531,0.919063052826893],[34.13978427923471,0.913934573592901],[34.13702048800935,0.913284297158549],[34.136379797047674,0.912362311616498],[34.138762430119876,0.912192261035332],[34.14602255577131,0.90951443882568],[34.14694740315428,0.908516405177008],[34.14820956814139,0.903761481103075],[34.1534484955496,0.899779632616134],[34.149148706421535,0.8927757107894764],[34.14913740444336,0.892757412301458],[34.14759108337968,0.893108838184672],[34.14591767924245,0.88907788646389],[34.14543362793669,0.8886150450278332],[34.14448989224089,0.887713917861296],[34.14449017678701,0.8877129334545887],[34.144487708887574,0.88771057369209],[34.144810601732175,0.88660367758589],[34.13985101996063,0.8806580991995852],[34.13985098551345,0.880658077191431],[34.13974181446221,0.8807417405990761],[34.13251835887442,0.8875051034742683],[34.13140334092331,0.88894492475725],[34.131294127201194,0.891830206132946],[34.129604899065775,0.892319479257198],[34.12752898365165,0.894300876007889],[34.12454260923995,0.89522456437248],[34.124327360942495,0.8951743817926935],[34.1243,0.8952],[34.1083,0.9025],[34.1266,0.9381],[34.12717608774504,0.9430378949574985],[34.12759475549568,0.943712855830436],[34.128810579347,0.954068990574055]]]}},{"type":"Feature","properties":{"n":"Busiu Town Council","c":"209208","d":"Mbale","od":"Mbale","dc":"209","k":"BUSIUTOWNCOUNCIL","a":["BUSIU","BUSIUTOWNCOUNCIL"],"lat":0.916261,"lon":34.158179},"geometry":{"type":"Polygon","coordinates":[[[34.15010558811221,0.9327087573724934],[34.15280796035488,0.933106600038707],[34.15412819537924,0.9363191390094148],[34.15412826138831,0.9363192991153084],[34.156745366700555,0.9380185881101292],[34.1572815497458,0.9377231250745424],[34.15733239100716,0.937414379544626],[34.15996529750305,0.9362442490337038],[34.160310206634435,0.936054187263074],[34.16071494682042,0.934428190337619],[34.16101609615381,0.9342730515458598],[34.16104712229921,0.934184461799579],[34.16115595984962,0.9342009999675437],[34.161603469866876,0.933970462637129],[34.162905300903105,0.9344668171975257],[34.162979913812265,0.9344781548362292],[34.164409324821435,0.933768254289689],[34.16443451493597,0.933796322710906],[34.16449138955329,0.93376805571173],[34.16530041678208,0.934669246935229],[34.167177115407895,0.934907141467513],[34.16773322717535,0.936515122404273],[34.17035972836702,0.9364897985651162],[34.1712018481436,0.9363107650730133],[34.171844918772734,0.9346616190653616],[34.17239823318913,0.933031820173672],[34.17247139683431,0.933055024474751],[34.172480432464894,0.933031852721254],[34.17315856990934,0.933245999569288],[34.17314831546895,0.9353209453496999],[34.174766819233035,0.934268982947825],[34.17718084086125,0.9339925733310035],[34.17767580973138,0.9338228276447822],[34.17800175119393,0.9328222991365904],[34.177929418471564,0.93237936280294],[34.178631795115145,0.9308882803723892],[34.17927441152464,0.928915668380932],[34.17954918225894,0.9289407499916171],[34.17963310743217,0.928762584398523],[34.18077914475541,0.9290529276276039],[34.18082111187987,0.925628373402717],[34.180820866123035,0.9256266739588493],[34.178226387901375,0.924551540951497],[34.17804040375604,0.9239291320709663],[34.177844960513234,0.923809861380042],[34.17644425217547,0.9185874997686381],[34.17644419908153,0.918587322086074],[34.17817084959827,0.910711362765275],[34.17148786408834,0.90662391509086],[34.171855852562906,0.9059962082201354],[34.16955094413874,0.9058269333263466],[34.16933942040331,0.905811485846783],[34.167152797056225,0.903990367424537],[34.16512539614244,0.903747304409467],[34.16410797815713,0.9006534802793184],[34.16048315284102,0.898817984537884],[34.16048314540138,0.8988179754456525],[34.16048294927403,0.898817876149201],[34.158683857906254,0.8966194029148438],[34.150691981018696,0.9018747223852535],[34.14863686734599,0.9034367122031198],[34.14695729925,0.9084791238514692],[34.14694740315428,0.908516405177008],[34.14602255577131,0.90951443882568],[34.14584141707084,0.9095812499606964],[34.14558529559078,0.909828125301223],[34.143954539787266,0.9102772051189739],[34.138762430119876,0.912192261035332],[34.13638389864862,0.9123620188816943],[34.136380285122264,0.9123630139796435],[34.13699206177343,0.9132433904186309],[34.137020623659176,0.9132843290748118],[34.13978427923471,0.913934573592901],[34.13894348148531,0.919063052826893],[34.13828950954088,0.918881707814226],[34.13681966281523,0.920586365559473],[34.1390438182593,0.922260354244104],[34.14361958442907,0.928261464652435],[34.15001209238049,0.9326948960165865],[34.15010558811221,0.9327087573724934]]]}},{"type":"Feature","properties":{"n":"Jewa Town Council","c":"209209","d":"Mbale","od":"Mbale","dc":"209","k":"JEWATOWNCOUNCIL","a":["JEWA","JEWATOWNCOUNCIL"],"lat":1.094955,"lon":34.25933},"geometry":{"type":"Polygon","coordinates":[[[34.254220954708806,1.094592533588283],[34.25429024905059,1.0946292888094495],[34.25563041548993,1.0953398973940005],[34.25567871089034,1.0953268569730772],[34.2577955296734,1.094749807652277],[34.25671461017354,1.0982926263394532],[34.25662082486645,1.0986004307004986],[34.25803954429331,1.100841161411954],[34.25667113447981,1.101998428941718],[34.25743419329521,1.109768229834276],[34.25743932266921,1.1097768994999209],[34.25829604998287,1.111208157271834],[34.25829255729375,1.111219036282437],[34.258307164819065,1.111243725915225],[34.25836060863023,1.1111983006995565],[34.25832312328952,1.11117841082196],[34.261175160485685,1.108805945016386],[34.26124444262496,1.106743877424806],[34.26124520762733,1.1067433742141557],[34.261245216328604,1.106743117780952],[34.262424223825,1.1059677368801515],[34.26287168210645,1.104442259647483],[34.262871738234544,1.1044422423777107],[34.26287175182757,1.104442195994966],[34.26295180985376,1.104417605543141],[34.2640038067714,1.1040939218924],[34.26447176699112,1.1025703881641131],[34.26252523706402,1.099034424341262],[34.26294722627707,1.095852596496241],[34.262605546440774,1.095160925938956],[34.2609877176124,1.095169161592893],[34.260150608312,1.0921846968696323],[34.26013864892707,1.092142106201581],[34.26013865946953,1.0921420968186912],[34.2601384956483,1.092141512762722],[34.261175033510206,1.091219714184035],[34.261839303792584,1.0906285073907984],[34.260875535758075,1.088424017063643],[34.26087557043717,1.0884236245581151],[34.260875511745795,1.088423490317683],[34.261036764335806,1.0865991971220552],[34.26113302436815,1.0855097052399505],[34.260835161056185,1.085149601884129],[34.25945015975778,1.083475503790764],[34.25945017872319,1.0834752204956373],[34.25944997440769,1.083474973487372],[34.25960559540002,1.0811532301684876],[34.25890576581277,1.0795146236202178],[34.25871776433243,1.079074459270753],[34.25427638630087,1.081812626020576],[34.254274875665246,1.081813606090165],[34.25356714827428,1.086917018531775],[34.25449764217383,1.08957205414082],[34.254220954708806,1.094592533588283]]]}},{"type":"Feature","properties":{"n":"Lukhonge","c":"209210","d":"Mbale","od":"Mbale","dc":"209","k":"LUKHONGE","a":["LUKHONGE"],"lat":0.891118,"lon":34.20657},"geometry":{"type":"Polygon","coordinates":[[[34.19095187171222,0.868687714364646],[34.19095203380953,0.86868871590774],[34.19095257848068,0.868689216281007],[34.19153760884221,0.872306753455018],[34.19153761436627,0.8723068152944963],[34.191537628532366,0.872306902821903],[34.19178851006565,0.8751154858272113],[34.192488981827,0.882956968961247],[34.19676575086785,0.893423305046754],[34.19616778409304,0.8950671788096461],[34.196167929789105,0.8950674702356491],[34.19933219316856,0.898279061679719],[34.19924352998396,0.899470863209041],[34.2144520494262,0.8963564513663],[34.216963218571806,0.896533992272237],[34.21696224681801,0.8965386635614194],[34.21716469015219,0.89729106598841],[34.215815610552006,0.9020506251287186],[34.21581550546466,0.9020511302910245],[34.21583964835201,0.9020779887325096],[34.21752804909298,0.903951205872338],[34.2168356385804,0.906692188263725],[34.215224653481414,0.9079510053546666],[34.21485353582957,0.9097209532499714],[34.21537554467306,0.911784428824461],[34.219786279171124,0.913152907675211],[34.219786333797764,0.9131529746281043],[34.21978700497346,0.913153182804172],[34.22083082531747,0.914432861138871],[34.22246523946153,0.926484342004433],[34.22160184693367,0.92842110021899],[34.21967913031932,0.928881274787227],[34.218095824539965,0.9302067135066571],[34.21724055782838,0.930923078073013],[34.21724025960015,0.9309229358011805],[34.21723936732189,0.930923682757437],[34.21599230830614,0.9303471513232103],[34.209127337217524,0.9331815122318383],[34.20821843020934,0.934092451573657],[34.208279508651756,0.9342921818678086],[34.20879026040227,0.9352631100090859],[34.21328626085691,0.9379905855920546],[34.213312599315685,0.938004359268644],[34.21400550749794,0.9393573790404062],[34.21406442801309,0.9394721452119253],[34.21943345886887,0.939526193623211],[34.219481862725246,0.9395563398488519],[34.22084586176673,0.940384300598504],[34.220854979092756,0.9404115253432934],[34.22106100815172,0.940539841534715],[34.221467214864106,0.9422396888397412],[34.221823561515535,0.9433037559372773],[34.2244235703002,0.942059706006571],[34.22583896166596,0.94000180681398],[34.225839033968015,0.9400018865996537],[34.225839169899366,0.940001688980437],[34.22683465396873,0.9409364805600632],[34.228395121274,0.939433476406274],[34.228680607531,0.9395635153977465],[34.22895774805221,0.939343373136116],[34.23107602241591,0.9404947208375781],[34.23257805783521,0.9400596230989501],[34.232586465305936,0.940056842172955],[34.232588777559265,0.9400536450331052],[34.23358700984731,0.93854588478402],[34.23365814464784,0.9385750370914226],[34.233704775555005,0.938510560794743],[34.233991712922325,0.9387117393075743],[34.23512783835734,0.939177343733034],[34.23372482319538,0.938097923885721],[34.23421218068835,0.935539783290099],[34.233199169298096,0.93318448871954],[34.23340760730815,0.9322916415302993],[34.23262404819602,0.9304224282266559],[34.23093162187923,0.927639740471698],[34.2289090561158,0.926008717060276],[34.22800874221959,0.9194124211985457],[34.2205,0.9015],[34.21924151226231,0.8947356284098854],[34.21873018946419,0.894431678691418],[34.21633339373116,0.888812086396067],[34.21741328607557,0.8849089126561928],[34.2149825631596,0.8718437769828679],[34.21487108421706,0.871760833759606],[34.212354699534366,0.868073757706151],[34.212071301332436,0.865242686950488],[34.21279912503624,0.862391709123549],[34.21075485406817,0.862826356387793],[34.20829454450613,0.860699249948302],[34.206280761961914,0.857630101367015],[34.207033493219996,0.856321135585282],[34.20170023311843,0.851909888109736],[34.20222776550303,0.849014321286441],[34.200338421008084,0.84772208253178],[34.20025607167131,0.8462977176860349],[34.19728626796833,0.8433380153561933],[34.19649627081117,0.843161991523504],[34.195490543111674,0.8445118046152824],[34.19517919193717,0.845606516074232],[34.19457142997815,0.8457453700635484],[34.18974042603525,0.8522291850880732],[34.18862870804175,0.858278150267712],[34.18945338670465,0.867311953174229],[34.19024249339692,0.8680368821339229],[34.19095187171222,0.868687714364646]]]}},{"type":"Feature","properties":{"n":"Wanale","c":"209211","d":"Mbale","od":"Mbale","dc":"209","k":"WANALE","a":["WANALE"],"lat":1.034314,"lon":34.240662},"geometry":{"type":"Polygon","coordinates":[[[34.22576415285147,1.047721923353616],[34.23047213349477,1.050803489357125],[34.22974533622351,1.054196732556357],[34.23943410796562,1.061479246446584],[34.239434156195756,1.0614792417015562],[34.24193644421154,1.060532419184078],[34.24349369655086,1.05943778469714],[34.24717504669692,1.0585502225856118],[34.247176906816655,1.058549518748466],[34.25000648510995,1.059568552987435],[34.25298652905712,1.056422315432784],[34.25214073370539,1.054558582375046],[34.25214272673151,1.0545572833398105],[34.25214240799698,1.054556580243321],[34.25456431948885,1.052978838687151],[34.2545643200021,1.0529789121664603],[34.254565158654074,1.052978365541182],[34.2548876470748,1.05544709555297],[34.25751346708425,1.0541702670228252],[34.25757633222048,1.0536261072508966],[34.25787037389971,1.051077193717965],[34.25848689530076,1.0501248620755965],[34.25950553811773,1.0485501038235416],[34.2565818974246,1.046940597132231],[34.25653214138456,1.046913230769847],[34.25217874104557,1.046190503308376],[34.25486870248425,1.040781720263244],[34.258269022614165,1.038645305037764],[34.26125318970484,1.033389283912243],[34.26125353026614,1.0333889578679314],[34.26453156482284,1.0300228893043848],[34.26542686420924,1.028467998420771],[34.2594719666425,1.0188893950224132],[34.25946716160904,1.018881916531809],[34.259465216078645,1.0188807906718926],[34.25765816600963,1.018103147646387],[34.257578941979745,1.0177892218104385],[34.25740499879309,1.017688562544468],[34.25724583093834,1.0164692667122657],[34.2566331225066,1.0140414047754738],[34.253452422934636,1.0077511753750934],[34.252016248373266,1.00817472890071],[34.24121983544533,1.0140943631142196],[34.24118852897613,1.014112754011719],[34.24071475688241,1.016971369169359],[34.23683954342933,1.019427551743558],[34.23601674093122,1.019949069475242],[34.23140373397222,1.02694293687567],[34.231223263448825,1.0269658980062564],[34.23104121327177,1.027232392812271],[34.22885178863583,1.027738522925074],[34.228851698065505,1.0277384970979122],[34.228851781772434,1.027738532995456],[34.22515138606726,1.0322426440934327],[34.22514906624423,1.032245523954509],[34.22514899696004,1.0322455521079343],[34.225148926234056,1.032245638195397],[34.218560265853014,1.0352388205594345],[34.218367985955695,1.0354710783137329],[34.21878944208442,1.0364312330209937],[34.22377221788441,1.041779535582563],[34.22576415285147,1.047721923353616]]]}},{"type":"Feature","properties":{"n":"Industrial Division","c":"239101","d":"Mbale City","od":"Mbale","dc":"239","k":"INDUSTRIALDIVISION","a":["INDUSTRIAL","INDUSTRIALDIVISION"],"lat":1.062092,"lon":34.173674},"geometry":{"type":"Polygon","coordinates":[[[34.11214135010516,1.060766073861758],[34.11199031142857,1.0626007809436473],[34.11394698281691,1.0657781280604932],[34.11430076722455,1.066053508394628],[34.115289511984855,1.0679581983607338],[34.11549608829687,1.0682936479683252],[34.12048402029642,1.069091474774705],[34.12531983504725,1.074937337091779],[34.12532684012299,1.075074658574756],[34.12655620681807,1.076648955493647],[34.126765080432186,1.076764181023808],[34.12676394745742,1.0769149830749707],[34.12874603295283,1.0794531932777323],[34.129767695610894,1.080114362552045],[34.12999839617973,1.0810569389927498],[34.133724699127455,1.0858287514006293],[34.13416866443169,1.085750453073227],[34.13402308632161,1.086210858742787],[34.13422808237959,1.0864733716803459],[34.13457322003483,1.08644005901568],[34.1351071429748,1.0875990751763627],[34.13608544255716,1.0888518616919058],[34.136264331987164,1.086996361562118],[34.13725362563131,1.087555955808218],[34.13823095316575,1.085865319665174],[34.13943977054944,1.086451571659983],[34.14120262557276,1.085917214453756],[34.141492138622986,1.084117563954122],[34.14294345234032,1.082460293073061],[34.1474914577618,1.081664161421043],[34.148480159715135,1.083146507130025],[34.150044436183265,1.083299683939339],[34.15145223809215,1.082413439396743],[34.15299623885861,1.084013145258128],[34.15695891496153,1.084808504252763],[34.158017520810866,1.085987688174238],[34.15652262540829,1.087711395108752],[34.158242036780564,1.089637405329284],[34.16015840430346,1.08979138305358],[34.161326664216716,1.091083477415967],[34.16227255696154,1.090703661866917],[34.16464398812014,1.092288179175402],[34.16615839422097,1.091817463608229],[34.16760694890616,1.092659672721857],[34.16938667708741,1.091767555958681],[34.17066181477307,1.092083860222144],[34.17252342007816,1.089054868573569],[34.17363223919976,1.088735888752919],[34.1735386350821,1.08788718507998],[34.17495324931055,1.087313402886686],[34.17262951964425,1.084778778882153],[34.17073007989554,1.07921812708186],[34.173308216220285,1.078137978650609],[34.1764093190804,1.075100487894591],[34.18415296431611,1.070049502818522],[34.18538148314665,1.071139002509172],[34.18854756716582,1.084089623960588],[34.18925428213326,1.084148487896909],[34.18973224379093,1.082408673160466],[34.19073743409776,1.082070273910898],[34.191385093054436,1.082730326570994],[34.193386999219605,1.082610359114035],[34.19485293839972,1.08406006462313],[34.19950267186628,1.083800485492506],[34.2048362353977,1.082053171611197],[34.20442446921616,1.080709306872076],[34.206422956223605,1.078972616544302],[34.20717908998412,1.079885265070766],[34.211676806034745,1.078391238396218],[34.212975130874355,1.079484944875846],[34.21454456007695,1.078824072683671],[34.21415306845547,1.078270464445778],[34.215692605013125,1.075143645561322],[34.21757929464535,1.073730074145308],[34.22026542043227,1.073910077913419],[34.22548814566306,1.070081823805804],[34.22835709855371,1.070335552218301],[34.22899993903665,1.068850537325467],[34.23198339920155,1.068036992108065],[34.23365373415746,1.065345944313569],[34.233188075538195,1.064229473317306],[34.23374942942211,1.063261106640775],[34.2359986850288,1.061583823466156],[34.23912283228287,1.0612452777306634],[34.22974533622351,1.054196732556357],[34.23047205191885,1.050803870215643],[34.227584032662875,1.048913109168129],[34.22576415285147,1.047721923353616],[34.225764035333725,1.0477215727718896],[34.22576391956198,1.047721496977135],[34.22499167078386,1.0454174364763567],[34.2237722849363,1.0417797356133693],[34.22376841366157,1.0417754522893168],[34.2203786035494,1.0381369722866252],[34.21930723482708,1.0376108602831446],[34.219359275340565,1.037729418160438],[34.216032167627866,1.0360032595782136],[34.21330519879264,1.036492575345494],[34.21330488789449,1.036492505212216],[34.21330449553761,1.036492575617991],[34.21027096585401,1.035817288949136],[34.204863996338084,1.036694796949386],[34.20486374314115,1.0366946987209211],[34.20486366080236,1.036694712181941],[34.19121207973573,1.0313985176081544],[34.18675883384038,1.032632355295038],[34.1850561504296,1.034266051392173],[34.18332493489462,1.033738819180536],[34.18128649498566,1.035026522562585],[34.18170993739777,1.036526100692686],[34.18170741515083,1.0365270231614652],[34.18170767983336,1.036527960526451],[34.17919418481879,1.037446212745443],[34.179194152595436,1.0374462060564988],[34.17919391084071,1.037446294474166],[34.17748086973281,1.037091766232011],[34.1771854688627,1.035112727747171],[34.1759579688102,1.035113796562815],[34.17573282324804,1.034513072658904],[34.1723733942936,1.0331347035738947],[34.172372026164936,1.0331342048438144],[34.16825044950895,1.0341298073339904],[34.16228967323619,1.0361623356948342],[34.15915038598691,1.038978461240973],[34.159148522044205,1.03898046511004],[34.157193436357545,1.043538096674767],[34.157192688263166,1.0435386298376004],[34.15719260634575,1.043538820752412],[34.15529574731145,1.044890569436417],[34.15354085443747,1.046141272135336],[34.15354062465405,1.0461413132710915],[34.15354050865756,1.046141395933063],[34.15156624485303,1.0464947661165538],[34.14886999764429,1.04697744743628],[34.1439092683796,1.0459156669864402],[34.14105946637363,1.046371387299246],[34.13819480735354,1.0468294975200465],[34.13816249849661,1.046838966933628],[34.13515403952628,1.047721009674549],[34.12879288600585,1.0517004735260913],[34.126024066629384,1.053432656663554],[34.12602401250866,1.053432648666366],[34.126023663024434,1.053432867299642],[34.120016880689434,1.0525452386814365],[34.10897115942097,1.05699433730781],[34.11071609870997,1.058140868922635],[34.11214135010516,1.060766073861758]]]}},{"type":"Feature","properties":{"n":"Northern Division","c":"239202","d":"Mbale City","od":"Mbale","dc":"239","k":"NORTHERNDIVISION","a":["NORTHERN","NORTHERNDIVISION"],"lat":1.118633,"lon":34.185883},"geometry":{"type":"MultiPolygon","coordinates":[[[[34.127911975350045,1.1701548388223006],[34.136435084853694,1.16517760311979],[34.13717363195136,1.163954616567782],[34.14261721406082,1.161567428430133],[34.1465,1.1593],[34.159065884501125,1.1640718548738433],[34.160330362555506,1.164413511913067],[34.164518104045754,1.163271392986925],[34.16948641210945,1.160549293620404],[34.16897902858927,1.158761652228691],[34.171256736696485,1.158436235998445],[34.17481946959895,1.153955794447597],[34.17767017197921,1.155344629224401],[34.18053857206787,1.154402758145991],[34.18451096048825,1.154979314487643],[34.18458759401467,1.1549512155279535],[34.18655622476084,1.153489991602373],[34.19115829482463,1.15220481306597],[34.19324329004675,1.150236360347465],[34.1936041875302,1.151071396623766],[34.19432632790234,1.150595951676756],[34.19498724929155,1.151261356389961],[34.196725532197675,1.150692770308064],[34.19563530393184,1.155165981857496],[34.19562622601121,1.1579127328719698],[34.21198421802666,1.1627044679067984],[34.21669153605489,1.1628680702902756],[34.21772599416419,1.162539828774824],[34.221126986335435,1.16049094041211],[34.22465874313356,1.1603400141980047],[34.225054400402826,1.1602144691029495],[34.22449650796816,1.158081278847299],[34.2236092111428,1.157776594991803],[34.22419243636862,1.156096826056494],[34.225192466797,1.156018460753424],[34.22513818893398,1.142555988029554],[34.22614068355325,1.142915603593907],[34.2274,1.122],[34.23711305060142,1.122],[34.237529703259305,1.120323744563478],[34.23994037506203,1.1194951213886233],[34.24084044125592,1.113482829014538],[34.238836355023146,1.110273327933705],[34.23993475864849,1.108509055217519],[34.243935046842665,1.106408880855431],[34.24936444087616,1.105755489187031],[34.25112417715418,1.1029339465414305],[34.250267142220395,1.099991288881141],[34.2523594129257,1.099528796620358],[34.25367772291067,1.0964838275950437],[34.25409910425519,1.0950167624035743],[34.25405732451497,1.093328743355742],[34.254307023774984,1.0930308149258288],[34.25449764217383,1.08957205414082],[34.25356714827428,1.086917018531775],[34.25360061497717,1.0866756905994719],[34.25350731186877,1.086451713426769],[34.25396726327979,1.0840317947531302],[34.254274875665246,1.081813606090165],[34.25427481371965,1.081813646279207],[34.250066636617525,1.080962239239736],[34.24338973176071,1.075112773086098],[34.243389521042474,1.0751123217751155],[34.243389494961434,1.075112298925587],[34.239707997523034,1.067227518474455],[34.23970798210166,1.0672272948368102],[34.23970783696262,1.067226983981681],[34.239707560833764,1.0672211856926899],[34.23930491820702,1.0613821416497582],[34.23919858567754,1.0613022173679736],[34.23599956362076,1.0615837282582359],[34.2359986850288,1.061583823466156],[34.23374942942211,1.063261106640775],[34.233188075538195,1.064229473317306],[34.23365373415746,1.065345944313569],[34.233653189129214,1.0653468223991605],[34.23365327465852,1.065347025491536],[34.23300054560503,1.0663982851073592],[34.23198339920155,1.068036992108065],[34.229204153645505,1.06879485103868],[34.228999890543946,1.068850649347634],[34.22835709855371,1.070335552218301],[34.22835555670507,1.0703354158581646],[34.22835513111124,1.07033639689074],[34.22548801374851,1.0700819204990806],[34.22250768452541,1.0722664998300244],[34.22026635462827,1.073909622596726],[34.22026606771832,1.0739096034531739],[34.22026542043227,1.073910077913419],[34.21847551423989,1.0737901319820848],[34.217578976992655,1.0737303121414021],[34.215692605013125,1.075143645561322],[34.2144960817748,1.0775737999078927],[34.21415323946846,1.078270706275225],[34.21454456007695,1.078824072683671],[34.214538400387724,1.0788266664721122],[34.21453875013855,1.078827168856068],[34.214061374602615,1.0790275376396723],[34.212975130874355,1.079484944875846],[34.211676806034745,1.078391238396218],[34.20717908998412,1.079885265070766],[34.20642327874651,1.0789730058273541],[34.20597031870974,1.0793659597030971],[34.20442446921616,1.080709306872076],[34.2048362353977,1.082053171611197],[34.2048359929179,1.0820532510493281],[34.204836002115485,1.082053280936878],[34.20442124087627,1.082189126809572],[34.19950267186628,1.083800485492506],[34.19485293839972,1.08406006462313],[34.1948529036969,1.084060030304603],[34.19485279635651,1.084060036299926],[34.194806203023475,1.0840138467899945],[34.193387782872236,1.0826111340885716],[34.19210913604518,1.0826869371265535],[34.191385093054436,1.082730326570994],[34.19138466147183,1.0827298867295547],[34.1913843189512,1.082729907035478],[34.19073704770318,1.0820704039913773],[34.189961580418945,1.0823314665436785],[34.18973220042816,1.0824088310040423],[34.18925428213326,1.084148487896909],[34.18854756716582,1.084089623960588],[34.185575702367856,1.071933441190275],[34.18538143973705,1.0711389640118016],[34.184956968185155,1.0707625256431033],[34.18415249697943,1.0700498076504898],[34.1764093190804,1.075100487894591],[34.17454195029773,1.0769295518345168],[34.173312815635434,1.078133749668778],[34.17331232280775,1.0781339563004821],[34.173308216220285,1.078137978650609],[34.17073007989554,1.07921812708186],[34.17262951964425,1.084778778882153],[34.17495324931055,1.087313402886686],[34.1735386350821,1.08788718507998],[34.17363223919976,1.088735888752919],[34.17252342007816,1.089054868573569],[34.17251891786951,1.0890621940535532],[34.17147618127557,1.091458990860499],[34.17077326549278,1.0919025203332335],[34.17066181477307,1.092083860222144],[34.170535522335,1.0920525327529205],[34.17035730525056,1.092164985099886],[34.16938577704235,1.0917680071204334],[34.168624919788364,1.0921493987946314],[34.167608391130564,1.092659679280014],[34.167607717036944,1.0926592876842118],[34.16760694890616,1.092659672721857],[34.16615839422097,1.091817463608229],[34.16464398812014,1.092288179175402],[34.16464189539766,1.0922867808826535],[34.16464135673446,1.09228694762279],[34.1640050081966,1.0918612324580355],[34.16227268719279,1.0907037488834292],[34.16223169541903,1.09072006948743],[34.161326664216716,1.091083477415967],[34.160349112119256,1.0900023057180128],[34.15824673682772,1.0896377829721715],[34.158242036780564,1.089637405329284],[34.15720530564751,1.0884761039732407],[34.15683008873214,1.08857564703496],[34.1565251677038,1.087714242878172],[34.15652262540829,1.087711395108752],[34.15727552864069,1.086843251076424],[34.15801672374597,1.0859868003214974],[34.15695891496153,1.084808504252763],[34.15299623885861,1.084013145258128],[34.151452408788316,1.0824136162513556],[34.15114531181145,1.082606656737571],[34.150044436183265,1.083299683939339],[34.148480159715135,1.083146507130025],[34.147987414213816,1.0824077413401596],[34.14748903829953,1.0816645849496704],[34.144188703991325,1.0822423108671888],[34.142942952241214,1.0824608641416575],[34.14149228080939,1.084117401589929],[34.141411282103846,1.0846201785165954],[34.14120262557276,1.085917214453756],[34.13996642788026,1.0862919311131338],[34.13944154044365,1.086451388206215],[34.13944109280734,1.0864511708567242],[34.13943977054944,1.086451571659983],[34.138231190992585,1.0858654350063788],[34.13812815365153,1.0860431480472745],[34.13725362563131,1.087555955808218],[34.13706413288523,1.0874487691796444],[34.13626431790548,1.0869965076219799],[34.13626190047855,1.0870215819708557],[34.13621030077257,1.0890117520684708],[34.1387,1.0922],[34.138622652129726,1.0924675818214986],[34.13904974839777,1.092883858436837],[34.13912474900473,1.099829457880406],[34.13815852073798,1.101531080144142],[34.13538386684851,1.103672028199756],[34.13330564492296,1.1108615526989523],[34.1336294987466,1.113797902201242],[34.13144057287509,1.117770438027713],[34.13204349700961,1.119806677398773],[34.13179287690856,1.1203496901615992],[34.132622534339795,1.124641571873149],[34.13272297518079,1.1247722839506],[34.13280764394677,1.1255991581092235],[34.134841022361464,1.1361179810621778],[34.137099077997696,1.142878487767606],[34.136390570157474,1.144133911006941],[34.1365,1.1447],[34.126974150451844,1.1622816605857895],[34.124946273710165,1.169513917214523],[34.120393840584605,1.1745451999639513],[34.12530535841296,1.1716770235222054],[34.12785993010613,1.170163531632883],[34.127911975350045,1.1701548388223006]],[[34.22040963163067,1.152818632722181],[34.220405257029725,1.152813058960202],[34.22044928684941,1.152774111609096],[34.22040963163067,1.152818632722181]],[[34.173409547445736,1.106114719138458],[34.17338124913908,1.10606602747638],[34.173412980243675,1.106108565058581],[34.173409547445736,1.106114719138458]]],[[[34.254283251788415,1.0818081718322632],[34.25427638630087,1.081812626020576],[34.254283522884855,1.0818082262246524],[34.254283251788415,1.0818081718322632]]]]}}]}
