{"type":"FeatureCollection","name":"Mbarara sub-counties","metadata":{"source":"Uganda Bureau of Statistics NPHC 2024 Map Explorer","retrieved":"2026-07-26","display_only":true,"clipped_to_dashboard_district":true,"positive_area_overlaps_removed":true,"source_gap_ratio":0.01269582},"features":[{"type":"Feature","properties":{"n":"Kagongi","c":"410105","d":"Mbarara","od":"Mbarara","dc":"410","k":"KAGONGI","a":["KAGONGI"],"lat":-0.259025,"lon":30.570232},"geometry":{"type":"Polygon","coordinates":[[[30.508334837736076,-0.27963381707688856],[30.511742805490147,-0.277545278393299],[30.519460673739932,-0.267760068752092],[30.515854764851646,-0.264711603536491],[30.50632071149787,-0.26114964184410394],[30.506319246378542,-0.261146130208886],[30.50649653993411,-0.26097138195488484],[30.51244243841723,-0.25708031603578185],[30.514334653891382,-0.256545272825367],[30.51789181118884,-0.26048664079604],[30.520841673859447,-0.261362445272011],[30.527152897127973,-0.254671413278022],[30.53015173108901,-0.253361608836407],[30.530534344935788,-0.250484351256454],[30.533457203838598,-0.24981968469412],[30.542391503117337,-0.250146492068788],[30.544316095811023,-0.247252277498009],[30.547428847901777,-0.247694464953638],[30.548382845529446,-0.246288729622273],[30.55166199120601,-0.246590166470549],[30.559177991530415,-0.241830940685733],[30.561081045469944,-0.242464944013717],[30.564140859477515,-0.241489503781522],[30.565143436743547,-0.240899279743975],[30.56574505498726,-0.238886273680404],[30.566991733899528,-0.239294587923456],[30.57052130573486,-0.238160644904865],[30.57163176065785,-0.236514118290845],[30.57567136870242,-0.23493509657065587],[30.57630301666832,-0.23501444933019125],[30.57952596209269,-0.23721752879402],[30.58315895923543,-0.237263493171345],[30.586820864672074,-0.238366922109324],[30.590527727094397,-0.241855258218812],[30.59356786286244,-0.23718339985709078],[30.5937,-0.2372],[30.598298583788804,-0.22213229992604672],[30.598932450360277,-0.221379594398381],[30.600596402648474,-0.221715093616045],[30.602854774728467,-0.220875885053993],[30.604880022430365,-0.217720818119044],[30.607217583960683,-0.211032818335871],[30.608639672362358,-0.20946581539176182],[30.614541671270633,-0.2262474026490367],[30.6144632599949,-0.228057691205436],[30.616396617598543,-0.232151286692354],[30.62021068098429,-0.233789685042824],[30.62163281074439,-0.236239028437493],[30.62488120770812,-0.234558837408478],[30.62475148890645,-0.23510305358701133],[30.6175,-0.2527],[30.61773246713429,-0.25740100204898225],[30.617521114604756,-0.257672919939662],[30.617311579562383,-0.260376135113119],[30.617844464084936,-0.261898343072773],[30.617958249858525,-0.26196683047239455],[30.61809394448708,-0.26471087740537824],[30.617468557189248,-0.26582410639627],[30.61821037841743,-0.26706543021912865],[30.61839808365397,-0.27086124722476645],[30.617245240426993,-0.27144012947769736],[30.6122,-0.2738],[30.61220334809988,-0.27383103431038663],[30.611165326927015,-0.274898880231329],[30.61045355002956,-0.276862148460834],[30.61187724235862,-0.2778193603038],[30.61267275192607,-0.283288380423499],[30.611283768733124,-0.285883528620021],[30.611100489071084,-0.289886837445063],[30.60912169560657,-0.289595993762918],[30.60907280867393,-0.291631016575287],[30.60627096698581,-0.29096150740733],[30.606152592733114,-0.289741690362629],[30.604893880360926,-0.290102786181509],[30.60547573073299,-0.292407645718704],[30.604597207200772,-0.295010796276198],[30.602555471632225,-0.295679269889173],[30.60136884555122,-0.295155788453203],[30.593933011851526,-0.297762825601739],[30.589678536375786,-0.296178141272363],[30.57920675514823,-0.297056096769603],[30.574102418156354,-0.298647987916475],[30.569858299941075,-0.296894311576119],[30.563765548256487,-0.29643916712243],[30.55963480180279,-0.295100551669921],[30.552001580961978,-0.296734866714267],[30.544859794527046,-0.297523291395094],[30.544031892198227,-0.296878828968964],[30.538835070089032,-0.300045242187716],[30.536528886424033,-0.303315523723426],[30.533097708537156,-0.303310764291106],[30.531165589271442,-0.302706381211585],[30.5305007151537,-0.30158521349502],[30.522763904115106,-0.302883915816048],[30.517881551695805,-0.305630016819001],[30.51547876847025,-0.307962821961284],[30.51269838937884,-0.302889819144448],[30.510251435569185,-0.303273404555519],[30.509799796032418,-0.299944364735636],[30.50830065447354,-0.297874101444167],[30.50533053609321,-0.296160671783265],[30.503732118484507,-0.296103752140994],[30.501833964311427,-0.294034144258388],[30.499443573336272,-0.2930247039841244],[30.500724386816742,-0.2861083111896102],[30.500961775082896,-0.28556975734851736],[30.508334837736076,-0.27963381707688856]]]}},{"type":"Feature","properties":{"n":"Kashare","c":"410106","d":"Mbarara","od":"Mbarara","dc":"410","k":"KASHARE","a":["KASHARE"],"lat":-0.346936,"lon":30.590663},"geometry":{"type":"Polygon","coordinates":[[[30.565402424108555,-0.364845232644125],[30.5677230678284,-0.359408518894116],[30.567430892031613,-0.356901966829616],[30.572755733264128,-0.341597421016064],[30.57619200591701,-0.336684740022021],[30.578446137665974,-0.330901712847928],[30.5824499125985,-0.326390237336115],[30.58703160814175,-0.315345370394667],[30.58864658941239,-0.314414679043029],[30.588848380365135,-0.31248937718515],[30.596326649724368,-0.300107606687266],[30.596516920639242,-0.297305056507168],[30.601354757592524,-0.2951607277556605],[30.60136884555122,-0.295155788453203],[30.602555471632225,-0.295679269889173],[30.604597207200772,-0.295010796276198],[30.604597347485246,-0.2950103805996736],[30.604597740984246,-0.295010251746047],[30.60528246261288,-0.292980317930839],[30.60547573073299,-0.292407645718704],[30.604926342335453,-0.29023137644315505],[30.60546837148861,-0.2899379778036988],[30.60590543767758,-0.28981259350074096],[30.606163676287203,-0.2898559036132927],[30.60627096698581,-0.29096150740733],[30.606272375266766,-0.2909618439206368],[30.606272371953093,-0.290961895005083],[30.607636797748892,-0.29128787710253357],[30.60907280867393,-0.291631016575287],[30.60907280997804,-0.29163096228889135],[30.6090729289706,-0.291630990718026],[30.609076323151292,-0.29148471896109535],[30.609121662001495,-0.2895973926459364],[30.61110048711874,-0.289886854495726],[30.612914629382644,-0.296309852372224],[30.611807016935337,-0.305070890544485],[30.615726474294863,-0.307775693874673],[30.617292529908788,-0.315428595278936],[30.61843270571581,-0.317103906768311],[30.617129475706932,-0.325423693855374],[30.608961935656488,-0.321033760034984],[30.608061106954437,-0.322876002838415],[30.60704476625394,-0.336597930621307],[30.609900460263137,-0.337311715637586],[30.6105858609121,-0.3464718262283],[30.610029007060003,-0.348118546048147],[30.61160203444007,-0.354805768790114],[30.616868724363467,-0.353456866594022],[30.61928203279492,-0.351442295244344],[30.62105324399086,-0.352300491658343],[30.629039479465032,-0.346542539881666],[30.63318018543578,-0.348572808321646],[30.635447541837774,-0.347330178544026],[30.638749192703703,-0.3486442192152],[30.640695753713928,-0.348093521031292],[30.637779637966734,-0.351056472747051],[30.636428979500117,-0.354812279471754],[30.63683702833644,-0.363499075821391],[30.64552259371433,-0.363593579793796],[30.65065477591924,-0.362590403824364],[30.658016469453305,-0.364291150572037],[30.659127040970592,-0.356904309938327],[30.664269546517012,-0.358838829657459],[30.667867759263853,-0.358327334484733],[30.669717682603288,-0.35943373959173],[30.67157187066286,-0.362639826688632],[30.674614120730652,-0.360176136080229],[30.675770405111457,-0.358158478919293],[30.678936167031836,-0.35675740516886345],[30.679271718486724,-0.35725782294551545],[30.679284551056405,-0.357293250109459],[30.67894012753089,-0.365158521261621],[30.679796383754635,-0.3742390956269419],[30.679987332614434,-0.38075522546760887],[30.6741101201409,-0.382768790759233],[30.668664179134808,-0.381086683641919],[30.666730456844213,-0.381363885448352],[30.663379487566885,-0.383496736539963],[30.659592514823974,-0.384589892084405],[30.658325250242015,-0.387761091804704],[30.656272306325203,-0.388746643376188],[30.65529914421307,-0.393338622420086],[30.65400488101701,-0.39481969863478],[30.648544062149526,-0.396011354151565],[30.646098126563448,-0.397773428374894],[30.633514699845446,-0.398203840873899],[30.630641208798558,-0.399802902009187],[30.626391235860478,-0.400732748284645],[30.617831894855996,-0.400911050270291],[30.616181724807817,-0.400802095830361],[30.61252583875513,-0.398071280660347],[30.606697173731213,-0.396532693857188],[30.597947330963265,-0.398040050551375],[30.593658450234827,-0.401306399791844],[30.591613033345986,-0.404457502789401],[30.587476835268983,-0.401608306422017],[30.58450034725439,-0.40167952102591],[30.581502114321907,-0.399737845371113],[30.578697971164978,-0.392770393671085],[30.574276011354055,-0.391506649958429],[30.566655493104086,-0.393583339798658],[30.564407413358207,-0.372437419014687],[30.565402424108555,-0.364845232644125]]]}},{"type":"Feature","properties":{"n":"Nyabisirira Town Council","c":"410107","d":"Mbarara","od":"Mbarara","dc":"410","k":"NYABISIRIRATOWNCOUNCIL","a":["NYABISIRIRA","NYABISIRIRATOWNCOUNCIL"],"lat":-0.32896,"lon":30.631514},"geometry":{"type":"Polygon","coordinates":[[[30.608954987785435,-0.3210479688023314],[30.608961935656488,-0.321033760034984],[30.617129475706932,-0.325423693855374],[30.61713939342167,-0.3253603794178161],[30.618455933003045,-0.31930426592685],[30.618234514022454,-0.318369157476101],[30.61843270571581,-0.317103906768311],[30.617669330872765,-0.3159822458477957],[30.61572854884399,-0.3077858316499707],[30.615726474294863,-0.307775693874673],[30.611807297730817,-0.30507108432042934],[30.612914639635054,-0.296309865079598],[30.614786449196814,-0.297923729771684],[30.614904409392594,-0.29795511740467373],[30.624032281088677,-0.30277369345024674],[30.624817417934285,-0.303819475285488],[30.63805428897618,-0.310222562981372],[30.638172069886664,-0.3103860713437489],[30.6436,-0.3244],[30.644068332267324,-0.3245807151683692],[30.644418020054733,-0.325817501715835],[30.647877296355063,-0.3260504784848339],[30.662,-0.3315],[30.66209396522299,-0.33164013310711976],[30.662022978842213,-0.331885741546224],[30.66374463362092,-0.338576591164886],[30.669274077350167,-0.34234804599042096],[30.678936166032948,-0.35675740367918923],[30.6789120781863,-0.356768066188235],[30.675770405111457,-0.358158478919293],[30.674614120730652,-0.360176136080229],[30.674394652479815,-0.3603538669887288],[30.671571237194474,-0.3626387313548538],[30.669717682603288,-0.35943373959173],[30.66969998649959,-0.3594231558777521],[30.667868492936318,-0.358327677653563],[30.66786836372623,-0.3583276960025578],[30.667867759263853,-0.358327334484733],[30.66475178111789,-0.3587702787718318],[30.66426941291039,-0.35883877939700837],[30.66268143822727,-0.358241411380534],[30.659131305225458,-0.356905500355229],[30.659131246262728,-0.35690589189492183],[30.659127040970592,-0.356904309938327],[30.658016657098553,-0.36428990247091697],[30.651485688448016,-0.3627823666892099],[30.65065477591924,-0.362590403824364],[30.650654390490388,-0.3625904791632639],[30.650654290469884,-0.362590456075649],[30.64847456075044,-0.3630165655189817],[30.64552259371433,-0.363593579793796],[30.645326390632146,-0.3635914449908375],[30.636837008332396,-0.3634986499629278],[30.636428979500117,-0.354812279471754],[30.637779637966734,-0.351056472747051],[30.640695753713928,-0.348093521031292],[30.638749315438126,-0.3486441844926179],[30.63833288519532,-0.348478530891407],[30.635447541837774,-0.347330178544026],[30.635446929647596,-0.3473305140562296],[30.635446829369698,-0.347330474166247],[30.635294418724584,-0.34741409801073386],[30.63318078225116,-0.34857248123563467],[30.629041429878065,-0.346543013266299],[30.62904103113246,-0.3465433006942981],[30.629039479465032,-0.346542539881666],[30.62105324399086,-0.352300491658343],[30.61928203279492,-0.351442295244344],[30.616868724363467,-0.353456866594022],[30.61160203444007,-0.354805768790114],[30.610029007060003,-0.348118546048147],[30.6105858609121,-0.3464718262283],[30.610585804266698,-0.3464710691847479],[30.610585825222785,-0.346471007223165],[30.610572925097134,-0.3462989441397779],[30.609900460263137,-0.337311715637586],[30.60989909799159,-0.337311375135762],[30.609898991909017,-0.337309960196472],[30.609154080195818,-0.3371251568162326],[30.607045283572315,-0.3365980599258138],[30.607045815385113,-0.3365837659792421],[30.6077986215313,-0.3264198991112135],[30.608954987785435,-0.3210479688023314]]]}},{"type":"Feature","properties":{"n":"Rubindi","c":"410109","d":"Mbarara","od":"Mbarara","dc":"410","k":"RUBINDI","a":["RUBINDI"],"lat":-0.343449,"lon":30.524619},"geometry":{"type":"Polygon","coordinates":[[[30.499443573073144,-0.2930247054050224],[30.499461713789255,-0.2930323645317192],[30.501833713433072,-0.29403403831475083],[30.50200983861352,-0.2942259046786553],[30.503732118484507,-0.296103752140994],[30.503733673738637,-0.296103807523585],[30.503734004467013,-0.296104167810801],[30.507686788523678,-0.29751996871555925],[30.508044532109253,-0.2977263471799953],[30.509798762026207,-0.2999429368083766],[30.50979972467405,-0.29994426619216774],[30.50984288006146,-0.30026193757105274],[30.510251435569185,-0.303273404555519],[30.51269838937884,-0.302889819144448],[30.512701852355313,-0.30289613759557305],[30.515426105184886,-0.30865704554972],[30.516820665309695,-0.310076868913352],[30.535926147003266,-0.322666949096534],[30.54224816187043,-0.328970238185353],[30.547440951952492,-0.332881017127379],[30.54424507023979,-0.341438625591891],[30.540040194003293,-0.345459350581741],[30.53852015898178,-0.350088439234318],[30.542119148794935,-0.354664675239731],[30.53919162368528,-0.356545036989147],[30.535916975306396,-0.361132848993179],[30.5415677427713,-0.364891634742675],[30.54258473701841,-0.367425971670226],[30.546401466572753,-0.369512620099545],[30.54801944038208,-0.36691491429265],[30.548105945963144,-0.361733957963745],[30.548943350777957,-0.361344773777649],[30.552274447092465,-0.361011683927458],[30.553061585325587,-0.362356314012661],[30.56540241346622,-0.364845234760941],[30.565402385768916,-0.3648455251853613],[30.564407413358207,-0.372437419014687],[30.564550237812494,-0.37378085649810644],[30.564378865307205,-0.375577809833609],[30.56640951361497,-0.392735511146385],[30.561908910535003,-0.391866685908253],[30.557041417314565,-0.395860527496642],[30.5460102574877,-0.394654623962146],[30.544021808650637,-0.393659796773083],[30.542328216764453,-0.394351389050166],[30.541444335915013,-0.391438955570234],[30.5432173634115,-0.38663214591501],[30.540572890762828,-0.38543223943835],[30.537946208958868,-0.385353715837174],[30.536645275593948,-0.382769912858746],[30.534620089820724,-0.381118867838117],[30.53354561198313,-0.382505950142025],[30.52809228105475,-0.38072146389142],[30.526107545378412,-0.381292420227361],[30.524345081229985,-0.377004430448351],[30.52454646569505,-0.375788347424781],[30.51881357325417,-0.373611108029186],[30.515899228395856,-0.37164429725921],[30.51519218623576,-0.3698886815891],[30.505701854447537,-0.3715564705425255],[30.506,-0.3703],[30.506185897618973,-0.3657406162925551],[30.50667907063356,-0.360854731124814],[30.506472621034504,-0.35870834725898315],[30.5079,-0.3237],[30.507813388193977,-0.3234411163600197],[30.50544947721483,-0.311087017167662],[30.498812951813093,-0.296478952300384],[30.498845176174537,-0.2962560486574882],[30.499443573073144,-0.2930247054050224]]]}},{"type":"Feature","properties":{"n":"Rubindi-Ruhumba Town Council","c":"410110","d":"Mbarara","od":"Mbarara","dc":"410","k":"RUBINDIRUHUMBATOWNCOUNCIL","a":["RUBINDI","RUBINDIRUHUMBA","RUBINDIRUHUMBATOWNCOUNCIL","RUHUMBA"],"lat":-0.331893,"lon":30.562094},"geometry":{"type":"Polygon","coordinates":[[[30.519968810272722,-0.3044560288764606],[30.52276385210426,-0.30288394506978156],[30.52376486893804,-0.30271589370301855],[30.5305007151537,-0.30158521349502],[30.531165589271442,-0.302706381211585],[30.533097708537156,-0.303310764291106],[30.534986114284738,-0.30331338372374533],[30.536527891253797,-0.30331578465002],[30.536528076102332,-0.3033155225994181],[30.536528886424033,-0.303315523723426],[30.538835070089032,-0.300045242187716],[30.54403124710226,-0.29687922202463424],[30.54429575004668,-0.2970842233292002],[30.544859794527046,-0.297523291395094],[30.552001580961978,-0.296734866714267],[30.559634661012584,-0.29510058181388754],[30.56281972763109,-0.2961326631724417],[30.563765548256487,-0.29643916712243],[30.564418536041885,-0.2964879470143797],[30.569858827571554,-0.29689452959386564],[30.569864592390132,-0.2968969116259938],[30.573538451930112,-0.298640833402854],[30.57386449524473,-0.29854967779414104],[30.574102418156354,-0.298647987916475],[30.579206722676016,-0.2970561068967223],[30.581710060498455,-0.2968462193241387],[30.589678536375786,-0.296178141272363],[30.593933011851526,-0.297762825601739],[30.593938495680568,-0.2977609029463102],[30.596665903633337,-0.297145680362204],[30.5966546529211,-0.29724400788257677],[30.596516920639242,-0.297305056507168],[30.596326649724368,-0.300107606687266],[30.588848380365135,-0.31248937718515],[30.58864658941239,-0.314414679043029],[30.58703160814175,-0.315345370394667],[30.5824499125985,-0.326390237336115],[30.578446137665974,-0.330901712847928],[30.578445579826354,-0.3309031439983842],[30.57844459464899,-0.330904254289779],[30.57694707820741,-0.33474758458477305],[30.57619200591701,-0.336684740022021],[30.573405727106348,-0.3406681547099551],[30.57275580685883,-0.341597258948038],[30.57275576750867,-0.3415973720582135],[30.572755733264128,-0.341597421016064],[30.567430892031613,-0.356901966829616],[30.5677230678284,-0.359408518894116],[30.566019573303674,-0.36339939953918776],[30.565402416702522,-0.364845223982696],[30.564468377781445,-0.364656856738901],[30.553061585325587,-0.362356314012661],[30.552274447092465,-0.361011683927458],[30.549803031350795,-0.36125881082546063],[30.548943790504257,-0.361344685832389],[30.54894367090938,-0.36134474176640774],[30.548943350777957,-0.361344773777649],[30.548105945963144,-0.361733957963745],[30.54801944038208,-0.36691491429265],[30.546401466572753,-0.369512620099545],[30.54258473701841,-0.367425971670226],[30.5415677427713,-0.364891634742675],[30.541567151425568,-0.36489124139045936],[30.54156714060736,-0.364891214408204],[30.541505496237917,-0.3648502295027526],[30.535916975306396,-0.361132848993179],[30.53909606836595,-0.3566789108560028],[30.539191668400033,-0.35654500826867225],[30.542119148794935,-0.354664675239731],[30.53852015898178,-0.350088439234318],[30.539800456625198,-0.3461894426920101],[30.540040225144523,-0.3454593208043316],[30.54424507023979,-0.341438625591891],[30.547440951952492,-0.332881017127379],[30.54224921998396,-0.32897103506873415],[30.537306871774234,-0.32404358416721674],[30.535926147003266,-0.322666949096534],[30.535925933685224,-0.3226668085247714],[30.535925867912304,-0.322666742950104],[30.51542642955548,-0.3086573757964686],[30.515426105184886,-0.30865704554972],[30.515425796423283,-0.30865639261943406],[30.517878330744864,-0.3056331439637377],[30.517881252190893,-0.30563030760120463],[30.519968810272722,-0.3044560288764606]]]}},{"type":"Feature","properties":{"n":"Bubaare","c":"410201","d":"Mbarara","od":"Mbarara","dc":"410","k":"BUBAARE","a":["BUBAARE"],"lat":-0.551,"lon":30.520148},"geometry":{"type":"Polygon","coordinates":[[[30.440900889238684,-0.6166575622061227],[30.44146321566832,-0.6118166651162077],[30.441526606563635,-0.611494497529056],[30.441652571750538,-0.611284052291546],[30.445255251301614,-0.6061848750807924],[30.446559681612673,-0.605802960223676],[30.44789301884399,-0.602901816669371],[30.447813807036386,-0.6025635346561938],[30.448,-0.6023],[30.448055240734973,-0.5946215378385464],[30.448778170689764,-0.591423857687043],[30.448148534309112,-0.58835055848176],[30.448164214621393,-0.5883067198131333],[30.455334386690488,-0.5778911014390778],[30.45650444430163,-0.57772556142717],[30.457611301710713,-0.574598965571044],[30.457343336968208,-0.572907770293345],[30.456216235132292,-0.5712703157870773],[30.4544,-0.5669],[30.454952080604933,-0.563238833883067],[30.457591135554363,-0.546769328907417],[30.457568920661473,-0.5458850524554908],[30.4601,-0.5291],[30.4644,-0.5215],[30.46460388204655,-0.520416374949441],[30.46887349585864,-0.502485155369291],[30.46965931504255,-0.493546947608512],[30.473086887594,-0.4753295344413472],[30.48282671860837,-0.477725467470929],[30.48896222859653,-0.485739454376279],[30.494401200263386,-0.488048879593204],[30.496686161706837,-0.487735055835717],[30.501077585778535,-0.491744230767565],[30.512049143813712,-0.491322409939495],[30.516399535270537,-0.49240759761054],[30.522998846112156,-0.498484108466496],[30.524601881733602,-0.501800197007367],[30.524796244567067,-0.501223372775512],[30.52737475691351,-0.503472515256913],[30.531638734198307,-0.504519226144717],[30.543552608477363,-0.5048488780539],[30.537205399404858,-0.512717955656411],[30.53987112577998,-0.515982556474492],[30.547090820227066,-0.518351801884602],[30.553279435321933,-0.516829029808273],[30.560054770145392,-0.51706680017554],[30.5612913403812,-0.513995992617266],[30.56937290739112,-0.508004493917227],[30.570029937264824,-0.506898838381849],[30.569268306914427,-0.504962401680618],[30.570968822289313,-0.501827647915843],[30.570960487645387,-0.500033023135241],[30.577580207508536,-0.498165103967316],[30.579597833260205,-0.498655246403992],[30.580775693659103,-0.501302374342377],[30.58284225162843,-0.502204495771461],[30.58859707467381,-0.499244897442378],[30.591563805736463,-0.495598875244871],[30.597445692428973,-0.502227189140425],[30.601700106203722,-0.509413013511918],[30.61001788046151,-0.515872505941346],[30.612827911528505,-0.520758498505546],[30.60804234820002,-0.52173847379319],[30.59928593167781,-0.518883147058875],[30.587198268877923,-0.52126258035094],[30.583390592056027,-0.52012059579291],[30.575681704726886,-0.519644773680239],[30.574158293225516,-0.520311621959367],[30.57025650567733,-0.526402215678071],[30.566413553002818,-0.523579493176392],[30.563582478198377,-0.523211048873238],[30.560109510530708,-0.524591013555623],[30.55920450427354,-0.526399144661649],[30.556776890878275,-0.527494819676558],[30.5555997599179,-0.531256919195544],[30.568562921258767,-0.543470966147686],[30.58146936258963,-0.548534688899383],[30.585295439327872,-0.55346485432327],[30.585504831777452,-0.556282130611823],[30.58316344439952,-0.557995340557219],[30.580498178904737,-0.558719672803291],[30.5758722287172,-0.566186595128385],[30.574920357417533,-0.569423422153377],[30.57663345607266,-0.575704657190013],[30.576407735168363,-0.577453994322156],[30.56920962463437,-0.58569844680927],[30.567710654304094,-0.589177165582273],[30.56519858309325,-0.589848296339932],[30.564876708997467,-0.59069408672561],[30.562868922126054,-0.590725552735236],[30.563052771470655,-0.591615027209298],[30.559880325754214,-0.593163812581763],[30.55938015293105,-0.594452445066784],[30.55840873168448,-0.59442079009844],[30.558105955633064,-0.595266219082197],[30.55681356881835,-0.595045309805066],[30.55642843215906,-0.597429151950293],[30.554013447513857,-0.598574569432152],[30.5545153092836,-0.599817077772373],[30.55306268497435,-0.602418881489081],[30.551934405136866,-0.601623333019679],[30.551663561360574,-0.602857890793289],[30.549904606961782,-0.603564528689452],[30.55008954717223,-0.604274860083103],[30.548130948391936,-0.605930563739383],[30.54897572695717,-0.609288151040577],[30.550173324306247,-0.610841927471947],[30.5492151130088,-0.611963456574101],[30.549982471436138,-0.613179994235232],[30.54892923673469,-0.613320021174197],[30.54869042522827,-0.614575547377152],[30.547733132419726,-0.614161795642347],[30.547626807502045,-0.6151644633013],[30.546281332461415,-0.614996774154448],[30.545346560491446,-0.612573757581569],[30.54426463524188,-0.612862335382474],[30.54301082797232,-0.611441928353235],[30.542019609294957,-0.612505414512301],[30.5409912979447,-0.611653038206434],[30.53872165800168,-0.61552279407],[30.53663960269383,-0.615025420162839],[30.535052055745567,-0.615567100454953],[30.532940874746643,-0.614170214911274],[30.532596448912916,-0.615024582759962],[30.531353163982626,-0.6151398152537726],[30.52944576378886,-0.6130590150423932],[30.528281645997133,-0.610975977508379],[30.527015442188112,-0.6104077551143045],[30.525363479561445,-0.6086056140670295],[30.5253196176557,-0.608493368515931],[30.525223272377474,-0.6084526607754274],[30.523117399188436,-0.6061553445692012],[30.523313316084803,-0.60583048051976],[30.522079241014673,-0.605563848356842],[30.522042349284458,-0.604780438257872],[30.52080384582224,-0.605145062228314],[30.520260143023265,-0.603774430352999],[30.517903587287986,-0.603642874083653],[30.51584504631772,-0.60453591933626],[30.514445310007535,-0.603289714960009],[30.513066354908215,-0.6043127551067831],[30.500861503311096,-0.6025552564767982],[30.50079766337877,-0.602451926688507],[30.499198652252883,-0.601966356379564],[30.499048390666406,-0.6022941682559625],[30.498352749080713,-0.602193995867623],[30.497960210982725,-0.601738042062905],[30.496228666224855,-0.602842298310554],[30.496246205694394,-0.6031555810827657],[30.484827000048213,-0.6114469173562959],[30.484845626031642,-0.611326509814953],[30.484649798883282,-0.6115755808108319],[30.484190914793537,-0.6119087705629519],[30.48286759845847,-0.611694915848598],[30.482666699483197,-0.612593738776613],[30.48128590011978,-0.612639184763845],[30.481238951254106,-0.613550373474762],[30.4788997667179,-0.615469939365689],[30.475565975654884,-0.616654160495087],[30.475931668879028,-0.617462336444077],[30.475035767808276,-0.618429696198977],[30.472173367863125,-0.61856492837828],[30.47164016506305,-0.6193813686380201],[30.470593637643834,-0.6195802088476716],[30.46923239285529,-0.61886280505532],[30.469032393696025,-0.619489413273319],[30.466563319623468,-0.619189563437037],[30.464790140407075,-0.6206828733226558],[30.464677517152598,-0.6207042717410061],[30.461738309719866,-0.620174789196996],[30.458881612634023,-0.621445331296795],[30.454958095047754,-0.621458773605445],[30.454516620007425,-0.6227029294151878],[30.45396367100914,-0.6230132943368042],[30.453185034965678,-0.622817097406708],[30.45229416350379,-0.6239503727430337],[30.44315689036522,-0.6290790357304894],[30.44292050348487,-0.628942467947799],[30.441492651439003,-0.629569448216827],[30.441392016861904,-0.630069642148479],[30.439461606927313,-0.631153162563378],[30.439264462659146,-0.6307450605864781],[30.440102810601292,-0.623527978301908],[30.44249961696192,-0.620650454393592],[30.440900889238684,-0.6166575622061227]]]}},{"type":"Feature","properties":{"n":"Bukiiro","c":"410202","d":"Mbarara","od":"Mbarara","dc":"410","k":"BUKIIRO","a":["BUKIIRO"],"lat":-0.46688,"lon":30.501344},"geometry":{"type":"Polygon","coordinates":[[[30.478067089138428,-0.465412585728021],[30.478308210908075,-0.461553893513002],[30.476990963526024,-0.45457952456640427],[30.4771,-0.454],[30.476836400817973,-0.4537611685263503],[30.476597559941315,-0.4524965887549],[30.47905747359211,-0.448511239634622],[30.48131520367989,-0.442033987225468],[30.491651723931668,-0.432195296558376],[30.493335455566836,-0.433078542729679],[30.501866818344833,-0.432801124600594],[30.5056055968921,-0.436083284146483],[30.512109839498944,-0.445205665405628],[30.51056579424888,-0.452779607186632],[30.509544769653292,-0.45443334218435],[30.506838662755108,-0.456176495611021],[30.50823832745073,-0.458328218347468],[30.51429223586917,-0.46170206566229],[30.52180614567388,-0.462943107420293],[30.52704421241646,-0.468347923016931],[30.532656251026825,-0.469519099722232],[30.53441048340339,-0.473737541243826],[30.531981167836626,-0.476408454975481],[30.53033906688602,-0.480463663564144],[30.526858792592524,-0.497400848377084],[30.524872991604035,-0.5012903164228459],[30.524796244567067,-0.501223372775512],[30.524601881733602,-0.501800197007367],[30.522998846112156,-0.498484108466496],[30.522998509186024,-0.49848379823178324],[30.52299843903231,-0.498483653123462],[30.52114254097574,-0.4967748605489319],[30.516399535270537,-0.49240759761054],[30.516399228756082,-0.49240752115174086],[30.51639905170376,-0.492407358133254],[30.513022079322177,-0.4915651047932765],[30.512049143813712,-0.491322409939495],[30.51204902485647,-0.4913224145130152],[30.512049006672523,-0.491322409977743],[30.511764191477255,-0.49133336543279316],[30.501077585778535,-0.491744230767565],[30.498190036230394,-0.48910802641247175],[30.496687276935884,-0.487735792328597],[30.496687008702303,-0.48773582910492086],[30.496686161706837,-0.487735055835717],[30.494401263980464,-0.48804887084210097],[30.493949127842928,-0.48785692649772416],[30.488962464205695,-0.48573955441756933],[30.48282708139802,-0.477725762184106],[30.482826912412484,-0.4777257206110332],[30.48282671860837,-0.477725467470929],[30.473605503112623,-0.4754571103765851],[30.473086889671954,-0.4753295233970941],[30.473119320689566,-0.47515715381529317],[30.474164032702213,-0.471133219646537],[30.478067089138428,-0.465412585728021]]]}},{"type":"Feature","properties":{"n":"Bukiiro Town Council","c":"410203","d":"Mbarara","od":"Mbarara","dc":"410","k":"BUKIIROTOWNCOUNCIL","a":["BUKIIRO","BUKIIROTOWNCOUNCIL"],"lat":-0.411272,"lon":30.510691},"geometry":{"type":"Polygon","coordinates":[[[30.46987108587282,-0.416826899843939],[30.47,-0.4167],[30.479398959740244,-0.4122441968638846],[30.482755158147217,-0.41113786308728],[30.48311376660524,-0.41048310323899756],[30.4835,-0.4103],[30.483830770678548,-0.40917397215813023],[30.483908092420897,-0.409032795420224],[30.483967152709855,-0.40870969290262427],[30.485747149214056,-0.4026501303351301],[30.486532190018487,-0.402016258620561],[30.490018532373586,-0.395006499952756],[30.492072077838753,-0.393726447541543],[30.494057449778595,-0.393597568666817],[30.50153821134386,-0.388592086691198],[30.50166445445367,-0.38806278948101935],[30.5018,-0.388],[30.505701854447537,-0.3715564705425255],[30.515191725595262,-0.3698887625400242],[30.515373050094745,-0.37033777422163644],[30.515899228395856,-0.37164429725921],[30.51881357325417,-0.373611108029186],[30.518813668177913,-0.3736111440793492],[30.518813888554373,-0.373611293005686],[30.519022072005438,-0.37369029173965473],[30.52454646569505,-0.375788347424781],[30.524345081229985,-0.377004430448351],[30.525986280327842,-0.3809973882416865],[30.526106741656825,-0.381290648399333],[30.526106809159604,-0.381290629042715],[30.526107545378412,-0.381292420227361],[30.52809228105475,-0.38072146389142],[30.528162064278778,-0.38074429896331186],[30.533542984466052,-0.382505886603517],[30.53354347564737,-0.382505251071706],[30.53354561198313,-0.382505950142025],[30.53462004168214,-0.3811189299819567],[30.535214079830265,-0.3816031218065777],[30.536645275593948,-0.382769912858746],[30.537946208958868,-0.385353715837174],[30.54056604163111,-0.38543203468629866],[30.540572896309854,-0.3854322419552651],[30.5432173634115,-0.38663214591501],[30.54162142288211,-0.3909588596072884],[30.54144461834571,-0.391437625352097],[30.541444712296915,-0.39143793517085124],[30.541444335915013,-0.391438955570234],[30.542312884691714,-0.39430086907115935],[30.54232820735238,-0.394351397934923],[30.541264738120546,-0.395491779954757],[30.540710133180315,-0.398040809632299],[30.539016493789823,-0.411406510510115],[30.536070725707635,-0.41335290969943],[30.53394398389228,-0.413191982911883],[30.533129709021498,-0.414804381485783],[30.52260357513361,-0.420409530008671],[30.521247363512547,-0.422771022072296],[30.518201170368364,-0.4236192277615],[30.513613615694997,-0.421091765018049],[30.510592551009918,-0.421288578336014],[30.507375443842594,-0.41878373595145],[30.500089467489143,-0.418293115327994],[30.498340354315857,-0.422486838306139],[30.495691128074405,-0.42459062783379],[30.49365763857093,-0.429020163579441],[30.491221860863597,-0.431406625964698],[30.49165171758692,-0.432195286744818],[30.490379244145007,-0.43340649091548394],[30.48131520367989,-0.442033987225468],[30.47905747359211,-0.448511239634622],[30.476597559941315,-0.4524965887549],[30.47659756232723,-0.45249660138749576],[30.47659751113603,-0.452496684321161],[30.47204772318802,-0.448156637517485],[30.468909586184246,-0.443437121111114],[30.462205152348375,-0.440488658034473],[30.46215355735542,-0.44039596847614393],[30.461076135601537,-0.43798254374744783],[30.460335918153554,-0.43302244349817],[30.45999792202185,-0.43224429147885],[30.458238983898806,-0.43162732393332076],[30.4572,-0.4293],[30.463102143877773,-0.42349007712031633],[30.46442427927707,-0.42310869701315],[30.46987108587282,-0.416826899843939]]]}},{"type":"Feature","properties":{"n":"Bwizibwera-Rutooma Town Council","c":"410204","d":"Mbarara","od":"Mbarara","dc":"410","k":"BWIZIBWERARUTOOMATOWNCOUNCIL","a":["BWIZIBWERA","BWIZIBWERARUTOOMA","BWIZIBWERARUTOOMATOWNCOUNCIL","RUTOOMA"],"lat":-0.455831,"lon":30.586641},"geometry":{"type":"Polygon","coordinates":[[[30.543552431356236,-0.504849097643309],[30.543552608477363,-0.5048488780539],[30.54355255237052,-0.5048488765014472],[30.547406453508945,-0.497806246124715],[30.548651795499655,-0.490312349600871],[30.54781697445703,-0.482159361204553],[30.548177832648125,-0.477058888507455],[30.552884584869435,-0.478466165091671],[30.560784167897765,-0.479312486029191],[30.564773549580924,-0.479434322553052],[30.569361458117456,-0.478391815580082],[30.577901160772104,-0.472571273691535],[30.580136348300016,-0.469559900869807],[30.580895406413692,-0.467109994410361],[30.585928521756685,-0.464109152228027],[30.58484736063411,-0.457893531913024],[30.577488896100405,-0.453252460930016],[30.574189616817584,-0.449328369823139],[30.574419505841714,-0.440765660701605],[30.571827761566464,-0.43393243078027],[30.570914102136584,-0.424032286123921],[30.56475186330693,-0.42380891742905],[30.562696719264114,-0.421538972948022],[30.554878391390215,-0.422159142418837],[30.548555605937896,-0.420510495921759],[30.545529541483575,-0.41810319354008],[30.542935381355232,-0.413867636087064],[30.53899561720041,-0.413530710293988],[30.54071006300649,-0.39804136342336605],[30.54071013314474,-0.39804080991306867],[30.54071030954287,-0.3980399990492114],[30.541264738120546,-0.395491779954757],[30.54232820735238,-0.394351397934923],[30.542312884691714,-0.39430086907115935],[30.542299465743582,-0.39425665293746465],[30.542299465743582,-0.394256652937464],[30.542328216764453,-0.394351389050166],[30.543136870190114,-0.3940211687246045],[30.545321498362433,-0.39431003561179023],[30.5460102574877,-0.394654623962146],[30.557041417314565,-0.395860527496642],[30.561908745515122,-0.3918668213092138],[30.566409517630493,-0.392735523782899],[30.566604402769194,-0.3931027731388503],[30.566655493104086,-0.393583339798658],[30.56683365646395,-0.3935347879774839],[30.56686902259593,-0.393601433332177],[30.574276373366395,-0.3915067534172664],[30.57773603975708,-0.3924954850738304],[30.578698015700738,-0.39277050432904026],[30.581502114321907,-0.399737845371113],[30.58450034725439,-0.40167952102591],[30.584500821728422,-0.40167950967377947],[30.58450117703209,-0.401679739757035],[30.58614656702056,-0.4016401340409822],[30.587476835268983,-0.401608306422017],[30.591613033345986,-0.404457502789401],[30.593658450234827,-0.401306399791844],[30.597947330963265,-0.398040050551375],[30.598016874423163,-0.39802807013040153],[30.606768885887572,-0.39655162364247254],[30.61093297234114,-0.3976508133262823],[30.61273967734548,-0.39823101038333314],[30.616181724807817,-0.400802095830361],[30.617831894855996,-0.400911050270291],[30.62092421410809,-0.400846633317793],[30.625098192130103,-0.400885922496333],[30.625821438513565,-0.4007446178898304],[30.626391235860478,-0.400732748284645],[30.630639031976045,-0.3998033782734683],[30.630640678000052,-0.399803056680744],[30.63064079209341,-0.39980299317958623],[30.630641208798558,-0.399802902009187],[30.633514699845446,-0.398203840873899],[30.646098126563448,-0.397773428374894],[30.646098289659378,-0.397773310879103],[30.64609859675056,-0.397773300375311],[30.647619800409775,-0.3966772007079878],[30.648544043672437,-0.39601136746262766],[30.653055561970973,-0.3953434927676],[30.653524389496106,-0.3949245511093903],[30.65400488101701,-0.39481969863478],[30.65529907328182,-0.3933387035895005],[30.655299144213814,-0.393338640205069],[30.65502473234059,-0.400199962242702],[30.65044102916942,-0.401217483422114],[30.646240594340227,-0.403618466126786],[30.63949183340219,-0.405849058168764],[30.63800220294443,-0.410253211759283],[30.635527663692777,-0.412385146751644],[30.62947421878877,-0.415335738504802],[30.624820670969076,-0.415573916927885],[30.621862369657546,-0.417794080790643],[30.619497320795354,-0.425787980455423],[30.619576183313235,-0.428214415343723],[30.60942926780958,-0.429944345168773],[30.605249858105967,-0.440753000030963],[30.59518822447393,-0.449146597705245],[30.59379467969968,-0.454922335985685],[30.589613551672162,-0.456739604207],[30.593925551323153,-0.458229797614216],[30.6025451479496,-0.464895260431587],[30.606837695239218,-0.4709033975474],[30.60802992369644,-0.475827353056201],[30.61528942162608,-0.478188609259808],[30.618449001377726,-0.481672169218351],[30.616491382509867,-0.487510221453625],[30.617624750824852,-0.50325573722446],[30.616697297847637,-0.50799344192182],[30.61700915065972,-0.510830699083938],[30.616294984445553,-0.511815387808838],[30.61741097854419,-0.516191587092211],[30.61740957073791,-0.519976569356115],[30.612827923180316,-0.520758496625574],[30.612586369771105,-0.520338513387068],[30.61001788046151,-0.515872505941346],[30.610017635767626,-0.5158723159147542],[30.610017585933136,-0.515872229268699],[30.604962170926026,-0.5119462972636749],[30.601700106203722,-0.509413013511918],[30.598908095377094,-0.5046972287985145],[30.597445782396694,-0.50222731559569],[30.59744573698983,-0.5022272644049633],[30.597445692428973,-0.502227189140425],[30.59739310437984,-0.5021679275267569],[30.59156665197958,-0.49559930977217],[30.59156547431918,-0.49560075557521155],[30.591563805736463,-0.495598875244871],[30.58859715541732,-0.4992447982110608],[30.582842250412586,-0.5022044952407041],[30.580775693659103,-0.501302374342377],[30.579597833260205,-0.498655246403992],[30.579596105711854,-0.4986548267301464],[30.57959605017996,-0.498654702088214],[30.577580359130497,-0.498165133632341],[30.577580345497307,-0.49816513748897023],[30.577580207508536,-0.498165103967316],[30.570960487645387,-0.500033023135241],[30.570968822289313,-0.501827647915843],[30.569268306914427,-0.504962401680618],[30.570029937264824,-0.506898838381849],[30.569373713487302,-0.5080031374116237],[30.569372905149407,-0.5080044955791831],[30.5612913403812,-0.513995992617266],[30.560054770145392,-0.51706680017554],[30.55403796483226,-0.5168556492809564],[30.55328400982964,-0.51682898509429],[30.553283279686113,-0.5168291647205551],[30.553279435321933,-0.516829029808273],[30.547090820227066,-0.518351801884602],[30.53987112577998,-0.515982556474492],[30.539359103326156,-0.5153555045245097],[30.53720563505304,-0.5127176635069282],[30.54351182536596,-0.5048994397204277],[30.54355239690879,-0.504849160592674],[30.543552431356236,-0.504849097643309]]]}},{"type":"Feature","properties":{"n":"Rubaya","c":"410205","d":"Mbarara","od":"Mbarara","dc":"410","k":"RUBAYA","a":["RUBAYA"],"lat":-0.448291,"lon":30.66949},"geometry":{"type":"Polygon","coordinates":[[[30.59379415500677,-0.45492256403604614],[30.59379467969968,-0.454922335985685],[30.59518820306906,-0.449146686420677],[30.597238390034,-0.4474363123275189],[30.605249858105967,-0.440753000030963],[30.60942926780958,-0.429944345168773],[30.619576183313235,-0.428214415343723],[30.61949732246177,-0.425788031727516],[30.619542404571288,-0.4256355966349116],[30.621862369657546,-0.417794080790643],[30.624820670969076,-0.415573916927885],[30.628974345066354,-0.41536132309951523],[30.629473727194405,-0.415335794265797],[30.629473797340538,-0.41533576007541423],[30.62947421878877,-0.415335738504802],[30.635527663692777,-0.412385146751644],[30.635528040920725,-0.4123848217515607],[30.635528327585845,-0.412384682026246],[30.63725142377796,-0.41090004424555693],[30.63800220294443,-0.410253211759283],[30.63949183340219,-0.405849058168764],[30.646240594340227,-0.403618466126786],[30.65044102916942,-0.401217483422114],[30.65502473234059,-0.400199962242702],[30.655029452389105,-0.4000819433956678],[30.65548960480587,-0.39243991187647437],[30.656272306325203,-0.388746643376188],[30.658325250242015,-0.387761091804704],[30.65959247312224,-0.38458999643872166],[30.6607723213948,-0.38424932662966776],[30.663379487566885,-0.383496736539963],[30.666730456839566,-0.38136388545131056],[30.666730473568453,-0.38136388305090896],[30.6686640113762,-0.38108670769035086],[30.673444938120486,-0.38256333362894246],[30.6741101201409,-0.382768790759233],[30.679987332614434,-0.38075522546760887],[30.679987332313875,-0.38075521521099526],[30.679987332313875,-0.3807552152109951],[30.680087747092465,-0.38418186953035804],[30.68005161043387,-0.384597931478005],[30.68129078265748,-0.385318007399783],[30.683221972065652,-0.38558989358179185],[30.69639949975604,-0.38976813406898814],[30.696482443690694,-0.389830301436973],[30.695376113315984,-0.393575451684747],[30.6959962468704,-0.39543018203668995],[30.694958411073685,-0.40702952329411607],[30.694484932234786,-0.40890906191872833],[30.686513285566676,-0.41166847807307433],[30.683699063848927,-0.410548962092743],[30.679306678539984,-0.412465112860884],[30.67923752074356,-0.4141870120503067],[30.6792,-0.4142],[30.6837,-0.4233],[30.683736952606637,-0.42332027655851223],[30.686073016741837,-0.426025215592296],[30.68991176261337,-0.428429406947238],[30.69229422785543,-0.428034191977918],[30.692338587111934,-0.4280401477998814],[30.7032,-0.434],[30.70744431953706,-0.4342416694398327],[30.70972360454354,-0.435834840027285],[30.71754933475084,-0.435993765286979],[30.719860279377496,-0.4349486280072595],[30.722699533909797,-0.43511029374575355],[30.724552620175544,-0.435776217709174],[30.726626098452396,-0.43533387037451354],[30.729435636812745,-0.4354938440889819],[30.73671370623067,-0.4423917405439317],[30.7368,-0.4425],[30.777010490561654,-0.4815278290745466],[30.774285240475233,-0.484053238990816],[30.772470030333814,-0.488376969358024],[30.76951033716601,-0.489913544539859],[30.754845868268973,-0.488355202233201],[30.75238341407544,-0.486173153379638],[30.742133333166677,-0.489128157168809],[30.734302776942553,-0.490153625940093],[30.731397384627936,-0.491620748681419],[30.719107247801038,-0.493423663264558],[30.71233893389551,-0.492749540400979],[30.708674565609403,-0.491512218915389],[30.70489351980494,-0.488659203348628],[30.701369613074046,-0.49355855737402],[30.69974989928115,-0.493942022337409],[30.69720079748523,-0.496961185059228],[30.69421675269575,-0.498617530491793],[30.691247305929945,-0.502415173594195],[30.69001423565209,-0.505699698146278],[30.686246826091924,-0.506338330363308],[30.675172051785662,-0.502719343554407],[30.667874238388766,-0.505221384358402],[30.66235069013389,-0.50549751708754],[30.659382874861063,-0.506539103317447],[30.65922160499419,-0.508345864180803],[30.65697107054673,-0.512282644452207],[30.65426840666068,-0.514451145522369],[30.646292292587216,-0.50896303836368],[30.639481237053847,-0.505657669611986],[30.6325971773399,-0.5057763693487],[30.63136569890193,-0.499183196194566],[30.63040787167974,-0.497576632714156],[30.62618292962305,-0.496933056173046],[30.622908379756428,-0.497591044194484],[30.619293037170994,-0.496292730918339],[30.617585808140163,-0.499798738672478],[30.61727742776872,-0.4984304914631366],[30.616491382509867,-0.487510221453625],[30.618449001377726,-0.481672169218351],[30.615717227154764,-0.4786602815475496],[30.615290286118988,-0.478189242601547],[30.615289874687907,-0.4781891087781482],[30.61528942162608,-0.478188609259808],[30.60802992369644,-0.475827353056201],[30.60688282974,-0.47108980500347514],[30.60683784256793,-0.47090386913239],[30.606837792431346,-0.4709037989551324],[30.606837695239218,-0.4709033975474],[30.6025451479496,-0.464895260431587],[30.593925551323153,-0.458229797614216],[30.589613689919513,-0.45673965198420463],[30.593794151042857,-0.454922580466294],[30.59379415500677,-0.45492256403604614]]]}},{"type":"Feature","properties":{"n":"Rwanyamahembe Town Council","c":"410206","d":"Mbarara","od":"Mbarara","dc":"410","k":"RWANYAMAHEMBETOWNCOUNCIL","a":["RWANYAMAHEMBE","RWANYAMAHEMBETOWNCOUNCIL"],"lat":-0.458047,"lon":30.546465},"geometry":{"type":"Polygon","coordinates":[[[30.49400401197104,-0.42826566086157686],[30.495690845132472,-0.42459124416419497],[30.496606594594564,-0.4238636424038981],[30.498340354315857,-0.422486838306139],[30.498340816851066,-0.4224857293187004],[30.498340974148757,-0.422485604339019],[30.50036847521826,-0.4183119030565519],[30.507373784719046,-0.41878362422994686],[30.507375537512488,-0.4187838088829095],[30.508369284484345,-0.4195575411228297],[30.510591265297588,-0.421287990325082],[30.510591754872717,-0.42128795846290984],[30.510592551009918,-0.421288578336014],[30.513613615694997,-0.421091765018049],[30.518201170368364,-0.4236192277615],[30.521247363512547,-0.422771022072296],[30.52124754940392,-0.4227706983905081],[30.521247989908165,-0.4227705756964],[30.5216328373907,-0.4220998189282856],[30.52260357513361,-0.420409530008671],[30.533129709021498,-0.414804381485783],[30.53394398389228,-0.413191982911883],[30.536070725707635,-0.41335290969943],[30.536071449596665,-0.41335243139394845],[30.536071828400573,-0.413352460109824],[30.536076573183934,-0.4133490460133525],[30.539016493789823,-0.411406510510115],[30.539040597653678,-0.41121628994954396],[30.53927006554312,-0.4110511769291688],[30.53899561720041,-0.413530710293988],[30.54266097608464,-0.41384416914595157],[30.5429354329133,-0.4138677202673595],[30.545529541483575,-0.41810319354008],[30.548555605937896,-0.420510495921759],[30.554878391390215,-0.422159142418837],[30.555067484631458,-0.4221441430663862],[30.562696900534057,-0.42153917316401446],[30.56475186330693,-0.42380891742905],[30.570914102136584,-0.424032286123921],[30.571812482323867,-0.43376686940476816],[30.571827708439407,-0.433932136052001],[30.57182774270411,-0.4339322263933415],[30.571827761566464,-0.43393243078027],[30.574419505841714,-0.440765660701605],[30.574189616817584,-0.449328369823139],[30.574189789275668,-0.4493285749410354],[30.574189783212294,-0.449328800936181],[30.577488673427023,-0.453252273998016],[30.57748881288085,-0.45325236195048835],[30.577488896100405,-0.453252460930016],[30.58484736063411,-0.457893531913024],[30.58566396254858,-0.4625881952179246],[30.585928298298207,-0.4641092854583583],[30.580895406413692,-0.467109994410361],[30.580136348300016,-0.469559900869807],[30.577901160772104,-0.472571273691535],[30.569361458117456,-0.478391815580082],[30.564773549580924,-0.479434322553052],[30.56078417806027,-0.47931248633955603],[30.560784167895534,-0.4793124860289518],[30.552884646087684,-0.47846617165028094],[30.552841816274743,-0.47845337766649526],[30.548177832648125,-0.477058888507455],[30.54781697445703,-0.482159361204553],[30.548651795499655,-0.490312349600871],[30.547406453508945,-0.497806246124715],[30.543552559460363,-0.5048488635454526],[30.529116179414164,-0.5038999954637611],[30.52790581851408,-0.5036028789812674],[30.527002015638796,-0.5031473866079503],[30.524872991604035,-0.5012903164228455],[30.526858792592524,-0.497400848377084],[30.526858817778923,-0.4974007258043651],[30.52685882751784,-0.49740070775483],[30.53033907622829,-0.480463640493177],[30.531981167836626,-0.476408454975481],[30.533134445243892,-0.4751404828331988],[30.534409452555998,-0.473739767963268],[30.534409252614267,-0.47373889443631395],[30.53441048340339,-0.473737541243826],[30.534407056844774,-0.47372930132228647],[30.53383937266065,-0.471249141573569],[30.532657370611034,-0.46952179201121874],[30.532656251026825,-0.469519099722232],[30.53023228439633,-0.46901324196729455],[30.52704381709873,-0.46834751511463824],[30.52180614567388,-0.462943107420293],[30.51429223586917,-0.46170206566229],[30.508238403703817,-0.4583282608433652],[30.508155203120346,-0.4582004302334986],[30.50683869050579,-0.45617653827250604],[30.50731764467663,-0.4558679568099945],[30.509544769653292,-0.45443334218435],[30.51056579424888,-0.452779607186632],[30.512109839498944,-0.445205665405628],[30.5056055968921,-0.436083284146483],[30.505605559759218,-0.43608325154866023],[30.505605498652365,-0.436083165842978],[30.502278232983148,-0.4331622929515388],[30.501866818344833,-0.432801124600594],[30.49508944335492,-0.4330215075263627],[30.493335299474715,-0.43307846084741003],[30.493331274267433,-0.4330763493179672],[30.491377416215443,-0.4316920243276481],[30.491241355904833,-0.43144239363703163],[30.493645891479904,-0.42903167283613036],[30.49365763857093,-0.429020163579441],[30.49365786656011,-0.42901966695223176],[30.493658065669035,-0.429019467331135],[30.49400401197104,-0.42826566086157686]]]}},{"type":"Feature","properties":{"n":"Mbarara North Division","c":"437101","d":"Mbarara City","od":"Mbarara","dc":"437","k":"MBARARANORTHDIVISION","a":["MBARARANORTH","MBARARANORTHDIVISION","NORTH","NORTHDIVISION"],"lat":-0.554908,"lon":30.686753},"geometry":{"type":"Polygon","coordinates":[[[30.55920429604726,-0.526399273797416],[30.55920431875276,-0.5263992283942925],[30.55920450427354,-0.526399144661649],[30.560109510530708,-0.524591013555623],[30.563582478198377,-0.523211048873238],[30.566413553002818,-0.523579493176392],[30.57025650567733,-0.526402215678071],[30.57410438734473,-0.5203957677040715],[30.57415830992131,-0.520311614651059],[30.575681704726886,-0.519644773680239],[30.583390592056027,-0.52012059579291],[30.586796367253456,-0.5211420434801763],[30.587197984668876,-0.521262530916655],[30.587198056745684,-0.5212625167290116],[30.587198268877923,-0.52126258035094],[30.59928593167781,-0.518883147058875],[30.60804234820002,-0.52173847379319],[30.60804979169156,-0.5217369495342339],[30.617353976077872,-0.519986057423491],[30.61740957073791,-0.519976569356115],[30.61741097854419,-0.516191587092211],[30.616294984445553,-0.511815387808838],[30.61700915065972,-0.510830699083938],[30.617008955425273,-0.5108289228282583],[30.617009028705162,-0.510828821818217],[30.6171624424514,-0.5056173454206098],[30.617624750824852,-0.50325573722446],[30.617404183700458,-0.5001914702163383],[30.618698539772222,-0.49751360547721557],[30.619293037170994,-0.496292730918339],[30.622908379756428,-0.497591044194484],[30.62618292962305,-0.496933056173046],[30.63040787167974,-0.497576632714156],[30.63136569890193,-0.499183196194566],[30.6325971773399,-0.5057763693487],[30.632598652862278,-0.5057763439067188],[30.632598814563224,-0.505777208614923],[30.638937907697873,-0.5056670380739376],[30.639481237053847,-0.505657669611986],[30.646292292587216,-0.50896303836368],[30.65426840666068,-0.514451145522369],[30.654269310109047,-0.5144504206343198],[30.65426938984116,-0.514450475482697],[30.65651957884195,-0.5126449019456509],[30.65697107054673,-0.512282644452207],[30.65922160499419,-0.508345864180803],[30.659382874861063,-0.506539103317447],[30.66235069013389,-0.50549751708754],[30.667874238388766,-0.505221384358402],[30.66907337565621,-0.5048102625319633],[30.675172261909836,-0.5027194122182542],[30.686246826091924,-0.506338330363308],[30.68624702633259,-0.5063382964195231],[30.686247112806143,-0.506338324677402],[30.68657432683678,-0.5062828140931955],[30.69001423565209,-0.505699698146278],[30.691247305929945,-0.502415173594195],[30.693955149867104,-0.49895209590283635],[30.694216771174222,-0.49861752023499756],[30.69720079748523,-0.496961185059228],[30.69974989928115,-0.493942022337409],[30.701369613074046,-0.49355855737402],[30.70489351980494,-0.488659203348628],[30.708674565609403,-0.491512218915389],[30.71233893389551,-0.492749540400979],[30.719107247801038,-0.493423663264558],[30.72294014179494,-0.4928613928379095],[30.73139693349825,-0.491620844856239],[30.73139701721505,-0.49162080257944],[30.731397384627936,-0.491620748681419],[30.734302776942553,-0.490153625940093],[30.742133333166677,-0.489128157168809],[30.74213341360094,-0.48912813398035315],[30.742133439468173,-0.489128130593491],[30.742535586351142,-0.48901219128572193],[30.75238341407544,-0.486173153379638],[30.754845868268973,-0.488355202233201],[30.754847443019997,-0.48835536957653675],[30.754847690836108,-0.488355589122453],[30.763402583550665,-0.4892644947226262],[30.76951033716601,-0.489913544539859],[30.772470030333814,-0.488376969358024],[30.774285240475233,-0.484053238990816],[30.777010490561654,-0.4815278290745467],[30.79039638896273,-0.49452002458147404],[30.790181352303883,-0.496228052523999],[30.786815237635906,-0.500607563996119],[30.78686840239339,-0.5038535345143127],[30.785900637772347,-0.5057645633862539],[30.784899093668873,-0.507387524871718],[30.784691390031373,-0.5081524450013377],[30.7833,-0.5109],[30.805024172474692,-0.5113646881812769],[30.80873735177498,-0.511504700776538],[30.809377819638495,-0.5114578143238182],[30.820664666650078,-0.5116992442064189],[30.798225582959667,-0.534445613602779],[30.79735131297911,-0.5359206296897214],[30.7966,-0.5367],[30.796445645994584,-0.5374486169262679],[30.796307432510236,-0.537681802460921],[30.795008706195656,-0.5444177749510676],[30.7946,-0.5464],[30.7778,-0.5684],[30.77780595942803,-0.5684142164668657],[30.777799874205318,-0.568422183964972],[30.77902529128508,-0.5713229840294706],[30.7861,-0.5882],[30.7861,-0.604],[30.785475938288982,-0.6038782318612647],[30.785509001474807,-0.603667129965774],[30.784868847248614,-0.6037597750728999],[30.783793647155317,-0.6035499799327444],[30.783143008505835,-0.602837773779055],[30.7814406966279,-0.6030908676347122],[30.78096622499307,-0.602998287803526],[30.779544325644473,-0.602138805625464],[30.778946178405345,-0.6026041323717749],[30.77810380738935,-0.6024397672954831],[30.777863347824763,-0.601778933079689],[30.777808101712385,-0.6024302450060501],[30.77664155272714,-0.6028141725201815],[30.775491533606715,-0.602429764552542],[30.775171972166717,-0.6032978319451311],[30.77314745917458,-0.6039641273602638],[30.77237243642119,-0.603569899123628],[30.77182639477288,-0.6043989080494321],[30.770338644587294,-0.6048885473510172],[30.76897664159179,-0.603661726479174],[30.767989168163755,-0.604113071571913],[30.768327653299647,-0.605175510548487],[30.765346947564996,-0.604345860140274],[30.76503815377176,-0.605675124819702],[30.763054703204936,-0.6055917493041],[30.76065657175846,-0.607808169979788],[30.76047967209815,-0.6081332724740272],[30.756860647131454,-0.6093243439820537],[30.756668760988997,-0.60893806610661],[30.754232551634452,-0.6101892868038516],[30.7542,-0.6102],[30.75402391690355,-0.6101569574653115],[30.75434455197943,-0.60936392394835],[30.753541211324016,-0.608008927547138],[30.750914610917025,-0.607024220144404],[30.75092805245774,-0.605327418532022],[30.74936665718822,-0.605205798228051],[30.749056996257128,-0.60651098347304],[30.748153019009816,-0.605847618946097],[30.747858337550515,-0.606885750722828],[30.74635076016364,-0.607194705480583],[30.74594014602399,-0.6081809245836421],[30.745498832096104,-0.608073047845714],[30.74531502248451,-0.607409180372438],[30.74421360577751,-0.6077588814122802],[30.74283110365988,-0.607420936450193],[30.742748691440767,-0.607234419300936],[30.740655358345567,-0.606543732690137],[30.740303373802263,-0.6072656966318589],[30.740132479213614,-0.607423264578274],[30.738676300682794,-0.607314407971707],[30.738533824169835,-0.608819064836413],[30.736903921827693,-0.609378269368139],[30.736716630504908,-0.610359697787493],[30.734162219591695,-0.61008277248348],[30.73544647352169,-0.611487033758905],[30.732178067552717,-0.613419988296423],[30.73108160240115,-0.6157683390704992],[30.7246482759562,-0.6216999840954341],[30.724559273305903,-0.62157918069417],[30.72240811231973,-0.623444442161747],[30.72259757771733,-0.6235907654991604],[30.72046912662782,-0.625553236457838],[30.720099348138742,-0.625510509433024],[30.718782434255385,-0.6268839224293659],[30.71750134988637,-0.6256190543181855],[30.715083907538187,-0.62265594673901],[30.7144256295705,-0.6225822671708706],[30.713472136710745,-0.6216408438409898],[30.71181549752789,-0.618100619893253],[30.709203050272887,-0.616896735952803],[30.707905171435563,-0.614361183890669],[30.70642847365071,-0.614602828196584],[30.704929346955105,-0.611814389296074],[30.699471053891404,-0.608559105765393],[30.697708085121015,-0.606214608822994],[30.698525560806686,-0.59941363726629],[30.697129918472463,-0.596838806506857],[30.698358023768865,-0.59073989924185],[30.70270654639751,-0.580162873880216],[30.701360941396516,-0.578057633419388],[30.69780346585889,-0.580053964188028],[30.69451406378044,-0.583257247912138],[30.69203493584185,-0.583709393975934],[30.69009864255409,-0.585022231683994],[30.686599759901164,-0.590084476550333],[30.683355269087485,-0.587701377504276],[30.68146842753966,-0.58328498938984],[30.67229738597717,-0.588286379592158],[30.664161580387457,-0.591271042661911],[30.66290569581986,-0.589887935118697],[30.662365469270338,-0.58746564509143],[30.658090847647056,-0.587996769801768],[30.65766611533782,-0.588702957201047],[30.656743778046042,-0.587752539254427],[30.655298558168532,-0.588125939407111],[30.65478569052379,-0.58680608162862],[30.653094208080596,-0.586895518729791],[30.652511647857228,-0.587613963790477],[30.65857762497787,-0.592872754587132],[30.660085737504136,-0.595680910285338],[30.663988382244785,-0.599057381105296],[30.663170384365973,-0.602787839164726],[30.660457245919126,-0.607235761230806],[30.660998500972916,-0.607907725922681],[30.66064156950165,-0.611091550147091],[30.65901479336548,-0.615211763283304],[30.659791168323302,-0.618379791697786],[30.659368837169524,-0.620612504393459],[30.658383190881068,-0.621276362078722],[30.656634294723183,-0.619984322805268],[30.65837170943885,-0.619112753319775],[30.65605419141621,-0.618870413007949],[30.65559579418995,-0.620319871924665],[30.65498532841129,-0.61932045057674],[30.6554458927974,-0.617940521335075],[30.65456011471656,-0.617732237034939],[30.6517516322014,-0.619909360726678],[30.65048441794396,-0.619295620956191],[30.65003841654837,-0.620983690501053],[30.649109502330184,-0.621525039361574],[30.647810437677634,-0.618561433922138],[30.646629052749105,-0.617947522445903],[30.6458297019106,-0.619007506913845],[30.644223338632326,-0.618636270367535],[30.644423261321414,-0.61645201864846],[30.643634261809115,-0.615920219305091],[30.64353456225498,-0.618090264176751],[30.64256779439279,-0.617879603449042],[30.641196744509166,-0.618921886621078],[30.640424233584298,-0.617248211624348],[30.639255105185267,-0.618700594515899],[30.63700830484281,-0.616594806032636],[30.636148270468627,-0.617440431621061],[30.635994642327784,-0.619325204576989],[30.63324967987688,-0.619828923381347],[30.63246818442747,-0.622459017988063],[30.630205331945714,-0.620335462951939],[30.628995463180377,-0.620806417858061],[30.628418468312667,-0.620285269457443],[30.627339409746593,-0.621080593244004],[30.62827091002343,-0.622298342869503],[30.625569150176144,-0.623237050564995],[30.625180001259086,-0.622294777227158],[30.62612935718935,-0.62048129946616],[30.62511589423436,-0.61966460835269],[30.623641560818314,-0.621049104278513],[30.62274195789307,-0.618956312436767],[30.6184603988179,-0.618914747592996],[30.61743284218861,-0.617963134961318],[30.616710087855818,-0.618768427077015],[30.61714211323702,-0.619436328230016],[30.61565161362894,-0.620140656186385],[30.614307884802837,-0.619022352929516],[30.61282371047952,-0.619066937815477],[30.61226405511293,-0.616937145539373],[30.61038142649371,-0.617429412819823],[30.60851570137491,-0.616492087371137],[30.60843026553236,-0.618133731705466],[30.606731335515747,-0.617548384214653],[30.607035269782962,-0.616348927637278],[30.605308421428848,-0.615568676743587],[30.606221829913682,-0.614540097835729],[30.605789053994524,-0.613646086626669],[30.602543484135207,-0.612960784336356],[30.602752834299057,-0.612142547400752],[30.601715434332906,-0.611766297998751],[30.601291654599816,-0.61021068225478],[30.599136096793686,-0.609215514355296],[30.598503538561694,-0.607146055406176],[30.595533466114684,-0.604418684001565],[30.593520568040912,-0.604880134987554],[30.591983494913478,-0.60356677540547],[30.59195465780473,-0.602310614997128],[30.590003726144133,-0.602443567598998],[30.583672254800806,-0.593781640628566],[30.580930937836698,-0.593977742416389],[30.577124858979772,-0.591043226090792],[30.57573062680205,-0.591158079957841],[30.57438166953135,-0.589452105493639],[30.573075147969362,-0.590112308144707],[30.571391377755223,-0.589334392736046],[30.57009130111239,-0.590936790005378],[30.56955335992408,-0.589513448325295],[30.567771331181024,-0.589544808611766],[30.569208916593034,-0.5857000899883552],[30.56920962463437,-0.58569844680927],[30.576407735168363,-0.577453994322156],[30.57663345607266,-0.575704657190013],[30.57534764136449,-0.57099009835745],[30.574920382690998,-0.5694233362112647],[30.5758722287172,-0.566186595128385],[30.580498178904737,-0.558719672803291],[30.58316344439952,-0.557995340557219],[30.585504831777452,-0.556282130611823],[30.585300509396323,-0.5535330696942439],[30.585295555053126,-0.553466064400209],[30.58529552653441,-0.5534660276459228],[30.585295439327872,-0.55346485432327],[30.58146936258963,-0.548534688899383],[30.581469067871186,-0.5485345732693307],[30.581469033445455,-0.548534528902217],[30.57802720227363,-0.5471841891713569],[30.568562925759775,-0.5434709679136152],[30.555635619468788,-0.531142312406925],[30.556775508257275,-0.5274992385203173],[30.556777101771125,-0.5274947244925283],[30.559108639109457,-0.5264424122862608],[30.55920429604726,-0.526399273797416]]]}},{"type":"Feature","properties":{"n":"Mbarara South Division","c":"437202","d":"Mbarara City","od":"Mbarara","dc":"437","k":"MBARARASOUTHDIVISION","a":["MBARARASOUTH","MBARARASOUTHDIVISION","SOUTH","SOUTHDIVISION"],"lat":-0.67241,"lon":30.588843},"geometry":{"type":"Polygon","coordinates":[[[30.54135540082613,-0.639481805493324],[30.5425,-0.6273],[30.533969094854307,-0.6179935580228803],[30.5345487567644,-0.617687713582252],[30.53596091944539,-0.615334155195427],[30.5382646018761,-0.6154136097509693],[30.53872165800168,-0.61552279407],[30.53877536331994,-0.6154312260347797],[30.53891035785813,-0.615435882028544],[30.540991319005276,-0.6116530556637305],[30.54100765656109,-0.6116665980071736],[30.541938526037228,-0.61249482106633],[30.541969806425637,-0.6124641324766984],[30.542019609294957,-0.612505414512301],[30.543001268314264,-0.6114521849840481],[30.543011243228605,-0.6114423987867393],[30.54426463524188,-0.612862335382474],[30.54426515977606,-0.6128621954754704],[30.544265383755036,-0.612862449311787],[30.544268199850013,-0.6128613846081239],[30.545271867014623,-0.6125936802881439],[30.545808306240207,-0.6137706458469931],[30.546281332461415,-0.614996774154448],[30.54637232157185,-0.6150081143026048],[30.54639455570766,-0.615056896738393],[30.54761323553879,-0.6151627718013684],[30.547626807502045,-0.6151644633013],[30.547626861343083,-0.6151639555683027],[30.547627387917334,-0.615164001315414],[30.54773382636255,-0.6141620955715273],[30.54869042522827,-0.614575547377152],[30.548759179115507,-0.614214081096579],[30.548929418500954,-0.6133199970084781],[30.549982471436138,-0.613179994235232],[30.54998199800283,-0.6131792436740526],[30.549982553638134,-0.613179169781795],[30.549215309460287,-0.6119632266393676],[30.549777821206348,-0.6113048402321161],[30.550172907633616,-0.610842807161759],[30.550172748808038,-0.6108426010582336],[30.550173324306247,-0.610841927471947],[30.54897572695717,-0.609288151040577],[30.548130948391936,-0.605930563739383],[30.55008954717223,-0.604274860083103],[30.550089460909543,-0.6042745287592985],[30.55008972060399,-0.604274309216664],[30.55002991289432,-0.6040458125458809],[30.549904606961782,-0.603564528689452],[30.551663561360574,-0.602857890793289],[30.55166360156274,-0.6028577075441244],[30.55166370753228,-0.602857664973529],[30.551934700399585,-0.6016235412089931],[30.55306268497435,-0.602418881489081],[30.554161976140335,-0.6004499347881447],[30.55451518769495,-0.599817477266069],[30.554515145049418,-0.5998173719331568],[30.5545153092836,-0.599817077772373],[30.554013447513857,-0.598574569432152],[30.55642843215906,-0.597429151950293],[30.55642850702425,-0.597428688564658],[30.556428832863375,-0.59742853400863],[30.556430896548033,-0.5974138983665074],[30.556806396867835,-0.5950897013151576],[30.556915415555476,-0.595062718593844],[30.558105955633064,-0.595266219082197],[30.558301717529726,-0.594719601274811],[30.55937920791758,-0.594452916512017],[30.559379400555695,-0.5944524205496983],[30.55938015293105,-0.594452445066784],[30.559880325754214,-0.593163812581763],[30.560031349816235,-0.5930900827597095],[30.563050072034933,-0.59161772664502],[30.563049815391707,-0.5916164703645929],[30.563052771470655,-0.591615027209298],[30.562869001240653,-0.5907259354965468],[30.564355661518444,-0.5907022525748961],[30.564876708997467,-0.59069408672561],[30.56519858309325,-0.589848296339932],[30.567710654304094,-0.589177165582273],[30.567736257042014,-0.5891177483121337],[30.56791506375718,-0.5891604061910645],[30.567771331181024,-0.589544808611766],[30.569405777695643,-0.5895160454893306],[30.5695690643478,-0.5895550007502233],[30.5700847150777,-0.5909193639783654],[30.570090524737072,-0.590936637133806],[30.570091014956724,-0.5909360328644494],[30.57009130111239,-0.590936790005378],[30.571391228676255,-0.5893345764819272],[30.571820857456036,-0.5895328158190554],[30.573075147969362,-0.590112308144707],[30.573075910870937,-0.5901119226404355],[30.57307661788446,-0.590112248870657],[30.574098741481617,-0.5895950727847489],[30.574381575840583,-0.589452152836824],[30.575342577585857,-0.5906673290140897],[30.57573062680205,-0.591158079957841],[30.57643652321935,-0.5910999297196251],[30.577125670703985,-0.5910438519364578],[30.580930937836698,-0.593977742416389],[30.58367221389243,-0.5937816435549715],[30.584097461476347,-0.5943633552050298],[30.590003726144133,-0.602443567598998],[30.59195465780473,-0.602310614997128],[30.591983494913478,-0.60356677540547],[30.591984322456977,-0.6035674825040229],[30.591984336559644,-0.603568084599462],[30.59256159763058,-0.6040607380734679],[30.593520568040912,-0.604880134987554],[30.59352147339466,-0.6048799274378596],[30.593521527112458,-0.604879973282384],[30.594153837005294,-0.6047349599328316],[30.595533466114684,-0.604418684001565],[30.598503283309302,-0.6071458210118689],[30.59913572781526,-0.609214831402677],[30.59913591436121,-0.6092149175145567],[30.599136096793686,-0.609215514355296],[30.601291654599816,-0.61021068225478],[30.601715434332906,-0.611766297998751],[30.60171585400516,-0.6117664502075809],[30.601715893086954,-0.611766593668121],[30.602027608048754,-0.6118795187214624],[30.60275279818081,-0.6121425343012052],[30.602543057964255,-0.612960080564344],[30.602543633100517,-0.612960202111271],[30.602543484135207,-0.612960784336356],[30.605789053994524,-0.613646086626669],[30.605939310043382,-0.6139564795712891],[30.606221814120843,-0.6145401156198648],[30.605308421428848,-0.615568676743587],[30.60530897659154,-0.6155689275856397],[30.605308836248717,-0.615569085608189],[30.606642333991406,-0.6161713854102531],[30.607035269782962,-0.616348927637278],[30.607034397373443,-0.616352370544016],[30.606550848974546,-0.617391430202293],[30.606744616347616,-0.6174959722859724],[30.606731335515747,-0.617548384214653],[30.60703688376338,-0.6176536574738962],[30.607935581751132,-0.61813852630785],[30.608258806233515,-0.6180746573060649],[30.60843026553236,-0.618133731705466],[30.608435153423425,-0.6180398111864134],[30.608534623808037,-0.618020155886402],[30.608515931922614,-0.6164922031964682],[30.61038142649371,-0.617429412819823],[30.610497863826783,-0.6173989669375555],[30.61226411601015,-0.6169373772863247],[30.61282371047952,-0.619066937815477],[30.612823894714026,-0.6190669322810366],[30.612823939287008,-0.619067102007689],[30.61416396408254,-0.6190266763360062],[30.614307884802837,-0.619022352929516],[30.61565161362894,-0.620140656186385],[30.61714211323702,-0.619436328230016],[30.617032640179087,-0.6192670854382817],[30.61671013709613,-0.6187683722135086],[30.61743221314816,-0.6179638358375232],[30.618367303731368,-0.6188285329185289],[30.6184603988179,-0.618914747592996],[30.621932616156506,-0.6189484554477014],[30.62274198835334,-0.6189563832980368],[30.622756384272865,-0.6189898732546474],[30.623545312843447,-0.621027693154806],[30.623607725758685,-0.6209703920658575],[30.623641560818314,-0.621049104278513],[30.625090867495626,-0.6196881101043534],[30.625179563233313,-0.6197159155123594],[30.62583297688336,-0.6202424637387007],[30.625180507334925,-0.6222938105114597],[30.625180001259086,-0.622294777227158],[30.625569150176144,-0.623237050564995],[30.62567096629246,-0.6232016752624835],[30.62569395855899,-0.623244162009942],[30.628269860613806,-0.62229922579901],[30.62826954771589,-0.622298816193796],[30.62827091002343,-0.622298342869503],[30.627339662656215,-0.6210809238725689],[30.627750989119903,-0.6207772372669119],[30.628417765832744,-0.6202857872226589],[30.628764731423747,-0.6205980182817922],[30.628995463180377,-0.620806417858061],[30.628996057561277,-0.6208061864886687],[30.628996223831013,-0.620806336113234],[30.629737786339877,-0.6205174602918263],[30.630205331945714,-0.620335462951939],[30.630445614509174,-0.6205609541193217],[30.63246682415837,-0.622459805517973],[30.632467304339027,-0.6224581920764053],[30.63246818442747,-0.622459017988063],[30.633169822043634,-0.6200976820243873],[30.633249815424374,-0.6198288985074835],[30.635994642327784,-0.619325204576989],[30.635994696093846,-0.6193245449529152],[30.635995325067434,-0.619324429475886],[30.6361230352524,-0.6177500275897699],[30.63614826090353,-0.6174405489696022],[30.63659133123131,-0.617004793779834],[30.637008225918727,-0.6165948836344437],[30.637409965039677,-0.6169712575582875],[30.639255105185267,-0.618700594515899],[30.63925542464829,-0.6187001976539038],[30.63925592675109,-0.618700668054697],[30.640457869913998,-0.6173210860422896],[30.641196744509166,-0.618921886621078],[30.641238202722082,-0.6188903697534696],[30.641257649810118,-0.618932427096434],[30.642560989794102,-0.6178847763598075],[30.642567617812936,-0.6178797376864684],[30.64257009930864,-0.6178801056949993],[30.64353456225498,-0.618090264176751],[30.643537625462432,-0.6180235908834202],[30.643626570946175,-0.618036781596089],[30.643549821023775,-0.6177581442063208],[30.64362477454644,-0.6161267175778282],[30.64374628915022,-0.6159957276742475],[30.644422795850442,-0.6164517049129602],[30.6444232537507,-0.6164521013621759],[30.644398503408837,-0.6167225107739405],[30.644222943413126,-0.618635837510908],[30.64422336923763,-0.6186359359898498],[30.644223338632326,-0.618636270367535],[30.6458297019106,-0.619007506913845],[30.64582975327512,-0.6190074388015848],[30.64582985091787,-0.619007461383082],[30.64655275472056,-0.6180486979514455],[30.646629052749105,-0.617947522445903],[30.647810437677634,-0.618561433922138],[30.649109502330184,-0.621525039361574],[30.649110479849924,-0.6215244696865857],[30.649110849590866,-0.621525312409252],[30.64989914300724,-0.6210648557704778],[30.65003841654837,-0.620983690501053],[30.65038520721115,-0.6196711234058057],[30.65048452136778,-0.6192956710466246],[30.6517516322014,-0.619909360726678],[30.65199805427671,-0.619718335382766],[30.654560408221766,-0.6177323060505624],[30.6554453379796,-0.6179403908736879],[30.654995816858673,-0.6192890254043202],[30.65498532841129,-0.61932045057674],[30.65559579418995,-0.620319871924665],[30.655595909296235,-0.6203195079568629],[30.65559621808694,-0.620320013224841],[30.65570094918437,-0.6199873702523799],[30.65605403825225,-0.618870897314687],[30.658370837101998,-0.6191131909252431],[30.656634294723183,-0.619984322805268],[30.65663546740761,-0.61998518915421],[30.656634615711074,-0.619985616657356],[30.658247558771794,-0.621311942253368],[30.658347071120637,-0.6212496777333922],[30.658383190881068,-0.621276362078722],[30.659368837169524,-0.620612504393459],[30.659791168323302,-0.618379791697786],[30.65901479336548,-0.615211763283304],[30.66055315016048,-0.6113154940093534],[30.660641550247615,-0.611091654974886],[30.660641559000897,-0.6110915767428436],[30.66064156950165,-0.611091550147091],[30.660998500972916,-0.607907725922681],[30.660457245919126,-0.607235761230806],[30.663170384365973,-0.602787839164726],[30.663988382244785,-0.599057381105296],[30.66019992023207,-0.595779698331555],[30.660085630725007,-0.5956807114590476],[30.658786979529758,-0.5932625797278912],[30.658577702521384,-0.592872839225562],[30.65857764247834,-0.5928727871735842],[30.65857762497787,-0.592872754587132],[30.652511647857228,-0.587613963790477],[30.653094208080596,-0.586895518729791],[30.65478569052379,-0.58680608162862],[30.655298558168532,-0.588125939407111],[30.656743778046042,-0.587752539254427],[30.65766611533782,-0.588702957201047],[30.658090847647056,-0.587996769801768],[30.662365469270338,-0.58746564509143],[30.66290569581986,-0.589887935118697],[30.664161580387457,-0.591271042661911],[30.672194712786258,-0.5883240457922406],[30.67229726318049,-0.588286429233369],[30.672297288898875,-0.5882864152058416],[30.67229738597717,-0.588286379592158],[30.68146842753966,-0.58328498938984],[30.683335051673797,-0.5876540561244749],[30.683355166144842,-0.587701224996385],[30.68335522118002,-0.5877012653708754],[30.683355269087485,-0.587701377504276],[30.686599759901164,-0.590084476550333],[30.686608128160206,-0.5900723692061952],[30.691051383546796,-0.5843762581069819],[30.69137381222615,-0.5841576463237931],[30.694512232483937,-0.583257909650809],[30.694512646709516,-0.583257506359082],[30.69451406378044,-0.583257247912138],[30.69780346585889,-0.580053964188028],[30.70127354914956,-0.5781066748898631],[30.701524936434264,-0.5783142087060351],[30.70250056985763,-0.5798406172407001],[30.70151277275343,-0.5830665207478508],[30.698358023768865,-0.59073989924185],[30.698358005677665,-0.590739989084761],[30.698357981878416,-0.590740031861417],[30.698342934835154,-0.590814832562069],[30.697129918472463,-0.596838806506857],[30.698525383352237,-0.5994133098792791],[30.69809325973644,-0.6030101568132448],[30.697708085121015,-0.606214608822994],[30.697742402489755,-0.6062602460273715],[30.69947035642112,-0.608558383612597],[30.699470637763948,-0.608558552375245],[30.699471053891404,-0.608559105765393],[30.69955898382778,-0.6086115464955634],[30.70362082195045,-0.61104802786038],[30.703138623526733,-0.6114381346213335],[30.7031,-0.6114],[30.70283961151517,-0.6116800404459494],[30.694168813740145,-0.618694863947072],[30.69179833852466,-0.623388702027263],[30.69043965422816,-0.625015843565941],[30.687541588679565,-0.6281326310427344],[30.680449712672587,-0.629172059958425],[30.67570832802668,-0.63275011852634],[30.673752320464335,-0.633035648255587],[30.67351064642355,-0.6345325964913165],[30.67250179241359,-0.6349771762245185],[30.670995631932485,-0.635338091129234],[30.670290185562475,-0.634429276301665],[30.66954889176716,-0.634720560546926],[30.669255142416088,-0.635978701540548],[30.66964655160494,-0.6362354179368055],[30.65884034503252,-0.6409974750704148],[30.658717220618435,-0.640825418281413],[30.65300230937732,-0.638498295391063],[30.647516357129536,-0.634055673349473],[30.641603317136127,-0.632627916329169],[30.639822290506483,-0.630917604682978],[30.64031255730345,-0.636922647239349],[30.642765967449435,-0.640024953978871],[30.643420691014185,-0.644320070584098],[30.64850115970866,-0.650312729631365],[30.64994110467115,-0.6540543236918173],[30.646995404449232,-0.6588206303008952],[30.6469672651475,-0.658832486186952],[30.643841197528694,-0.662903176376685],[30.642745698327623,-0.666253856634164],[30.64493988721357,-0.668556242459542],[30.645688682364685,-0.671774788341383],[30.646939414928212,-0.673044388919013],[30.64790089935268,-0.6752224454724043],[30.64807600180126,-0.6763230526780502],[30.641526340258032,-0.6986689567667116],[30.641100433300814,-0.699018072524749],[30.64082957934488,-0.704485569710903],[30.641864243021587,-0.711100124621315],[30.631896299000154,-0.71928719132763],[30.630100478081662,-0.726352795509243],[30.632444583402055,-0.729452104546391],[30.63648066184973,-0.7320690151628914],[30.63607405847658,-0.7329411499342897],[30.634784212323385,-0.734598948878407],[30.638812488220104,-0.737550157563142],[30.642093465332238,-0.742649638100356],[30.63905323684324,-0.745640958906341],[30.63875758236407,-0.753224649121754],[30.637936261312543,-0.75590505953762],[30.638322319522437,-0.762897827956169],[30.63991957838725,-0.7657730292595664],[30.61720745803617,-0.7567974490520947],[30.615186756644214,-0.755512863995863],[30.611746355069528,-0.7545435423476905],[30.61085516556757,-0.7536360381637758],[30.609207808195453,-0.750693244076626],[30.60209129347771,-0.742598856718849],[30.598925359962543,-0.741462677665703],[30.5880887820009,-0.730236448113068],[30.584329002824283,-0.722743909653275],[30.579986904507052,-0.719367149686131],[30.577281473484923,-0.718417722194765],[30.5704146906947,-0.712455234231444],[30.568743420069552,-0.7107533682630439],[30.567250462765283,-0.708538174021723],[30.56590565203789,-0.70259054409975],[30.562914735192695,-0.7010228583800413],[30.5572,-0.6911],[30.55718323130943,-0.6910883405198369],[30.557180696534342,-0.691065137039371],[30.546715119736618,-0.683716984349382],[30.546127215712296,-0.6834009546749562],[30.53161652821677,-0.6733114922757226],[30.530556968061305,-0.669393427055045],[30.528281529940426,-0.666165289371916],[30.5256,-0.6604],[30.5411,-0.6422],[30.54111291908145,-0.6420625040617143],[30.542183546385807,-0.640642704434224],[30.54135540082613,-0.639481805493324]]]}}]}
