{"type":"FeatureCollection","name":"Mitooma sub-counties","metadata":{"source":"Uganda Bureau of Statistics NPHC 2024 Map Explorer","retrieved":"2026-07-26","display_only":true,"clipped_to_dashboard_district":true,"positive_area_overlaps_removed":true,"source_gap_ratio":0.01146888},"features":[{"type":"Feature","properties":{"n":"Kashenshero","c":"423101","d":"Mitooma","od":"Mitooma","dc":"423","k":"KASHENSHERO","a":["KASHENSHERO"],"lat":-0.64719,"lon":29.981533},"geometry":{"type":"MultiPolygon","coordinates":[[[[29.947340995918886,-0.638352989242319],[29.950108561275588,-0.635170225073263],[29.950908909290757,-0.632238256371683],[29.951832310642356,-0.631499153161628],[29.954134014056976,-0.631500550806036],[29.956710474408037,-0.627930157362842],[29.95864131016524,-0.62693928845362],[29.96458394769966,-0.627278380253626],[29.972551390124558,-0.629092749028672],[29.972874186088713,-0.630186492635736],[29.97164098455228,-0.63277835198189],[29.96965610318332,-0.634126150719861],[29.96877453082071,-0.638182434982646],[29.967724037401926,-0.639597964024904],[29.97188160758412,-0.638718508586716],[29.974648875286196,-0.639374386098482],[29.97721619104045,-0.636613609541331],[29.982471065988115,-0.634951995348955],[29.9831309791684,-0.639701351788753],[29.985029199656214,-0.644049288140872],[29.99513782636404,-0.6380238312172],[29.996398814000965,-0.639962819088105],[29.99688454716479,-0.639097304270459],[30.003025507979007,-0.636528218980775],[30.004437181785253,-0.634432671907889],[30.00603209347479,-0.633604301679169],[30.006571089713063,-0.630663672617044],[30.00846652809304,-0.629921467923275],[30.01070881778844,-0.625767560357249],[30.014524243027477,-0.627879668485863],[30.016724424520486,-0.630116132968777],[30.019347761773766,-0.630912108293261],[30.018497022311994,-0.631263673869901],[30.018946861898282,-0.633477124187304],[30.018317371780345,-0.636670283356167],[30.01897870115428,-0.638590604327819],[30.01514844677462,-0.648531737615764],[30.01568914235601,-0.648679899556939],[30.015226622250804,-0.652986391893979],[30.01725459177858,-0.653486139813468],[30.01724031456616,-0.654528338596866],[30.01658358352531,-0.656184441272629],[30.014712072289374,-0.657591087882352],[30.014470899231032,-0.662125904800284],[30.01257269220831,-0.667126395622701],[30.010502928719912,-0.6683358135463],[30.00797105401934,-0.667295251712572],[30.005273477490125,-0.664131538063459],[29.99884418612408,-0.66309718888276],[29.997037303485424,-0.661263893747822],[29.9914419895181,-0.662413679902546],[29.987935694928296,-0.659955653540791],[29.982198557187267,-0.660365917773437],[29.98048737404571,-0.659399099996027],[29.978461905893155,-0.660127893773771],[29.977580154145937,-0.657963272971169],[29.97444677496985,-0.657155452467526],[29.97237619858083,-0.654329072016861],[29.969284950205378,-0.655959646635914],[29.968119419413505,-0.654849580289531],[29.966629868657595,-0.656706223694053],[29.962358986639355,-0.6560435982516],[29.962046423430422,-0.654374074346789],[29.959231550773342,-0.652277933973726],[29.958065039982383,-0.650237933946176],[29.952818081127532,-0.647363845437744],[29.951372036265383,-0.64831894556938],[29.951663072487847,-0.651386776031563],[29.950383295346658,-0.65188190292178],[29.94729005964569,-0.647016725470012],[29.945583582919017,-0.648033557181635],[29.945302453069292,-0.644270542414013],[29.947028816403115,-0.641961539567686],[29.947340995918886,-0.638352989242319]]],[[[29.974248744164754,-0.590143088920329],[29.97236332082823,-0.585054450557044],[29.972943347498695,-0.583881864055511],[29.975809459425157,-0.582809355226471],[29.97592607313589,-0.581971342929618],[29.977780058113332,-0.583181971324436],[29.980410023812777,-0.58237213875229],[29.983005088841175,-0.582951465485027],[29.984809703170825,-0.582231438303621],[29.989009299071554,-0.582442251986439],[29.990926609523342,-0.581253173563709],[29.990828954803284,-0.579754909285127],[29.99502764468603,-0.580345310246595],[29.996242717170627,-0.577025175828146],[29.99939993589091,-0.576504405162347],[30.001330914142283,-0.578595815686541],[30.00454591998272,-0.587198926669573],[30.00545424268576,-0.590404796320259],[30.00385153801312,-0.591068680680092],[30.00607625101077,-0.594045492347694],[30.00661086459345,-0.597013868122025],[30.0085983786565,-0.598647307899691],[30.009156751941294,-0.601331959487374],[30.008655542894584,-0.602135790736024],[30.00720728897695,-0.602254117676314],[30.00930659635206,-0.606145515769214],[30.010257357191268,-0.606319737502398],[30.010112836845824,-0.610792170962022],[30.008147086730762,-0.614152005617652],[30.00622182202193,-0.614329776077517],[30.00245373371172,-0.616990395365758],[30.000584597372715,-0.620696307845288],[29.998936497441107,-0.62122938406214],[29.995080216739485,-0.617285320589827],[29.993528613030545,-0.613253610470079],[29.98844811951181,-0.612391155161229],[29.98738595362178,-0.61259779499326],[29.987612945526674,-0.613919946937054],[29.986294222263442,-0.615539964088629],[29.984477809648123,-0.614856871329903],[29.98347724856137,-0.612879943360049],[29.984256994357953,-0.612572185921639],[29.983966580772858,-0.606736784372294],[29.982212899570705,-0.608483096606258],[29.979433150521043,-0.609320346043871],[29.977708960048478,-0.607246322834725],[29.97496605877647,-0.606860684879413],[29.974774639332026,-0.60243544366488],[29.973609428874795,-0.601081551936533],[29.97350855163219,-0.598464039929406],[29.971466865360195,-0.592417004381118],[29.971889874421375,-0.59068482544774],[29.974248744164754,-0.590143088920329]]]]}},{"type":"Feature","properties":{"n":"Kashenshero Town Council","c":"423102","d":"Mitooma","od":"Mitooma","dc":"423","k":"KASHENSHEROTOWNCOUNCIL","a":["KASHENSHERO","KASHENSHEROTOWNCOUNCIL"],"lat":-0.624609,"lon":29.990191},"geometry":{"type":"Polygon","coordinates":[[[29.971958510999883,-0.615707507532973],[29.97394462176343,-0.612929928101785],[29.973798139246497,-0.611070934175664],[29.97476878233862,-0.610404279611004],[29.97390511782191,-0.607894478846106],[29.97496592437543,-0.606860703535396],[29.975066825165655,-0.606874852120752],[29.977708960048478,-0.607246322834725],[29.979433150521043,-0.609320346043871],[29.982212899570705,-0.608483096606258],[29.983966580772858,-0.606736784372294],[29.984256994357953,-0.612572185921639],[29.98347724856137,-0.612879943360049],[29.98347884354845,-0.612883094766404],[29.983477896530594,-0.612883469121085],[29.98408743561333,-0.6140855627528389],[29.984477809648123,-0.614856871329903],[29.986294222263442,-0.615539964088629],[29.987612945526674,-0.613919946937054],[29.987442202907193,-0.6129254282720058],[29.987386509641603,-0.6125976868219809],[29.98844811951181,-0.612391155161229],[29.990924182130573,-0.6128114870330682],[29.993528621689425,-0.6132536329694439],[29.995080216739485,-0.617285320589827],[29.99508139818703,-0.617286528931351],[29.995081559830705,-0.617286948774525],[29.995570161616506,-0.6177864183683414],[29.998936497441107,-0.62122938406214],[30.000584597372715,-0.620696307845288],[30.00245373371172,-0.616990395365758],[30.00622182202193,-0.614329776077517],[30.00807765364206,-0.6141584167631178],[30.008147089253725,-0.614152017546934],[30.00979527773071,-0.618147686224667],[30.009351384429774,-0.62213594653175],[30.010691039224604,-0.623450346111488],[30.010708808669722,-0.625767551705315],[30.010596187544667,-0.6259762111942625],[30.00846652809304,-0.629921467923275],[30.006571089713063,-0.630663672617044],[30.00603209347479,-0.633604301679169],[30.004437181785253,-0.634432671907889],[30.00302567106346,-0.6365279768914532],[30.000279958413813,-0.6376768260495108],[29.99688454716479,-0.639097304270459],[29.996398814000965,-0.639962819088105],[29.99513782636404,-0.6380238312172],[29.99513349967493,-0.6380264102301167],[29.995133167583877,-0.638025901782661],[29.992374629804857,-0.639670891922895],[29.985029199656214,-0.644049288140872],[29.98314853859248,-0.6397415722261452],[29.983130972654436,-0.6397013049081376],[29.982471065988115,-0.634951995348955],[29.97721619104045,-0.636613609541331],[29.974648875286196,-0.639374386098482],[29.97188160758412,-0.638718508586716],[29.971021816760825,-0.6389003810944822],[29.96772437367627,-0.6395975108986952],[29.96877453082071,-0.638182434982646],[29.969280420545047,-0.6358547389084902],[29.96965645875145,-0.6341259092775822],[29.97164098455228,-0.63277835198189],[29.972874186088713,-0.630186492635736],[29.972551390124558,-0.629092749028672],[29.972531049433567,-0.6290881169883475],[29.96631844104243,-0.627629928246786],[29.97267214443433,-0.621925148438935],[29.971958510999883,-0.615707507532973]]]}},{"type":"Feature","properties":{"n":"Katenga","c":"423103","d":"Mitooma","od":"Mitooma","dc":"423","k":"KATENGA","a":["KATENGA"],"lat":-0.612953,"lon":30.099082},"geometry":{"type":"Polygon","coordinates":[[[30.05396691069976,-0.571756755321203],[30.05453582026359,-0.569271801960755],[30.053821638190147,-0.56730230099813],[30.05397500947282,-0.5672626491762764],[30.05995556464137,-0.5685994791551294],[30.060572772761336,-0.569718553912648],[30.06710450849753,-0.5701974783700354],[30.0698,-0.5708],[30.069875844700757,-0.5708792682462761],[30.07096161903515,-0.573165913426654],[30.076603009717086,-0.5779100900168145],[30.07905618489341,-0.5804739987948473],[30.08008227920989,-0.584338286019138],[30.086445072886928,-0.588196412982516],[30.087635423462586,-0.5894404946605497],[30.088646753441488,-0.591218340064681],[30.090675419834863,-0.592617713091298],[30.091219144602437,-0.5931859809907405],[30.091947463405113,-0.594861350020595],[30.09795596566223,-0.6002268946678168],[30.0986,-0.6009],[30.118866738002275,-0.589785982385849],[30.11990904900326,-0.589604070173473],[30.1233030120203,-0.596631600625015],[30.123063668170488,-0.601322339894298],[30.13015916686685,-0.610640858680488],[30.130169928136787,-0.6107776973735216],[30.128781076983117,-0.6189845450997526],[30.127617430816922,-0.622404004352548],[30.127777453168783,-0.6249150494571948],[30.127205597623842,-0.628294195859115],[30.126799850573928,-0.629641958908119],[30.126960687640945,-0.629741391212595],[30.1269,-0.6301],[30.129862293074833,-0.6370021428643591],[30.129762731635754,-0.637529057477364],[30.130238735263145,-0.640083851457155],[30.131583156100174,-0.6410117537134085],[30.13663508177235,-0.652782740529572],[30.135020884225742,-0.653199688166196],[30.132772292965658,-0.6529599906207046],[30.13060526416662,-0.651212454476264],[30.12738060935762,-0.6503887952818],[30.121103926430663,-0.651703894710366],[30.120269263163976,-0.6516271803372765],[30.1172,-0.6513],[30.117205287397734,-0.6513309197824053],[30.113546790625556,-0.649666715468225],[30.101991658271146,-0.649786361634047],[30.100118029431155,-0.64895400953529],[30.101120825099866,-0.64867045379217],[30.098484757687807,-0.646491369366033],[30.093043758455774,-0.643718445405056],[30.084637776240804,-0.64764395686689],[30.078483241601276,-0.648914344518986],[30.075773752228258,-0.651542840872551],[30.075079707439556,-0.650690226374293],[30.075225568707246,-0.651825944955334],[30.072189497711364,-0.652480417142161],[30.06368227865772,-0.658239349649217],[30.058758088245813,-0.65821679631352],[30.061764293392287,-0.648234673127686],[30.060575646686562,-0.642663440531776],[30.062543503893753,-0.637884957619047],[30.061389905995714,-0.634360642466924],[30.062022080105162,-0.634304166831991],[30.06200929358483,-0.623560528114183],[30.0626562502609,-0.621672616559535],[30.06498024199389,-0.620739591618525],[30.066705023245184,-0.618634128379158],[30.071607837265955,-0.617660782650286],[30.0695242130435,-0.616269122547071],[30.071881870028733,-0.615593373696109],[30.06915562567321,-0.615197831122458],[30.068371722665166,-0.614348071673477],[30.06835276090084,-0.611557758313984],[30.06669918957994,-0.610227009597929],[30.06782056670136,-0.606243431355786],[30.06485451608391,-0.60270845264173],[30.06477823887617,-0.599853030949741],[30.05834130884342,-0.597057945936028],[30.058344789164554,-0.595023509348802],[30.053412779447243,-0.593575725719768],[30.053877710323178,-0.586766994607354],[30.056848963746425,-0.582044204017402],[30.055460158818917,-0.579464650360287],[30.05541725999614,-0.576324198617502],[30.053015209419982,-0.575603880896084],[30.054719040701308,-0.57239790332954],[30.05396691069976,-0.571756755321203]]]}},{"type":"Feature","properties":{"n":"Mitooma","c":"423104","d":"Mitooma","od":"Mitooma","dc":"423","k":"MITOOMA","a":["MITOOMA"],"lat":-0.608635,"lon":30.02233},"geometry":{"type":"Polygon","coordinates":[[[30.004418096965658,-0.566852556250048],[30.00489888240182,-0.565072590076529],[30.00727476430155,-0.564649177482757],[30.00855433789917,-0.565986630815144],[30.01324459291661,-0.5652757823506],[30.01555565903854,-0.562414170242896],[30.015202849989212,-0.561870487682879],[30.02131391725104,-0.558973968340407],[30.02409111434502,-0.554199169717748],[30.023651395311138,-0.553933021918234],[30.026325558360057,-0.551624081682776],[30.02675962223762,-0.550594907952405],[30.026046473543655,-0.549136581344213],[30.02835815484211,-0.546454314522938],[30.028951633200016,-0.54614741855698],[30.03246303511547,-0.5488441213430002],[30.0333,-0.5507],[30.033730981930148,-0.5507033670463293],[30.03374167037613,-0.550721754520178],[30.03610601406803,-0.550909835447081],[30.03614982119411,-0.5507222642280789],[30.04565026907628,-0.5507964864771584],[30.04622721788741,-0.5511076014591129],[30.050195779488682,-0.5607032280174096],[30.050323751514455,-0.561807050692224],[30.0497036363733,-0.562837619938997],[30.052753667706646,-0.566966212978004],[30.052790867990005,-0.5669779196176177],[30.0528,-0.567],[30.05301068471985,-0.5670470942314956],[30.053821623079365,-0.56730229022107],[30.05385202483897,-0.5673860983046324],[30.05453582026359,-0.569271801960755],[30.05432661021391,-0.5701856154190703],[30.053967340944443,-0.571751114872793],[30.053968040003024,-0.5717518226111238],[30.05396691069976,-0.571756755321203],[30.05400489226477,-0.5717891324431228],[30.054679564927643,-0.5724721820719154],[30.053015209419982,-0.575603880896084],[30.05541725999614,-0.576324198617502],[30.055460158818917,-0.579464650360287],[30.05546024692284,-0.5794648140037181],[30.055460247513203,-0.579464858241194],[30.05546660240817,-0.579476618624433],[30.056848963746425,-0.582044204017402],[30.053877710323178,-0.586766994607354],[30.05342585224144,-0.5933842797539657],[30.0534127681423,-0.593575723636315],[30.050478511154008,-0.591379817118945],[30.044409279454115,-0.592546157240226],[30.041653114196194,-0.594488864389486],[30.041395984871343,-0.592690589494891],[30.03893011252189,-0.595319818472181],[30.03830708668316,-0.604943899307019],[30.036965116634626,-0.607055650090764],[30.031989125219148,-0.610213890599316],[30.032864501407275,-0.613650054306775],[30.032418942452757,-0.615866400610071],[30.033889395026094,-0.62361125499053],[30.03492874853755,-0.625838287685606],[30.036202718585212,-0.625694572600307],[30.03738588940678,-0.62847283923182],[30.040786239957345,-0.628543567083739],[30.043166523304198,-0.626704993192483],[30.04906568428388,-0.632004430259712],[30.05535190481453,-0.631954131405859],[30.05837435428007,-0.633865864751205],[30.06138989452069,-0.634360643230611],[30.06254346193505,-0.6378850595059836],[30.0625218279731,-0.6379375925440187],[30.060577513707333,-0.642613971095333],[30.060583786264864,-0.6426436754615777],[30.060575646686562,-0.642663440531776],[30.06176429070857,-0.6482346605490077],[30.058758076419323,-0.658216795956694],[30.051894084150245,-0.660943465613485],[30.050730263059865,-0.663309503460342],[30.049963497333437,-0.663399388801146],[30.047020885584807,-0.662647709707309],[30.045871030088115,-0.660781980297901],[30.042068956943265,-0.662173311908141],[30.03884948606361,-0.661112475096451],[30.03622099866768,-0.661824914350504],[30.03099163441047,-0.660275751242561],[30.02458115942617,-0.668659668147861],[30.01915948081751,-0.667853456925634],[30.013746023978637,-0.671590380236877],[30.01128154265448,-0.669935478308063],[30.011357137132983,-0.668554829478508],[30.010502939949284,-0.668335816517483],[30.010531227778205,-0.6683192776529415],[30.01257269220831,-0.667126395622701],[30.014332733149942,-0.6624898789149052],[30.01446956153862,-0.66212953712058],[30.014469568277242,-0.6621294109627515],[30.014470899231032,-0.662125904800284],[30.014712072289374,-0.657591087882352],[30.016523735471313,-0.6562294236700832],[30.016583207901128,-0.656184794636689],[30.01658324804776,-0.656184693420919],[30.01658358352531,-0.656184441272629],[30.01724031456616,-0.654528338596866],[30.01725459177858,-0.653486139813468],[30.01725250207911,-0.6534856248535793],[30.01725250241843,-0.653485596005976],[30.017244131118183,-0.6534835620167121],[30.015226622250804,-0.652986391893979],[30.01568914235601,-0.648679899556939],[30.01514844677462,-0.648531737615764],[30.01897870115428,-0.638590604327819],[30.018344689038194,-0.6367496052571756],[30.01831742689584,-0.6366700037766386],[30.018946861898282,-0.633477124187304],[30.018497022311994,-0.631263673869901],[30.019347761773766,-0.630912108293261],[30.01677415524446,-0.6301312223093114],[30.016724296204114,-0.6301160025363524],[30.014524243027477,-0.627879668485863],[30.012089404519184,-0.6265318129041021],[30.01070646828649,-0.6254623565187646],[30.010691039224604,-0.623450346111488],[30.010581302795657,-0.6233426784372155],[30.010597028418324,-0.623170815577057],[30.009388991753678,-0.6221728448811786],[30.009351384429774,-0.62213594653175],[30.00979527773071,-0.618147686224667],[30.009775143097745,-0.6180988742572248],[30.00816192065128,-0.6141266516726887],[30.010112836845824,-0.610792170962022],[30.010257357191268,-0.606319737502398],[30.010256781391526,-0.6063196319902387],[30.010256815792527,-0.606318565703464],[30.009913270101244,-0.6062566854216659],[30.009306842648094,-0.6061455609016171],[30.007207459005954,-0.6022541037844047],[30.00855378029646,-0.6021441050631771],[30.008654442770997,-0.602135999996327],[30.008654521227353,-0.6021358742094786],[30.008655542894584,-0.602135790736024],[30.009156751941294,-0.601331959487374],[30.009156549556334,-0.601330986423089],[30.009156685256933,-0.601330768858168],[30.008598812103894,-0.598649115760482],[30.008598742816652,-0.5986490587770302],[30.0085983786565,-0.598647307899691],[30.00661086459345,-0.597013868122025],[30.006099434174857,-0.5941742139980176],[30.006076322147646,-0.594045733762458],[30.006076285703468,-0.5940456849745949],[30.00607625101077,-0.594045492347694],[30.00584627790397,-0.5937377732718915],[30.00385226135578,-0.5910683810516648],[30.00545424268576,-0.590404796320259],[30.00454591998272,-0.587198926669573],[30.001330914142283,-0.578595815686541],[30.000932388091528,-0.5781641787294047],[30.00089817222067,-0.578071562228676],[30.001083961964635,-0.570093998333845],[30.004418096965658,-0.566852556250048]]]}},{"type":"Feature","properties":{"n":"Mitooma Town Council","c":"423105","d":"Mitooma","od":"Mitooma","dc":"423","k":"MITOOMATOWNCOUNCIL","a":["MITOOMA","MITOOMATOWNCOUNCIL","TOWNCOUNCIL"],"lat":-0.612606,"lon":30.050479},"geometry":{"type":"MultiPolygon","coordinates":[[[[30.03696475381369,-0.6070558803716619],[30.036965116634626,-0.607055650090764],[30.03830708668316,-0.604943899307019],[30.03893011252189,-0.595319818472181],[30.041395984871343,-0.592690589494891],[30.041653114196194,-0.594488864389486],[30.041658323478398,-0.594485192581436],[30.04165844067886,-0.594486012161537],[30.044357740373496,-0.5925824850112477],[30.044409279454115,-0.592546157240226],[30.04593647187019,-0.5922526726814124],[30.050478557850763,-0.5913798520653415],[30.050505681238526,-0.5914001503637534],[30.05316946133836,-0.593531105448011],[30.058344787971603,-0.5950242066938364],[30.05834130884342,-0.597057945936028],[30.06477823887617,-0.599853030949741],[30.064838773454653,-0.6021191305310117],[30.064854284322543,-0.602707917572059],[30.06485450894031,-0.6027081852226293],[30.06485451608391,-0.60270845264173],[30.06782056670136,-0.606243431355786],[30.06669918957994,-0.610227009597929],[30.06669970655795,-0.610227425647612],[30.066699649958935,-0.61022762676616],[30.066966181530663,-0.6104418773760129],[30.068352454701895,-0.6115575118934956],[30.068352783222664,-0.6115610430763356],[30.068371722665166,-0.614348071673477],[30.068639030186908,-0.6146378359556064],[30.06865160830756,-0.614773034846394],[30.068798066219603,-0.6148102327574102],[30.06915562567321,-0.615197831122458],[30.071881000183456,-0.6155932474928802],[30.07188169481083,-0.615593423916857],[30.0695242130435,-0.616269122547071],[30.069529204428612,-0.6162724563111175],[30.069525157542238,-0.616273620183398],[30.07044247125964,-0.6168824305083049],[30.07160643178538,-0.6176598439247624],[30.067862821453147,-0.618404273047946],[30.066705023245184,-0.618634128379158],[30.065282784323614,-0.6203702742032823],[30.064980170701798,-0.6207396202405286],[30.0626562502609,-0.621672616559535],[30.06200929358483,-0.623560528114183],[30.062012486601095,-0.626243401350837],[30.061600048124284,-0.629171619682883],[30.062022079834673,-0.6343039395587177],[30.062022080105162,-0.634304166831991],[30.06139172584227,-0.6343604798898931],[30.06138984225824,-0.6343606346555849],[30.059810549340146,-0.6341015102247369],[30.055353718261888,-0.6319552784317487],[30.05535190481453,-0.631954131405859],[30.055351345656806,-0.6319541358799293],[30.055351044961547,-0.631953991077105],[30.052641604586775,-0.631511930270997],[30.049070057104345,-0.6320043952708254],[30.04906568428388,-0.632004430259712],[30.043166523304198,-0.626704993192483],[30.040786239957345,-0.628543567083739],[30.039433588287185,-0.6285154317060471],[30.03738573262444,-0.6284724710828228],[30.036202718585212,-0.625694572600307],[30.03492874853755,-0.625838287685606],[30.033889395026094,-0.62361125499053],[30.03388928577736,-0.6236106795788748],[30.03263671315303,-0.6147831426447201],[30.032864501407275,-0.613650054306775],[30.031989125219148,-0.610213890599316],[30.03681582146996,-0.6071504070944252],[30.03696466244491,-0.607056024130424],[30.03696475381369,-0.6070558803716619]]],[[[30.052586503721663,-0.631521272309977],[30.052586502665008,-0.6315212660935],[30.052586503721717,-0.631521272309968],[30.052586503721663,-0.631521272309977]]]]}},{"type":"Feature","properties":{"n":"Bitereko","c":"423201","d":"Mitooma","od":"Mitooma","dc":"423","k":"BITEREKO","a":["BITEREKO"],"lat":-0.541696,"lon":29.983596},"geometry":{"type":"Polygon","coordinates":[[[29.939007850259035,-0.564368634596086],[29.938723498757177,-0.562360352935992],[29.94024161054184,-0.561574022541903],[29.940713336008347,-0.557834053980309],[29.94310242693908,-0.555213774015674],[29.94599470806648,-0.55623176517995],[29.949953589032198,-0.555031291573557],[29.949949756179503,-0.552985452064783],[29.950804214921863,-0.553342426607312],[29.953764905796902,-0.550988126481039],[29.957163911936345,-0.544409057901311],[29.960345980923314,-0.543473048984481],[29.96216080398194,-0.544402555088916],[29.96330103724014,-0.544175289142146],[29.962196473512382,-0.542017693069169],[29.96241065445425,-0.540518497800113],[29.965739109462987,-0.533269113112257],[29.968767717030833,-0.533676598846609],[29.971860754945883,-0.530317280450933],[29.971889624984,-0.52831813052881],[29.97741145355609,-0.52509414884172],[29.97708966351837,-0.521902872678839],[29.976158933299356,-0.521506086075922],[29.97878332371693,-0.514936484303475],[29.98096539594432,-0.515978242976759],[29.98516407849488,-0.513309701671423],[29.98499543026693,-0.50886827650688],[29.987119367157224,-0.504276796226863],[29.988829917050552,-0.503268641457993],[29.99073081094035,-0.504003760426198],[29.993403811078785,-0.500528208109007],[29.9956880910645,-0.499386067638716],[30.00378468632495,-0.502431319273433],[30.003282971801443,-0.509333935986503],[30.00168953800984,-0.509731962646219],[30.004589079898075,-0.516275833307987],[30.00475026975108,-0.519113993134443],[30.004076106625263,-0.519589810236673],[30.00841069358154,-0.526545343272331],[30.009756621615324,-0.527525871660431],[30.01036847975708,-0.530934720280574],[30.012884954674707,-0.532596177350701],[30.012332158726448,-0.533313424555454],[30.010155345359504,-0.533265683015561],[30.00742890329539,-0.537799578536848],[30.00526024562722,-0.539357301965651],[30.00469500622298,-0.541374230231956],[30.007604995349993,-0.545059249636003],[30.01561145482266,-0.543015030883073],[30.020082791564032,-0.539988586246092],[30.023988567623487,-0.542638550743684],[30.026904341312218,-0.542975252291897],[30.028951623660408,-0.54614741114778],[30.02895159954983,-0.5461474359579619],[30.02835815484211,-0.546454314522938],[30.026046473543655,-0.549136581344213],[30.026046792426772,-0.5491372334322532],[30.026551783203924,-0.5510876982643386],[30.026487585507763,-0.5512399122260584],[30.023652443979888,-0.5539321164710239],[30.023651395311138,-0.553933021918234],[30.02409111434502,-0.554199169717748],[30.02131407828499,-0.5589736914768426],[30.02036174517885,-0.5594252781863464],[30.015202849989212,-0.561870487682879],[30.01555565903854,-0.562414170242896],[30.013244633188126,-0.5652757324855389],[30.012249928761563,-0.5654265322532649],[30.00855433789917,-0.565986630815144],[30.00727476430155,-0.564649177482757],[30.00489888240182,-0.565072590076529],[30.00441811800357,-0.5668524783633891],[30.00400724465097,-0.5672519863818953],[30.001083961964635,-0.570093998333845],[30.00108395222757,-0.5700944164304669],[30.001083897911197,-0.570094469244372],[30.00089807846438,-0.577904436192146],[29.99940395290198,-0.5765087559204228],[29.99939993589091,-0.576504405162347],[29.999399391405653,-0.5765044949730237],[29.99939909020206,-0.576504213615204],[29.99640854040997,-0.576908181044593],[29.996369997304754,-0.5770041814764507],[29.996242717170627,-0.577025175828146],[29.995027825317305,-0.5803448166792419],[29.990830683118606,-0.579754319319291],[29.99083073723117,-0.5797551599221514],[29.990828954803284,-0.579754909285127],[29.990926609523342,-0.581253173563709],[29.990241331527443,-0.5816781695666966],[29.9890090287434,-0.5824422384163539],[29.984809703170825,-0.582231438303621],[29.98300577475682,-0.5829511918099816],[29.981884455753832,-0.5827012934477244],[29.980410023812777,-0.58237213875229],[29.98040896650765,-0.5823724643231252],[29.980408675583746,-0.58237239948751],[29.977779822313874,-0.5831818173504157],[29.97719748476586,-0.5828015584057261],[29.975928403772095,-0.581971212427791],[29.975928189214283,-0.581972724701649],[29.97592607313589,-0.581971342929618],[29.975809459425157,-0.582809355226471],[29.97578048278663,-0.5828201983831433],[29.97266905249759,-0.583872600276067],[29.970977566092838,-0.580902683098669],[29.969815468421732,-0.580450774367186],[29.97034020145156,-0.581582494365981],[29.96955520546143,-0.5818630214481],[29.96826607855179,-0.578002894190376],[29.966705596428977,-0.579599419137278],[29.96530684347023,-0.579887011052578],[29.966001056658957,-0.577727776420567],[29.965501572580852,-0.576334624873307],[29.96627415170648,-0.57547434319878],[29.965464730230728,-0.573865796162249],[29.963406020871655,-0.573885295463493],[29.962223498605358,-0.574831206437932],[29.959873947285068,-0.574170540983378],[29.959540126819217,-0.573169403624594],[29.95598418502637,-0.573868815577716],[29.95567804713622,-0.575338586867347],[29.956844202092732,-0.576911171269992],[29.955005435549154,-0.576756462965236],[29.95427337651705,-0.578136224153193],[29.952093390214518,-0.579136038740891],[29.948156134116193,-0.579123681058341],[29.947249941404486,-0.577029656356074],[29.94365396792273,-0.575853419286119],[29.942394207438465,-0.57457122618647],[29.939382433525104,-0.574956452401552],[29.93630533369382,-0.572499599697031],[29.9350550885525,-0.568890876719138],[29.936059858904578,-0.566193090075063],[29.939007850259035,-0.564368634596086]]]}},{"type":"Feature","properties":{"n":"Kanyabwanga","c":"423202","d":"Mitooma","od":"Mitooma","dc":"423","k":"KANYABWANGA","a":["KANYABWANGA"],"lat":-0.612259,"lon":29.947847},"geometry":{"type":"Polygon","coordinates":[[[29.915799108637188,-0.631120079628096],[29.916674208761446,-0.628128416396741],[29.921604576731156,-0.623656888562294],[29.920808220007448,-0.620661733196995],[29.92188770380906,-0.618232003935696],[29.920064164592286,-0.616367146875267],[29.92039308024853,-0.61393449377796],[29.922365518212953,-0.611588272671621],[29.92500117243068,-0.603407513361333],[29.92856068818544,-0.600175357600804],[29.930215536971126,-0.599655781413286],[29.931848054614008,-0.600946358313765],[29.932088158978633,-0.602667576055444],[29.93564571626193,-0.601744448931443],[29.934717132771592,-0.597360534646587],[29.935986746257083,-0.593504122864445],[29.932156395419835,-0.59029775715279],[29.937870063236463,-0.590453611958878],[29.94222951474767,-0.593397517260841],[29.94609111468113,-0.590496345670002],[29.94421110616269,-0.587095817309883],[29.94184785964964,-0.58559190856019],[29.944232970609676,-0.584496920102133],[29.94463746402086,-0.583231866882061],[29.94360112566858,-0.580369375021103],[29.947752212098546,-0.578789488371738],[29.94802079025705,-0.5788109292775276],[29.948156134116193,-0.579123681058341],[29.952093390214518,-0.579136038740891],[29.95427337651705,-0.578136224153193],[29.954864858765447,-0.5770214175407278],[29.95500547830358,-0.5767564665624653],[29.956844202092732,-0.576911171269992],[29.95684302206572,-0.5769095799788293],[29.956846080644034,-0.576909835214411],[29.955701170310405,-0.5752275722604182],[29.95581843748458,-0.5746645713011511],[29.956158366852062,-0.5738345560599845],[29.959539856651407,-0.5731694567634265],[29.959596564487722,-0.5733386618461956],[29.959873947285068,-0.574170540983378],[29.959875509907445,-0.5741709803739182],[29.959875626029987,-0.574171326860849],[29.962222378113236,-0.574831026156518],[29.962222502950958,-0.5748309264719401],[29.962223498605358,-0.574831206437932],[29.962993347509727,-0.574215396868797],[29.963406751191677,-0.5738852885461834],[29.96528435487771,-0.5738675046080429],[29.965464756483406,-0.573865848333671],[29.96627415170648,-0.57547434319878],[29.96573509553708,-0.576074592582555],[29.965501993157112,-0.576332904321802],[29.965502313790925,-0.5763337995216743],[29.965501572580852,-0.576334624873307],[29.966000968162323,-0.5777275295874277],[29.965966555646347,-0.5778350860805915],[29.96530684347023,-0.579887011052578],[29.96531027125282,-0.57988630628012],[29.965309221815424,-0.579889586302031],[29.966466265725447,-0.5796486269512726],[29.966705596428977,-0.579599419137278],[29.96806505698606,-0.5782085587986776],[29.96955058316986,-0.5818491805814241],[29.96955520546143,-0.5818630214481],[29.97005380947138,-0.5816848397378704],[29.970339635183823,-0.581583160509306],[29.97033945084608,-0.5815827626032304],[29.97034020145156,-0.581582494365981],[29.969815468421732,-0.580450774367186],[29.970977566092838,-0.580902683098669],[29.97266905249759,-0.583872600276067],[29.97288830852111,-0.5837984397027125],[29.972943335979412,-0.583881865043347],[29.972938894018455,-0.5838908672463676],[29.97236332082823,-0.585054450557044],[29.972363932290836,-0.5850561008559559],[29.972363800423924,-0.58505636810115],[29.972364351313576,-0.5850572317718357],[29.97333399090682,-0.5876742277202572],[29.97324980148871,-0.588746288552087],[29.974082817360774,-0.5896952629685265],[29.974163328886842,-0.589912558486357],[29.971892126157034,-0.5906843083155584],[29.971889874421375,-0.59068482544774],[29.971466865360195,-0.592417004381118],[29.973414320393303,-0.5981849472700095],[29.973508554924308,-0.5984641253516788],[29.973609428874795,-0.601081551936533],[29.974259993362708,-0.6018374616294793],[29.974774657882723,-0.6024358725205536],[29.974955183635444,-0.6066092730000514],[29.974966047297894,-0.606860683211269],[29.974966013599758,-0.6068607160466759],[29.97496592437543,-0.606860703535396],[29.97413651965679,-0.6076689735426577],[29.973905328542727,-0.607894245773431],[29.973905335687093,-0.6078942665325184],[29.97390511782191,-0.607894478846106],[29.974768766680736,-0.610404234109335],[29.974727474906704,-0.6104326502739849],[29.973798139246497,-0.611070934175664],[29.97394462176343,-0.612929928101785],[29.971958510999883,-0.615707507532973],[29.97265205858092,-0.6217501473560622],[29.972442933224745,-0.6221309495913542],[29.96631844104243,-0.627629928246786],[29.9663184477266,-0.627629929815657],[29.966316251989152,-0.627631817305109],[29.96607374867653,-0.6276176419927528],[29.96458394769966,-0.627278380253626],[29.95864131016524,-0.62693928845362],[29.95821464479588,-0.6271582451657914],[29.95769379859196,-0.627127799570842],[29.95734786366917,-0.6276030610784621],[29.956710474408037,-0.627930157362842],[29.95444708119835,-0.6310667102975341],[29.95226821385425,-0.6314994178515453],[29.951832310642356,-0.631499153161628],[29.95168802857971,-0.6316146385196139],[29.95140534849382,-0.631670776773677],[29.95131576075134,-0.6319126068369387],[29.950908909290757,-0.632238256371683],[29.950108561275588,-0.635170225073263],[29.947340995918886,-0.638352989242319],[29.947340927689954,-0.6383537779152384],[29.947340804945515,-0.638353919087129],[29.947126289275925,-0.6408348296167764],[29.947028816403115,-0.641961539567686],[29.945302453069292,-0.644270542414013],[29.945552552349426,-0.6476182028828019],[29.94558357273111,-0.648033566541731],[29.943520469095056,-0.648466244394096],[29.9428620590756,-0.650296546822557],[29.93555546900454,-0.6466752982347069],[29.936540553874767,-0.645731050829837],[29.93213506685793,-0.645328627904209],[29.931816329902944,-0.6455848574147635],[29.93084437059953,-0.645335998269445],[29.930835879641762,-0.645131723012093],[29.928942814755242,-0.6448491264832267],[29.92756451152938,-0.6444962275896482],[29.926555439589286,-0.643516323051588],[29.926298695123055,-0.6441721296691886],[29.919550701494405,-0.6424443825082289],[29.919384676748507,-0.641982644010435],[29.914626493167212,-0.640904239752895],[29.914049780214157,-0.637699762968537],[29.910461114049763,-0.632607401572815],[29.91096978098829,-0.631096620918331],[29.915799108637188,-0.631120079628096]]]}},{"type":"Feature","properties":{"n":"Kigyende","c":"423203","d":"Mitooma","od":"Mitooma","dc":"423","k":"KIGYENDE","a":["KIGYENDE"],"lat":-0.594825,"lon":29.917062},"geometry":{"type":"Polygon","coordinates":[[[29.886257933268126,-0.6089409057658071],[29.888308818969534,-0.607919217883371],[29.890471639842094,-0.6041105592054062],[29.894694676937693,-0.5992695166811797],[29.896622987700173,-0.597820839388099],[29.89742581922799,-0.596250863916192],[29.89742056484155,-0.596144718352369],[29.909736339049285,-0.5820266357239888],[29.910213425588697,-0.582312962942373],[29.911857688317184,-0.581187428904333],[29.91271289836777,-0.5786144823589003],[29.923993765695432,-0.5656827563979185],[29.924797388763576,-0.56527120257734],[29.926827812651037,-0.561420996624315],[29.926693052949318,-0.559389779266862],[29.92845425464504,-0.559430498845222],[29.93512025788041,-0.563961598265878],[29.9350585215543,-0.565610067437297],[29.93601710901375,-0.5663078726064866],[29.9350550885525,-0.568890876719138],[29.93630533369382,-0.572499599697031],[29.93630697704817,-0.5725009118025203],[29.936306992725694,-0.57250095703316],[29.936600388231913,-0.5727351804645204],[29.939382433525104,-0.574956452401552],[29.93938276842634,-0.5749564095654227],[29.93938328192998,-0.574956819505526],[29.941335450637723,-0.5747066483286276],[29.942394071310293,-0.5745712435981823],[29.943653300716193,-0.575852983589431],[29.943653675070333,-0.5758531212188848],[29.94365396792273,-0.575853419286119],[29.94365866377989,-0.5758549552933478],[29.947324878759773,-0.5772028211487962],[29.94739999066826,-0.5773763892980189],[29.947682690097082,-0.5788159481633619],[29.94360112566858,-0.580369375021103],[29.94362150524494,-0.5804256658756695],[29.943490614676083,-0.580476195337284],[29.944620128117656,-0.583183983020855],[29.94463746402086,-0.583231866882061],[29.944232979017357,-0.5844968938071124],[29.94423297059501,-0.5844969201088667],[29.94184785964964,-0.58559190856019],[29.944211018088637,-0.5870957612618406],[29.946089836622075,-0.5904973058597387],[29.94222951474767,-0.593397517260841],[29.938156230767206,-0.5906468587718849],[29.937870733982994,-0.590453939358357],[29.937870540370266,-0.5904539341637989],[29.937870063236463,-0.590453611958878],[29.932156395419835,-0.59029775715279],[29.934942239935307,-0.592629772341986],[29.935986528844523,-0.5935047832483825],[29.934717132771592,-0.597360534646587],[29.93564571626193,-0.601744448931443],[29.934390684992476,-0.6020701087350795],[29.932088024626438,-0.6026666129351707],[29.931848054614008,-0.600946358313765],[29.930215536971126,-0.599655781413286],[29.92856068818544,-0.600175357600804],[29.92500117243068,-0.603407513361333],[29.922365518212953,-0.611588272671621],[29.92039308024853,-0.61393449377796],[29.920393036812186,-0.6139348150322378],[29.920393033852463,-0.613934818550907],[29.920391816068523,-0.6139438436260208],[29.920064164592286,-0.616367146875267],[29.920064750681938,-0.6163677462445679],[29.920064677695308,-0.616368287153182],[29.920876384240668,-0.6171977698374543],[29.92188748841883,-0.6182317836651432],[29.92080837491485,-0.620661252112957],[29.92080840380532,-0.6206613195001225],[29.920808220007448,-0.620661733196995],[29.92153009768733,-0.6233767674795295],[29.916676353706404,-0.6281264710691014],[29.916674208761446,-0.628128416396741],[29.915799108637188,-0.631120079628096],[29.91096978098829,-0.631096620918331],[29.9104675149227,-0.6325883904787651],[29.910461107022954,-0.632607388321414],[29.908769816242692,-0.63052308233156],[29.90745467186864,-0.6308589579137143],[29.906935311199998,-0.6300819616377937],[29.9071291406852,-0.628718817696966],[29.905808475060105,-0.6283961437907082],[29.905629569111376,-0.6281284892217435],[29.906150830576664,-0.626532363203792],[29.905272870790384,-0.626386632852621],[29.904769674386955,-0.624607948774464],[29.903228583923735,-0.62434559311618],[29.902345759427824,-0.622116518978643],[29.90178088649638,-0.6223706175930115],[29.9016,-0.6221],[29.89311146018336,-0.616831251148293],[29.893142656574163,-0.616666716321335],[29.890910219972504,-0.615077357565089],[29.890446548968583,-0.615177168325329],[29.88813106802924,-0.6137399732595272],[29.888048532498654,-0.613495794948232],[29.884722694916842,-0.61112855922342],[29.88515877070927,-0.610200921382056],[29.886257933268126,-0.6089409057658071]]]}},{"type":"Feature","properties":{"n":"Kiyanga","c":"423204","d":"Mitooma","od":"Mitooma","dc":"423","k":"KIYANGA","a":["KIYANGA"],"lat":-0.526706,"lon":29.952398},"geometry":{"type":"Polygon","coordinates":[[[29.924627730185318,-0.517637395883661],[29.929470135053773,-0.5053739317920939],[29.934194451466023,-0.4935139291321698],[29.934746472804104,-0.4935039599478558],[29.948,-0.4936],[29.9577,-0.5023],[29.9649,-0.4907],[29.9758,-0.4859],[29.975809125432765,-0.4858783441222423],[29.976026473636015,-0.485788420863457],[29.978558233914693,-0.488119645526394],[29.98316024970908,-0.48772103955954],[29.984929663541074,-0.488746330138757],[29.985063324847836,-0.491997247752387],[29.98609812466465,-0.492214478076347],[29.986311942470312,-0.495044946650549],[29.98735924025525,-0.495391060386937],[29.987455644740507,-0.496426896267574],[29.9919040103127,-0.496628376940244],[29.993617168257323,-0.500411617986179],[29.99360386627905,-0.5004281804670624],[29.993403811078785,-0.500528208109007],[29.99073081094035,-0.504003760426198],[29.988829917050552,-0.503268641457993],[29.988829468074123,-0.5032689060733253],[29.988829429872958,-0.503268891280575],[29.98863546143717,-0.5033832486698204],[29.987119367157224,-0.504276796226863],[29.987119181684093,-0.5042771971786181],[29.98711917288126,-0.504277202368477],[29.98709539215928,-0.5043286248526477],[29.98499543026693,-0.50886827650688],[29.98516407849488,-0.513309701671423],[29.98096539594432,-0.515978242976759],[29.97878332371693,-0.514936484303475],[29.97713317668217,-0.519067275519512],[29.976160048863296,-0.521501649992929],[29.9761606091094,-0.5215018910428326],[29.976158933299356,-0.521506086075922],[29.97708966351837,-0.521902872678839],[29.97741145355609,-0.52509414884172],[29.971889624984,-0.52831813052881],[29.971860756058337,-0.5303172034173909],[29.970666398883992,-0.5316144589530686],[29.968767717030833,-0.533676598846609],[29.965739109462987,-0.533269113112257],[29.96573804038887,-0.533271441558789],[29.96573790972279,-0.533271424082052],[29.96241068940823,-0.540518362762071],[29.962410677219893,-0.5405184482164752],[29.96241065445425,-0.540518497800113],[29.962196473512382,-0.542017693069169],[29.962196760416987,-0.5420182534933765],[29.9621967406119,-0.542018392350041],[29.96220123058064,-0.5420269852734437],[29.96329639235345,-0.5441662160673855],[29.960347618453753,-0.5434738876858246],[29.960345980923314,-0.543473048984481],[29.957163911936345,-0.544409057901311],[29.953764905796902,-0.550988126481039],[29.950804214921863,-0.553342426607312],[29.949949756179503,-0.552985452064783],[29.94995358843956,-0.5550309752433557],[29.945994635590434,-0.5562317396706823],[29.94310242693908,-0.555213774015674],[29.940713336008347,-0.557834053980309],[29.940713264925,-0.5578346175485304],[29.940713119207768,-0.557834775718388],[29.940636664837417,-0.558441924000508],[29.94024161054184,-0.561574022541903],[29.9387394840395,-0.5623520731021399],[29.938724240723655,-0.562359960104739],[29.93872424184822,-0.5623599680400447],[29.938723498757177,-0.562360352935992],[29.939007850259035,-0.564368634596086],[29.936858136961096,-0.5656990510502341],[29.9352892036649,-0.5657779928233733],[29.935214722458962,-0.5657237741185495],[29.935074587837025,-0.5651810692535774],[29.93512025788041,-0.563961598265878],[29.934682946201708,-0.5636643432805359],[29.934575628411842,-0.563248729452543],[29.93367998652747,-0.5629825989371244],[29.92845425464504,-0.559430498845222],[29.926693052949318,-0.559389779266862],[29.926704498505092,-0.5595622968018479],[29.924614974128797,-0.558215017260777],[29.922806802115844,-0.55581334468638],[29.922779066305942,-0.554530809589885],[29.91953533956093,-0.551335134701059],[29.9195326100423,-0.5512798410647602],[29.936,-0.5411],[29.932922924985338,-0.5347569067680182],[29.93369646095787,-0.532542587988714],[29.924627730185318,-0.517637395883661]]]}},{"type":"Feature","properties":{"n":"Rutookye Town Council","c":"423205","d":"Mitooma","od":"Mitooma","dc":"423","k":"RUTOOKYETOWNCOUNCIL","a":["RUTOOKYE","RUTOOKYETOWNCOUNCIL"],"lat":-0.50744,"lon":30.018341},"geometry":{"type":"Polygon","coordinates":[[[30.003993366163815,-0.504033534520891],[30.005316037789875,-0.50555963632851],[30.00673113616183,-0.50271216753892],[30.010415122947595,-0.501481141989338],[30.009088985724674,-0.498462717651573],[30.00862382362963,-0.494719528005256],[30.010642308178173,-0.492686835877194],[30.0177463244225,-0.478043113773378],[30.018281669848392,-0.478567415385513],[30.018977969666874,-0.477665987843399],[30.01917706973058,-0.472618025597445],[30.021799704477793,-0.469953339835833],[30.022248091522144,-0.46830643882751],[30.02377007212283,-0.46692987145206],[30.025160245087463,-0.46801892545981494],[30.03278686102176,-0.4796799106926878],[30.032779269106907,-0.479687455140014],[30.032311541987404,-0.483688996005275],[30.03232134238594,-0.48373439988993083],[30.030855729403562,-0.49608742359854807],[30.030853177488293,-0.496093877115364],[30.03085442680731,-0.49609840262411375],[30.030443353780473,-0.4995631609931669],[30.030080315880827,-0.500013831636439],[30.029827865688414,-0.502688994148107],[30.030040004948376,-0.5029628154351439],[30.03,-0.5033],[30.03703656557134,-0.5125586389096572],[30.038268328421953,-0.5166944048799076],[30.0414,-0.5326],[30.0287,-0.5405],[30.028822593859655,-0.5407718385583661],[30.02945988582042,-0.542885990127407],[30.027846659317664,-0.544223291695836],[30.02690728975358,-0.5429798207503654],[30.026904341312218,-0.542975252291897],[30.026903790500196,-0.5429751886863909],[30.02690377058143,-0.542975162319341],[30.02658833471536,-0.5429387611503455],[30.02398875136166,-0.5426385719610123],[30.02283100800718,-0.5418531775322233],[30.020082791564032,-0.539988586246092],[30.01561145482266,-0.543015030883073],[30.007604995349993,-0.545059249636003],[30.00469500622298,-0.541374230231956],[30.00526020083166,-0.5393574618084153],[30.00569048255266,-0.5390482674192921],[30.00742890329539,-0.537799578536848],[30.007429449489223,-0.5377986702520895],[30.007429730199174,-0.53779846853787],[30.007885308079405,-0.5370406071164133],[30.010155345359504,-0.533265683015561],[30.012332158726448,-0.533313424555454],[30.012884954674707,-0.532596177350701],[30.01036847975708,-0.530934720280574],[30.009996619111703,-0.5288629710279744],[30.009758084243945,-0.527529038182451],[30.009756941155977,-0.5275276519190273],[30.009756621615324,-0.527525871660431],[30.009753745365106,-0.5275237762698022],[30.006751354166905,-0.5238826697045187],[30.004076106625263,-0.519589810236673],[30.00475026975108,-0.519113993134443],[30.004750261781137,-0.5191138528031638],[30.004750292223772,-0.519113831330799],[30.004654825335276,-0.517433449964125],[30.004589079898075,-0.516275833307987],[30.00168990846997,-0.5097327987242208],[30.00201969372795,-0.5096494924624193],[30.003282971801443,-0.509333935986503],[30.003283947072696,-0.509320518149625],[30.003993366163815,-0.504033534520891]]]}},{"type":"Feature","properties":{"n":"Rwoburunga","c":"423206","d":"Mitooma","od":"Mitooma","dc":"423","k":"RWOBURUNGA","a":["RWOBURUNGA"],"lat":-0.470973,"lon":30.001361},"geometry":{"type":"Polygon","coordinates":[[[29.9797136348487,-0.47661241879189103],[29.981568150388167,-0.4722114043027092],[29.98286544049881,-0.469734750180293],[29.982422443223125,-0.46795120847756194],[29.98232369271759,-0.46534254928962304],[29.982839424387937,-0.464165784426767],[29.98223511613206,-0.46300265115524125],[29.982232499445857,-0.46293352702801127],[29.98389192852841,-0.460038383703957],[29.983392170327804,-0.456417147712148],[29.98426740025852,-0.453112908937439],[29.98233846496517,-0.447370875296571],[29.98282140929221,-0.444129999241592],[29.981575473026734,-0.439191302089764],[29.98176172488501,-0.4385486210919287],[29.997395459889333,-0.44696678609425644],[29.998334914094187,-0.448117295700978],[30.000716691807877,-0.44875514174270287],[30.001606478739458,-0.4492342577827857],[30.003155326898582,-0.450708000901904],[30.009771213798825,-0.453846064946394],[30.010227111281907,-0.4538761368441041],[30.018703697868165,-0.458440452698243],[30.01921209057214,-0.45892428341102476],[30.019328421384436,-0.4591021515370729],[30.020794506727526,-0.463165773566157],[30.020260436593226,-0.465034699691722],[30.02377006405715,-0.466929863213623],[30.023770017536396,-0.4669299208231916],[30.022248091522144,-0.46830643882751],[30.022039358209817,-0.46907310482929304],[30.019177901395768,-0.472616626297576],[30.01917787861484,-0.4726172037436315],[30.01917706973058,-0.472618025597445],[30.018977969666874,-0.477665987843399],[30.018969961605766,-0.47767635505397504],[30.017911343640602,-0.4782047287567133],[30.0177463244225,-0.478043113773378],[30.017590149358014,-0.47836504212562914],[30.01753469379702,-0.478392720911615],[30.010642297947772,-0.4926868461796037],[30.00862382362963,-0.494719528005256],[30.009088985724674,-0.498462717651573],[30.009089083990354,-0.4984629413143407],[30.009089106742984,-0.498463124711067],[30.009121171740897,-0.4985359763257353],[30.010414780010645,-0.5014803614296656],[30.006732028128507,-0.502711492846632],[30.006731804075486,-0.5027119443516977],[30.00673113616183,-0.50271216753892],[30.005316037789875,-0.50555963632851],[30.004344002078255,-0.5044380991099382],[30.003784829765657,-0.502438697159598],[30.003784178681272,-0.5024383034637737],[30.00378468632495,-0.502431319273433],[30.003752786227203,-0.502419321165378],[30.001462879933527,-0.501034667246075],[29.996165781273618,-0.499400321764341],[29.995951770726485,-0.49948524153785084],[29.9956880910645,-0.499386067638716],[29.99371323022177,-0.5003734984728435],[29.99361717965927,-0.500411611510365],[29.99361704883847,-0.5004113542683397],[29.9919040103127,-0.496628376940244],[29.991688240243537,-0.4966186040252324],[29.991487546603754,-0.496223966188656],[29.987455574601192,-0.4964261426426759],[29.98739575304107,-0.4957833787895147],[29.987360027600342,-0.495392629947355],[29.987359365957097,-0.49539241101377457],[29.98735924025525,-0.495391060386937],[29.986312179526283,-0.495045024993432],[29.98622517641497,-0.49389635852338065],[29.98609812466465,-0.492214478076347],[29.985063324847836,-0.491997247752387],[29.98498610520445,-0.4901191073624222],[29.984929959064704,-0.488746759559877],[29.984929674416342,-0.48874659464759534],[29.984929663541074,-0.488746330138757],[29.98316024970908,-0.48772103955954],[29.978558233914693,-0.488119645526394],[29.97602653971906,-0.48578848171219885],[29.976026482979332,-0.485788414107435],[29.97596234666394,-0.48551472955870645],[29.978936698352634,-0.47845619346165874],[29.979535924491568,-0.477701110189232],[29.9797136348487,-0.47661241879189103]]]}},{"type":"Feature","properties":{"n":"Kabira","c":"423301","d":"Mitooma","od":"Mitooma","dc":"423","k":"KABIRA","a":["KABIRA"],"lat":-0.692188,"lon":30.055003},"geometry":{"type":"Polygon","coordinates":[[[30.005959769724992,-0.679601759337254],[30.007241254880377,-0.677386537676172],[30.005940867533408,-0.676184301782598],[30.005963750908986,-0.673083894154494],[30.008086937237884,-0.667377164751539],[30.008754453285857,-0.6676172168465984],[30.010502928719912,-0.6683358135463],[30.010531227778205,-0.6683192776529415],[30.010502939949284,-0.668335816517483],[30.011357024584854,-0.6685548006215893],[30.011351963332864,-0.6686493231666633],[30.01128154265448,-0.669935478308063],[30.011283041681295,-0.6699364849062234],[30.011283002222914,-0.669937221820048],[30.01224333886179,-0.6705813255226487],[30.013746023978637,-0.671590380236877],[30.01374690166936,-0.6715897743646922],[30.013747062064034,-0.671589881942389],[30.019159781116915,-0.6678535015805771],[30.02458115942617,-0.668659668147861],[30.024582287308757,-0.6686581930506311],[30.02458255251474,-0.668658232421761],[30.029587992439367,-0.662111499401525],[30.030991604236174,-0.6602757907059069],[30.03153633327142,-0.6604371145247532],[30.03622099866768,-0.661824914350504],[30.03884948606361,-0.661112475096451],[30.042068956943265,-0.662173311908141],[30.04206926664105,-0.6621731985772549],[30.042069420141402,-0.662173249172267],[30.04233772424739,-0.6620749591327522],[30.045871030088115,-0.660781980297901],[30.047020885584807,-0.662647709707309],[30.049963497333437,-0.663399388801146],[30.05007426971324,-0.6633864033314424],[30.051205327386654,-0.663660442871596],[30.050695506883063,-0.666967025764264],[30.05198289809275,-0.668505542610557],[30.05028263619295,-0.66920061012228],[30.050018335310742,-0.670220775402318],[30.050416613652235,-0.671892507065582],[30.05452453442037,-0.675721973258655],[30.05365175270839,-0.677844851953858],[30.054297358573347,-0.678871109688317],[30.054067513818154,-0.681140755804491],[30.0553908772933,-0.682079920315397],[30.05772369044801,-0.682036996605131],[30.05970218382755,-0.687040851399667],[30.062807431145213,-0.688814529836096],[30.06415211428917,-0.695393114510445],[30.063299090002435,-0.698599393388682],[30.065543942383634,-0.702107280404443],[30.065903138706375,-0.704789991674219],[30.06664018523314,-0.704655957460201],[30.067537881250587,-0.706328530133452],[30.06967140164452,-0.707377533150877],[30.070802180641092,-0.709979529314507],[30.074196838306808,-0.710687375136987],[30.074747269722216,-0.712070086209117],[30.072927587689303,-0.713292279485759],[30.072146523205493,-0.715355167572463],[30.068425310292422,-0.713680080845978],[30.06286681723135,-0.717020259384297],[30.058697687788534,-0.717394596888436],[30.05875976504753,-0.718919842133986],[30.057236913017814,-0.722048829512923],[30.05458373599289,-0.72178505349155],[30.052839670913077,-0.722871171327115],[30.047126143009617,-0.72414948242949],[30.043644908151037,-0.724191873594866],[30.043533744594857,-0.720805004070957],[30.041205563178142,-0.71688664070365],[30.038404251738296,-0.708566716142686],[30.03807413045052,-0.70486115606428],[30.03927985957497,-0.70559877032085],[30.041546120498253,-0.703272315709864],[30.041609779326407,-0.700891872093605],[30.04315207770034,-0.699996952548389],[30.042525128088435,-0.69869938681612],[30.04286480470857,-0.694457595371243],[30.046363107685472,-0.694132912560432],[30.046888702458475,-0.687130403132842],[30.04910401034557,-0.684830948528284],[30.045100130829347,-0.684018252763095],[30.044860592315914,-0.682641839371404],[30.040217042599313,-0.682344920452648],[30.038672875226567,-0.681267291318265],[30.037020223133226,-0.682073734770991],[30.03433406019952,-0.681447933888007],[30.033010096940515,-0.679978765808426],[30.033288295652007,-0.678693347626451],[30.031783081123077,-0.67808621823542],[30.02890638404398,-0.674305014654684],[30.026850964878417,-0.673457837903426],[30.02567925871278,-0.670754291655244],[30.02276738999503,-0.669958735599792],[30.02235770498865,-0.676552029102033],[30.02156229653112,-0.67665865372867],[30.022031571227608,-0.68311681345522],[30.021088498050183,-0.684481675539272],[30.020769572925385,-0.689424028797],[30.019805283205564,-0.690566386269602],[30.016964284098123,-0.692314386070764],[30.013762034606994,-0.69206121771846],[30.008063575842005,-0.68953204410917],[30.00746806136069,-0.686273918182109],[30.005367796108093,-0.686291491126619],[30.006283833165405,-0.681162262304815],[30.005959769724992,-0.679601759337254]]]}},{"type":"Feature","properties":{"n":"Kabira Town Council","c":"423302","d":"Mitooma","od":"Mitooma","dc":"423","k":"KABIRATOWNCOUNCIL","a":["KABIRA","KABIRATOWNCOUNCIL"],"lat":-0.693313,"lon":30.033223},"geometry":{"type":"Polygon","coordinates":[[[30.02076928114754,-0.6894243744551487],[30.020769572925385,-0.689424028797],[30.02100321985693,-0.6858032238384432],[30.02108860653835,-0.6844815185298375],[30.021356473237486,-0.6840938486119774],[30.022030797018513,-0.683119700513718],[30.02203068081688,-0.6831181021016065],[30.022031571227608,-0.68311681345522],[30.02156229653112,-0.67665865372867],[30.02235770498865,-0.676552029102033],[30.02276738999503,-0.669958735599792],[30.025549453762004,-0.6707188274483619],[30.025679362967306,-0.6707545322078163],[30.026850964878417,-0.673457837903426],[30.02890638404398,-0.674305014654684],[30.031783081123077,-0.67808621823542],[30.033288295652007,-0.678693347626451],[30.033010096940515,-0.679978765808426],[30.033010234637022,-0.6799789186067067],[30.03301022414292,-0.679978966724434],[30.03433394395048,-0.681447864953746],[30.034334012467536,-0.6814478809210499],[30.03433406019952,-0.681447933888007],[30.034938338063586,-0.6815887137402473],[30.037019439513035,-0.682073696315994],[30.037019639528378,-0.6820735988073737],[30.037020223133226,-0.682073734770991],[30.037927241903606,-0.6816311374743065],[30.038673166829728,-0.681267494819562],[30.040217042599313,-0.682344920452648],[30.044860462530814,-0.6826418310726554],[30.04486392163913,-0.6826609700113755],[30.045100130829347,-0.684018252763095],[30.04910401034557,-0.684830948528284],[30.046888702458475,-0.687130403132842],[30.046363175854147,-0.694132004347847],[30.04551436239511,-0.6942116858994929],[30.04286480470857,-0.694457595371243],[30.042864577562074,-0.6944604319163901],[30.04286386198688,-0.694460499090327],[30.042525110173315,-0.698698956853239],[30.042525155088544,-0.6986990496459355],[30.042525128088435,-0.69869938681612],[30.04315207770034,-0.699996952548389],[30.041609779326407,-0.700891872093605],[30.041609711692903,-0.7008944011653414],[30.041609648807388,-0.700894437676773],[30.041604616089646,-0.7010849449845394],[30.041546120498253,-0.703272315709864],[30.03927985957497,-0.70559877032085],[30.03807413045052,-0.70486115606428],[30.038074834351157,-0.704869057239382],[30.038074484476976,-0.704868844578768],[30.038404163878862,-0.708566328161456],[30.038404235870534,-0.7085665380295306],[30.038404251738296,-0.708566716142686],[30.04033110107725,-0.7142894790288182],[30.03548070955637,-0.714423497719052],[30.032963423427613,-0.716151106816458],[30.03034872835134,-0.715276691579335],[30.030109892206887,-0.716646556886279],[30.027480745441565,-0.717159787800441],[30.026309720352355,-0.716071894408112],[30.026961179312973,-0.715031278952892],[30.025456108489767,-0.71509489313846],[30.0259870395404,-0.713648291991485],[30.02484522816715,-0.711674083209377],[30.025921806196532,-0.71017203260667],[30.025784070414744,-0.709079336914925],[30.020891953177376,-0.705358603905317],[30.021032567688927,-0.703114942675866],[30.020009430426285,-0.702893080738261],[30.021230664418226,-0.694493819597365],[30.019180890038626,-0.692493376411134],[30.020769275488473,-0.689424462052206],[30.02076928114754,-0.6894243744551487]]]}},{"type":"Feature","properties":{"n":"Mayanga","c":"423303","d":"Mitooma","od":"Mitooma","dc":"423","k":"MAYANGA","a":["MAYANGA"],"lat":-0.741979,"lon":30.046593},"geometry":{"type":"Polygon","coordinates":[[[30.00526118126977,-0.724703247573732],[30.004374426659655,-0.723313406404146],[30.005009830899024,-0.721207591725981],[30.010180109418744,-0.716859387198947],[30.010814965014035,-0.715455942266771],[30.011700997890657,-0.715423134508724],[30.011545575811805,-0.713174648477822],[30.01257612702136,-0.713301921983788],[30.017317853476097,-0.70918927562026],[30.018634936326304,-0.709140601437509],[30.020898334854692,-0.704494443241342],[30.02089370605603,-0.7053306347730274],[30.020891953177376,-0.705358603905317],[30.02578382726177,-0.7090791519832776],[30.025359162011004,-0.7109570384445353],[30.02484522816715,-0.711674083209377],[30.02509812643159,-0.7121113480556901],[30.0249485073165,-0.712772969674298],[30.02598534031638,-0.7136453540079832],[30.0259870395404,-0.713648291991485],[30.02561611548338,-0.7146589301255385],[30.025456141694104,-0.715092116547544],[30.025457234822934,-0.7150918242750948],[30.025456108489767,-0.71509489313846],[30.02672385677245,-0.715041309763336],[30.02631708552596,-0.7160601295634396],[30.026309720352355,-0.716071894408112],[30.027480745441565,-0.717159787800441],[30.030109892206887,-0.716646556886279],[30.03034872835134,-0.715276691579335],[30.032963423427613,-0.716151106816458],[30.032963807877387,-0.7161508429692458],[30.032963912106933,-0.716150877848705],[30.034107377573225,-0.7153660130734791],[30.03548070955637,-0.714423497719052],[30.04033110107725,-0.7142894790288182],[30.041205563178142,-0.71688664070365],[30.04314106009018,-0.7201441103076984],[30.043643347588976,-0.724189852581867],[30.043644841246834,-0.7241898351947307],[30.043644908151037,-0.724191873594866],[30.047126143009617,-0.72414948242949],[30.052839670913077,-0.722871171327115],[30.05458373599289,-0.72178505349155],[30.057236913017814,-0.722048829512923],[30.05875976504753,-0.718919842133986],[30.058697687788534,-0.717394596888436],[30.06286681723135,-0.717020259384297],[30.068425310292422,-0.713680080845978],[30.072115150380885,-0.7153410452410339],[30.072146518740137,-0.715355178379598],[30.07262957736459,-0.716799710797127],[30.074279230697332,-0.717366695478285],[30.07529407424229,-0.720514116508534],[30.074777703945035,-0.723535858710508],[30.072145196121994,-0.727538373055986],[30.073679105399954,-0.730881811282957],[30.072680245976404,-0.730888346052317],[30.07010738273254,-0.734690148302988],[30.070838934823712,-0.73595719095627],[30.07002713140883,-0.73832199671821],[30.07089944699896,-0.739291323034334],[30.070425832479852,-0.746329728098504],[30.072164478152242,-0.748445199740842],[30.07239683861512,-0.751488369409356],[30.07538450462363,-0.752185669015044],[30.076838157303268,-0.75413822589534],[30.076809767995197,-0.7542],[30.0768,-0.7542],[30.07529640100807,-0.7574128183588227],[30.069988556967164,-0.762977483985526],[30.06628121793863,-0.769240548652527],[30.065475910715055,-0.77201694392841],[30.066317184564433,-0.774174516917093],[30.06516838144458,-0.775991307291554],[30.065300101212873,-0.77818519161364],[30.06483941669849,-0.7791914562851964],[30.061905965497807,-0.7790952775573051],[30.061363510440895,-0.777871230819549],[30.058957560291233,-0.777931534004245],[30.057543706740567,-0.776911862110451],[30.0557961103159,-0.778802760171318],[30.054382228256493,-0.777817769038573],[30.053192215000973,-0.778809580819704],[30.0529,-0.7788],[30.051496934522184,-0.7776307787684857],[30.052086835991876,-0.776052417872927],[30.050714329582515,-0.774714235008386],[30.048374578536123,-0.7750288154467695],[30.04470100925804,-0.7719675077150342],[30.043933163432754,-0.77052621699451],[30.04213675075012,-0.7698306256250993],[30.0421,-0.7698],[30.041968715752912,-0.7689335239692144],[30.041767499469238,-0.76650493526516],[30.041565039370234,-0.7662692598435412],[30.0406,-0.7599],[30.040484015056894,-0.75983484511164],[30.040522589657215,-0.75963516768491],[30.040115749831315,-0.759627971020778],[30.03700081788202,-0.7578781486906963],[30.03718782389231,-0.755542688382052],[30.03498627884136,-0.753742657651558],[30.031662628950073,-0.7548794051074115],[30.03125971864111,-0.7546530690374359],[30.03063060068209,-0.753838931944491],[30.029459435145338,-0.753641754404353],[30.02662937538014,-0.7520519598748996],[30.025810951598448,-0.750799406963254],[30.025157309705637,-0.751187196612306],[30.024174098795545,-0.7506727009170195],[30.023449132357616,-0.7502654488542787],[30.022740590896934,-0.749486964075681],[30.023000159845537,-0.746468685583556],[30.022216467406796,-0.74369501663935],[30.023267749853012,-0.742954992940139],[30.022179103628027,-0.741627523427072],[30.01997099393947,-0.743006959733166],[30.01957023471951,-0.742330217766436],[30.018868241148468,-0.742725616998973],[30.018933212167582,-0.744488005161814],[30.018075535091345,-0.745318681326091],[30.01759954417018,-0.74430769003533],[30.01577015810279,-0.745913380722625],[30.015614843170066,-0.7458645134939416],[30.0155,-0.7458],[30.015309968652698,-0.74576858985995],[30.013613673888305,-0.745234879271326],[30.012958237180822,-0.7453798739141855],[30.005669915992062,-0.7441751927259608],[30.00566123391714,-0.744127618366176],[30.005580284830227,-0.7441603776578889],[30.0034,-0.7438],[30.0034,-0.7428084897152726],[30.003709123734428,-0.735443864446756],[30.0034,-0.734774712101713],[30.0034,-0.7312377383474142],[30.005259751486044,-0.726704695727006],[30.00526118126977,-0.724703247573732]]]}},{"type":"Feature","properties":{"n":"Mutara","c":"423304","d":"Mitooma","od":"Mitooma","dc":"423","k":"MUTARA","a":["MUTARA"],"lat":-0.720851,"lon":30.107114},"geometry":{"type":"Polygon","coordinates":[[[30.069911507667946,-0.692786487021903],[30.07480307470123,-0.692278551533368],[30.0778948449308,-0.693256006168899],[30.08061677485806,-0.693025378541653],[30.081997100291986,-0.694678226878365],[30.08171310052623,-0.695995677565563],[30.08408042692962,-0.694763263480147],[30.087525898658033,-0.69466708308786],[30.09154505846572,-0.695854004193407],[30.094037695414144,-0.695274988376376],[30.09434993837775,-0.69685450028417],[30.09313691432431,-0.698980664581312],[30.094355626398198,-0.702349545666725],[30.096772344101804,-0.704195258359958],[30.101185416605762,-0.704405433831986],[30.103193428976606,-0.703466129533607],[30.105757674230947,-0.70603535848422],[30.107651584691123,-0.706118118828872],[30.10976733249806,-0.704667505607566],[30.11027728285668,-0.700905889385796],[30.113903334154916,-0.700169768905076],[30.12070099738344,-0.693060873267865],[30.129706307857337,-0.6993949438590549],[30.132488343377663,-0.7018263976674693],[30.133211312541583,-0.703125187439189],[30.13329150105989,-0.706353731340424],[30.13469834193787,-0.708159732532938],[30.1409952038374,-0.710264779071839],[30.14147293347616,-0.712986257546624],[30.142872927470005,-0.714224738711665],[30.13996055296368,-0.720260663001972],[30.138437534778607,-0.721188425258805],[30.137426587396725,-0.723374306518257],[30.134999540768607,-0.724683009983919],[30.132571475925996,-0.725367720350518],[30.13230519097873,-0.724876096494776],[30.131160870383656,-0.727030145116137],[30.130354693400065,-0.727147289271574],[30.12948678140407,-0.725743110613707],[30.128904228098783,-0.726943022760793],[30.127843357812257,-0.725362954119769],[30.12452255574571,-0.725035792813949],[30.122951983128807,-0.725917249314924],[30.120783195926123,-0.724104185789088],[30.117276462628976,-0.724984568333836],[30.114231049404413,-0.724471726677076],[30.112199942668493,-0.725910372119219],[30.10347934712555,-0.725904751924695],[30.102047297190538,-0.726507860548233],[30.098461947409742,-0.729669784214146],[30.09802823544755,-0.733740129382327],[30.095256791173124,-0.737826220665573],[30.089188034797992,-0.739076447297463],[30.088309729439853,-0.741375164380507],[30.086094688409624,-0.742326233086877],[30.085101240878032,-0.743695599626341],[30.07990879576151,-0.744412688382939],[30.0759372000744,-0.750076650097237],[30.07402244611073,-0.748798142233668],[30.072385114639964,-0.74879684745409],[30.07217653309683,-0.7486030804803997],[30.072164478152242,-0.748445199740842],[30.07074099921201,-0.7467132026011457],[30.07086113573331,-0.7398606683463878],[30.07089944699896,-0.739291323034334],[30.070871658675568,-0.739260444355276],[30.07087694306219,-0.738959025270278],[30.070034984197545,-0.7383307228201441],[30.07002713140883,-0.73832199671821],[30.070793989679785,-0.7360881174014896],[30.070838903570444,-0.735957337782547],[30.07083889368811,-0.7359573107854226],[30.070838934823712,-0.73595719095627],[30.07083870258642,-0.7359567887230497],[30.070281089486674,-0.7344334697832923],[30.07051556421119,-0.7340869972152247],[30.071621585613357,-0.733326912453072],[30.072677481188723,-0.7308924314525219],[30.072679267651477,-0.7308897916782833],[30.073234984537905,-0.7308847168243505],[30.073679105399954,-0.730881811282957],[30.073678579906787,-0.7308806658736646],[30.07367894444277,-0.730880662544691],[30.073244852565427,-0.7299352771247832],[30.072145387972697,-0.7275387912299797],[30.073432176351492,-0.7255816241392946],[30.074777703945035,-0.723535858710508],[30.074777875333897,-0.7235348557617417],[30.074778170987734,-0.723534406080991],[30.074940545082264,-0.7225829302806579],[30.07529407424229,-0.720514116508534],[30.075293763136678,-0.7205131516501041],[30.075293902223336,-0.720512336633454],[30.0742797299593,-0.717367846598099],[30.074279585876965,-0.7173677970272443],[30.074279230697332,-0.717366695478285],[30.07262957736459,-0.716799710797127],[30.07216121595045,-0.7153991287319381],[30.072146530608983,-0.715355176481104],[30.072159642673455,-0.7153205174318872],[30.072927587689303,-0.713292279485759],[30.074747269722216,-0.712070086209117],[30.074667397778708,-0.7118694439173637],[30.074806690068502,-0.711755575703718],[30.07420823283688,-0.7107159987628451],[30.074196838306808,-0.710687375136987],[30.074191061531543,-0.7106861705777527],[30.074190801097668,-0.710685718179424],[30.072989549178864,-0.7104356341221649],[30.070802746262423,-0.7099796472565015],[30.069672247941647,-0.707378736373478],[30.0696718365618,-0.7073785339238758],[30.06967140164452,-0.707377533150877],[30.067908326497072,-0.7065106695601289],[30.067537760683752,-0.7063283054952813],[30.06664018523314,-0.704655957460201],[30.065903406943,-0.7047899428945503],[30.06561090128244,-0.7026073729195067],[30.065543942383634,-0.702107280404443],[30.06329909854252,-0.6985994067337259],[30.06329910869529,-0.6985993231274863],[30.06415211428917,-0.695393114510445],[30.063861255279125,-0.693970146851138],[30.063910242654508,-0.693566744602541],[30.069911507667946,-0.692786487021903]]]}},{"type":"Feature","properties":{"n":"Mutara Town Council","c":"423305","d":"Mitooma","od":"Mitooma","dc":"423","k":"MUTARATOWNCOUNCIL","a":["MUTARA","MUTARATOWNCOUNCIL"],"lat":-0.674407,"lon":30.087091},"geometry":{"type":"Polygon","coordinates":[[[30.050743887159737,-0.6666532420029858],[30.050823318323623,-0.6661380690630885],[30.05130038252462,-0.66514557565576],[30.051083868197626,-0.6644482002759481],[30.051205327386654,-0.663660442871596],[30.05080951920658,-0.6635645440556417],[30.050730308194325,-0.6633094117023927],[30.05079320212127,-0.6631815489125551],[30.051894519364275,-0.6609432927279622],[30.05189577569558,-0.6609427936597358],[30.053938474693496,-0.660618608957756],[30.056579904224215,-0.659082058590865],[30.058758076419323,-0.658216795956694],[30.058781451172095,-0.6581391800834278],[30.05878146299079,-0.6581391803251178],[30.058758088245813,-0.65821679631352],[30.06367903797385,-0.6582393348065272],[30.063682011791343,-0.658239395620532],[30.063682081038937,-0.6582393487441012],[30.06368227865772,-0.658239349649217],[30.072189497711364,-0.652480417142161],[30.073447010322596,-0.6522093407971903],[30.075222834214348,-0.651827193525551],[30.075222751439902,-0.6518265522610002],[30.075225568707246,-0.651825944955334],[30.075079707439556,-0.650690226374293],[30.075773752228258,-0.651542840872551],[30.078483212608546,-0.6489143726450554],[30.08266437598321,-0.6480512960836988],[30.084637776240804,-0.64764395686689],[30.092920392378215,-0.6437760561564327],[30.09317281702539,-0.6437842181767099],[30.096961456815244,-0.6457150418369935],[30.101115187028068,-0.6486657931243934],[30.101120825099866,-0.64867045379217],[30.100118029431155,-0.64895400953529],[30.100132357043066,-0.6489603745194265],[30.10071104903911,-0.649433355419444],[30.10117814385876,-0.6494249611186057],[30.101991658271146,-0.649786361634047],[30.11103419507543,-0.6496927318230891],[30.113691175249244,-0.650113710388697],[30.117566394130034,-0.656813356512575],[30.117700582621076,-0.659180567423714],[30.11928222791194,-0.6634765067024152],[30.120926407773815,-0.6730913845903624],[30.12141684654992,-0.677665071037933],[30.121740029827738,-0.6778493048621934],[30.1218,-0.6782],[30.1193,-0.6903],[30.11931612071496,-0.6903140892427494],[30.119311752557223,-0.690320190351123],[30.12070098900758,-0.693060864905257],[30.118580264308985,-0.694620727936166],[30.117660389181683,-0.6962406963413655],[30.113903963681945,-0.7001691105550233],[30.113903203015646,-0.7001697955275078],[30.11027728285668,-0.700905889385796],[30.110277149305897,-0.7009068745145942],[30.110276088698612,-0.700907090021538],[30.109855760152314,-0.7040152246686939],[30.10976733249806,-0.704667505607566],[30.108174071111918,-0.7057598881798904],[30.105758329887706,-0.706035387135194],[30.105757674230947,-0.70603535848422],[30.103193428976606,-0.703466129533607],[30.10118553228804,-0.7044053797183449],[30.100407701623105,-0.7043683946459232],[30.096772344101804,-0.704195258359958],[30.094355626398198,-0.702349545666725],[30.09313691432431,-0.698980664581312],[30.09434993837775,-0.69685450028417],[30.094037695414144,-0.695274988376376],[30.091545160671345,-0.695853980452014],[30.090617523296974,-0.6955800884695741],[30.087525898658033,-0.69466708308786],[30.08408042692962,-0.694763263480147],[30.083670425164566,-0.6949767076210043],[30.08171392443986,-0.6959918555005089],[30.081997100291986,-0.694678226878365],[30.08061677485806,-0.693025378541653],[30.078044527894743,-0.6932433236136034],[30.077894593059302,-0.6932559265404192],[30.07480307470123,-0.692278551533368],[30.069911507667946,-0.692786487021903],[30.063911226286947,-0.6935666167150595],[30.063910241091353,-0.693566733213608],[30.062810324766694,-0.6888286862818027],[30.062807431145213,-0.688814529836096],[30.05970218382755,-0.687040851399667],[30.058424874036263,-0.683810376741861],[30.057724280711046,-0.682037798001022],[30.05772400928705,-0.6820378029885464],[30.05772369044801,-0.682036996605131],[30.055391260437144,-0.6820799132655587],[30.05515841649701,-0.6819149475515642],[30.054067513818154,-0.681140755804491],[30.054297358573347,-0.678871109688317],[30.054296533313966,-0.6788697978526145],[30.05429659993034,-0.678869138415448],[30.054228140763204,-0.6787610807730353],[30.05365175270839,-0.677844851953858],[30.054016901478747,-0.6769566956892036],[30.05452493727854,-0.675723875353417],[30.054524080780322,-0.6757230766534471],[30.05452453442037,-0.675721973258655],[30.050416631519184,-0.6718925237214245],[30.050282655583633,-0.6692006021953643],[30.05198289809275,-0.668505542610557],[30.05197870798334,-0.6685005351552774],[30.050743887159737,-0.6666532420029858]]]}},{"type":"Feature","properties":{"n":"Nyakizinga","c":"423306","d":"Mitooma","od":"Mitooma","dc":"423","k":"NYAKIZINGA","a":["NYAKIZINGA"],"lat":-0.737859,"lon":30.116723},"geometry":{"type":"Polygon","coordinates":[[[30.075616193770216,-0.7498623097214275],[30.0759372000744,-0.750076650097237],[30.075982146235628,-0.750012551594655],[30.07602762170451,-0.750031221559409],[30.079909074689574,-0.7444126498623241],[30.085101240878032,-0.743695599626341],[30.085237396333895,-0.7435079231567784],[30.085630463928215,-0.743441210551863],[30.086093191639318,-0.74232829623275],[30.086094688409624,-0.742326233086877],[30.088278022144713,-0.741388778492281],[30.08830949599802,-0.74137527160999],[30.088309499197017,-0.7413752632395139],[30.088309729439853,-0.741375164380507],[30.089114252869106,-0.7392695507309969],[30.089188053956814,-0.7390764433505476],[30.08918939397329,-0.739076167293283],[30.094542453737464,-0.738428531906938],[30.094942040702783,-0.7378910625204929],[30.095256791173124,-0.737826220665573],[30.09802823544755,-0.733740129382327],[30.09802825923502,-0.7337399061392268],[30.098028294770636,-0.733739858341605],[30.098045265200355,-0.7335803067855785],[30.098461947409742,-0.729669784214146],[30.101806505200333,-0.7267202152524997],[30.103472745963874,-0.7259075320075927],[30.103479177849206,-0.7259048232155217],[30.10626617072351,-0.7259065479592258],[30.112199942668493,-0.725910372119219],[30.114071472983838,-0.7245847556410765],[30.114231124236735,-0.7244717392786935],[30.114799102550034,-0.7245673857206432],[30.11727392998126,-0.724984708348853],[30.11727528123622,-0.7249843693895964],[30.117276462628976,-0.724984568333836],[30.11966747508964,-0.7243842929617806],[30.12078340858125,-0.7241043635646005],[30.122951983128807,-0.725917249314924],[30.122952361772935,-0.7259170368075086],[30.12295256585186,-0.725917207436313],[30.123391916709657,-0.7256703442621651],[30.12452255574571,-0.725035792813949],[30.127843357812257,-0.725362954119769],[30.128904228098783,-0.726943022760793],[30.12948678140407,-0.725743110613707],[30.13033541228293,-0.7271160947111714],[30.130352677213338,-0.727144124223898],[30.130352732230033,-0.7271441163310964],[30.130354693400065,-0.727147289271574],[30.131160870383656,-0.727030145116137],[30.13230436387424,-0.7248776534214754],[30.13239852200308,-0.7250484072412959],[30.132571475925996,-0.725367720350518],[30.134999540768607,-0.724683009983919],[30.137426587396725,-0.723374306518257],[30.137426759641308,-0.7233739340891733],[30.137426902444115,-0.723373857076522],[30.137751085587087,-0.7226726730546844],[30.1384374524076,-0.721188603362275],[30.138702543175725,-0.7210269926567512],[30.13996055296368,-0.720260663001972],[30.13996269886321,-0.7202562156044657],[30.142825410840004,-0.714339353118628],[30.142820876120258,-0.7143326156366989],[30.142872927470005,-0.714224738711665],[30.142564816015437,-0.7139521730900313],[30.142010910976254,-0.713129205982886],[30.14380795029574,-0.712458088996485],[30.145086363079905,-0.71283686204138],[30.145248900228896,-0.7129789168667185],[30.146079221584216,-0.714857842251864],[30.147774395678457,-0.7151861588246683],[30.15056521688704,-0.7176252911817613],[30.158742836950125,-0.725359888207124],[30.159335650558923,-0.7252905076023087],[30.168463078345603,-0.7332677310744062],[30.157653977445634,-0.732105207164565],[30.15237829806092,-0.732947926740091],[30.150111159621364,-0.732476100538316],[30.1472113378316,-0.733325892680684],[30.14345793469629,-0.731900812940926],[30.138936531838382,-0.73319083542281],[30.138384909754432,-0.734337036971966],[30.1384750729199,-0.7347082207544662],[30.13800826693668,-0.7460982867450148],[30.137974305328836,-0.7463250523043876],[30.12464764028407,-0.759318550723033],[30.11834262910075,-0.762116541895076],[30.11429021325427,-0.761868654466472],[30.107042437109772,-0.763322202657434],[30.105812797085512,-0.7626621937917778],[30.094627547516627,-0.7547168096152578],[30.093876004554627,-0.753954129963165],[30.087665818148462,-0.752657309786969],[30.084763439701366,-0.752799924991281],[30.082653909046336,-0.753807240520801],[30.078158698568558,-0.753430802543923],[30.076838163352154,-0.754138216061586],[30.076608576770557,-0.753829851649546],[30.07538450462363,-0.752185669015044],[30.072397758222312,-0.7514885840390141],[30.072176592771363,-0.7486031359165325],[30.072385114639964,-0.74879684745409],[30.07302221537779,-0.7487973512647351],[30.075616193770216,-0.7498623097214275]]]}},{"type":"Feature","properties":{"n":"Rurehe","c":"423307","d":"Mitooma","od":"Mitooma","dc":"423","k":"RUREHE","a":["RUREHE"],"lat":-0.689083,"lon":29.990682},"geometry":{"type":"Polygon","coordinates":[[[29.9451570115837,-0.648393946754675],[29.947252527851553,-0.6470390893955648],[29.947289845164157,-0.6470168532722976],[29.949051398146008,-0.650147420876331],[29.94935832630291,-0.6502697864319672],[29.950070030999218,-0.651389186948297],[29.950051642133626,-0.651692161803854],[29.950269019828152,-0.6517021653493273],[29.950383295346658,-0.65188190292178],[29.950786337432287,-0.6517259718865543],[29.951047371616482,-0.65173798446833],[29.95165004600017,-0.651391815787413],[29.951663072487847,-0.651386776031563],[29.9516628527489,-0.6513844597499995],[29.951663049801603,-0.651384346565374],[29.951555471691666,-0.6502525495167961],[29.951372036265383,-0.64831894556938],[29.95281773208852,-0.6473640759749959],[29.9563419376659,-0.6492940827166055],[29.9580649130214,-0.6502378644016805],[29.958396200706442,-0.6508170695113532],[29.959231550773342,-0.652277933973726],[29.959231933860092,-0.6522782192454609],[29.959231972864302,-0.652278287438266],[29.959413266511195,-0.6524132515319012],[29.962046423430422,-0.654374074346789],[29.962358986639355,-0.6560435982516],[29.962360265284325,-0.6560437966327974],[29.96236027731055,-0.65604386074511],[29.966627775179933,-0.656706540496739],[29.966628233479334,-0.6567059699968741],[29.966629868657595,-0.656706223694053],[29.96803767883081,-0.6549514654472812],[29.968119479905955,-0.6548496379033093],[29.969284950205378,-0.655959646635914],[29.970783234262015,-0.6551693303435434],[29.972376448015073,-0.6543294124998662],[29.973918948455044,-0.6564349581400999],[29.974446091547964,-0.657154808475001],[29.974446352376123,-0.657154875618175],[29.97444677496985,-0.657155452467526],[29.977580154145937,-0.657963272971169],[29.978461905893155,-0.660127893773771],[29.978462419727084,-0.660127708888628],[29.97846248744559,-0.660127875035339],[29.980487487084226,-0.659399163862743],[29.982198557187267,-0.660365917773437],[29.98219889376859,-0.6603658937044178],[29.982198958291075,-0.660365930184292],[29.98793633687801,-0.6599561035683852],[29.9914419895181,-0.662413679902546],[29.997037303485424,-0.661263893747822],[29.99884418612408,-0.66309718888276],[30.005273477490125,-0.664131538063459],[30.00797105401934,-0.667295251712572],[30.008054311151206,-0.6673294691222191],[30.008086927285472,-0.667377157937171],[30.0080136123918,-0.6675742482808618],[30.005963750908986,-0.673083894154494],[30.005940867533408,-0.676184301782598],[30.007240428521087,-0.6773857736893478],[30.006663059822948,-0.6783860265974151],[30.005959769724992,-0.679601759337254],[30.005960381405007,-0.6796047048360626],[30.0053672394289,-0.68628964288626],[30.005368127544497,-0.686289635292136],[30.005367796108093,-0.686291491126619],[30.00746765714308,-0.6862739215642026],[30.007899317466762,-0.6886333682785992],[30.008063575842005,-0.68953204410917],[30.013762034606994,-0.69206121771846],[30.016964284098123,-0.692314386070764],[30.017883101460505,-0.691749059400106],[30.01980891114132,-0.690565692468046],[30.019183549752245,-0.6924882375871076],[30.019180890038626,-0.692493376411134],[30.021230635688084,-0.6944937915586624],[30.021190273221013,-0.6947716174767369],[30.020009430426285,-0.702893080738261],[30.021032567688927,-0.703114942675866],[30.021032546212673,-0.7031152853534308],[30.018634201858376,-0.7091406285805442],[30.017317853476097,-0.70918927562026],[30.01257612702136,-0.713301921983788],[30.011545575811805,-0.713174648477822],[30.011700997890657,-0.715423134508724],[30.010814965014035,-0.715455942266771],[30.010180109418744,-0.716859387198947],[30.005009830899024,-0.721207591725981],[30.004374426659655,-0.723313406404146],[30.004375088700353,-0.7233144440434301],[30.004375069444922,-0.723314507948926],[30.00445116433468,-0.7234336800162455],[30.00526114988574,-0.7247031983844571],[30.005260797469578,-0.7252405009860599],[30.005259751486044,-0.726704695727006],[30.00525933968375,-0.7267056994725913],[30.003436003995787,-0.730310767218981],[30.0034,-0.7303115671970921],[30.0034,-0.7302],[29.99104954969019,-0.7204262623447527],[29.99086736955349,-0.719624457914983],[29.98990558305659,-0.719135977699242],[29.98872847377583,-0.712285793886456],[29.987190899518257,-0.708522559437387],[29.984099816995997,-0.7069508044055555],[29.981627859379184,-0.701343681030827],[29.981397428333945,-0.700250341624944],[29.980918316126154,-0.7000448234562247],[29.962923464137944,-0.6738704932915547],[29.958386363766554,-0.666994466732366],[29.958707560961315,-0.662004857414187],[29.960081724856884,-0.661311651619416],[29.959613614432197,-0.659351465358304],[29.958285251931745,-0.658737940439676],[29.958165256159393,-0.657691596488238],[29.957659292960532,-0.6576302636164048],[29.953727017979865,-0.655681372946161],[29.95357979995309,-0.654961992605961],[29.952696138577068,-0.6551704546456529],[29.94304027202705,-0.6503848716625301],[29.94352060177555,-0.6484662165681012],[29.94352882474934,-0.6484644920310599],[29.9451570115837,-0.648393946754675]]]}}]}
