{"type":"FeatureCollection","name":"Moroto sub-counties","metadata":{"source":"Uganda Bureau of Statistics NPHC 2024 Map Explorer","retrieved":"2026-07-26","display_only":true,"clipped_to_dashboard_district":true,"positive_area_overlaps_removed":true,"source_gap_ratio":0.00932193},"features":[{"type":"Feature","properties":{"n":"Loputuk","c":"308101","d":"Moroto","od":"Moroto","dc":"308","k":"LOPUTUK","a":["LOPUTUK"],"lat":2.446856,"lon":34.632975},"geometry":{"type":"Polygon","coordinates":[[[34.56042137864905,2.495648484980679],[34.56847682562549,2.496108541675495],[34.575293748594156,2.494030067171453],[34.58404379284288,2.48800127597255],[34.59027194448222,2.47957637212276],[34.609807983374836,2.48500567514967],[34.61596007173137,2.490800556616586],[34.62124406591716,2.485435279364259],[34.62521811400361,2.4840481397388],[34.627406654198325,2.494009783692304],[34.62370082907869,2.499216614431164],[34.62371049964859,2.501018692884598],[34.62607855275265,2.507406169393982],[34.63046311354275,2.507542051727005],[34.63328784671011,2.510605430980887],[34.634976543800946,2.51079992042617],[34.638274859742516,2.513483633376911],[34.63847827406475,2.51782347168881],[34.63631674550295,2.522417977416998],[34.636986302551776,2.522202273581646],[34.63699180541846,2.522986452620503],[34.63903337938774,2.52385495376919],[34.640548338227504,2.52322442607202],[34.64610489217314,2.524265264521803],[34.64645088177311,2.519615629676798],[34.65019538227513,2.519844275102743],[34.654595959305674,2.522255605605973],[34.655340383291836,2.522268510760105],[34.65545187772306,2.519731715454578],[34.66087060881055,2.521824761530076],[34.662543058905705,2.514940081200861],[34.66837776910459,2.506911135294819],[34.671636604063224,2.500303809281262],[34.66900733327366,2.491017887252405],[34.668728787630855,2.483811251638012],[34.673786002454534,2.482404632537156],[34.67565030471182,2.483730171042672],[34.68038978443398,2.479733508438537],[34.68136546340923,2.477342081398259],[34.68520826651156,2.473683644690887],[34.679877792859166,2.4702961126089],[34.67881436041922,2.459757473909094],[34.681471136879345,2.460155856366612],[34.683720388566094,2.461881215878644],[34.685415123090884,2.462124787247129],[34.686010620543186,2.463189920071608],[34.69007364672259,2.464450973501931],[34.69015382283927,2.449793466930473],[34.691598895995796,2.447509904197678],[34.69366490936047,2.446201608047181],[34.69656012985298,2.440314329374035],[34.700084510307114,2.436286874329085],[34.70370271451967,2.439661699965611],[34.70925079720277,2.440179071295175],[34.712359566769145,2.442353222949454],[34.714650890588764,2.441846634062302],[34.720947086844724,2.437310114396341],[34.7258992028934,2.430331964440587],[34.71776141191246,2.425757820179002],[34.71465609065572,2.423152279368072],[34.70330684419943,2.419654754024965],[34.69980880448916,2.41729910648117],[34.69466872562433,2.408768491333357],[34.68870817819642,2.403628854922361],[34.68638820795095,2.403129169425458],[34.678065240193455,2.407276350369751],[34.67325189286295,2.408228567307753],[34.66972436402898,2.403541039968833],[34.66422786414257,2.401018729901264],[34.660492726213256,2.397307554324212],[34.65868360056871,2.392381243513284],[34.65649434741418,2.390215738417565],[34.65444822119384,2.38640892032384],[34.65218940200022,2.386384703996193],[34.649641711982504,2.383244237860228],[34.647976039420044,2.382363578030525],[34.64062877871758,2.370483434106611],[34.635,2.4324],[34.6083,2.4397],[34.5909,2.4382],[34.58530599837398,2.419819708943102],[34.58529174379371,2.41981335760204],[34.58523448611105,2.419905994015455],[34.58403204367105,2.422836435889011],[34.58111901868753,2.4265643518795237],[34.5805781299307,2.4274394483235016],[34.58018053702506,2.430640217377255],[34.57733244244178,2.4326906012527325],[34.57639824830898,2.4342020210285527],[34.57302043284386,2.440159738986938],[34.574,2.4622],[34.5739935594663,2.4622091714691137],[34.57400135571122,2.462229757028633],[34.54911113822023,2.498518341605076],[34.55760510628348,2.502011361810604],[34.56042137864905,2.495648484980679]]]}},{"type":"Feature","properties":{"n":"Lotisan","c":"308102","d":"Moroto","od":"Moroto","dc":"308","k":"LOTISAN","a":["LOTISAN"],"lat":2.582834,"lon":34.589802},"geometry":{"type":"MultiPolygon","coordinates":[[[[34.553624401136595,2.574958973380852],[34.55746665294765,2.580253765382145],[34.560498907855255,2.573060116258606],[34.56444951936166,2.57606628681229],[34.56250453163968,2.588730733002919],[34.560348346075045,2.589779109018707],[34.55969317640401,2.588743012530756],[34.55829019625285,2.590001456527621],[34.55704400409241,2.588963343974116],[34.55638398380281,2.589551839577276],[34.55553118809259,2.589065275876957],[34.555936334831266,2.590417474724084],[34.55457110053756,2.590963173261164],[34.55473387553493,2.592682483411898],[34.55358599948595,2.59396644779667],[34.555851231735815,2.594309117565154],[34.55688868678928,2.595251352194257],[34.559183004360655,2.595195290548999],[34.558973097820754,2.596783726772317],[34.561567841124265,2.597504682180945],[34.56487515319412,2.602284247483452],[34.56881599935092,2.605297153897992],[34.572903330742704,2.605898295117813],[34.576335229122726,2.607664802396868],[34.57868994415845,2.607188675324784],[34.58153435188089,2.610496358621937],[34.58191974245731,2.609076895372721],[34.5850980355466,2.608923196374279],[34.585897690254306,2.610538002617947],[34.58721628774653,2.610583041778507],[34.587323582601265,2.611482646496052],[34.58910316628975,2.611118969685366],[34.591341545085854,2.612171690291069],[34.592021180985306,2.614479710971658],[34.59366217129168,2.616204837167287],[34.60314366987889,2.617999097506421],[34.60785608362434,2.619096796119186],[34.6107355771747,2.618368882575967],[34.61253197339304,2.6154705745714],[34.616466822642934,2.614626273112459],[34.62024421647316,2.610640677939458],[34.62086882943299,2.609510310814825],[34.62036554424138,2.608024449759606],[34.615547435831296,2.60779841821131],[34.61218648493627,2.605370033175656],[34.61456719443675,2.594281626175547],[34.614138131788685,2.593872218679779],[34.61273111630827,2.594938346651263],[34.611701446002996,2.593910307666778],[34.61107270229882,2.594956835983269],[34.61058079985136,2.593460745119927],[34.61324383855878,2.587018807853716],[34.614312345394865,2.585414214680094],[34.615516340940154,2.585785873352153],[34.617343153270035,2.577833130084243],[34.61899033549611,2.574112775561074],[34.61927361200589,2.568804376045473],[34.62268064844986,2.56947902630569],[34.62225652106146,2.566475879406967],[34.62140553232703,2.566029543407715],[34.62364847059709,2.562581105517471],[34.62622544738336,2.56080750486143],[34.62624765021655,2.559363570304156],[34.618726877148625,2.559603997384458],[34.61795294876065,2.561305831088117],[34.6167981864575,2.561864800662818],[34.61683818928328,2.563081534214885],[34.61209373717232,2.563585278279306],[34.61129946265979,2.563875941187463],[34.61121332069264,2.565748856636679],[34.607894566660924,2.56605232120077],[34.60580523494646,2.562264094258648],[34.61102766483619,2.558034979998055],[34.60971679590587,2.557475260467827],[34.610734823819556,2.556689852127586],[34.609340337086145,2.556755947083909],[34.607983664448916,2.550173703590582],[34.606042051431686,2.550525406093983],[34.60443554314876,2.549238187028942],[34.5994518077801,2.548016355821027],[34.597418413286505,2.56098731081576],[34.59279538646562,2.559408088443676],[34.58830918003133,2.560014789916498],[34.58287188146892,2.558587951291946],[34.580222580230654,2.559059199611272],[34.575722624393016,2.556647897642806],[34.57117798141614,2.558491964021471],[34.56812790647558,2.557261161079439],[34.56602656333064,2.564071270627073],[34.552286212211506,2.56119166139687],[34.548757439033054,2.566398154604653],[34.553327158650085,2.570674453094662],[34.553624401136595,2.574958973380852]]],[[[34.60424496090432,2.618274478442187],[34.60424496123602,2.618274476985562],[34.604244960873615,2.618274478434893],[34.60424496090432,2.618274478442187]]]]}},{"type":"Feature","properties":{"n":"Nadunget","c":"308103","d":"Moroto","od":"Moroto","dc":"308","k":"NADUNGET","a":["NADUNGET"],"lat":2.536747,"lon":34.617218},"geometry":{"type":"Polygon","coordinates":[[[34.50747899401168,2.561832039631535],[34.508211928646084,2.564969560169905],[34.5106501994866,2.56646026972173],[34.51280515326196,2.564171457713815],[34.513645032331446,2.564431602688829],[34.514771326309024,2.566286572216819],[34.51451531637398,2.56771849632354],[34.515990779654445,2.56843259336011],[34.5167357157595,2.570288165127225],[34.51975923690951,2.571933566255614],[34.51911490242156,2.576994024455141],[34.521794251314354,2.581772650762656],[34.52532888255086,2.583395496912071],[34.52922878516311,2.58702300921605],[34.5304109253907,2.586368627480824],[34.53413634386554,2.590264159208922],[34.53675435959272,2.58995987449181],[34.54132589534229,2.590924640787455],[34.545648070794705,2.594869173929845],[34.55216927577852,2.589901139386957],[34.5537132192558,2.589530332227308],[34.554571088970725,2.590963166777858],[34.55457504147293,2.5909615980277576],[34.555935080891565,2.590417975936998],[34.555933254883826,2.5904071952352443],[34.55553118809259,2.589065275876957],[34.555724660938374,2.5891756620604593],[34.5556958266545,2.589005425205837],[34.55637658883849,2.5895476203707757],[34.55638293662783,2.5895512421102302],[34.556655818303945,2.5893094630757902],[34.55704400409241,2.588963343974116],[34.55797572806535,2.589739495825666],[34.558290246225496,2.590001411703198],[34.55969317640401,2.588743012530756],[34.55969618186881,2.5887477654240234],[34.560349205088244,2.589778691351115],[34.56250453163968,2.588730733002919],[34.56444951936166,2.57606628681229],[34.560498907855255,2.573060116258606],[34.55746665294765,2.580253765382145],[34.557429362244406,2.580202377152794],[34.554914923999085,2.577305065472026],[34.55362484509564,2.574959585175948],[34.553624401136595,2.574958973380852],[34.553327158650085,2.570674453094662],[34.548757439033054,2.566398154604653],[34.552286212211506,2.56119166139687],[34.56602656333064,2.564071270627073],[34.56812790647558,2.557261161079439],[34.57117798141614,2.558491964021471],[34.57117918625498,2.5584914751375685],[34.57556889546189,2.556636098591225],[34.57564896101522,2.5566777878143823],[34.575722624393016,2.556647897642806],[34.580222580230654,2.559059199611272],[34.58113951980986,2.558896097647107],[34.58287175834636,2.558587941406375],[34.58287183054516,2.5585879603500836],[34.58287188146892,2.558587951291946],[34.58352670570943,2.558759788189982],[34.588309591833635,2.5600147342255553],[34.59279538646562,2.559408088443676],[34.593856066624554,2.559770415962316],[34.597418612378185,2.5609860408166605],[34.5994518077801,2.548016355821027],[34.60443554314876,2.549238187028942],[34.606042051431686,2.550525406093983],[34.607983664448916,2.550173703590582],[34.60932315679388,2.5566725925119274],[34.60934034507224,2.556755946705389],[34.61048055466219,2.556701903808285],[34.610734523962314,2.55668977621751],[34.61073439945404,2.556689872241381],[34.610734823819556,2.556689852127586],[34.609716868622506,2.557475204366954],[34.60971734963813,2.5574754969024194],[34.61087084527468,2.5579680206177007],[34.614456264097214,2.557784658052062],[34.61480846896278,2.558874187184903],[34.61633103638887,2.558017662287794],[34.617920799319926,2.558817079431381],[34.61903969762907,2.557560620865309],[34.6235077751084,2.55745126868849],[34.62541585039595,2.556366541045103],[34.62617753266158,2.55723711900624],[34.62730140134717,2.556823402756833],[34.62839994920873,2.557732046052962],[34.629746719209265,2.557603554144112],[34.63187692361743,2.556635131669789],[34.63176545872815,2.555254155433495],[34.6325894197858,2.555452444753237],[34.63228551912056,2.554507854884451],[34.63352952110867,2.553632096858888],[34.64105492731648,2.551594272099172],[34.64365510071506,2.547421095802723],[34.644468275162566,2.544579232223089],[34.64126950855867,2.54355516675522],[34.64090159651128,2.544227105608186],[34.63489255465556,2.54414527422423],[34.634914609953626,2.545064833545293],[34.63343632763788,2.545306449892352],[34.63339801786112,2.546400515052386],[34.631142824342994,2.545982372798323],[34.6296365491949,2.544114186808346],[34.63374026230574,2.542023923021843],[34.63441646374529,2.54076742046249],[34.63734742843053,2.539958617283363],[34.63991639383813,2.537227483718119],[34.64202240281425,2.537733917260743],[34.64639914583129,2.535081232007064],[34.64565721592413,2.533351874026758],[34.64585900352868,2.53114075239957],[34.6470759506084,2.530952291303434],[34.64736505472083,2.529267642581324],[34.64506652273009,2.527518715946692],[34.6431953651082,2.523756552639088],[34.640531849520094,2.523231288691941],[34.63903337938774,2.52385495376919],[34.63808271892574,2.5234505355528123],[34.63699285901963,2.522987174706241],[34.636992856150414,2.522986899609895],[34.63699180541846,2.522986452620503],[34.63698965430908,2.5226799115068745],[34.63698467807326,2.5222027969220333],[34.63667104809342,2.5223038356455487],[34.63632145516625,2.522418200718561],[34.6363224178268,2.52241615002677],[34.63631674550295,2.522417977416998],[34.63847827406475,2.51782347168881],[34.638274859742516,2.513483633376911],[34.63516954215929,2.5109569557747955],[34.63497649046068,2.510799914282902],[34.63328784671011,2.510605430980887],[34.63046311354275,2.507542051727005],[34.62607855275265,2.507406169393982],[34.62602088791768,2.507250626945139],[34.62591663700906,2.507243793139748],[34.62483398521567,2.5040491306970196],[34.62371049964859,2.501018692884598],[34.62370894718233,2.500729395973718],[34.62353922418138,2.500228581491988],[34.62370444190646,2.4998898528391145],[34.62370082907869,2.499216614431164],[34.62475583798448,2.497734285226985],[34.62508109179663,2.497067451292696],[34.625625652722626,2.49651216114679],[34.62726770331449,2.4942050151751207],[34.62707538767151,2.492501947920411],[34.62521811400361,2.4840481397388],[34.62124406591716,2.485435279364259],[34.61596007173137,2.490800556616586],[34.609807983374836,2.48500567514967],[34.609064335148744,2.4847990062549634],[34.59027182899508,2.4795765283437516],[34.59017818551455,2.4797032011297215],[34.58492646986945,2.486965728301015],[34.60155078024668,2.49377306660759],[34.609003584843364,2.500456980074508],[34.610813639815234,2.49821639097329],[34.61948358620213,2.502712345711787],[34.62013172023308,2.504939919312917],[34.619631378514946,2.509972044601551],[34.618318556225965,2.510937909838333],[34.618813494910796,2.511875058387615],[34.61573333956193,2.513488887705333],[34.61503022987156,2.512379901115728],[34.61385781188015,2.512786588498416],[34.61141391940496,2.516385152293149],[34.60753055618438,2.514746145910189],[34.600274350223124,2.521822828825352],[34.59444660202461,2.530831216707807],[34.597462388992604,2.534334940205088],[34.5945413181053,2.534202725566496],[34.591815715534366,2.536265786247956],[34.584517227134825,2.539668282150104],[34.578951682841435,2.539753082584747],[34.576341234174116,2.548189653507623],[34.57148787131763,2.549789299335431],[34.5714649367086,2.544567118765729],[34.5676886068987,2.541754214238723],[34.56084637004081,2.538605517810805],[34.56150506323806,2.533895238750115],[34.557746678625385,2.527719185721935],[34.55541869703358,2.521781721548304],[34.55633626514383,2.520604113727314],[34.55783452605219,2.52059740570246],[34.560333812925656,2.517665284329745],[34.56163301887394,2.518082396743484],[34.56128693205743,2.516818280053846],[34.562920514494756,2.51669238853973],[34.56360769900879,2.514895742640539],[34.57177010414697,2.512686084557329],[34.57475314338351,2.509117505131961],[34.57672369545698,2.507917823123242],[34.57806282582946,2.508238311567387],[34.57962611238991,2.502342164450029],[34.579018177381975,2.499908850390407],[34.574997015053164,2.494129956890531],[34.568574944445096,2.4960786253238125],[34.56847682562549,2.496108541675495],[34.56847642661883,2.4961085188877234],[34.568476206643766,2.496108585635427],[34.56750470132571,2.4960530224357047],[34.56042147476553,2.4956484904700114],[34.5603318200552,2.495850827022855],[34.55760510628348,2.502011361810604],[34.549317540130154,2.4986032213734526],[34.54911113170159,2.498518351114515],[34.5046248090494,2.561071864011538],[34.50543455776613,2.56191199744438],[34.50747899401168,2.561832039631535]]]}},{"type":"Feature","properties":{"n":"Nadunget Town Council","c":"308104","d":"Moroto","od":"Moroto","dc":"308","k":"NADUNGETTOWNCOUNCIL","a":["NADUNGET","NADUNGETTOWNCOUNCIL"],"lat":2.519079,"lon":34.581108},"geometry":{"type":"Polygon","coordinates":[[[34.56150477169476,2.533894586373281],[34.561504751948846,2.533894727216865],[34.56150506323806,2.533895238750115],[34.56084637004081,2.538605517810805],[34.5676886068987,2.541754214238723],[34.569493630577135,2.5430987364420323],[34.570317995206125,2.543526981501111],[34.57145547804603,2.54456007321725],[34.5714649367086,2.544567118765729],[34.57148787131763,2.549789299335431],[34.576341234174116,2.548189653507623],[34.578951682841435,2.539753082584747],[34.584517085253545,2.539668284311904],[34.59053627031291,2.5368622531990153],[34.591815715534366,2.536265786247956],[34.5927542788131,2.53555536976315],[34.594541139235936,2.534202831373781],[34.59454117610991,2.534202833045524],[34.5945413181053,2.534202725566496],[34.597462388992604,2.534334940205088],[34.59444660202461,2.530831216707807],[34.594451589190655,2.5308235076708674],[34.59861256526439,2.523996586447763],[34.59938918348935,2.5231910974956633],[34.600274350223124,2.521822828825352],[34.60753055618438,2.514746145910189],[34.61141344946679,2.5163849539517584],[34.61277392806532,2.5143825773127118],[34.61385781188015,2.512786588498416],[34.61503022987156,2.512379901115728],[34.61503041717188,2.512380196536981],[34.61503071243535,2.512380094138329],[34.61573417889947,2.5134884479393533],[34.61881333232619,2.5118751435728663],[34.61831869318377,2.510938202300766],[34.61831870579114,2.5109381930346],[34.618318556225965,2.510937909838333],[34.619631378514946,2.509972044601551],[34.619631555054774,2.509970269073928],[34.619944892927386,2.504297812041468],[34.61948358620213,2.502712345711787],[34.61137172015828,2.49850579345063],[34.61081363625914,2.498216395375226],[34.61080730135643,2.4982242370784853],[34.6106572234584,2.499204833808669],[34.60901455535899,2.500443400145656],[34.609003584843364,2.500456980074508],[34.60155078024668,2.49377306660759],[34.5926951725192,2.490146863995668],[34.584926461689435,2.486965737709402],[34.584552971122065,2.4873125037182846],[34.58404379284288,2.48800127597255],[34.58314159309481,2.488622892703413],[34.581596146464925,2.490057757212994],[34.57645081751919,2.4932328452656556],[34.575293748594156,2.494030067171453],[34.57502718679232,2.494111341657232],[34.574997026422864,2.494129953067644],[34.577866409999785,2.497841730979036],[34.57823412312474,2.4987820702009502],[34.579018177381975,2.499908850390407],[34.57962582774494,2.502341025133177],[34.5796258490852,2.502341079705821],[34.5796258451182,2.5023410946711864],[34.57962611238991,2.502342164450029],[34.57806282582946,2.508238311567387],[34.57672382141887,2.5079178532691713],[34.575706175596075,2.508537294329854],[34.57475368126711,2.5091171776657193],[34.57263093290495,2.511656283890659],[34.57177010414697,2.512686084557329],[34.56360831386694,2.5148955761912792],[34.56330981660418,2.515674557048825],[34.562920514494756,2.51669238853973],[34.56291977237859,2.5166924457306776],[34.56291968507483,2.516692673565123],[34.56270256398067,2.5167091848271985],[34.56128693205743,2.516818280053846],[34.56163301887394,2.518082396743484],[34.561630894545445,2.5180817147239885],[34.56163131059442,2.518083242234881],[34.560333612076505,2.517665519962597],[34.558279310427665,2.5200755921453877],[34.55783544636767,2.520596451050105],[34.55783533936343,2.520596451539374],[34.55783452605219,2.52059740570246],[34.55633692614369,2.5206041107678803],[34.555418870408616,2.521782163737388],[34.557746678625385,2.527719185721935],[34.55836260830087,2.5287313265029967],[34.56150477169476,2.533894586373281]]]}},{"type":"Feature","properties":{"n":"Rupa","c":"308105","d":"Moroto","od":"Moroto","dc":"308","k":"RUPA","a":["RUPA"],"lat":2.820912,"lon":34.554608},"geometry":{"type":"Polygon","coordinates":[[[34.34719474765002,2.9894450754046495],[34.3484,2.9909],[34.34842507508606,2.9909514752783077],[34.348497039711184,2.991039588002621],[34.34907342198353,2.9922824313076624],[34.36781248481951,3.0307508326579367],[34.368712341749,3.032320548884909],[34.39760742083533,3.0918979912280196],[34.440839207825746,3.080195426964396],[34.44227424396519,3.079761317943019],[34.48746513721986,3.096617194381787],[34.4898623919881,3.095868502201916],[34.492138381339984,3.094804647513524],[34.49675572073671,3.091171685546213],[34.500531110733675,3.092536529981074],[34.5205,3.0863],[34.52092899746717,3.0864218352806776],[34.52724912186019,3.0876820716653],[34.53415078745692,3.090176823637767],[34.5455,3.0934],[34.559600597874564,3.1075998978595956],[34.559689466595465,3.107657546201248],[34.55977853049238,3.1075878135823087],[34.573,3.0887],[34.5751936796485,3.069716233811072],[34.57559551128063,3.06616850397672],[34.57348719528572,3.047351955056448],[34.57353958630109,3.0470916435494293],[34.5773,3.0178],[34.5881,3.0011],[34.5895,2.9794],[34.59472878348464,2.9502609541729963],[34.59978411133407,2.921960626435936],[34.601516239956865,2.9212315343476747],[34.64,2.904],[34.6536,2.8648],[34.6692,2.8604],[34.69284089655285,2.860202168229683],[34.693128062358454,2.860156905658412],[34.702271232464184,2.87461562756669],[34.71244829510932,2.8625612426860463],[34.712456454715266,2.862541353189021],[34.712470300432685,2.862535178128276],[34.7125,2.8625],[34.71319945255544,2.862209983086767],[34.72195646780492,2.8583044360155],[34.724583644879296,2.8574897082207777],[34.736911784728846,2.8523780404782832],[34.737093109089244,2.852268072190607],[34.74986376697845,2.823428561138339],[34.749899676657655,2.823400730046384],[34.7499,2.8234],[34.74990041159099,2.823400160450727],[34.75077505558145,2.822722284795296],[34.75268731042831,2.823117045879302],[34.75575596533706,2.8256805228279],[34.75596367186459,2.825463432262941],[34.7677,2.8085],[34.76773413106616,2.808404920601404],[34.76797508661456,2.799726823714463],[34.77608089329663,2.7851532258165204],[34.7761,2.7851],[34.77615765173253,2.784867969570304],[34.77890724113475,2.767608700202576],[34.78412609453223,2.752797446697427],[34.7842,2.7525],[34.7845,2.74],[34.780058128417934,2.71602459676185],[34.77615666348877,2.695163377648995],[34.77731365984172,2.6940791086008704],[34.78463562610782,2.6867095970992736],[34.783243480964174,2.686307557035835],[34.783395047981124,2.682807611885722],[34.77993734313721,2.680497252581508],[34.77905558284164,2.676872852766462],[34.776777557536896,2.676351697257413],[34.77565154901642,2.677013022932617],[34.7746308785857,2.675721825323993],[34.77209066383886,2.675434622468752],[34.772900907749644,2.67409662781974],[34.772637336744246,2.672541648781695],[34.77182470601526,2.671783233166936],[34.77043892645131,2.672734383461531],[34.769991562455374,2.670709792026665],[34.76873472653294,2.670367758757017],[34.768964612799266,2.6666781658941],[34.767709034284174,2.664945687859628],[34.77277185826146,2.662662349030327],[34.77463214464788,2.660973778540491],[34.77751167088762,2.655490180885709],[34.77768910477701,2.649308095811729],[34.77590712190092,2.640599674458218],[34.77627134477954,2.634793311594762],[34.77887472312217,2.631697791463429],[34.78212052139949,2.630282504358371],[34.77468268454344,2.622332580938514],[34.76508367516463,2.613858825088495],[34.76144161579708,2.6119303729597],[34.75629051632221,2.611177996866233],[34.74890161066372,2.611576887781911],[34.74768455926805,2.613974257775933],[34.745947145046706,2.613906315834045],[34.74512664473087,2.614686498303546],[34.74503669897955,2.616762598057082],[34.74185516860393,2.61694555044609],[34.74146909266019,2.617843149119907],[34.74223108139337,2.618575409411914],[34.74094175895593,2.618445876735926],[34.73718796161079,2.620808107312889],[34.73301317688779,2.61907305627483],[34.73341168872887,2.617731968965454],[34.72890311853901,2.612972192445781],[34.725357425596606,2.612215396078228],[34.7169124345079,2.608132102220671],[34.712678905878114,2.604128884359595],[34.71689371246238,2.598328828214588],[34.719529942156974,2.596939376364944],[34.71817700785894,2.590646524133743],[34.71657082696849,2.587136684711262],[34.71335870356776,2.583746056779921],[34.711108093227445,2.582948456732303],[34.710762456600925,2.583873200204049],[34.70372534897471,2.577765813181705],[34.692706376367816,2.57172317651574],[34.689894562307046,2.571480224374144],[34.69051947526276,2.567747152620268],[34.682425255314875,2.567342271616958],[34.68103293880329,2.565297867756996],[34.682121132982935,2.562208077900136],[34.68322448008617,2.561522540429044],[34.685377599723104,2.561298181613144],[34.68850450523672,2.562250001002876],[34.69235478565103,2.559229672895867],[34.692246556961045,2.555460775069093],[34.69070239986596,2.549225345268082],[34.68313977130578,2.552673934599772],[34.67841700421087,2.54550448208177],[34.67490751768827,2.546308828092177],[34.67386088022162,2.545277181624828],[34.67000102191614,2.545415510933272],[34.66738391360126,2.545752156026696],[34.66556170075644,2.546920814762387],[34.663474421543896,2.545957180756833],[34.66163387556141,2.546558042668037],[34.66004294256539,2.544278792488829],[34.657874962896,2.543762032280152],[34.65952109529753,2.542408665622412],[34.66071048659382,2.539535260548507],[34.65507184212752,2.536657075170921],[34.65152932489769,2.538418072924366],[34.653331781390705,2.535840175163576],[34.65229000546628,2.535438345832256],[34.651907075982024,2.533930502352688],[34.649418188257506,2.533674566800631],[34.64693625164098,2.535122656593224],[34.64600601617171,2.5341648894960898],[34.64639914583129,2.535081232007064],[34.646394194627064,2.535084232865554],[34.64415473719045,2.536548653120554],[34.64203097236308,2.537728723372108],[34.64202240281425,2.537733917260743],[34.64013573463502,2.5372802287624516],[34.63991632106757,2.537227561082387],[34.63734742843053,2.539958617283363],[34.63734701379177,2.539958731703421],[34.63734671448697,2.539959050332607],[34.63441643933393,2.540767465823139],[34.63374026230574,2.542023923021843],[34.63373905570955,2.5420245376126456],[34.63373905567475,2.542024537677248],[34.63373888464057,2.5420246247481915],[34.6296365491949,2.544114186808346],[34.63114277396188,2.5459823103122012],[34.63138944896939,2.54602810021655],[34.63339801786112,2.546400515052386],[34.63340841763032,2.546103514492181],[34.63343560602653,2.545307860197239],[34.633436282144594,2.5453077491069327],[34.63343632763788,2.545306449892352],[34.634914609953626,2.545064833545293],[34.63489255465556,2.54414527422423],[34.640901446045596,2.544227103559138],[34.6412692502766,2.543555279253486],[34.64126941756039,2.5435553329505947],[34.64126950855867,2.54355516675522],[34.644468275162566,2.544579232223089],[34.64365510071506,2.547421095802723],[34.64105492731648,2.551594272099172],[34.63364140317765,2.5536018000158953],[34.63352949350232,2.5536321162933273],[34.63228627339105,2.5545073238897693],[34.63241405386152,2.5549073690283133],[34.6325894197858,2.555452444753237],[34.63258805433574,2.5554521161525567],[34.632588251089444,2.555452732133725],[34.63246686286118,2.5554229509695356],[34.63176682528716,2.5552544843010483],[34.6317720808241,2.5553361988213994],[34.63187692361743,2.556635131669789],[34.63185622788531,2.556644540256138],[34.63185690995927,2.556655145327952],[34.63145627275868,2.5568263657804198],[34.629746719209265,2.557603554144112],[34.62960641466179,2.557616940245019],[34.6294371949032,2.557689259749023],[34.629325026098186,2.5576437868139585],[34.62839994920873,2.557732046052962],[34.627301429725286,2.556823426229263],[34.62730138587492,2.556823408452443],[34.62617753266158,2.55723711900624],[34.62541585039595,2.556366541045103],[34.6235077751084,2.55745126868849],[34.620132850112256,2.557533866941684],[34.619039603319465,2.5575607267695846],[34.617920799319926,2.558817079431381],[34.617920256551606,2.5588168064986743],[34.61791999461643,2.558817100546495],[34.6168565723287,2.558281929639652],[34.61633112324815,2.558017705965249],[34.61480922929203,2.558874309151905],[34.61480907872259,2.5588738441626844],[34.61480846896278,2.558874187184903],[34.614456264097214,2.557784658052062],[34.61444495643186,2.5577852363394626],[34.61102767725013,2.558034981279255],[34.610988640031394,2.558066582214261],[34.60580523494646,2.562264094258648],[34.6077019626584,2.5657031053886206],[34.60890182133836,2.565960218532511],[34.61121332069264,2.565748856636679],[34.61129946265979,2.563875941187463],[34.61209373717232,2.563585278279306],[34.61683818928328,2.563081534214885],[34.6167981864575,2.561864800662818],[34.61776586234698,2.5613963913816047],[34.617953096059544,2.561305507184482],[34.618726877148625,2.559603997384458],[34.61872765696167,2.559603972455083],[34.61872775809027,2.559603750224009],[34.619018487355,2.5595946750727925],[34.62624765021655,2.559363570304156],[34.62622544738336,2.56080750486143],[34.62364857024575,2.5625810369344233],[34.623590429595296,2.5626703414953096],[34.62140553232703,2.566029543407715],[34.62225652106146,2.566475879406967],[34.62268064844986,2.56947902630569],[34.61927361200589,2.568804376045473],[34.61899079471418,2.5741041701423426],[34.61899035197315,2.574112495354408],[34.61899035024012,2.5741124992689066],[34.61899033549611,2.574112775561074],[34.61734316006906,2.577833114727841],[34.615517474868675,2.585781352843602],[34.61551738561212,2.585781325535261],[34.615516340940154,2.585785873352153],[34.614312345394865,2.585414214680094],[34.61324383855878,2.587018807853716],[34.61058079985136,2.593460745119927],[34.61095149909862,2.5945882039478616],[34.61107305678885,2.5949562459433997],[34.61126297132571,2.5946401379025357],[34.61169902383353,2.593910792096093],[34.61170035666932,2.593912120835701],[34.611701446002996,2.593910307666778],[34.61273040055404,2.594937632031014],[34.614137217032486,2.593872727922858],[34.61413732472768,2.593872830208455],[34.614138131788685,2.593872218679779],[34.614449830424434,2.594169638551846],[34.61456696626555,2.594280890587612],[34.61456687395775,2.5942813203775317],[34.61456719443675,2.594281626175547],[34.61218648493627,2.605370033175656],[34.61554741049713,2.6077983999066334],[34.61566751092071,2.60780405128472],[34.62036554424138,2.608024449759606],[34.62086882943299,2.609510310814825],[34.62024421647316,2.610640677939458],[34.616466822642934,2.614626273112459],[34.61253197339304,2.6154705745714],[34.6107355771747,2.618368882575967],[34.60785608362434,2.619096796119186],[34.607844510770825,2.6190941003658126],[34.5936696815814,2.6162062583998966],[34.59366217129168,2.616204837167287],[34.59222678232118,2.6146958537782248],[34.592021346561154,2.614479905958911],[34.59202133765872,2.6144798756779446],[34.592021180985306,2.614479710971658],[34.591341545085854,2.612171690291069],[34.58910316628975,2.611118969685366],[34.587323582601265,2.611482646496052],[34.58721630834229,2.6105832144619474],[34.58652350747513,2.6105593785741856],[34.585897690254306,2.610538002617947],[34.585607042990894,2.6099510755216118],[34.58509771891058,2.6089232116864727],[34.58411635071492,2.608970669647251],[34.581919579733025,2.609077494715724],[34.58153435188089,2.610496358621937],[34.57869026447664,2.6071890478139794],[34.57641814177793,2.60764803732799],[34.576335229122726,2.607664802396868],[34.5744809129117,2.606710326849599],[34.57290328915219,2.605898289000918],[34.57289995268508,2.6058977982925042],[34.56924444237515,2.605561944775472],[34.568909891670096,2.6053109630408953],[34.56881599935092,2.605297153897992],[34.56487515319412,2.602284247483452],[34.56487491302712,2.602283900405869],[34.56487484497054,2.602283849349458],[34.56156780538427,2.5975046722505053],[34.558973097820754,2.596783726772317],[34.55897312849661,2.59678349463736],[34.55897302756726,2.59678346658955],[34.55918234460713,2.595195306670075],[34.55688868678928,2.595251352194257],[34.555851231735815,2.594309117565154],[34.55585080886655,2.594309053596211],[34.55363402279986,2.594081021617582],[34.553709426919234,2.5939851191050924],[34.55358599948595,2.59396644779667],[34.554731877144775,2.5926847187244886],[34.55473384964974,2.592682209999717],[34.554733724500814,2.59268088811477],[34.553716323089496,2.589535516324712],[34.55371322812033,2.5895303470330644],[34.5497601524035,2.5917364762878634],[34.545648070794705,2.594869173929845],[34.54132589534229,2.590924640787455],[34.536754910454384,2.589959990744377],[34.53413687654198,2.590264449071511],[34.53413657371117,2.5902641324946005],[34.53413634386554,2.590264159208922],[34.53315051056626,2.5892333099440923],[34.53041046135988,2.5863688843482278],[34.52929377002426,2.586987036405712],[34.52922909759404,2.587022989485087],[34.52922899432822,2.587022893431286],[34.52922878516311,2.58702300921605],[34.52532888255086,2.583395496912071],[34.521794251314354,2.581772650762656],[34.51911490242156,2.576994024455141],[34.51911496216988,2.5769935552052923],[34.51911475482392,2.576993185370674],[34.519441816907715,2.5744265115826157],[34.51975923062188,2.5719336156372177],[34.5191978949874,2.571628083811066],[34.5167357157595,2.570288165127225],[34.516735596778595,2.5702878687560156],[34.51673516038973,2.570287631232013],[34.516299111527324,2.5692006215363974],[34.515990779654445,2.56843259336011],[34.51457725634274,2.567748474126934],[34.514516364198826,2.567719014156704],[34.514516365953796,2.5677190043008298],[34.51451531637398,2.56771849632354],[34.514771325464544,2.56628657694019],[34.513428784273884,2.5643646218012526],[34.5131632406346,2.564282372051358],[34.510652050274636,2.5664583039691777],[34.5106501994866,2.56646026972173],[34.51064995450264,2.5664601199434856],[34.510649946100436,2.566460127223947],[34.50821297623092,2.564970791785713],[34.50821281458632,2.564970101815874],[34.508211928646084,2.564969560169905],[34.50794910146805,2.563844458925658],[34.507477648668655,2.561832092247842],[34.50553147191238,2.5619082071363257],[34.50543523523205,2.561912084681538],[34.50543512950243,2.561911975083798],[34.50543455776613,2.56191199744438],[34.50477930133796,2.5612321534124978],[34.504624674860544,2.561071869917525],[34.500799135466615,2.561664251111588],[34.499163328817644,2.563311971084789],[34.498222302376085,2.5617295607921053],[34.49814559021713,2.5617425369781976],[34.4946169164429,2.564782606578745],[34.49319338896971,2.564006569978129],[34.490967495375294,2.56466014847811],[34.489295996402035,2.563640339178993],[34.48447462824305,2.5642827635506853],[34.4816219950247,2.566761837657101],[34.48127684921226,2.569726463578541],[34.47954539628173,2.570162827469144],[34.47889620735643,2.5691306769402464],[34.47751491782448,2.5703310833192012],[34.47586052397054,2.5720692439923205],[34.37186467996102,2.7203579053262135],[34.36391872556934,2.73173015788325],[34.364018060133326,2.735430082568051],[34.36376405478099,2.735571054039956],[34.364094984731345,2.7540203987723313],[34.36429767679291,2.754307534262534],[34.36431441829888,2.756855831061895],[34.36374692418555,2.757876316314093],[34.36197625657588,2.7758114656507296],[34.362715599015445,2.776457345696041],[34.36210225864245,2.778085910431669],[34.36253103548191,2.779207121529973],[34.36160611226536,2.78124304910274],[34.36167940380918,2.783641553566973],[34.3610880296701,2.784808344631853],[34.361,2.7857],[34.359223946715005,2.7885917790665946],[34.35981941195064,2.78991830339671],[34.35841532623836,2.790164741558861],[34.35903243697553,2.791285842126557],[34.357602301915804,2.791232149444783],[34.35550910530279,2.7946403029044395],[34.355719188872364,2.795531970827509],[34.35452499593351,2.796242634826214],[34.35410427206879,2.7969276595803017],[34.354364734153,2.797715930997711],[34.35322461631942,2.798410408897544],[34.35368100221327,2.80209123805503],[34.35207098597581,2.8052461488701206],[34.3520148676934,2.8055864405825766],[34.35267430182823,2.805774417368273],[34.35219867774431,2.806271503417575],[34.35334310008196,2.80814339657202],[34.35344131377676,2.810963818673976],[34.350593339915264,2.814206343067022],[34.35048642707031,2.8148546443609104],[34.35091252369914,2.816195612158457],[34.35025957387168,2.8162302435440734],[34.349620693127726,2.8201043076297556],[34.35058608634427,2.821720658785766],[34.3498624279624,2.823957000180048],[34.34881389242931,2.824996609737154],[34.348647916659615,2.8260030585533937],[34.34893450866748,2.826572468963809],[34.34851476648779,2.826810458531509],[34.3485,2.8269],[34.34166253860135,2.8358909925478346],[34.341181207074115,2.838119956468677],[34.33971437601105,2.838452749654759],[34.33763586522797,2.841185909503374],[34.337567020447246,2.841361250184965],[34.337455491905665,2.841423093320896],[34.336457584166666,2.8427353027099747],[34.33648621054778,2.842927582993771],[34.33626714842282,2.8429857182156577],[34.33583168749617,2.843558332190081],[34.336367416425944,2.844124356538835],[34.33506597270193,2.851044441912564],[34.33347230965951,2.8552384517024354],[34.3334,2.8556],[34.33331575575104,2.8556504513581342],[34.33329870171318,2.855695332113862],[34.33229992962337,2.8562587992086037],[34.32647123229104,2.8597494315093184],[34.3260450866455,2.86058751550142],[34.32531189435961,2.8604437242818146],[34.31767072893712,2.86501978945009],[34.31759104652386,2.865679756921657],[34.3156863614257,2.866261959422905],[34.315673449805026,2.8662823736818406],[34.314102165716726,2.871157383289123],[34.314085020007994,2.871442746962329],[34.31400966917774,2.8714443597305914],[34.31247068706112,2.8762191504000976],[34.3128300909969,2.877191967458097],[34.31196806236031,2.877778575753908],[34.3118,2.8783],[34.30548243585684,2.884845410718817],[34.30483124295597,2.886834562488431],[34.30292943960059,2.8874904822498797],[34.298927257823046,2.891637005009567],[34.29867446019775,2.89232129022524],[34.29729086456591,2.893332415728433],[34.29564068664772,2.8950421082600633],[34.29585628810767,2.895544401539335],[34.294693081466164,2.896857551919172],[34.29426685369401,2.899389436257271],[34.29172140393889,2.900144243089175],[34.29037738341697,2.902524598907345],[34.28985498881741,2.901855866894626],[34.288913520505716,2.9020118935088344],[34.281886000092854,2.909292865477572],[34.28155778212405,2.9102111825938533],[34.29926674400564,2.9315886179501818],[34.30514776100825,2.937963190575164],[34.34719474765002,2.9894450754046495]]]}},{"type":"Feature","properties":{"n":"North Division","c":"308201","d":"Moroto","od":"Moroto","dc":"308","k":"NORTHDIVISION","a":["NORTH","NORTHDIVISION"],"lat":2.531628,"lon":34.658344},"geometry":{"type":"Polygon","coordinates":[[[34.64941793124521,2.533674667118904],[34.64941800354072,2.533674674573932],[34.649418188257506,2.533674566800631],[34.651907075982024,2.533930502352688],[34.65190729568521,2.5339313674676416],[34.65190768650285,2.533931407768299],[34.6521019381095,2.534697801817526],[34.65229000546628,2.535438345832256],[34.653331781390705,2.535840175163576],[34.65245936685902,2.537087914277623],[34.65153126315157,2.5384171094115557],[34.65507184212752,2.536657075170921],[34.66069638846878,2.53952806431232],[34.66071049115463,2.539535249393637],[34.667859172846725,2.537449334214207],[34.668078924307196,2.532116708600622],[34.67042197249526,2.532185018667132],[34.67121674914795,2.531124082191241],[34.66981783281454,2.529447761696992],[34.6709835622222,2.528998030069907],[34.67147624870032,2.52491999606424],[34.66683271471733,2.524004059295786],[34.6668363428516,2.526590286396844],[34.66389332599979,2.528128125571889],[34.659518759991236,2.527373652968244],[34.65901311959578,2.528387067429026],[34.65224299744855,2.528369337158615],[34.651078199411415,2.529289728241776],[34.65030575424451,2.528288534313662],[34.64894216944246,2.528442327066489],[34.648615457133864,2.52951819249216],[34.647365065820715,2.529267644676592],[34.647359470529175,2.529300182420555],[34.6470759506084,2.530952291303434],[34.647075352833504,2.530952383877149],[34.64707528766468,2.530952762846949],[34.647066660718224,2.5309537299714866],[34.645867613665644,2.531139419000709],[34.64577304838346,2.533621866900723],[34.64600601617171,2.5341648894960898],[34.64693590859912,2.535122303398558],[34.64941793124521,2.533674667118904]]]}},{"type":"Feature","properties":{"n":"South Division","c":"308202","d":"Moroto","od":"Moroto","dc":"308","k":"SOUTHDIVISION","a":["SOUTH","SOUTHDIVISION"],"lat":2.525428,"lon":34.655518},"geometry":{"type":"Polygon","coordinates":[[[34.64823103700783,2.529441164107665],[34.64853054314062,2.5295011778062024],[34.64893893160789,2.528452989273519],[34.64894216944246,2.528442327066489],[34.64894312786408,2.528442218970316],[34.648943132916955,2.528442206001368],[34.64900379055655,2.528435377091135],[34.65030575424451,2.528288534313662],[34.650326275880914,2.5283151331437663],[34.651100173611454,2.529272364838737],[34.65222608834424,2.528382698263577],[34.65224227434415,2.528369538163399],[34.652242741530245,2.5283695393781587],[34.65224299744855,2.528369337158615],[34.65901311959578,2.528387067429026],[34.659518759991236,2.527373652968244],[34.66389332599979,2.528128125571889],[34.6668363428516,2.526590286396844],[34.66683276288395,2.5240383936985937],[34.6668327035118,2.524004062972795],[34.66485542652146,2.523213273116777],[34.66417865420615,2.522080168035452],[34.660899707519526,2.5217049760070953],[34.66087060881055,2.521824761530076],[34.66041770780581,2.521649823402452],[34.65890280251009,2.521476481032175],[34.65696456720946,2.5203160088512853],[34.65580978949444,2.5198699629181194],[34.65543751082955,2.52005860055191],[34.655340383291836,2.522268510760105],[34.6552500361263,2.5222669445235],[34.654824298609974,2.522279257027507],[34.65478560357781,2.5222588932331953],[34.654595959305674,2.522255605605973],[34.65019538227513,2.519844275102743],[34.64645088177311,2.519615629676798],[34.64610489217314,2.524265264521803],[34.6458538270098,2.5242182356837923],[34.64319537568588,2.523756548943936],[34.64578931372111,2.5280686793235603],[34.6472921076793,2.5292121380139028],[34.64823103700783,2.529441164107665]]]}},{"type":"Feature","properties":{"n":"Katikekile","c":"308301","d":"Moroto","od":"Moroto","dc":"308","k":"KATIKEKILE","a":["KATIKEKILE"],"lat":2.538436,"lon":34.724211},"geometry":{"type":"Polygon","coordinates":[[[34.661635074824275,2.546557651158461],[34.663474421543896,2.545957180756833],[34.66519847985392,2.5467531266011236],[34.66630266373758,2.546445605259176],[34.66738391360126,2.545752156026696],[34.67000102191614,2.545415510933272],[34.67386088022162,2.545277181624828],[34.674907241336214,2.546308555698318],[34.678416737116905,2.545504451439615],[34.678416789670486,2.545504531252696],[34.67841700421087,2.54550448208177],[34.68313977130578,2.552673934599772],[34.69070239986596,2.549225345268082],[34.692246556961045,2.555460775069093],[34.69231262944659,2.5577616478526033],[34.69235486150771,2.559229092623857],[34.692354771026494,2.5592291636189657],[34.69235478565103,2.559229672895867],[34.6896914740691,2.561318890813274],[34.68850513572065,2.562249738386064],[34.68850492265763,2.56224967355969],[34.68850450523672,2.562250001002876],[34.68537768663951,2.5612982080702027],[34.685229682870045,2.5613135948068346],[34.683224551587756,2.561522532978454],[34.68316554299787,2.561559159533173],[34.68212123119653,2.5622080168775416],[34.68103303326737,2.565298006463047],[34.682425255314875,2.567342271616958],[34.69051947526276,2.567747152620268],[34.689894562307046,2.571480224374144],[34.692706376367816,2.57172317651574],[34.70228081503652,2.5769736527824043],[34.70372501851148,2.577765626351174],[34.70372503606897,2.577765641588965],[34.70372534897471,2.577765813181705],[34.710762456600925,2.583873200204049],[34.711108093227445,2.582948456732303],[34.71111194813305,2.582949822883004],[34.71111204343811,2.582949566521203],[34.71111508131082,2.582950933258574],[34.71335870356776,2.583746056779921],[34.713712493660864,2.5841195077411196],[34.714072321487215,2.584281394095429],[34.715998949003506,2.58653302627119],[34.71657082696849,2.587136684711262],[34.71663446600881,2.587275749254899],[34.71692623745763,2.587616739911662],[34.717138860078954,2.5883779552407704],[34.71817700785894,2.590646524133743],[34.71952896093862,2.596934812461026],[34.71952941109148,2.596936424064055],[34.719529317999566,2.5969364732451656],[34.719529942156974,2.596939376364944],[34.71693700431547,2.598306010800207],[34.716893648796805,2.5983289158257],[34.71556454738989,2.6001579114458804],[34.712679016134366,2.604128988617727],[34.7169124345079,2.608132102220671],[34.724981727013166,2.6120337395552164],[34.72535746102156,2.6122154036393663],[34.72890311853901,2.612972192445781],[34.72890327287608,2.612972355382134],[34.72890329624553,2.612972360370786],[34.7292536746096,2.6133422806297033],[34.73341168872887,2.617731968965454],[34.73315143073232,2.6186077991425054],[34.733014079762086,2.6190734315116613],[34.7330154722712,2.619074010241951],[34.73410395474939,2.619093258327942],[34.734596894006216,2.619731253095178],[34.73544458616064,2.6200835560880433],[34.73564301531267,2.619723430923979],[34.73733254307904,2.620717123508024],[34.74094175895593,2.618445876735926],[34.74200451389432,2.618552647150441],[34.741984508671486,2.6183384565470385],[34.74146909266019,2.617843149119907],[34.74185516860393,2.61694555044609],[34.745035677354096,2.616762656805167],[34.745126102476455,2.614687425170034],[34.745126626115756,2.614686927971752],[34.74512664473087,2.614686498303546],[34.745947145046706,2.613906315834045],[34.74594868769479,2.613906376159617],[34.74594873501405,2.613906331229726],[34.746112358259396,2.6139127765308423],[34.74768451532343,2.6139742560574692],[34.74770437903974,2.6139352164288745],[34.74890161066372,2.611576887781911],[34.75629051632221,2.611177996866233],[34.76144161579708,2.6119303729597],[34.76508367516463,2.613858825088495],[34.77468268454344,2.622332580938514],[34.77974510769645,2.627743546137699],[34.78212053277952,2.630282499937741],[34.78706573227225,2.628126531850585],[34.79609135207171,2.622259652125905],[34.80269564103394,2.61644299490757],[34.81487416746257,2.600689608749371],[34.82268857891152,2.594965283174491],[34.829319010592336,2.592349020583836],[34.82257102354972,2.590836705482471],[34.819386219223546,2.588793506531446],[34.81847281502476,2.575277828533379],[34.81711016317708,2.574621912009366],[34.80717856299305,2.574863781100395],[34.801539353660026,2.569851570037155],[34.786133809391345,2.562786586992114],[34.78140252518153,2.559016256488212],[34.78161034357022,2.553864223523448],[34.78498320651659,2.545467603774534],[34.78360275599871,2.536115243452935],[34.764690806585854,2.529119861528262],[34.760324980055955,2.524991210165049],[34.752172713915385,2.515124615438872],[34.74516027073182,2.509373616203943],[34.74202089601046,2.508725824673773],[34.73180913528133,2.503287054935421],[34.72241714417681,2.496825642549284],[34.71282057918121,2.485454840198415],[34.69802370698757,2.454802861534617],[34.691677233851856,2.4474602970086465],[34.691664278631805,2.447468500859024],[34.69015032084082,2.450433689572843],[34.69011708478343,2.456509784921468],[34.69034700361058,2.464254853106485],[34.69007462367192,2.4642723711724015],[34.69007364672259,2.464450973501931],[34.68959714465378,2.464303080148087],[34.688502694880036,2.464373469485029],[34.688354813293635,2.463917494096181],[34.686010620543186,2.463189920071608],[34.68541527089676,2.4621250516191924],[34.6844852730105,2.461991146931639],[34.683720388566094,2.461881215878644],[34.681471399639676,2.4601560579252166],[34.679586175258365,2.459873207203552],[34.67881436041922,2.459757473909094],[34.67974460258637,2.4689761940972614],[34.67987802313797,2.4702962589517696],[34.68520826651156,2.473683644690887],[34.685205767057056,2.4736860242289094],[34.68520588411828,2.473686098655452],[34.68181619227942,2.476912977174112],[34.68136546340923,2.477342081398259],[34.68038978443398,2.479733508438537],[34.680389422666906,2.479733813505975],[34.68038937511303,2.479733930036306],[34.678624412856806,2.4812221939016057],[34.67565030471182,2.483730171042672],[34.673786002454534,2.482404632537156],[34.668728787630855,2.483811251638012],[34.66900733327366,2.491017887252405],[34.66929201059761,2.4920232958409856],[34.67163664625142,2.500303589523752],[34.67163657991975,2.5003037240125816],[34.671636604063224,2.500303809281262],[34.66837776910459,2.506911135294819],[34.66254326126327,2.514939802743514],[34.6612395273663,2.521472187511736],[34.66191135515299,2.521820733341342],[34.663991257445,2.5220587252437134],[34.66410225977666,2.522034924634477],[34.664154713315256,2.5220774286095717],[34.66417865420615,2.522080168035452],[34.66419793779306,2.522112454123145],[34.66623962647502,2.52376686843363],[34.6668327035118,2.524004062972795],[34.66683276288395,2.5240383936985937],[34.66683271471733,2.524004059295786],[34.667611541861724,2.524157682898076],[34.671352689879825,2.524622651481891],[34.671359881033474,2.524897042549715],[34.67147624870032,2.52491999606424],[34.671381118641484,2.525707400696053],[34.671432915609635,2.52768380477491],[34.670983921621676,2.5289950552708036],[34.6709835622222,2.528998030069907],[34.66981783281454,2.529447761696992],[34.670098967470885,2.5297846451651638],[34.67121686491831,2.531123317805299],[34.67121650849519,2.5311237938172026],[34.67121674914795,2.531124082191241],[34.67042197249526,2.532185018667132],[34.66807898606305,2.5321167104010742],[34.66807479758703,2.5322168501586644],[34.667859172846725,2.537449334214207],[34.66109424592519,2.539423273516746],[34.65952158084946,2.542407492596025],[34.65952109529753,2.542408665622412],[34.65952086127921,2.542408858020414],[34.65952077501006,2.542409021720912],[34.658178197286304,2.543512728328092],[34.657874962896,2.543762032280152],[34.66004294256539,2.544278792488829],[34.66028148186873,2.5446205358251297],[34.661635074824275,2.546557651158461]]]}},{"type":"Feature","properties":{"n":"Tapac","c":"308302","d":"Moroto","od":"Moroto","dc":"308","k":"TAPAC","a":["TAPAC"],"lat":2.405453,"lon":34.803301},"geometry":{"type":"Polygon","coordinates":[[[34.6496409052972,2.383243677692738],[34.64964109495723,2.3832439116320243],[34.649641711982504,2.383244237860228],[34.65218940200022,2.386384703996193],[34.65344686861193,2.386398185032462],[34.654447362630194,2.386408568174803],[34.6544475480919,2.386408913107655],[34.65444822119384,2.38640892032384],[34.656393190256274,2.3900275355123854],[34.65649442176093,2.390215811957836],[34.656977911338025,2.390694056851877],[34.65868325713618,2.39238063297058],[34.65868341330558,2.3923810582815035],[34.65868360056871,2.392381243513284],[34.6604927052295,2.397307497184735],[34.661350937772035,2.3981602601244125],[34.66422786414257,2.401018729901264],[34.66972436402898,2.403541039968833],[34.66972449298938,2.4035412113367847],[34.669724506577424,2.403541217572297],[34.67325211061582,2.408228524230045],[34.678065240193455,2.407276350369751],[34.68638820795095,2.403129169425458],[34.68861263210746,2.4036082757812993],[34.68870795913215,2.403628790699035],[34.68870798547392,2.4036288134129324],[34.68870817819642,2.403628854922361],[34.69466872562433,2.408768491333357],[34.69980880448916,2.41729910648117],[34.70330678356604,2.4196547131932697],[34.71465552045847,2.423152028481276],[34.714655662065844,2.4231521472884694],[34.71465609065572,2.423152279368072],[34.71776141191246,2.425757820179002],[34.71824698322175,2.4260307533648224],[34.7258970038538,2.430330441146597],[34.72589685820403,2.430330646521823],[34.7258992028934,2.430331964440587],[34.72096540537015,2.43728430130631],[34.720947140337266,2.437310056137107],[34.720947115477905,2.437310074048611],[34.720947086844724,2.437310114396341],[34.714650890588764,2.441846634062302],[34.712359566769145,2.442353222949454],[34.709250799050515,2.440179072587414],[34.70922749730204,2.440176898526435],[34.70370271451967,2.439661699965611],[34.70370239819596,2.439661404919417],[34.703701920608786,2.439661360360373],[34.70349587607501,2.439468774512912],[34.700084510307114,2.436286874329085],[34.69656012985298,2.440314329374035],[34.69366490936047,2.446201608047181],[34.69366473678366,2.44620171733088],[34.69366469824,2.446201795706874],[34.693653856664675,2.44620860713035],[34.691677243699374,2.44746029077274],[34.692326671873786,2.448211665600254],[34.69802370698757,2.454802861534617],[34.71282057918121,2.485454840198415],[34.72234673885644,2.496742220514132],[34.72241715137857,2.4968256475038824],[34.7318091328544,2.5032870532657636],[34.732019022857216,2.5033988407700525],[34.74202089601046,2.508725824673773],[34.74516027073182,2.509373616203943],[34.752172713915385,2.515124615438872],[34.75940609428472,2.5238790931968222],[34.76032500272946,2.524991231606803],[34.764690806585854,2.529119861528262],[34.78360275599871,2.536115243452935],[34.78498320651659,2.545467603774534],[34.78161034357022,2.553864223523448],[34.781402537374476,2.559015954212435],[34.786133870045,2.5627866148078833],[34.801539353660026,2.569851570037155],[34.8023403667551,2.570563522096359],[34.80717880232275,2.5748637752718824],[34.816996990797044,2.5746246681513956],[34.817109874606444,2.574621912423204],[34.81710988768709,2.5746219187185075],[34.81711016317708,2.574621912009366],[34.81847281502476,2.575277828533379],[34.818472816729106,2.5752778537526644],[34.818472913423435,2.575277900288613],[34.818625735474356,2.577540598464533],[34.819386202046765,2.588793252365925],[34.82257106540137,2.590836714861991],[34.829319010592336,2.592349020583836],[34.82268857891152,2.594965283174491],[34.817256990431915,2.5989441088415495],[34.814874147334045,2.6006896347863773],[34.80269564103394,2.61644299490757],[34.79902313787378,2.61967751298182],[34.796091778614475,2.622259311692364],[34.79609162587024,2.6222594109807673],[34.79609135207171,2.622259652125905],[34.78706573227225,2.628126531850585],[34.78212053277952,2.630282499937741],[34.782120532604054,2.63028249975019],[34.782116057754266,2.630284450671416],[34.77887472312217,2.631697791463429],[34.77627134477954,2.634793311594762],[34.77590712190092,2.640599674458218],[34.77768910477701,2.649308095811729],[34.77751167088762,2.655490180885709],[34.77463214464788,2.660973778540491],[34.77463157070425,2.6609742995055856],[34.77463157070141,2.660974299511002],[34.77463153253677,2.6609743341499708],[34.77277185826146,2.662662349030327],[34.767709034284174,2.664945687859628],[34.768964612799266,2.6666781658941],[34.76873472653294,2.670367758757017],[34.769991562455374,2.670709792026665],[34.76999189480538,2.6707112961105373],[34.769992128928244,2.670711360031194],[34.77043894679036,2.6727343695015278],[34.7714877566316,2.6720145033587235],[34.77182341614382,2.671783985436061],[34.77182349839057,2.6717840620379993],[34.77182470601526,2.671783233166936],[34.772637336744246,2.672541648781695],[34.772637416394126,2.6725421186888356],[34.772637493995006,2.672542190963759],[34.77279303955384,2.673460242254147],[34.772900907749644,2.67409662781974],[34.77280662039648,2.6742523290503453],[34.772092521000204,2.6754348324439285],[34.7746308785857,2.675721825323993],[34.775001877964215,2.6761911575353694],[34.775652483544626,2.6770124740668795],[34.776777557536896,2.676351697257413],[34.778422669073315,2.6767280578441097],[34.77905461847179,2.676872354325871],[34.77905469012634,2.676872648535412],[34.77905558284164,2.676872852766462],[34.77982986739909,2.680055482808757],[34.779937482890205,2.6804973459612627],[34.78338277802983,2.682799413384863],[34.78339479174907,2.682807439593588],[34.783394791703486,2.6828074406468674],[34.783395047981124,2.682807611885722],[34.78324348654103,2.686307428256463],[34.78463565716058,2.6867095658448776],[34.7916,2.6797],[34.7999,2.6531],[34.81251760826898,2.6395506298896185],[34.832359103608866,2.618162013017843],[34.839281368638176,2.601495525379292],[34.85103647950979,2.5837226854484103],[34.8529,2.5809],[34.85290735756845,2.580894059106221],[34.85293111723284,2.580858136287908],[34.868992139879964,2.567868938610744],[34.87909027539803,2.569679227547155],[34.879092772048395,2.569698711850209],[34.8791,2.5697],[34.8813,2.5867],[34.89804531632761,2.5853045569726993],[34.898052432422155,2.585294544568936],[34.90590178557432,2.544529614255025],[34.91350458348485,2.5147944063578027],[34.9137,2.5139],[34.913733567204645,2.513898830992873],[34.91374145408527,2.513867984712623],[34.925672534151815,2.513483046074315],[34.9338,2.5132],[34.9375,2.4972],[34.95436742783408,2.4549815267821535],[34.95290811508606,2.454192640773564],[34.95089685059639,2.4532390239896706],[34.949581419662145,2.453618562323262],[34.9476256989539,2.4516880469177957],[34.94716567574367,2.4514699324646703],[34.94592465260288,2.452494276521263],[34.94343017634646,2.450798454785862],[34.942862717931156,2.4494297369501163],[34.9428,2.4494],[34.94161824807863,2.446817201986291],[34.94061457037268,2.44730244420311],[34.941063859351566,2.445605548273533],[34.940860023222434,2.445160050754195],[34.93945119724111,2.444339573180917],[34.93735609597028,2.440971476070364],[34.937957006937,2.438815314130338],[34.93639738215437,2.4354066496569704],[34.934856333401086,2.436451381150922],[34.93390484112666,2.435884012404991],[34.932218308905824,2.436272990610199],[34.933102648667614,2.428205788840555],[34.9331,2.4282],[34.92969989684311,2.4264557912376996],[34.92923544400916,2.42664943051241],[34.926324766383686,2.425950009094939],[34.92666024453801,2.4248964890811853],[34.925394862309986,2.4242473644317446],[34.92297963587465,2.423937351820277],[34.919637454222716,2.421464336764445],[34.91739016641675,2.421960740292015],[34.91738403499563,2.4178573474661706],[34.915107632893125,2.400259008135294],[34.915093347353306,2.400222719527923],[34.915735299207455,2.394578546301845],[34.91654108850926,2.392850322522412],[34.91713481639682,2.39253951474141],[34.9185,2.3874],[34.9306981476708,2.3095252401748025],[34.925750672735916,2.310036305940043],[34.92203923883407,2.309179752557989],[34.92011159105656,2.307537959172411],[34.91854126425029,2.307966224066888],[34.91882610699444,2.31153579124788],[34.916043830246856,2.314675087694348],[34.91254502934301,2.315390131296741],[34.90926189200463,2.317245871244352],[34.90728496764993,2.317112017145021],[34.905055309767455,2.31122992915355],[34.90345581090152,2.310144205997334],[34.90117203112755,2.306147399940075],[34.89980158029095,2.305576372515121],[34.89660246916983,2.30683274834605],[34.880899892109404,2.307002848993169],[34.88015666772717,2.304034191182597],[34.88020374124822,2.298246634234249],[34.87841914869254,2.29464175349393],[34.872494294172334,2.290001807349808],[34.86885395966624,2.290430099810319],[34.865662407401565,2.288870115890359],[34.868938500234165,2.286401437476574],[34.870276948528016,2.281969690618951],[34.87009873982182,2.278192388311969],[34.873558471180615,2.273007172719318],[34.87601382819607,2.270875451148654],[34.879097377194306,2.261986575393698],[34.883043330282206,2.259981531979953],[34.873942739585985,2.25200725201346],[34.873416794608914,2.25264774786188],[34.87315191617744,2.2514699440435],[34.872160904570684,2.251855306608855],[34.87232388003699,2.2505887463690404],[34.871972067256095,2.250280474773905],[34.87144368033905,2.250883557574188],[34.86870446608599,2.248999822472625],[34.868868886329324,2.24776512218666],[34.86796023000203,2.246859316160854],[34.8680381172639,2.246495061888835],[34.8694,2.2356],[34.869270797480674,2.2355039711005027],[34.86868256571338,2.236757381166422],[34.8680226463842,2.236601655294856],[34.86797651592143,2.235287137982665],[34.86501216947699,2.232861907721763],[34.86492223017861,2.232271927835449],[34.863774012848864,2.2314185230633465],[34.863527458435385,2.232353658172833],[34.861475621300336,2.231847995219634],[34.86228328054288,2.2303105463494415],[34.86032355492728,2.2288539935270326],[34.859446401332384,2.229376516863161],[34.85757438255136,2.229011465694865],[34.85701308317653,2.228310963714517],[34.85798285152844,2.228298743193423],[34.85785029171924,2.227015757358892],[34.8572323305876,2.2265564619232148],[34.85647813497396,2.226819725334058],[34.85611269591247,2.225821803737613],[34.85486911879411,2.225641474642498],[34.854936086806596,2.224849794248148],[34.8538288240106,2.2240268286565263],[34.85357869310125,2.224615190488606],[34.851245641408006,2.223310079973182],[34.85168137503715,2.2224307517168014],[34.847725299949964,2.219490425638486],[34.84721768958083,2.219417389315842],[34.846849463946825,2.217880602035616],[34.84748369897072,2.217405911860563],[34.84773697077953,2.2158935173451093],[34.84749700567796,2.212145359586304],[34.84851305222163,2.211259202448011],[34.84954521539492,2.20509571378463],[34.84938121675483,2.204234986901832],[34.849719516923855,2.204054884654712],[34.84994931141249,2.202682683279728],[34.84990229919095,2.202615638046832],[34.84998924942287,2.2024441963034547],[34.850433038442624,2.199794141871196],[34.85014136296877,2.199577440801635],[34.850590720363236,2.1979855644863453],[34.85057081329168,2.197946501553483],[34.8490648931751,2.196441039998137],[34.84939626212032,2.195641721896483],[34.84719274131336,2.1913178320111113],[34.84703902743609,2.191108638216971],[34.846756988166156,2.192284481557086],[34.84495907725151,2.192926478468755],[34.84564890154921,2.188774149564188],[34.84215109792268,2.185740338323706],[34.84036533158221,2.18654787930791],[34.840437878947824,2.185169262925016],[34.838641387641175,2.18137402335193],[34.83710738678976,2.181065068791614],[34.836131142676166,2.17894705290192],[34.83366880125992,2.179219231775679],[34.832752891439064,2.178256449125342],[34.832949766910936,2.176835584394683],[34.830885257101556,2.176912641463704],[34.82996825179376,2.173557498337791],[34.829290861079066,2.173719872663371],[34.829575641252916,2.172462940589055],[34.828326557134126,2.170940310074179],[34.828603747548584,2.170592414411217],[34.82655156638928,2.1555061096725043],[34.8264777248881,2.155501137462912],[34.82594220341742,2.151796135771754],[34.82230225899916,2.149813615990488],[34.823379526461196,2.149254863516469],[34.824857228711,2.146199510587343],[34.82479292414483,2.144429324044923],[34.82320108919227,2.143315716558598],[34.822430210177025,2.1411304650934455],[34.82241414463768,2.141111900470206],[34.82016062014187,2.141602350042816],[34.81925945570235,2.140900999654118],[34.81887520477896,2.139011291507349],[34.81606606832302,2.13739087711573],[34.81539975077104,2.135753886616893],[34.81423813041243,2.135772320107663],[34.8132867046534,2.132955563398573],[34.81212785854045,2.133051277964523],[34.80877518822082,2.130937675469264],[34.808299406467086,2.126521460366896],[34.80664333241879,2.123723329525348],[34.80472982831709,2.1232002122337184],[34.80389711537714,2.123163609467127],[34.80336763767725,2.124027776307496],[34.802208018236826,2.123571046316619],[34.80058969838145,2.124218187346042],[34.79793855805536,2.123319607657714],[34.79775319998853,2.126775481231016],[34.79926896837496,2.12699313170739],[34.79992167616936,2.129311813047809],[34.79780277426729,2.131251598217263],[34.79811845989986,2.134496839247107],[34.79735524596871,2.135782552044775],[34.79874124910369,2.138367157332508],[34.798240444594626,2.141640023741895],[34.79380338744446,2.145002653788018],[34.7936,2.1461],[34.79348433005041,2.1463703297698236],[34.793477549143056,2.146456920497589],[34.79341985062854,2.1465210232501493],[34.7920611174937,2.14969648945291],[34.792115853522255,2.150249262197402],[34.791818243937165,2.15026410405696],[34.79100719804429,2.1521595820987396],[34.79101544870034,2.152248723304947],[34.790959471344564,2.1522711231497773],[34.7847,2.1669],[34.78467985372469,2.1669262281697454],[34.784678512774775,2.166941388857607],[34.783030694518594,2.169367115228513],[34.78273844256717,2.1694537257144386],[34.77570026211666,2.1786166398858566],[34.77569935400789,2.178662212637209],[34.774375197705936,2.180464022756489],[34.77424121169824,2.1805161583551174],[34.7741,2.1807],[34.759244034495474,2.1935696525679864],[34.7523347847903,2.200239221247791],[34.75010795123079,2.201484198237395],[34.74508452565957,2.2058359680219324],[34.74271426173682,2.208543013585677],[34.73864124463484,2.211417751862295],[34.7382,2.2118],[34.71084047659081,2.2226838979985453],[34.71082540550346,2.222705560622529],[34.708027464409945,2.236861311446734],[34.70440688531585,2.2429690795099693],[34.70201329713109,2.250557842050284],[34.702013893535,2.250570040518927],[34.702004943030225,2.250584328347342],[34.702,2.2506],[34.70193738402307,2.250692173829397],[34.69264901444648,2.26551934102118],[34.68591559980955,2.274344601425597],[34.67954918577763,2.28099804906345],[34.67679984294718,2.2824234008698046],[34.67679682529598,2.2828730308989313],[34.67688727304946,2.284213856286564],[34.67678676240148,2.2843724021793674],[34.67675539422919,2.289046259850091],[34.67750101506249,2.289411715925488],[34.678263588945754,2.291400156076027],[34.67828977763373,2.293055732241455],[34.676718174216475,2.2945920417448984],[34.67670043420498,2.2972353034576516],[34.67670147925462,2.29728970389293],[34.676700064391994,2.2972904055925873],[34.6767,2.2973],[34.66650412242077,2.3094721710307082],[34.66683429237155,2.311762470088192],[34.66424687895337,2.314043025720676],[34.663312715129145,2.3132821770925225],[34.66029874286879,2.316880355429772],[34.6619972810087,2.319174174362585],[34.66111490123311,2.322321686532267],[34.659736524028915,2.323064730060939],[34.65757090210186,2.322642444025959],[34.65524335316473,2.324796999210155],[34.65401348506434,2.324383901090595],[34.654,2.3244],[34.65234826654122,2.3278057866893485],[34.652952149334745,2.327721101388787],[34.65203351457102,2.328454788539397],[34.65135502139106,2.3298538054502926],[34.649641166852994,2.335566038503073],[34.642746906380836,2.347603281533316],[34.6427,2.3477],[34.640628780034426,2.3704834196212703],[34.641320343504766,2.3716016589168083],[34.647976039420044,2.382363578030525],[34.649015774509664,2.382913297673867],[34.6496409052972,2.383243677692738]]]}}]}
