{"type":"FeatureCollection","name":"Nabilatuk sub-counties","metadata":{"source":"Uganda Bureau of Statistics NPHC 2024 Map Explorer","retrieved":"2026-07-26","display_only":true,"clipped_to_dashboard_district":true,"positive_area_overlaps_removed":true,"source_gap_ratio":0.15433829},"features":[{"type":"Feature","properties":{"n":"Kosike","c":"334101","d":"Nabilatuk","od":"Nabilatuk","dc":"334","k":"KOSIKE","a":["KOSIKE"],"lat":2.070311,"lon":34.51587},"geometry":{"type":"Polygon","coordinates":[[[34.547281142118926,2.0805989505725],[34.550537009713395,2.075073888692035],[34.55148744590362,2.070911685933845],[34.551565819765244,2.069711251352888],[34.54933857750903,2.069073440568947],[34.54806475445412,2.067714618362648],[34.547652491071624,2.065067198081588],[34.55294611203654,2.062810113817959],[34.557191070243476,2.059707299429458],[34.55903753055031,2.056737733425481],[34.56020430850016,2.052238200719813],[34.556507471594394,2.04920068122648],[34.55374729997541,2.048915145704528],[34.55155018976046,2.049991849044],[34.548190387091815,2.054546671634991],[34.53750388224427,2.046117454854972],[34.53312476532384,2.040680966446133],[34.533997162924095,2.038839357728353],[34.53742286741697,2.037139480764484],[34.53858280229247,2.026101632973482],[34.54838311983661,2.027877127167892],[34.55274215320966,2.021709829375866],[34.556186052252635,2.019251548334916],[34.554228212275795,2.017018415575754],[34.552610077127305,2.012728698468997],[34.54984135261651,2.010411817564898],[34.54509450746678,2.008850662903501],[34.53807122477759,2.012039830293542],[34.52922999572366,2.001140199198922],[34.524473524942906,2.008940671810707],[34.51451216552577,2.003077221776579],[34.509277283595615,1.99808044596249],[34.503675445863934,1.995573756230325],[34.498663470960096,1.996251777615127],[34.49075682419117,1.998692244034031],[34.49245894737937,2.002938190701849],[34.49927528945951,2.007973569802446],[34.48700785781505,2.010850809102508],[34.49196713668489,2.016977025455768],[34.49239594769462,2.019261885203629],[34.49748411836596,2.020508756637846],[34.497875705874,2.022508450477598],[34.51264656946968,2.034874811148874],[34.50709840764553,2.038311870786957],[34.50129831053124,2.047383759832731],[34.4922270300263,2.058834394016479],[34.481221768866355,2.06879871379008],[34.47319121589499,2.080844483080867],[34.47233696888488,2.0815035096151657],[34.48,2.0919],[34.50108585141361,2.1461207607778596],[34.54363345226367,2.092126035891467],[34.547281142118926,2.0805989505725]]]}},{"type":"Feature","properties":{"n":"Lolachat","c":"334102","d":"Nabilatuk","od":"Nabilatuk","dc":"334","k":"LOLACHAT","a":["LOLACHAT"],"lat":1.931662,"lon":34.393482},"geometry":{"type":"Polygon","coordinates":[[[34.2499,1.891],[34.309,1.9244],[34.3957,1.99],[34.39576509961636,1.9900725576306657],[34.40250811163863,1.995174354920476],[34.427435728063536,2.015266977672231],[34.43970917228421,2.038455581932652],[34.443284827262445,2.0430362929099837],[34.4472,2.0474],[34.45582096704294,2.0590961290674024],[34.46181212872682,2.066771304737141],[34.462352972737015,2.0679581489877195],[34.47233701745944,2.081503575516622],[34.47233701745944,2.0815035755166216],[34.47233696888488,2.0815035096151657],[34.47319121589499,2.080844483080867],[34.481221768866355,2.06879871379008],[34.4922270300263,2.058834394016479],[34.50129831053124,2.047383759832731],[34.50709840764553,2.038311870786957],[34.51264656946968,2.034874811148874],[34.497875705874,2.022508450477598],[34.49748411836596,2.020508756637846],[34.49239594769462,2.019261885203629],[34.49196713668489,2.016977025455768],[34.48700785781505,2.010850809102508],[34.49927528945951,2.007973569802446],[34.49295742691728,2.003306428301685],[34.492459637123524,2.002938881345281],[34.492459534231266,2.0029386242220166],[34.49245894737937,2.002938190701849],[34.49075682419117,1.998692244034031],[34.490759893626866,1.998691296621688],[34.49075982732839,1.998691130944686],[34.497759217695,1.9965308845225358],[34.498663470960096,1.996251777615127],[34.49866360968016,1.9962517588490376],[34.49866364749534,1.996251747178005],[34.498761291592,1.9962385444123323],[34.503675445863934,1.995573756230325],[34.509277283595615,1.99808044596249],[34.50927755685825,1.9980807067959019],[34.50927766055828,1.998080753191612],[34.51070676068442,1.999444903965445],[34.51451216552577,2.003077221776579],[34.516356860153465,2.0041630449383367],[34.524473757248714,2.0089402908359895],[34.52922999572366,2.001140199198922],[34.52932692827341,2.001259699443394],[34.53069339530675,1.999095983417341],[34.53810347629578,1.994726197915546],[34.53874488692285,1.978952647937382],[34.54238698526902,1.972594788506197],[34.543616690241066,1.966735196928129],[34.546043160268006,1.969059866974474],[34.54773363931491,1.968897102105819],[34.554129750957465,1.967164810423471],[34.55952941726572,1.964022142718368],[34.559634042675306,1.962952389805687],[34.56687531966984,1.958093974575883],[34.57161511949641,1.949870753166153],[34.57851673529827,1.942088248777798],[34.5707,1.9359],[34.56775176647455,1.9328289234109883],[34.56523706362116,1.931039038382516],[34.565123005624805,1.930090630859169],[34.55391634699598,1.9184170281208137],[34.55290627558564,1.918516437525132],[34.552328736774285,1.91771699465556],[34.55004174083298,1.919818944758466],[34.54258528841736,1.932284955342249],[34.536665070109315,1.938566905377634],[34.53261049371788,1.940603753363624],[34.53101164787841,1.94347754199453],[34.52831611276455,1.945314935424607],[34.5269675520859,1.945231878093768],[34.52456520116006,1.947634489361609],[34.52160058968322,1.947882368114568],[34.511619793902675,1.953419520179995],[34.51201742126367,1.948863374754969],[34.50732673952413,1.949754243746291],[34.50415135344147,1.948898081767848],[34.498357595482894,1.944009149930389],[34.48632642328699,1.942002585859211],[34.47543913239681,1.937689609894876],[34.46598005218764,1.929628669050937],[34.45124397436601,1.919850557171004],[34.417832263958005,1.918778590747641],[34.416917925828386,1.90304824191985],[34.432136583909234,1.865327438437545],[34.43110081635776,1.8616984158312775],[34.410911983203945,1.8443127526457],[34.383304222880135,1.822610755541188],[34.34889210250793,1.806438668270655],[34.33566478160506,1.807866791164795],[34.32978858179496,1.804960290941571],[34.315868723434505,1.794966574765364],[34.276710043568336,1.781785980866281],[34.241420862007324,1.780692655993772],[34.22255753205672,1.7830936453357387],[34.22266939404748,1.8278011543079529],[34.22404514302046,1.880505408606092],[34.2499,1.891]]]}},{"type":"Feature","properties":{"n":"Lorengedwat","c":"334103","d":"Nabilatuk","od":"Nabilatuk","dc":"334","k":"LORENGEDWAT","a":["LORENGEDWAT"],"lat":2.248918,"lon":34.616801},"geometry":{"type":"Polygon","coordinates":[[[34.50843391717722,2.168392263572418],[34.51104841275751,2.183017857408793],[34.5112,2.1837],[34.54489253981185,2.291052343449077],[34.58532586588484,2.419791954235237],[34.58857563170423,2.421276729282105],[34.59091203043714,2.421377651747239],[34.59325969091397,2.421121438173542],[34.59430141104445,2.420071893158748],[34.61246176425173,2.420416499505242],[34.62025463858685,2.419345732690432],[34.62566778987008,2.416966328136446],[34.63381756393657,2.412772472950617],[34.636805982701155,2.40944566065443],[34.642685989502695,2.347710012357704],[34.642745742186975,2.34760568203924],[34.65135854773172,2.3298465343231003],[34.65169535990826,2.328724814223885],[34.65196921667152,2.328587367394134],[34.652388597804666,2.327722625765608],[34.65211439133054,2.327823676509981],[34.653955623882034,2.324367501343297],[34.654011560544184,2.3243861986454903],[34.660298751624104,2.3168803449773896],[34.65977580653362,2.316174346527649],[34.66269857772813,2.31382810773004],[34.66060626286933,2.314065381896292],[34.66043757882773,2.312800224528589],[34.662340454875704,2.312490222348234],[34.66331233438449,2.3132826316378963],[34.66625798506708,2.3097660178274126],[34.6660948161874,2.3092018402909],[34.666184078242296,2.304084061329853],[34.66847779645544,2.302896874206235],[34.66921351017149,2.301639108645667],[34.66880748353126,2.300292935382348],[34.67194597967477,2.298750923136662],[34.67261013220772,2.296859855076944],[34.6736563231383,2.296858938980153],[34.67432411224693,2.298467772352451],[34.67670006601472,2.297290163806126],[34.67670050239019,2.2972251438609326],[34.676651020768205,2.29465755777826],[34.67671817506883,2.2945919147441014],[34.676755394401624,2.289046234157856],[34.675347940078886,2.288356535389557],[34.674989220050826,2.287207457546851],[34.67678676195994,2.284372467969346],[34.676796865528146,2.282867036306084],[34.67676799784336,2.282441893250142],[34.67679982968858,2.2824253764011786],[34.6768,2.2824],[34.6859,2.2743],[34.70193858086852,2.250690412013414],[34.702004847854354,2.250584630098118],[34.70201395469645,2.250555757269206],[34.70185386871865,2.247280643763259],[34.70440499868402,2.242975060990437],[34.7108,2.2227],[34.71084054497494,2.22268387079464],[34.71166365246814,2.22150159550008],[34.720123828549895,2.217323623265905],[34.724707361369305,2.216947029419092],[34.73815848826084,2.211758490910868],[34.73864118088473,2.211417807088717],[34.74508478383698,2.2058357443640615],[34.747731641336294,2.202812774688285],[34.75010792264439,2.2014842230016574],[34.759244522797744,2.1935692295540443],[34.75927575842561,2.193539077361273],[34.76249256282449,2.187385827947284],[34.77062466704843,2.181923351859024],[34.77424168489204,2.1805155423103595],[34.775700667602855,2.1786161119887333],[34.7757305275523,2.177072360651199],[34.7765616961885,2.176834412970028],[34.7768589669605,2.174211874211629],[34.779897733531094,2.173032449773619],[34.780550323528544,2.170104109266537],[34.78273856758404,2.169453562956629],[34.78468010303551,2.1669259035952795],[34.78510419913545,2.162130218463521],[34.787583082026636,2.156619536033067],[34.78756901948534,2.154827293665749],[34.788548772231415,2.15323549213541],[34.79095964090829,2.1522707268660097],[34.791008197572275,2.1521572461232275],[34.79083601781835,2.150315544475902],[34.791818356728356,2.1502638404550733],[34.79206163700634,2.149695275311021],[34.791912733034614,2.148196655239511],[34.7934194943769,2.14652185583825],[34.79347045543416,2.1464027558392624],[34.793354689251146,2.1454744575904314],[34.7896,2.1359],[34.78940422008301,2.135813975491018],[34.78606710966506,2.134982725614537],[34.784636248537275,2.13371895769062],[34.77907426898794,2.1312750575856114],[34.778084021439156,2.131211365825267],[34.77767584750677,2.132422771190856],[34.77624071777718,2.130173576301323],[34.774338395885415,2.131070116831581],[34.768678251362736,2.128030126674293],[34.76699833340494,2.127851430623289],[34.7667890151701,2.126612567462139],[34.76341075614906,2.1243926049745876],[34.7632,2.1243],[34.76026797319729,2.124038730284907],[34.75926291800767,2.124333258761833],[34.758604297993806,2.123890481999448],[34.75342850965623,2.123429273137684],[34.75309284437001,2.123436124813663],[34.7471366946252,2.125521563820869],[34.746195293001385,2.125435734282267],[34.72044981639852,2.133026345925056],[34.72022023975239,2.133122446874926],[34.70862986442995,2.1410500318027306],[34.7039,2.1443],[34.7039048692303,2.1442818340254055],[34.70390480689844,2.14428187665915],[34.69400420374131,2.148118276763394],[34.686831549768385,2.156135329919369],[34.686062633525744,2.166477327374356],[34.68327827902214,2.179754973229081],[34.680669101935806,2.183115965741067],[34.673305015645575,2.181566025277581],[34.66378546212774,2.163957630043705],[34.66093001231635,2.137783589328315],[34.64351347260879,2.116019156608569],[34.64264893706047,2.109460456518642],[34.63618362154668,2.110657701213021],[34.62381119312994,2.110181843779428],[34.61572025735111,2.105422922290308],[34.606689333417314,2.104069579852054],[34.602425230472534,2.102330857092876],[34.593144604960266,2.095406202930945],[34.58047951366096,2.080379488482983],[34.575212512336726,2.079127895538592],[34.56865827803361,2.0801477003368],[34.569226419099266,2.08586412619748],[34.558612677732576,2.094001607683264],[34.55099910683929,2.095904376619598],[34.544448439766086,2.089550589280869],[34.54363345226367,2.092126035891467],[34.54270165982002,2.0933085203474926],[34.54244199395077,2.093887799104784],[34.50108736294589,2.1461246475751383],[34.50519250809084,2.1566807350907338],[34.50522374522897,2.156737956976567],[34.50843391717722,2.168392263572418]]]}},{"type":"Feature","properties":{"n":"Nabilatuk","c":"334104","d":"Nabilatuk","od":"Nabilatuk","dc":"334","k":"NABILATUK","a":["NABILATUK"],"lat":2.062574,"lon":34.658833},"geometry":{"type":"MultiPolygon","coordinates":[[[[34.552610294436654,2.012729159501079],[34.55291556924086,2.01353856577008],[34.554228212275795,2.017018415575754],[34.556186052252635,2.019251548334916],[34.55274215320966,2.021709829375866],[34.54838311983661,2.027877127167892],[34.53858280229247,2.026101632973482],[34.53742286741697,2.037139480764484],[34.53399718215282,2.038839348186822],[34.533982796368726,2.0388696851542956],[34.53312478736654,2.040680919914574],[34.537503933600064,2.046117495362985],[34.548190387091815,2.054546671634991],[34.55155018976046,2.049991849044],[34.55374729997541,2.048915145704528],[34.556507471594394,2.04920068122648],[34.556508040557134,2.0492011487167843],[34.556508109909075,2.049201155896641],[34.56020431282461,2.052238189177277],[34.5619682641145,2.051855621353767],[34.562924493152714,2.050121039204284],[34.56090085513959,2.050169866860021],[34.55925920983183,2.049027410564257],[34.55929532451467,2.044423907189816],[34.557619787367734,2.043105691207724],[34.55790342037787,2.041604340445303],[34.55704738794111,2.041603711830177],[34.55676119961314,2.037428295023332],[34.55457310486621,2.035841925474877],[34.560434385288936,2.034405385112031],[34.562993603467845,2.035043729633424],[34.56514737832768,2.037394083951701],[34.57075522659649,2.036218127046541],[34.57198463039266,2.038963190037522],[34.57174924413906,2.040158498192401],[34.570015694613595,2.04066523699906],[34.57092299639063,2.043488900261345],[34.57605817133162,2.042866686920946],[34.578515800930035,2.043639889429858],[34.58454033800191,2.043796128441827],[34.585909035291316,2.046204519806645],[34.58895504156721,2.048489457943002],[34.58988597097457,2.050354397794493],[34.58802628888596,2.051593784423524],[34.584173802317814,2.053092253728005],[34.582274259566276,2.052672982172352],[34.582767426069,2.055001341442287],[34.58701860893345,2.058716737380856],[34.58587843565104,2.062338767329983],[34.58904773559448,2.063009779580344],[34.59223221171433,2.062267759926477],[34.59409425751094,2.064703045505952],[34.59602884746511,2.065565287511948],[34.59548669700337,2.067021545882992],[34.5967817574722,2.066985272310954],[34.59682928135031,2.065122111036959],[34.59765664312694,2.064737483766411],[34.60071186225864,2.070150775671657],[34.602378806830764,2.070976273812841],[34.601487180831754,2.072375565247771],[34.595194164214035,2.075068706857776],[34.581833999638924,2.070760066389357],[34.58032465605202,2.071334375687095],[34.578889818987676,2.068846840879423],[34.57632989214026,2.069843898850547],[34.56446999092058,2.064687153907378],[34.5621487120827,2.060343854781581],[34.55897338875577,2.056855045939663],[34.55720915603437,2.059678212993325],[34.557191070243476,2.059707299429458],[34.55294611203654,2.062810113817959],[34.547652491071624,2.065067198081588],[34.54806475445412,2.067714618362648],[34.549338512390456,2.0690733711051603],[34.54948600039408,2.069115657757321],[34.551565819765244,2.069711251352888],[34.55148744590362,2.070911685933845],[34.550537009713395,2.075073888692035],[34.547281168258216,2.0805989062152985],[34.547280554602665,2.080600807185955],[34.54444844243653,2.0895505808419643],[34.54453056732295,2.0896302485010896],[34.55099910683929,2.095904376619598],[34.558612677732576,2.094001607683264],[34.569226419099266,2.08586412619748],[34.56865827803361,2.0801477003368],[34.575212512336726,2.079127895538592],[34.58047951366096,2.080379488482983],[34.58048023407289,2.0803803432280517],[34.58048049177655,2.080380404496945],[34.59201560747955,2.094066684537097],[34.593144604960266,2.095406202930945],[34.602425230469045,2.1023308570902706],[34.60242540548962,2.1023309284575205],[34.606689333417314,2.104069579852054],[34.61572025735111,2.105422922290308],[34.62381119312994,2.110181843779428],[34.63618362154668,2.110657701213021],[34.64264893706047,2.109460456518642],[34.64351347260879,2.116019156608569],[34.66093001231635,2.137783589328315],[34.66378546212774,2.163957630043705],[34.673305015645575,2.181566025277581],[34.680669101935806,2.183115965741067],[34.68321692697587,2.1798340034218584],[34.68327829265475,2.179754908219786],[34.686062633525744,2.166477327374356],[34.686831549768385,2.156135329919369],[34.69400420374131,2.148118276763394],[34.69417099187642,2.148053647769708],[34.6984531893834,2.143338324458426],[34.70515162054699,2.1396304925746725],[34.7169,2.0958],[34.7244,2.0867],[34.724597062595585,2.064431926698886],[34.72455662029787,2.064136493177476],[34.72474272420293,2.063736551157651],[34.72649533934794,2.059273496311645],[34.72762940376464,2.053118606697596],[34.73092108892657,2.047616804649926],[34.733146959670286,2.041788360919429],[34.73310404955653,2.041455341123556],[34.73168155415996,2.037894349020048],[34.73136222696153,2.027937283157998],[34.72998302055295,2.017233442117475],[34.72966527150317,2.016310705962782],[34.728558966753845,2.006527354482242],[34.728472836968514,2.0062991402116332],[34.7198,1.9926],[34.719054054522246,1.9926845917552094],[34.71839561125003,1.993353413186059],[34.7158901851474,1.994205624641066],[34.71439560949027,1.993339420510679],[34.71095493411666,1.9936030487084202],[34.7101,1.9937],[34.71004087049242,1.9937447381988525],[34.709314904927496,1.994908563455862],[34.70868463327488,1.9947708859348765],[34.696488697366725,2.0039984988177686],[34.69447572524419,2.006535424113909],[34.69225647512071,2.008003656530393],[34.691185382143516,2.0080035974227],[34.69118291466956,2.0080006062536606],[34.6671568435915,2.008853144259657],[34.66643525683662,2.009296191848668],[34.66505179147717,2.008927839657262],[34.6602,2.0091],[34.66009837111464,2.008851276675296],[34.65637508052019,2.009390619686646],[34.65465991329539,2.010532033221606],[34.65137807874021,2.009390653120056],[34.64795159083161,2.013388062693713],[34.64167147912305,2.017385409731031],[34.638244071659706,2.012818184019437],[34.63852898114667,2.009676186033769],[34.635102922752985,2.00596470206493],[34.633818252901726,2.003110167165963],[34.63428772829805,2.000357900324449],[34.6320776345845,1.999691283026962],[34.63148784065131,1.99813598707045],[34.627831331618715,1.995291087674039],[34.62650349989767,1.992119126912455],[34.62782932533788,1.99055207235907],[34.6257663153809,1.989260891660123],[34.624697738245814,1.989775867182672],[34.62204434379511,1.986813760925241],[34.61902319006349,1.986527792833122],[34.61783623647252,1.984737880876455],[34.614541954022435,1.98267031722721],[34.61513260148925,1.981511955323784],[34.61510291971517,1.9812980443509551],[34.60969801307044,1.977932725119332],[34.60655407608544,1.977410610495897],[34.60464961413435,1.976220012608779],[34.60369841758024,1.974732999532042],[34.60351997134981,1.970748205084653],[34.6020332064707,1.97038857384789],[34.60286561931849,1.967119524773059],[34.59846471589165,1.964027111252403],[34.59810698858739,1.963015683326576],[34.60014271708294,1.9602825082333153],[34.59363916855654,1.946788751086712],[34.59333362329792,1.9465748695159333],[34.5875,1.9492],[34.57851673529827,1.9420882487777984],[34.57161511949641,1.949870753166153],[34.56821066721888,1.9557772399127114],[34.566875902862485,1.958092972984736],[34.56687587061466,1.9580930187251324],[34.56687531966984,1.958093974575883],[34.559634042675306,1.962952389805687],[34.55952941726572,1.964022142718368],[34.55423338014317,1.9671044970491574],[34.55412987069844,1.967164760209553],[34.55412980811012,1.9671647771599718],[34.554129750957465,1.967164810423471],[34.54773363931491,1.968897102105819],[34.546043160268006,1.969059866974474],[34.54361838982068,1.9667368252036819],[34.54239364194824,1.972563069173201],[34.54238698526902,1.972594788506197],[34.54086327913017,1.9752546588678588],[34.53874487611045,1.9789529138356499],[34.53810347629578,1.994726197915546],[34.53173682751215,1.9984806628925054],[34.52975243859,2.0005859301765185],[34.52932692827341,2.001259699443393],[34.53807122477759,2.012039830293542],[34.54509450746678,2.008850662903501],[34.54984135261651,2.010411817564898],[34.552610077127305,2.012728698468997],[34.55261023101494,2.0127291064290023],[34.552610294436654,2.012729159501079]]],[[[34.56714327823977,1.957629091709236],[34.56714327541751,1.957629090082513],[34.5671432754175,1.9576290900825168],[34.56714327823977,1.957629091709236]]]]}},{"type":"Feature","properties":{"n":"Nabilatuk Town Council","c":"334105","d":"Nabilatuk","od":"Nabilatuk","dc":"334","k":"NABILATUKTOWNCOUNCIL","a":["NABILATUK","NABILATUKTOWNCOUNCIL","TOWNCOUNCIL"],"lat":2.054707,"lon":34.571135},"geometry":{"type":"Polygon","coordinates":[[[34.55790636218292,2.041608122764571],[34.55773272646987,2.042507872191436],[34.55761992501677,2.0431049625919337],[34.559294838571795,2.044422977618372],[34.55929483440536,2.044423521600075],[34.55929532451467,2.044423907189816],[34.55927451578639,2.047076375474814],[34.5592595705834,2.0490276616190397],[34.56090085513959,2.050169866860021],[34.562924493152714,2.050121039204284],[34.562922865112526,2.0501239924396932],[34.562922979554465,2.050123989817988],[34.56196894740738,2.051854869380111],[34.561968675932484,2.051854874323402],[34.5619682641145,2.051855621353767],[34.560236230201994,2.0522312668990548],[34.55964036592803,2.0544129744612487],[34.55903753055031,2.056737733425481],[34.55898028865567,2.0568297925852184],[34.558973394322095,2.056855035615139],[34.56085309467829,2.0589203268473057],[34.5621487120827,2.060343854781581],[34.56214872675467,2.060343882234011],[34.5621487431561,2.060343900254825],[34.562166358380416,2.0603768724217693],[34.56446981364026,2.064686822201656],[34.56790789631721,2.0661819725353565],[34.57632989214026,2.069843898850547],[34.578889818987676,2.068846840879423],[34.58032465605202,2.071334375687095],[34.581833999638924,2.070760066389357],[34.58183416294368,2.0707601190549862],[34.581834176275116,2.070760113945441],[34.581836135268695,2.070760755127943],[34.59494965143148,2.0749898517161305],[34.601487192158345,2.072375547472149],[34.602378806830764,2.070976273812841],[34.60071186225864,2.070150775671657],[34.59765664312694,2.064737483766411],[34.59741381075524,2.064850372656091],[34.596829271796366,2.065122485596895],[34.5967817574722,2.066985272310954],[34.595575512532434,2.06701905823352],[34.59548745169199,2.067021603330193],[34.59548748123466,2.067021523917323],[34.59548669700337,2.067021545882992],[34.59602884746511,2.065565287511948],[34.59409425751094,2.064703045505952],[34.59352026758628,2.0639523500134795],[34.5922319222004,2.0622678273865613],[34.58904773559448,2.063009779580344],[34.589047507873,2.063009731366573],[34.589047321715015,2.063009774767439],[34.58887016733442,2.062972184376388],[34.58587843565104,2.062338767329983],[34.58587884833357,2.062337456346374],[34.585877756846585,2.062337224743732],[34.58641262955377,2.0606417741236087],[34.587018476463655,2.0587171582024655],[34.58507097799817,2.0570145711138474],[34.582767426069,2.055001341442287],[34.582274259566276,2.052672982172352],[34.5822853444801,2.052675428860672],[34.58485973040019,2.052825454049839],[34.58570526533068,2.0524965734381113],[34.58987259066186,2.0503633151146983],[34.58988597097457,2.050354397794493],[34.5898840107283,2.0503504708142435],[34.58744249125386,2.04735482998065],[34.585909035291316,2.046204519806645],[34.58454059489298,2.043796580473283],[34.58009796582524,2.043680920944321],[34.578515800930035,2.043639889429858],[34.57605817133162,2.042866686920946],[34.57092299639063,2.043488900261345],[34.570015694613595,2.04066523699906],[34.57174924413906,2.040158498192401],[34.57198463039266,2.038963190037522],[34.571118300533755,2.0370288133574785],[34.57038261119884,2.036296263905606],[34.56514737832768,2.037394083951701],[34.562993603467845,2.035043729633424],[34.560434629883154,2.0344054461210463],[34.56022210557832,2.0344574127153057],[34.55457310486621,2.035841925474877],[34.55676119961314,2.037428295023332],[34.55704738794111,2.041603711830177],[34.55790342037787,2.041604340445303],[34.55790270894328,2.041608106272344],[34.55790636218292,2.041608122764571]]]}},{"type":"Feature","properties":{"n":"Natirae","c":"334106","d":"Nabilatuk","od":"Nabilatuk","dc":"334","k":"NATIRAE","a":["NATIRAE"],"lat":1.908463,"lon":34.469059},"geometry":{"type":"Polygon","coordinates":[[[34.46597992699873,1.929628585981887],[34.46597992699902,1.9296285859821327],[34.46598005218764,1.929628669050937],[34.47543913239681,1.937689609894876],[34.48632642328699,1.942002585859211],[34.498357595482894,1.944009149930389],[34.50415135343701,1.9488980817640813],[34.50415142501592,1.948898101066074],[34.50732673952413,1.949754243746291],[34.51201742126367,1.948863374754969],[34.51201703851985,1.9488677603598883],[34.51201719703866,1.948867730395501],[34.512010409303755,1.9489437201039315],[34.51161993094046,1.953417949955818],[34.52025591294536,1.9486283687081174],[34.52160058968322,1.947882368114568],[34.52160108365035,1.9478823268127115],[34.52160162216191,1.947882028150111],[34.52246611592405,1.9478099992504163],[34.524564864565555,1.9476345175051373],[34.52628939965846,1.945910104012368],[34.5269675520859,1.945231878093768],[34.52696766636452,1.945231885132144],[34.52696785985093,1.945231691659377],[34.52711140492616,1.9452407379345857],[34.52831611276455,1.945314935424607],[34.53101164787841,1.94347754199453],[34.53261049371788,1.940603753363624],[34.53261119362544,1.9406034017596174],[34.53261127914243,1.940603248082211],[34.53583690014968,1.9389829429982088],[34.536665070109315,1.938566905377634],[34.54258528841736,1.932284955342249],[34.55004174083298,1.919818944758466],[34.5522392516848,1.9177992393109373],[34.55232872959007,1.917716984464954],[34.54914476852771,1.916470072632017],[34.54400538706049,1.916089297663986],[34.53824206280731,1.914019422324728],[34.53788833799421,1.9138557586181217],[34.5245,1.9144],[34.51760327035183,1.90306965843515],[34.51333853422089,1.901205163050927],[34.51357715919737,1.900665657669019],[34.49453403387671,1.893234647048741],[34.49244444881214,1.892163860971898],[34.49292746838677,1.890393158146514],[34.48964381394973,1.886181516814869],[34.48700261576342,1.884825225401717],[34.48297532162451,1.883887575183821],[34.47923904343459,1.884384405810932],[34.477468728724304,1.886030990412548],[34.476382549132516,1.888735152308879],[34.47279461650186,1.888009316844377],[34.4698059694396,1.885458902809411],[34.46757909057264,1.880571116386114],[34.4613,1.8798],[34.46083635828883,1.8795777717315418],[34.45766386298642,1.879400052510142],[34.45366765821669,1.880209543741016],[34.441608053608824,1.8703614463849185],[34.4323,1.8659],[34.4321365885917,1.865327454843541],[34.422663093376194,1.8888083309571053],[34.416917925828386,1.90304824191985],[34.417832263958005,1.918778590747641],[34.45124397436601,1.919850557171004],[34.46597992339017,1.9296285835874893],[34.46597992699873,1.929628585981887]]]}}]}
