{"type":"FeatureCollection","name":"Namutumba sub-counties","metadata":{"source":"Uganda Bureau of Statistics NPHC 2024 Map Explorer","retrieved":"2026-07-26","display_only":true,"clipped_to_dashboard_district":true,"positive_area_overlaps_removed":true,"source_gap_ratio":0.00676843},"features":[{"type":"Feature","properties":{"n":"Ivukula","c":"224101","d":"Namutumba","od":"Namutumba","dc":"224","k":"IVUKULA","a":["IVUKULA"],"lat":0.959805,"lon":33.65649},"geometry":{"type":"Polygon","coordinates":[[[33.56741831485881,0.9457467663611396],[33.56897991963804,0.9645867724073179],[33.57177435487659,0.96927808518865],[33.569729125211744,0.9736255751352622],[33.569985403432995,0.9767174478690651],[33.57021618081375,0.9783323616275125],[33.57023914524022,0.9783782904804527],[33.574873579644816,0.984519139011751],[33.57664730171673,0.9911946034334695],[33.5834,1.0047],[33.58348448692078,1.0048071447768128],[33.591760589433036,1.013502388923798],[33.60219555695438,1.006723771441475],[33.607058266462225,0.999594881112722],[33.61687135534238,0.997338189227467],[33.62186486043623,0.992328292916925],[33.625386252151735,0.991735222324376],[33.62853486473857,0.988702887628195],[33.6324254852135,0.987156876841954],[33.634187502962426,0.984201848391525],[33.633971960338066,0.982455563903505],[33.636802337096455,0.982074519665731],[33.63768920750901,0.987090171137972],[33.64076558847165,0.986858443289319],[33.64668631937699,0.983259731648693],[33.657340926254285,0.990037592280063],[33.660201032206956,0.983159099236469],[33.66642500497241,0.975738230322654],[33.6743835951874,0.978115691773834],[33.678897601953025,0.980502320897981],[33.6890343658245,0.990191507652166],[33.70491245951467,1.0015264927941907],[33.70885571674252,0.9946117763282851],[33.70929541144507,0.992743690699017],[33.70150394714643,0.98585163450411],[33.682698133509895,0.961818803219456],[33.676656516116644,0.956690565753646],[33.67199615620703,0.95405195970518],[33.669802828832296,0.956020334507636],[33.66581232880787,0.95749931747867],[33.65824480967798,0.95796381994159],[33.65817284291383,0.957292119224956],[33.654162930939215,0.955446413487099],[33.65074874144169,0.952780541434053],[33.64170782114726,0.948889854444287],[33.63753311202734,0.943918329368769],[33.63689175727729,0.949331981444423],[33.632845476217476,0.95679090511623],[33.63253941823535,0.961645358884179],[33.63076101118387,0.96317490791985],[33.62357525125965,0.964741374494089],[33.61797822169041,0.969611756226146],[33.61442074873907,0.971107382439237],[33.611416505330176,0.97055138780699],[33.60824601285409,0.969262613640171],[33.60282709347876,0.964153900510725],[33.59888830257877,0.964432752112867],[33.5957184539885,0.963139954835806],[33.59995830952485,0.948274043615138],[33.60877001549787,0.933045477918165],[33.61619334947574,0.93288515127566],[33.62237075443664,0.934655565228697],[33.624947843341864,0.936500374523417],[33.62628281704708,0.934191592897147],[33.6277951728008,0.933719814954722],[33.633464133054844,0.934445932325676],[33.63953135203098,0.927836775236262],[33.63977144163252,0.926363814322806],[33.63718868524432,0.923179816036864],[33.63325773742031,0.921958882289942],[33.63110089343151,0.919688972479481],[33.62278266615483,0.904953101594652],[33.620022919081684,0.906572800468474],[33.61587192435705,0.907351673588516],[33.60407846229766,0.903915886031133],[33.59856468604258,0.903482583827364],[33.592891693105614,0.904786264175536],[33.58809073410114,0.908930635668088],[33.577162955937155,0.924013246866157],[33.565036147443266,0.9345875089171767],[33.567,0.9407],[33.5671253724557,0.9422125580139329],[33.56729475794415,0.942814351746638],[33.56741831485881,0.9457467663611396]]]}},{"type":"Feature","properties":{"n":"Ivukula Town Council","c":"224102","d":"Namutumba","od":"Namutumba","dc":"224","k":"IVUKULATOWNCOUNCIL","a":["IVUKULA","IVUKULATOWNCOUNCIL"],"lat":0.948582,"lon":33.618426},"geometry":{"type":"Polygon","coordinates":[[[33.608246131536674,0.9692626618834808],[33.611416505330176,0.97055138780699],[33.61442074873907,0.971107382439237],[33.617162180297065,0.9699548348427784],[33.61797826389508,0.9696117195007963],[33.62357525125965,0.964741374494089],[33.63076101118387,0.96317490791985],[33.63253941823535,0.961645358884179],[33.632845476217476,0.95679090511623],[33.63284550851622,0.9567908455766578],[33.63284551211291,0.956790788304876],[33.63597626500481,0.951019601973404],[33.63689175727729,0.949331981444423],[33.63753311202734,0.943918329368769],[33.64170782114726,0.948889854444287],[33.65074874144169,0.952780541434053],[33.654162930939215,0.955446413487099],[33.65817284291383,0.957292119224956],[33.658244728996834,0.9579630669052779],[33.665812354523766,0.9574993079476889],[33.669802828832296,0.956020334507636],[33.67174103073317,0.9542809189385265],[33.67199614706709,0.95405195260775],[33.66465350656673,0.946877131208815],[33.662783012309944,0.944054930380153],[33.65852765132127,0.944146039225822],[33.65554898048212,0.942373597534305],[33.648274066331275,0.933593077670296],[33.64582733435865,0.928709481646959],[33.64380983049648,0.927182453231205],[33.639771452791216,0.926363818073611],[33.63977142861309,0.9263638941976193],[33.63953135203098,0.927836775236262],[33.639183145060606,0.928216084863267],[33.63912829906139,0.928388765617938],[33.6334830775853,0.9344252956256873],[33.633464133054844,0.934445932325676],[33.627795296304626,0.9337198307738963],[33.626282697432714,0.9341917997652252],[33.62574432876483,0.9351228860358426],[33.6249491160429,0.936499325551716],[33.624948644828656,0.9364989883852662],[33.624947843341864,0.936500374523417],[33.62237075443664,0.934655565228697],[33.61733380947022,0.9332120015145351],[33.61619329601033,0.9328851524303878],[33.60877001549787,0.933045477918165],[33.59995830952485,0.948274043615138],[33.5957184539885,0.963139954835806],[33.59888830257877,0.964432752112867],[33.60282709347876,0.964153900510725],[33.60770262038178,0.968750327690622],[33.608246131536674,0.9692626618834808]]]}},{"type":"Feature","properties":{"n":"Kibaale","c":"224103","d":"Namutumba","od":"Namutumba","dc":"224","k":"KIBAALE","a":["KIBAALE"],"lat":0.856479,"lon":33.583974},"geometry":{"type":"MultiPolygon","coordinates":[[[[33.55192932940176,0.890666742353138],[33.561041160091186,0.883423106101166],[33.56551966929327,0.870823428000091],[33.57040734874851,0.864434255883339],[33.57517117918897,0.862321808880803],[33.57751826568829,0.863305351346099],[33.5817147768645,0.867080917874572],[33.584274933397026,0.86781424704551],[33.59596427460626,0.86791910887014],[33.59654433742625,0.866097844324035],[33.59615039107788,0.863529148171702],[33.59899515941877,0.863360449925021],[33.603061272552864,0.864374422839539],[33.615991642000225,0.872032556534968],[33.6164113273859,0.870321395759033],[33.62451798604655,0.872561447252085],[33.62568597564558,0.872532628083197],[33.62773210130321,0.871655284362327],[33.62831540639316,0.871628397010038],[33.62980234909456,0.871161495453961],[33.63149793937532,0.870855102399903],[33.635777429889245,0.871349004960272],[33.64207344491006,0.880546576899155],[33.646027132650374,0.884666153846708],[33.64858618286889,0.874442933822254],[33.64802175799081,0.872108796248979],[33.640961653475614,0.860082653791184],[33.62702879763771,0.857979754361015],[33.62227678005172,0.858196581490618],[33.6231673819105,0.854977857874869],[33.62726080824734,0.849223442335025],[33.62825497461074,0.845386152942751],[33.62742192213163,0.841660847764839],[33.62404975308608,0.836061529898864],[33.62234195271857,0.834578127350163],[33.61505842366251,0.833611156051467],[33.604321349658065,0.829134793277286],[33.59022316083366,0.832040786293472],[33.58907127986678,0.831181687297643],[33.5831059279321,0.830712111426627],[33.57874931904145,0.828767212959796],[33.57459976490457,0.82496863391609],[33.56594652477792,0.820717822210228],[33.54883838105761,0.821507337080786],[33.54757297055735,0.823755950896071],[33.5436561771701,0.8419735945576856],[33.54462486753306,0.851839548706097],[33.5459,0.8622],[33.54573630312366,0.8631593398334394],[33.54584203359702,0.864236187546714],[33.5442409912298,0.8719225630253674],[33.542083566679594,0.8845660743428503],[33.54182950361445,0.8879653625624262],[33.54369387136493,0.8925580733623929],[33.547067964035946,0.892624661285637],[33.55192932940176,0.890666742353138]]],[[[33.629931296132824,0.871144899206319],[33.62993129609248,0.871144898818102],[33.629931296122415,0.871144899207261],[33.629931296132824,0.871144899206319]]]]}},{"type":"Feature","properties":{"n":"Kibale Town Council","c":"224104","d":"Namutumba","od":"Namutumba","dc":"224","k":"KIBALETOWNCOUNCIL","a":["KIBALE","KIBALETOWNCOUNCIL"],"lat":0.885008,"lon":33.619506},"geometry":{"type":"Polygon","coordinates":[[[33.59531180232325,0.87976712830538],[33.59334449883336,0.885350823078421],[33.59267025629932,0.893475507389944],[33.5961219796076,0.904007691021201],[33.596287998217505,0.9040057773531543],[33.59856468604258,0.903482583827364],[33.60407846229766,0.903915886031133],[33.60407876600076,0.9039159745089143],[33.604078940346135,0.903915972499265],[33.604080799361846,0.9039165668876978],[33.61538602683079,0.9072101171340602],[33.62002072411237,0.9065732123221879],[33.62002291451186,0.9065728013259345],[33.62323694980858,0.90452787970957],[33.62531387452971,0.901324697271377],[33.63233142737577,0.894864482702964],[33.64238870097236,0.889633468796797],[33.64469370956333,0.885616537081318],[33.646027123594145,0.88466616099272],[33.642073691097586,0.880546866618097],[33.64207361187209,0.8805467508665994],[33.64207344491006,0.880546576899155],[33.63577749875606,0.871349105564787],[33.63213258462936,0.8709283477815384],[33.63149793937532,0.870855102399903],[33.63149767497038,0.870855150177858],[33.62707865981862,0.8719354689058915],[33.62568597564558,0.872532628083197],[33.62451798604655,0.872561447252085],[33.6164113273859,0.870321395759033],[33.61610284930218,0.871579136950682],[33.61599269077908,0.872032472279657],[33.61599179305701,0.8720319406392143],[33.615991642000225,0.872032556534968],[33.60306132006048,0.8643744509763756],[33.59899509107156,0.8633604539780944],[33.59615121935701,0.8635290990537348],[33.59654433650493,0.866097689582779],[33.59654432109034,0.8660977378070288],[33.59654433742625,0.866097844324035],[33.59596427460626,0.86791910887014],[33.59242990329269,0.8678874030093711],[33.59316408581079,0.876150951830499],[33.59531180232325,0.87976712830538]]]}},{"type":"Feature","properties":{"n":"Nabweyo","c":"224105","d":"Namutumba","od":"Namutumba","dc":"224","k":"NABWEYO","a":["NABWEYO"],"lat":0.896345,"lon":33.569421},"geometry":{"type":"Polygon","coordinates":[[[33.559,0.9158],[33.559004181173755,0.9158130139033301],[33.55902341821916,0.915829629568608],[33.560772407214245,0.919583483459163],[33.56458895380781,0.933195618726806],[33.565036143280714,0.9345874959612354],[33.568240113585226,0.9317937336543125],[33.577162955937155,0.924013246866157],[33.58809073410114,0.908930635668088],[33.58910158859558,0.9080580273942015],[33.589890831212706,0.90700325375684],[33.592891547249195,0.9047863900843793],[33.592891693105614,0.904786264175536],[33.59289301575405,0.9047859602247295],[33.596121967406745,0.904007691875072],[33.59455131921471,0.8992151621297235],[33.59267025629932,0.893475507389944],[33.592743547174344,0.8925923456308072],[33.59334426996948,0.88535214077546],[33.593344426311376,0.8853516969749816],[33.59334449883336,0.885350823078421],[33.594990975285995,0.8806777149333158],[33.595311773539656,0.8797670798415482],[33.59349240024739,0.8767037449645635],[33.59316421111754,0.876151210397477],[33.59316420614531,0.8761511544414397],[33.59316408581079,0.876150951830499],[33.59249673300064,0.8686396009175549],[33.59242989303697,0.8678874029173699],[33.584274933397026,0.86781424704551],[33.581877563578765,0.8671275463696239],[33.581715922067524,0.867081251564367],[33.581715910477214,0.8670812425856821],[33.5817147768645,0.867080917874572],[33.58171034984596,0.8670769349224721],[33.57604452974955,0.8626877848956076],[33.57548926198077,0.8624551009146941],[33.57424756439642,0.8627313715897188],[33.57174448245198,0.8638413246026828],[33.56966521025143,0.8654043789521202],[33.56551966929327,0.870823428000091],[33.561041160091186,0.883423106101166],[33.5610383608455,0.883425331418803],[33.55677481683566,0.887217766643481],[33.551929453052715,0.890666653962981],[33.55192942779319,0.8906666641348562],[33.55192932940176,0.890666742353138],[33.547067964035946,0.892624661285637],[33.54706722607807,0.8926246467219936],[33.547067173005544,0.892624668094015],[33.5469625842892,0.8926225816099516],[33.54369387136493,0.8925580733623929],[33.54960775467012,0.9071264200410272],[33.550210697793865,0.907966056729316],[33.559,0.9158]]]}},{"type":"Feature","properties":{"n":"Nangonde","c":"224106","d":"Namutumba","od":"Namutumba","dc":"224","k":"NANGONDE","a":["NANGONDE"],"lat":1.031447,"lon":33.650094},"geometry":{"type":"Polygon","coordinates":[[[33.60538375803905,1.032570283479031],[33.60538987866749,1.0325871643101305],[33.6054,1.0326],[33.61993868026763,1.069237474274444],[33.62277762816972,1.0731151926629547],[33.63657800123176,1.0888748779498487],[33.64810066509816,1.075886997796099],[33.656958422185184,1.06794180683736],[33.65696085355561,1.0679402978103967],[33.657,1.0679],[33.686,1.0499],[33.6944,1.0407],[33.69637804439512,1.0235569485756768],[33.6965734788203,1.020754758466225],[33.696972731164294,1.0184029965761547],[33.6974,1.0147],[33.697686740635106,1.0141971846683042],[33.697915619188045,1.01284899506752],[33.70080230913164,1.0087338655037605],[33.704912455131414,1.0015265004804605],[33.70035089459104,0.9982701024716089],[33.6890343658245,0.990191507652166],[33.67889765869318,0.9805023751328388],[33.67438349396498,0.9781156615357643],[33.66642500497241,0.975738230322654],[33.660201065706694,0.9831590592945899],[33.65734093667382,0.990037597944481],[33.66265833284185,0.994469846128512],[33.671782772769355,1.008448988331647],[33.67409236666984,1.009376694206288],[33.672356171157254,1.011784778320343],[33.668096443500616,1.0146374675582],[33.65915936538907,1.016605059367313],[33.65780425700268,1.019713348416408],[33.65462517300987,1.019429227887535],[33.65276549723628,1.02123301112396],[33.64914043375647,1.021396007675393],[33.64684545711782,1.022589383062992],[33.646650383832245,1.026081498235371],[33.641766336990386,1.029924082099629],[33.64075482068161,1.030323235212792],[33.63574864741759,1.0221250173249],[33.634626561060685,1.01681020124013],[33.62775273305838,1.020016111195447],[33.62691554223695,1.018224358533829],[33.627287917051014,1.012605860590606],[33.62932508845582,1.011809889504233],[33.63069135915985,1.007452540303678],[33.627246529677805,1.002764795287609],[33.629731218080195,1.00227953955008],[33.629096869382835,1.000469231347695],[33.630080722869714,1.000297719727118],[33.6334528611746,0.995995033797826],[33.63394074355756,0.993760873919076],[33.631056031107185,0.994502348640802],[33.628366607803436,0.994093981316589],[33.62711488892248,0.993507648443072],[33.6259153091541,0.991295956073185],[33.62581616166765,0.9913211893160689],[33.625386252151735,0.991735222324376],[33.62186486043623,0.992328292916925],[33.6173773259811,0.9968305577364525],[33.61687158325654,0.997338014354127],[33.616871513699515,0.9973380303505274],[33.61687135534238,0.997338189227467],[33.607058266462225,0.999594881112722],[33.60219555695438,1.006723771441475],[33.592796219882985,1.0128296371726433],[33.59176059825327,1.013502396590797],[33.59793086277517,1.019933785843425],[33.60538375803905,1.032570283479031]]]}},{"type":"Feature","properties":{"n":"Nangonde Town Council","c":"224107","d":"Namutumba","od":"Namutumba","dc":"224","k":"NANGONDETOWNCOUNCIL","a":["NANGONDE","NANGONDETOWNCOUNCIL"],"lat":1.005109,"lon":33.649286},"geometry":{"type":"Polygon","coordinates":[[[33.63345267393627,0.9959952774544],[33.633436910705626,0.9960153858273691],[33.630080722869714,1.000297719727118],[33.629096969425625,1.0004692139075968],[33.62973138827244,1.002278252881994],[33.62973080700459,1.0022783664199955],[33.629731218080195,1.00227953955008],[33.627246529677805,1.002764795287609],[33.63069135915985,1.007452540303678],[33.630690542045734,1.0074551462671335],[33.63069066833019,1.007455318110098],[33.63056053573772,1.007869766064386],[33.62932508845582,1.011809889504233],[33.62728820099345,1.0126057496475769],[33.62705865357095,1.018530644875052],[33.62775273305838,1.020016111195447],[33.6308412172641,1.0185756616731956],[33.634624076612525,1.016809402701856],[33.63462445342565,1.016811184227795],[33.634626561060685,1.01681020124013],[33.63574864741759,1.0221250173249],[33.64075482068161,1.030323235212792],[33.64078110819413,1.0303128619322313],[33.64242531588749,1.029405622355305],[33.64665017704977,1.0260816609240255],[33.64666899148633,1.0257483922903343],[33.64684545711782,1.022589383062992],[33.64914043375647,1.021396007675393],[33.65276549723628,1.02123301112396],[33.65462517300987,1.019429227887535],[33.654635447030714,1.0194301460954975],[33.65463604425728,1.019429570266254],[33.655711893809645,1.0195263501054657],[33.65780425700268,1.019713348416408],[33.65915936538907,1.016605059367313],[33.668096383286176,1.014637480815043],[33.672356302366964,1.0117845963339147],[33.67409236666984,1.009376694206288],[33.671782772769355,1.008448988331647],[33.671782021672904,1.0084478376107042],[33.67178191621871,1.008447795461692],[33.667381802944504,1.0017064612831876],[33.66265833284185,0.994469846128512],[33.65734093667382,0.990037597944481],[33.6573471215572,0.9900227234549446],[33.657347111442114,0.9900227170369218],[33.657340926254285,0.990037592280063],[33.64668631937699,0.983259731648693],[33.64076558847165,0.986858443289319],[33.64076557376749,0.9868584443969076],[33.64076554760636,0.986858460306005],[33.63769325529179,0.987090046150004],[33.63769322377264,0.9870898686136291],[33.63768920750901,0.987090171137972],[33.636802337096455,0.982074519665731],[33.633971960338066,0.982455563903505],[33.634187502962426,0.984201848391525],[33.634116606187966,0.9843207472991603],[33.632513702003706,0.987068053938786],[33.63246700830994,0.9870872396709385],[33.6324254852135,0.987156876841954],[33.62853562907945,0.9887025839030537],[33.62853484602934,0.988702905646497],[33.62853417297454,0.9887035538454616],[33.62591532014422,0.991295946196982],[33.62711492005331,0.9935076630254436],[33.628366607803436,0.994093981316589],[33.631056031107185,0.994502348640802],[33.63394074355756,0.993760873919076],[33.6334528611746,0.995995033797826],[33.633452675368304,0.9959952708776987],[33.63345267393627,0.9959952774544]]]}},{"type":"Feature","properties":{"n":"Bugobi","c":"224201","d":"Namutumba","od":"Namutumba","dc":"224","k":"BUGOBI","a":["BUGOBI"],"lat":0.724463,"lon":33.812341},"geometry":{"type":"Polygon","coordinates":[[[33.77901712428015,0.70362799724585],[33.78292625603552,0.707467015597641],[33.78471524772519,0.708102420583161],[33.78507933532191,0.711530531243388],[33.78715926371522,0.715037851919758],[33.789009756537716,0.716424245151478],[33.78938766569994,0.722208985148029],[33.78613120414052,0.725269899576348],[33.789179689022575,0.728777860605611],[33.790512252753395,0.731641712885337],[33.79039939449268,0.742445512412592],[33.79468469980543,0.75134739325629],[33.79901664717781,0.763703323983062],[33.8012429304957,0.765358184403404],[33.80398813959539,0.761250146893415],[33.804202880612785,0.761105448796537],[33.809244279928,0.7562710277523291],[33.80929820580071,0.756156101284427],[33.80937871829957,0.7561421088446925],[33.81493678388871,0.750812233631648],[33.81315111733806,0.748331348900721],[33.81400145819056,0.746892615673024],[33.81818407899344,0.745642908216552],[33.81872982548715,0.744086745366194],[33.817621260774686,0.740540872140525],[33.8198629303358,0.741387457651584],[33.82279401800785,0.738637140138371],[33.82420306772313,0.73876529377675],[33.82624759385085,0.736550078872618],[33.827791889484466,0.73595289079915],[33.82953960575289,0.736808941110862],[33.83369207694584,0.7328269526061876],[33.8344932978639,0.730666928362046],[33.83553819040641,0.729853848773159],[33.83654590231026,0.730090293092503],[33.8381,0.7286],[33.83838269464374,0.7270519102842438],[33.837816492961174,0.726243882084597],[33.83763646233138,0.723656864505757],[33.8392517533393,0.722244670027869],[33.83926087501601,0.7222428272932595],[33.8423,0.7056],[33.8423978616092,0.7055591283867473],[33.84239901786576,0.70527340784363],[33.843716401899165,0.702957546739418],[33.84823126433754,0.700414288507971],[33.8528248078178,0.700648733916188],[33.852956661238906,0.6968703949254951],[33.81677391854823,0.6875750406461489],[33.81106490852115,0.6862757611316688],[33.792258372156084,0.6842173342658404],[33.79209159343797,0.6842064865447742],[33.78511806256849,0.6895872974008556],[33.78444058458428,0.691767990784196],[33.780973436649134,0.6927853112275182],[33.77915146825868,0.6941911510349692],[33.775898786269515,0.696745035333162],[33.772142750730936,0.701952619351864],[33.774104184760056,0.702983262000695],[33.77901712428015,0.70362799724585]]]}},{"type":"Feature","properties":{"n":"Bugobi Town Council","c":"224202","d":"Namutumba","od":"Namutumba","dc":"224","k":"BUGOBITOWNCOUNCIL","a":["BUGOBI","BUGOBITOWNCOUNCIL"],"lat":0.723386,"lon":33.772662},"geometry":{"type":"Polygon","coordinates":[[[33.7549469748079,0.730589482418596],[33.764029016906505,0.735597213517195],[33.76703617115304,0.733746621871718],[33.76840007640758,0.733705345531318],[33.77011163291215,0.729295379220551],[33.76883746436092,0.727256797907149],[33.77035967993778,0.7253267142491],[33.7714010393773,0.726418564489466],[33.77326226329242,0.726658674300307],[33.77380006537971,0.727610759756419],[33.77331548971797,0.729683429307388],[33.774881454981745,0.730781766453344],[33.77668356565327,0.733747409794137],[33.777871560606364,0.743839512241714],[33.79106757484453,0.744207345695755],[33.79080068850184,0.7432791219671271],[33.79039939449268,0.742445512412592],[33.79040506023323,0.741903137183004],[33.790261049723355,0.741402272391318],[33.7905119992579,0.7316659797355655],[33.790512252753395,0.731641712885337],[33.78917983910238,0.7287781831465721],[33.78906668533685,0.7286478246890716],[33.78613120414052,0.725269899576348],[33.78905670536192,0.7225200716618299],[33.78938764047648,0.7222085990468362],[33.789009756537716,0.716424245151478],[33.78719291548832,0.7150630639010707],[33.787159356240444,0.715037967845998],[33.787159306517566,0.7150378839873682],[33.78715926371522,0.715037851919758],[33.78507933532191,0.711530531243388],[33.78507926284933,0.7115298488690384],[33.78507889348608,0.711529225930559],[33.78496033754915,0.7104100933679784],[33.78471528144673,0.708102738092383],[33.78385053291978,0.7077952955687842],[33.78292625603552,0.707467015597641],[33.782925734812956,0.707466503723614],[33.78292569904096,0.70746649100566],[33.77858784003052,0.7035716613832171],[33.774104184760056,0.702983262000695],[33.77295059986188,0.7023771066177176],[33.772142745295426,0.701952629556091],[33.77021063482413,0.7041842244277804],[33.76366026101682,0.7128010852100127],[33.7643283541735,0.718088527509334],[33.76349150640587,0.719307179775233],[33.758411717648244,0.720206094267443],[33.756854720046334,0.72425218345617],[33.750873687656906,0.727162620285846],[33.74637015842292,0.728350226628568],[33.75077670981829,0.730020881417893],[33.7549469748079,0.730589482418596]]]}},{"type":"Feature","properties":{"n":"Bulange","c":"224203","d":"Namutumba","od":"Namutumba","dc":"224","k":"BULANGE","a":["BULANGE"],"lat":0.759383,"lon":33.748935},"geometry":{"type":"Polygon","coordinates":[[[33.67783444663041,0.729301746694067],[33.68167126746052,0.734737915929426],[33.68802748060172,0.740978975780315],[33.69007047024649,0.74506781863116],[33.694119970475136,0.750386721959239],[33.69995157637902,0.755062868604012],[33.70095863164972,0.765502087122976],[33.69947194931393,0.769537643186335],[33.712521779419085,0.774610622427683],[33.71716896375407,0.77496281409594],[33.72573254939197,0.781384268249304],[33.734417529158954,0.782758228250487],[33.74537150962693,0.793050867218028],[33.75149935169595,0.794632999763867],[33.75991337949821,0.798159687231844],[33.77029421483344,0.807285535837605],[33.7790228426425,0.816641136224558],[33.78752299590589,0.8222784915690301],[33.7983,0.7752],[33.800475173590506,0.7698956293143785],[33.80158981338158,0.767158373214081],[33.80124292905817,0.76535819707354],[33.80119854233295,0.7653251894053855],[33.79901664717781,0.763703323983062],[33.799016326902716,0.7637024104685297],[33.799016312219884,0.763702399549815],[33.7946846912284,0.7513473754391905],[33.79468453960066,0.7513470604623137],[33.79106757955023,0.744207356620227],[33.79097235936313,0.7442046916034837],[33.777871560606364,0.743839512241714],[33.77670462781878,0.7339263344028009],[33.77650490540059,0.7334533975578252],[33.77558646554049,0.731941967045783],[33.7733180052673,0.7296851936640639],[33.77331548971797,0.729683429307388],[33.773315629743344,0.7296828303785821],[33.773315613678584,0.729682814396586],[33.77333957774033,0.7295803979039875],[33.77380006537971,0.727610759756419],[33.77330739363837,0.7267385697618925],[33.7732622248624,0.726658669342588],[33.771531619586426,0.7264354101731357],[33.771401506386376,0.726418712580393],[33.771401376107704,0.7264186079298458],[33.7714010393773,0.726418564489466],[33.7714001134138,0.7264175936301843],[33.770236507675314,0.7254828897439042],[33.76883746517289,0.7272567968776171],[33.76883746448898,0.727256798112043],[33.77011163291215,0.729295379220551],[33.770111590399154,0.7292954887587882],[33.77011160042646,0.729295504791801],[33.769929146949025,0.7297655693354621],[33.76840007640758,0.733705345531318],[33.76703617115304,0.733746621871718],[33.764029016906505,0.735597213517195],[33.7549469748079,0.730589482418596],[33.752175002571484,0.7302115337291306],[33.75077718896977,0.730020960446991],[33.75077713251729,0.7300209390514192],[33.75077670981829,0.730020881417893],[33.74997723931596,0.7297177783552476],[33.746384538062124,0.728356139312142],[33.746385252695234,0.7283559493164636],[33.74637015842292,0.728350226628568],[33.75087365813998,0.7271626280696286],[33.75685479141319,0.7242519979988025],[33.75840194955007,0.7202314781192746],[33.75841170449635,0.72020609498797],[33.75578105146106,0.720392764887291],[33.746595145192835,0.714743869392569],[33.74446690369388,0.7112311570830447],[33.7243,0.7008],[33.71220751569912,0.7052995290421888],[33.7112171695607,0.705747850525766],[33.700888504513735,0.7095112541344238],[33.6942,0.712],[33.693899189254616,0.7122378137306477],[33.690563395487615,0.715819464957282],[33.6847038481183,0.7195074289745345],[33.68137933690228,0.7221357074751616],[33.680438258299226,0.723393011130678],[33.678778705214214,0.724191704254735],[33.6751,0.7271],[33.6750833651445,0.7271021862952938],[33.675458086177414,0.728107632445538],[33.67783444663041,0.729301746694067]]]}},{"type":"Feature","properties":{"n":"Kizuba","c":"224204","d":"Namutumba","od":"Namutumba","dc":"224","k":"KIZUBA","a":["KIZUBA"],"lat":0.824102,"lon":33.761351},"geometry":{"type":"Polygon","coordinates":[[[33.704670784192,0.84631354129054],[33.70429519264404,0.848559265524256],[33.70753656391032,0.848557067313326],[33.710589430317256,0.859113095313124],[33.71384765703771,0.866188685405649],[33.71429942493204,0.87015383882313],[33.717648954905975,0.875363661867922],[33.72173074975927,0.871238345765496],[33.72204511328504,0.868254846419608],[33.72847516548884,0.869245691079711],[33.73320416077426,0.871233564333203],[33.73342472018875,0.866515920746929],[33.735130898825865,0.864715915464473],[33.73651310648058,0.85939541492669],[33.751222925177466,0.863549597078098],[33.767783431427745,0.859203867294045],[33.781041430219254,0.866945046140916],[33.78526272481734,0.868436792919487],[33.78933104299401,0.8685204363436313],[33.78733353902579,0.8327611986380381],[33.78688883381023,0.8269131261937],[33.78697711661981,0.8263805387036396],[33.7869,0.825],[33.78752299329266,0.8222785029846925],[33.78438767093206,0.8201991242387977],[33.7790228426425,0.816641136224558],[33.77049519124796,0.8075009482784332],[33.770294200927076,0.8072855236124407],[33.75991337949821,0.798159687231844],[33.75149935169595,0.794632999763867],[33.74963206411601,0.7941508893538085],[33.745371903636524,0.793051074729867],[33.74537174839459,0.7930509288648654],[33.74537150962693,0.793050867218028],[33.73946476622713,0.7875007407169123],[33.734417351241994,0.7827582001041021],[33.72573254939197,0.781384268249304],[33.72573239019388,0.7813841488736993],[33.725732371993914,0.781384145994807],[33.7171687665098,0.7749627991475795],[33.7128384524448,0.7746346218202568],[33.71252178002353,0.774610633774799],[33.71031360552698,0.776660736288162],[33.71056177398354,0.786600555835757],[33.711755965932454,0.78846905181161],[33.71852338526168,0.792587600949006],[33.71915620811557,0.791597203195937],[33.725980637247346,0.794486955958998],[33.73354912901655,0.802276052965622],[33.730376328665905,0.803686136732442],[33.72998411502442,0.8049650961271],[33.73320213745906,0.810599419763311],[33.73231011089281,0.812425480276471],[33.72863316128041,0.813950177533969],[33.73173671982822,0.816869018125043],[33.73530485925026,0.823203142435164],[33.73675539930571,0.827668388161419],[33.736871758047506,0.831650405301608],[33.73156528074941,0.831377133818142],[33.72543132408746,0.829159716326193],[33.71533975816628,0.8298913436352],[33.71276642463017,0.828239037167755],[33.701787902081534,0.835776804979763],[33.700469656135475,0.839049421206275],[33.696251148578206,0.839042414286844],[33.70158696883498,0.842815779558353],[33.704670784192,0.84631354129054]]]}},{"type":"Feature","properties":{"n":"Namutumba","c":"224205","d":"Namutumba","od":"Namutumba","dc":"224","k":"NAMUTUMBA","a":["NAMUTUMBA"],"lat":0.782185,"lon":33.690952},"geometry":{"type":"Polygon","coordinates":[[[33.64355270944994,0.7590257290752477],[33.6436,0.7594],[33.64350919614885,0.7598934991910341],[33.643093651977,0.768180547175886],[33.64624184667168,0.772571535820603],[33.646775360134626,0.774892085560501],[33.659747544748015,0.773475108103956],[33.66078294738534,0.775039131755097],[33.66673486579353,0.772265925580469],[33.670343384363804,0.771678794412393],[33.67191343802823,0.776454274826335],[33.67106617815002,0.792502813277561],[33.67715473590711,0.796823861064812],[33.685188581771385,0.799127182647412],[33.68575299840523,0.801196709299712],[33.6877801784375,0.801401367857585],[33.68864999709223,0.800578054833409],[33.69138279597528,0.801396582863312],[33.69137323878593,0.800630718383656],[33.69284406852672,0.799669350996952],[33.69682490261625,0.800103073824091],[33.69708967453967,0.804379270157392],[33.6983725587005,0.806327823755903],[33.69895379230339,0.80980722103771],[33.70170981260827,0.813567345661327],[33.70770050462523,0.817854647355704],[33.71313037088939,0.8284727226770254],[33.714497224788744,0.8293503631018925],[33.71743970578048,0.8297390997679912],[33.725430633443445,0.8291597663971162],[33.725431178240406,0.829159708196816],[33.725431221335725,0.8291597237755793],[33.72543132408746,0.829159716326193],[33.73156528074941,0.831377133818142],[33.736871758047506,0.831650405301608],[33.73675540297894,0.8276685138664112],[33.73530479260103,0.8232030241201315],[33.73173671982822,0.816869018125043],[33.72863316128041,0.813950177533969],[33.73230994008373,0.8124255511047842],[33.7329932287422,0.8110270751416785],[33.73320196097384,0.8105997810448148],[33.73226279821549,0.8089547633291265],[33.72998411502442,0.8049650961271],[33.730376328665905,0.803686136732442],[33.73354912901655,0.802276052965622],[33.72661918064317,0.7951441115197977],[33.725980479210946,0.7944868890396822],[33.71915620811557,0.791597203195937],[33.71852338526168,0.792587600949006],[33.711755965932454,0.78846905181161],[33.71056177398354,0.786600555835757],[33.71056175089549,0.7865996310964606],[33.710561721414734,0.786599584955678],[33.71002384570846,0.777770362931449],[33.71032321003827,0.7770454230060618],[33.71031360552698,0.776660736288162],[33.71058681057089,0.7764070886040441],[33.71077735288542,0.775945671803401],[33.71252176656265,0.774610628844812],[33.712145778981416,0.7744644563550463],[33.69947194931393,0.769537643186335],[33.70095859363684,0.7655021903078364],[33.70091489129983,0.7650486710256781],[33.69995157637902,0.755062868604012],[33.694119970475136,0.750386721959239],[33.69007047024649,0.74506781863116],[33.690070343582185,0.7450675651250179],[33.69007012472433,0.745067277662188],[33.68912292767004,0.743171405352954],[33.68802752937465,0.7409790733945362],[33.68615397955782,0.7391394162995474],[33.68167126746052,0.734737915929426],[33.68020172405212,0.7326558049785872],[33.677834335165045,0.7293016906830417],[33.675458086177414,0.728107632445538],[33.67545721564377,0.72810529664203],[33.67490120846356,0.7271261268876466],[33.668947037214814,0.7279086751089098],[33.666315107562944,0.729122722972347],[33.66101267026743,0.730146375690782],[33.65610608451493,0.729810957816976],[33.651846013918885,0.731666323610509],[33.64774927425848,0.731830061154868],[33.64715438691791,0.733553229435003],[33.64018416401967,0.7316889384431284],[33.64013797687836,0.73169500875313],[33.640117195322674,0.7318360886966379],[33.643344418563245,0.7573772554862771],[33.64360765274625,0.757930014675224],[33.64355270944994,0.7590257290752477]]]}},{"type":"Feature","properties":{"n":"Namutumba Town Council","c":"224206","d":"Namutumba","od":"Namutumba","dc":"224","k":"NAMUTUMBATOWNCOUNCIL","a":["NAMUTUMBA","NAMUTUMBATOWNCOUNCIL","TOWNCOUNCIL"],"lat":0.828543,"lon":33.690783},"geometry":{"type":"Polygon","coordinates":[[[33.67204486052058,0.856750676757857],[33.68278174620222,0.848462951003146],[33.68212791399916,0.857675145123525],[33.680263692674956,0.862822184494383],[33.68502542941964,0.861289605154141],[33.68526046216349,0.861867222921798],[33.68880322294534,0.862142283437938],[33.69185488740765,0.861676347671478],[33.69247179051213,0.858833180349458],[33.69565182519944,0.85885019090238],[33.69679763272061,0.857449625956706],[33.698810978051085,0.858130980743972],[33.70342895467461,0.864242038028887],[33.70725147055067,0.861260393048357],[33.71281412596336,0.86411701546123],[33.712591804982715,0.863461467467678],[33.710589430317256,0.859113095313124],[33.70753656391032,0.848557067313326],[33.70429519264404,0.848559265524256],[33.704670784192,0.84631354129054],[33.70158696883498,0.842815779558353],[33.696251148578206,0.839042414286844],[33.69625610117396,0.8390424225130801],[33.6962527988281,0.839040085069989],[33.699352750891016,0.8390475660323886],[33.700469656135475,0.839049421206275],[33.701787902081534,0.835776804979763],[33.71188050722335,0.8288473011380348],[33.712766419170364,0.828239026453073],[33.707700731705806,0.8178550914106],[33.70770050462523,0.817854647355704],[33.70170981260827,0.813567345661327],[33.69895379230339,0.80980722103771],[33.69895377721277,0.8098071307018093],[33.69895362026786,0.809806916590676],[33.698592616731126,0.8076451414570629],[33.6983725978678,0.806328058220358],[33.698087482381254,0.8058948255907779],[33.69708967453967,0.804379270157392],[33.69682490261625,0.800103073824091],[33.69284406852672,0.799669350996952],[33.69137328888575,0.8006306856372887],[33.691373405683485,0.8006440927035904],[33.69138279597528,0.801396582863312],[33.691379953701734,0.8013957315454278],[33.691379960289524,0.80139648774924],[33.68946183336201,0.8008212160651519],[33.68865080519033,0.800578296874985],[33.68817706938193,0.8010256970416603],[33.6877801784375,0.801401367857585],[33.6877793714484,0.8014012863861703],[33.68777909376626,0.80140154863157],[33.68609352369196,0.8012310878023573],[33.68575299840523,0.801196709299712],[33.685188581771385,0.799127182647412],[33.67715473590711,0.796823861064812],[33.67355088467019,0.7942662088203644],[33.671066175513715,0.792502824557921],[33.66726001760331,0.799477467656163],[33.6785778728705,0.805770080172924],[33.68264176152323,0.815462959324737],[33.67858414511881,0.820582310172396],[33.67253757291666,0.8245911836518],[33.6688175743557,0.829051927092296],[33.66672495363927,0.833702200580317],[33.662431689051346,0.848240700994832],[33.65904485900893,0.85363355347321],[33.66976210306382,0.856798952545899],[33.67204486052058,0.856750676757857]]]}},{"type":"Feature","properties":{"n":"Nawaikona","c":"224207","d":"Namutumba","od":"Namutumba","dc":"224","k":"NAWAIKONA","a":["NAWAIKONA"],"lat":0.821231,"lon":33.662447},"geometry":{"type":"Polygon","coordinates":[[[33.62711574531601,0.8579928774583377],[33.640961653475614,0.860082653791184],[33.64794451367581,0.8719772187157779],[33.648021560905015,0.872108428840878],[33.64802157248317,0.8721084802563026],[33.64802175799081,0.872108796248979],[33.64858618286889,0.874442933822254],[33.64856569519764,0.8745247805830125],[33.64869188943855,0.875085174732063],[33.65201447980911,0.872569603579947],[33.65616941194144,0.856547318082571],[33.65905846427251,0.8536375718652998],[33.65904485900893,0.85363355347321],[33.66243161448035,0.848240819734301],[33.666038673398056,0.836026186294923],[33.66672495363927,0.833702200580317],[33.666724975505126,0.8337021519894636],[33.666724989186875,0.833702105658771],[33.66691982198417,0.8332691593269],[33.6688175743557,0.829051927092296],[33.668817725998586,0.8290517452535134],[33.66881772728668,0.829051742391185],[33.668843975639035,0.8290202686522398],[33.67253757291666,0.8245911836518],[33.672537918818016,0.8245909543194241],[33.67253804932909,0.824590797826876],[33.67490725469537,0.8230200861572718],[33.67858414511881,0.820582310172396],[33.678636204201304,0.820516629072578],[33.6826415768108,0.8154625187626536],[33.67875735971509,0.8061981785886729],[33.6785777920369,0.8057700352302637],[33.66726001760331,0.799477467656163],[33.66726931478744,0.7994604309113355],[33.67110021282161,0.7918581388988544],[33.671913352913414,0.7764558870451934],[33.67191342463597,0.7764542340923916],[33.670343384363804,0.771678794412393],[33.66684034186911,0.7722487638864786],[33.66673480951776,0.7722659518013082],[33.66078294738534,0.775039131755097],[33.659747544748015,0.773475108103956],[33.65886783670775,0.7735712003581563],[33.64677926946963,0.774891877705363],[33.64677921995123,0.7748916639450777],[33.646775360134626,0.774892085560501],[33.646254158929494,0.7726250887459888],[33.64624170856053,0.7725713431881444],[33.64360039309133,0.7688873314426338],[33.64309364384641,0.768180556153394],[33.64131083001711,0.772044585423934],[33.630493750421856,0.786484093747855],[33.63702591100755,0.791469487008691],[33.63976520183508,0.794682226645576],[33.640197990144806,0.797190999414786],[33.63679862137927,0.801025857590569],[33.63550160987576,0.801189338824664],[33.62450746336961,0.808449587088231],[33.63130400732126,0.812387310643199],[33.647024987018426,0.81203229806896],[33.65082500963481,0.814941795162842],[33.649797715003146,0.815618301028772],[33.646997976269226,0.821879336061494],[33.64642191282191,0.825237600024589],[33.64621797522636,0.8376345674087],[33.647536495618866,0.843022916313],[33.63826917215111,0.843991559795633],[33.627845506267555,0.8469666213508948],[33.62726080824734,0.849223442335025],[33.62726074151816,0.8492235361409015],[33.62726074109801,0.849223538075238],[33.62316732990988,0.8549780458102723],[33.62227678005172,0.858196581490618],[33.62702879763771,0.857979754361015],[33.62702904703664,0.8579797920030371],[33.62702907495911,0.857979790713969],[33.62711574531601,0.8579928774583377]]]}},{"type":"Feature","properties":{"n":"Nsinze","c":"224208","d":"Namutumba","od":"Namutumba","dc":"224","k":"NSINZE","a":["NSINZE"],"lat":0.816392,"lon":33.576983},"geometry":{"type":"Polygon","coordinates":[[[33.56658940249624,0.8210336290167509],[33.57459976490457,0.82496863391609],[33.57874931904145,0.828767212959796],[33.582873063374684,0.8306081549017098],[33.583828531295666,0.830768992748561],[33.58907127986678,0.831181687297643],[33.58988486975842,0.831788481123587],[33.59074487092444,0.8319332486587333],[33.59088177203404,0.8319050298801817],[33.5929823931294,0.831045382183158],[33.590496935001255,0.820304860807065],[33.594592487846775,0.821477724890347],[33.598265005813,0.821393885202371],[33.60225686935551,0.817165604150664],[33.59293135741317,0.81290252732988],[33.5935724219603,0.810525982282116],[33.593074382101896,0.804871606373743],[33.594419299820046,0.803161854219325],[33.59751678424109,0.80160593386312],[33.60243628737879,0.801919619872142],[33.608854505647614,0.805300275345346],[33.611368524783536,0.807995534252256],[33.6188664870281,0.810692047923682],[33.6215447458852,0.818864257165977],[33.62395963746764,0.822175769763721],[33.62448653378652,0.825406411075296],[33.62484621867886,0.824922427227723],[33.62553343245428,0.825529041436247],[33.62816343382146,0.828870588779571],[33.622341963111765,0.834578122485838],[33.622914148290704,0.8350751388195428],[33.62404975308608,0.836061529898864],[33.62742192213163,0.841660847764839],[33.62742193833446,0.8416609202218298],[33.62742195867047,0.841660953988782],[33.62825491056408,0.845385256184125],[33.62825483054699,0.8453855087079266],[33.62825497461074,0.845386152942751],[33.6278455095802,0.8469666085647263],[33.63152229520652,0.8459172138256227],[33.63826917215111,0.843991559795633],[33.647536495618866,0.843022916313],[33.64621797522636,0.8376345674087],[33.64642191282191,0.825237600024589],[33.646997976269226,0.821879336061494],[33.649797715003146,0.815618301028772],[33.65082500963481,0.814941795162842],[33.64702519916254,0.8120324604976495],[33.631304272150366,0.812387339081631],[33.63130421506479,0.8123873059519161],[33.63130400732126,0.812387310643199],[33.62450746336961,0.808449587088231],[33.63550160987576,0.801189338824664],[33.63679862137927,0.801025857590569],[33.63990950996234,0.7975164364775427],[33.64019795373809,0.7971907883735253],[33.63976520183508,0.794682226645576],[33.637045966726525,0.7914930090833273],[33.63702590873966,0.7914694852778204],[33.633642848470146,0.7888875086642092],[33.63049374136191,0.786484101570128],[33.62121466097263,0.789280877771742],[33.60978903576113,0.7899530804193311],[33.605719599938574,0.7906580220578849],[33.59578742024124,0.799796734206339],[33.5917425685582,0.801100413728379],[33.59103109447987,0.8011026155292412],[33.5909,0.8012],[33.56412627059313,0.8012],[33.560862161665774,0.808025611000578],[33.5488383904151,0.821507326203512],[33.551341528366166,0.8213918206310992],[33.56594652477792,0.820717822210228],[33.565946638189914,0.8207178779226575],[33.565946666678464,0.820717876608073],[33.56658940249624,0.8210336290167509]]]}},{"type":"Feature","properties":{"n":"Nsinze Town Council","c":"224209","d":"Namutumba","od":"Namutumba","dc":"224","k":"NSINZETOWNCOUNCIL","a":["NSINZE","NSINZETOWNCOUNCIL"],"lat":0.818043,"lon":33.61145},"geometry":{"type":"Polygon","coordinates":[[[33.60432001794062,0.8291350677779074],[33.604321349658065,0.829134793277286],[33.604321435266755,0.8291348289681589],[33.604321508974365,0.829134816548931],[33.61505852935243,0.8336111700830053],[33.62097547333326,0.8343967116743709],[33.62234195306928,0.834578115974259],[33.62235870322577,0.8345617100069784],[33.62816343382146,0.828870588779571],[33.62553343245428,0.825529041436247],[33.62484621867886,0.824922427227723],[33.62448780926705,0.8254046948175765],[33.62448655687354,0.825406400219941],[33.62448655417081,0.8254063836466603],[33.62448653378652,0.825406411075296],[33.623959667176706,0.822175951923538],[33.62330383781399,0.8212764793647438],[33.6215447458852,0.818864257165977],[33.620957819115446,0.8170733591877449],[33.6188658914326,0.8106918337279626],[33.611368524783536,0.807995534252256],[33.60885462338593,0.8053004015716116],[33.6024362815274,0.8019196194990358],[33.597516873582364,0.8016059395598558],[33.594419283029744,0.8031618755643166],[33.59430124593313,0.8033119324618602],[33.59307440938633,0.8048719161409964],[33.59354980012734,0.8102691507351375],[33.59357241004443,0.810525440132586],[33.59357238300369,0.8105255399975592],[33.5935724219603,0.810525982282116],[33.59293135741317,0.81290252732988],[33.59293317630155,0.8129033588189098],[33.60191650212137,0.816682757052319],[33.60185266243383,0.8169808244657226],[33.60225686935551,0.817165604150664],[33.60168286628107,0.8177736024696057],[33.601567546276705,0.818312031411466],[33.598299957074076,0.8213568639581887],[33.598265005813,0.821393885202371],[33.598260107388825,0.8213939970281967],[33.598260064342085,0.821394037140376],[33.59500400974931,0.8214683302820098],[33.594592487846775,0.821477724890347],[33.590496935001255,0.820304860807065],[33.59297376676259,0.8310081046784337],[33.59298240416451,0.831045378066869],[33.60432001794062,0.8291350677779074]]]}},{"type":"Feature","properties":{"n":"Kagulu","c":"224301","d":"Namutumba","od":"Namutumba","dc":"224","k":"KAGULU","a":["KAGULU"],"lat":0.899212,"lon":33.769245},"geometry":{"type":"Polygon","coordinates":[[[33.73842495037836,0.892882699222707],[33.74553530992213,0.897057604061599],[33.749353310518885,0.901366455145443],[33.75159835290974,0.908218954584529],[33.751212967161074,0.914709085284909],[33.75185792579581,0.916136587928956],[33.754411908215374,0.91891421162689],[33.76106779869959,0.93116513377906],[33.76597768896569,0.937583344912064],[33.77548287413513,0.9313808540505355],[33.7919990671209,0.9163008517591805],[33.791998957066866,0.9162813294518816],[33.78933104333465,0.8685204424418556],[33.78851347939848,0.868503627476769],[33.78526272481734,0.868436792919487],[33.78124838822694,0.867018182221352],[33.78104151350662,0.866945076900344],[33.78104150775067,0.8669450735394412],[33.781041430219254,0.866945046140916],[33.76778361815225,0.8592039763201367],[33.7512238802888,0.863549466162182],[33.75122366053744,0.8635494041084085],[33.751222925177466,0.863549597078098],[33.73651310648058,0.85939541492669],[33.7351318473292,0.8647122644121297],[33.73513092898918,0.864715808408798],[33.73513092575064,0.864715811823559],[33.735130898825865,0.864715915464473],[33.73342482621184,0.8665158088933883],[33.73320417217048,0.871233570311024],[33.74353530746263,0.885222970274601],[33.73842495037836,0.892882699222707]]]}},{"type":"Feature","properties":{"n":"Kiwanyi","c":"224302","d":"Namutumba","od":"Namutumba","dc":"224","k":"KIWANYI","a":["KIWANYI"],"lat":0.920986,"lon":33.649559},"geometry":{"type":"Polygon","coordinates":[[[33.636655161324825,0.922772958201948],[33.63694165834842,0.9231030906548189],[33.63718868524432,0.923179816036864],[33.639771405547684,0.9263637698377558],[33.639771846553835,0.9263638978947534],[33.64380983049648,0.927182453231205],[33.64456858962609,0.9277567503977929],[33.64472827490027,0.927803118950473],[33.64507898120103,0.9281430606560841],[33.64582733435865,0.928709481646959],[33.645982168514976,0.929018525497523],[33.64635543198778,0.929380332004307],[33.648274270479924,0.9335933240692501],[33.65554898048212,0.942373597534305],[33.6561921457081,0.9427563094627497],[33.65852778271945,0.9441460364125385],[33.662783012309944,0.944054930380153],[33.66278426276117,0.9440568170603629],[33.66883699578973,0.9509650050462929],[33.671340860044765,0.9534116424427601],[33.676656093061965,0.9566903262282324],[33.676656516116644,0.956690565753646],[33.6766566085177,0.956690644185389],[33.676656646533935,0.956690667635574],[33.68269790104315,0.96181858379412],[33.682697952550946,0.9618186496181262],[33.682698133509895,0.961818803219456],[33.700641553080985,0.9847495406794918],[33.70150395663397,0.9858516428964567],[33.706524003055875,0.9902921999874817],[33.7092954154255,0.992743679756043],[33.71498627073711,0.982592069123718],[33.7172777525604,0.9798432775007169],[33.7185,0.9777],[33.71978549133033,0.9768350706481108],[33.721186483211746,0.975154483567567],[33.71212536956545,0.956524925604086],[33.707327543774156,0.952060824204485],[33.698558311944964,0.94733801421029],[33.694070805248224,0.943964607685388],[33.687466532515614,0.935554609136796],[33.68546858338759,0.935095378090531],[33.6794729809887,0.93146167052815],[33.67756214420701,0.929387817294441],[33.67731835521541,0.930250744303509],[33.67232953794168,0.929813094076223],[33.66341173972728,0.928017083200667],[33.66647174098674,0.923772958252282],[33.667737301472464,0.912484820274116],[33.673215776353935,0.913115666175647],[33.680685461437776,0.912237437371834],[33.68172814958947,0.909732870683285],[33.68444831086821,0.909532677717248],[33.68864249650982,0.907459829505051],[33.69256810022076,0.911203462832686],[33.69535352362522,0.912241301965804],[33.69658082188359,0.911557014656774],[33.69662782208885,0.904193895512275],[33.700982570460646,0.899120847728051],[33.70224457638793,0.895179529793335],[33.70483810572828,0.894869732121517],[33.706064562931104,0.892283014185531],[33.706847816290306,0.882160482740539],[33.70785828485185,0.878660191068667],[33.70455372338998,0.878500625044309],[33.70612563858259,0.871833153966887],[33.70602157040131,0.866952779598199],[33.70365916055592,0.8640624724671538],[33.70342895467461,0.864242038028887],[33.698810978051085,0.858130980743972],[33.69683268331088,0.8574614877506633],[33.69679762791183,0.8574496318346664],[33.69565182519944,0.85885019090238],[33.69565156829172,0.8588501895281364],[33.69565154760712,0.858850214858856],[33.69565068639328,0.8588501848107098],[33.692559792667765,0.8588336510881364],[33.69187319359177,0.8615919785961678],[33.69185488740765,0.861676347671478],[33.69185208609257,0.8616767753832747],[33.691852046855786,0.861676933012233],[33.690663202782716,0.8618582970620331],[33.68880322294534,0.862142283437938],[33.688802192331835,0.8621422034209401],[33.68880219057807,0.862142203688485],[33.68879364844038,0.862141540071835],[33.68526046216349,0.861867222921798],[33.685260392001055,0.8618670504902147],[33.685259791465604,0.861867003836164],[33.68523043611923,0.8617934307497922],[33.68502542941964,0.861289605154141],[33.680263692674956,0.862822184494383],[33.682099821022504,0.8577527086912362],[33.68212792904732,0.8576749331019242],[33.682781643559636,0.8484643971897967],[33.67317208533219,0.8558805799365277],[33.67204486052058,0.856750676757857],[33.67204464689558,0.8567506812756015],[33.67204462256096,0.856750700055861],[33.67041848674754,0.8567850713341671],[33.66976210306382,0.856798952545899],[33.669762079768304,0.8567989456654372],[33.66976207870926,0.856798945687822],[33.65905845476187,0.8536375814440696],[33.65616941194144,0.856547318082571],[33.65201447980911,0.872569603579947],[33.6520142556954,0.8725697732589998],[33.65201425552102,0.872569773931429],[33.648256718212615,0.875935655920591],[33.64633632081949,0.88437725833907],[33.64604430690377,0.8845975439499988],[33.646027132650374,0.884666153846708],[33.6459961503882,0.8846338716278241],[33.6459961410845,0.8846338786462273],[33.646027123594145,0.88466616099272],[33.64469370956333,0.885616537081318],[33.64238870097236,0.889633468796797],[33.63233144735106,0.8948644723133644],[33.62531386700873,0.9013247088707695],[33.62323694980858,0.90452787970957],[33.622953491477865,0.904708229336844],[33.622782674409024,0.904953093416261],[33.63182329359701,0.920449242221413],[33.63284255700078,0.921521937331337],[33.636655161324825,0.922772958201948]]]}},{"type":"Feature","properties":{"n":"Magada","c":"224303","d":"Namutumba","od":"Namutumba","dc":"224","k":"MAGADA","a":["MAGADA"],"lat":0.887719,"lon":33.72427},"geometry":{"type":"Polygon","coordinates":[[[33.719948816619045,0.910315275429923],[33.72504281468138,0.907391083428921],[33.734417008610244,0.905216236762778],[33.750540582520216,0.905727306581694],[33.7493539416882,0.9013683816513236],[33.749353310518885,0.901366455145443],[33.745535507490075,0.897057827029309],[33.745154490743225,0.8968340030154095],[33.73842495037836,0.892882699222707],[33.74353511592005,0.885223257370838],[33.73320416229507,0.871233577091957],[33.72847508900243,0.8692456792934694],[33.72204511328504,0.868254846419608],[33.72173074975927,0.871238345765496],[33.721730652584775,0.8712384439760925],[33.721730648073894,0.871238487496724],[33.72125566853728,0.8717184924375988],[33.717648954905975,0.875363661867922],[33.71429942493204,0.87015383882313],[33.71384769796534,0.8661890446262279],[33.71281412788092,0.864117029415179],[33.712653127461635,0.8640343369750839],[33.70725147055067,0.861260393048357],[33.70365916055592,0.8640624724671538],[33.70602157040131,0.866952779598199],[33.70602177623987,0.866962432589302],[33.70627977405172,0.869029503169605],[33.706088272347905,0.8700808295602369],[33.70612563858259,0.871833153966887],[33.704557516078395,0.8784845378912246],[33.70455457824475,0.8785006663223364],[33.70785828485185,0.878660191068667],[33.706847816290306,0.882160482740539],[33.706847767490075,0.8821611134201297],[33.70659122098792,0.890214814520206],[33.70611352456734,0.8916502486868487],[33.706064562931104,0.892283014185531],[33.705522439481506,0.8934264054488958],[33.7051392809363,0.89457776192413],[33.70495897859229,0.8946147994548195],[33.70483810572828,0.894869732121517],[33.70224591878672,0.8951793694434931],[33.70116155468571,0.8985618695798274],[33.700982570460646,0.899120847728051],[33.69913635769196,0.9012715863691264],[33.69662782070749,0.9041941119179263],[33.69662769982979,0.9042130487912359],[33.696830760470974,0.910441659441927],[33.69658358673618,0.9111238689100649],[33.69658082188359,0.911557014656774],[33.69638762431499,0.9116647330890567],[33.69617878097734,0.912241149116492],[33.71289013566031,0.91175756957495],[33.719948816619045,0.910315275429923]]]}},{"type":"Feature","properties":{"n":"Mazuba","c":"224304","d":"Namutumba","od":"Namutumba","dc":"224","k":"MAZUBA","a":["MAZUBA"],"lat":0.940774,"lon":33.727455},"geometry":{"type":"Polygon","coordinates":[[[33.67750100348826,0.929352166699541],[33.67755568588874,0.9294106774622919],[33.67756214420701,0.929387817294441],[33.6794729809887,0.93146167052815],[33.68546822173013,0.9350951589036431],[33.685772268091576,0.9351651803904941],[33.687466532515614,0.935554609136796],[33.694070793572635,0.9439645928174834],[33.694775287294796,0.9444941900332696],[33.698558311944964,0.94733801421029],[33.70293700687516,0.9496962303665819],[33.70732726692399,0.952060645136313],[33.70732734339443,0.9520607162867831],[33.707327543774156,0.952060824204485],[33.71212536956545,0.956524925604086],[33.72068556696036,0.9741246048237133],[33.72118649143542,0.975154475140313],[33.73196668916659,0.966096416883569],[33.75089166718346,0.955869648540017],[33.76597768078991,0.937583353128381],[33.76403180024768,0.9350396781585021],[33.76106779869959,0.93116513377906],[33.757971688903446,0.9254663921640781],[33.75441185209573,0.9189141505930914],[33.75185792579581,0.916136587928956],[33.751857649233,0.916135975805759],[33.75185764922814,0.916135975800474],[33.751857644898365,0.9161359662117962],[33.751212967161074,0.914709085284909],[33.751598351481796,0.908218978631981],[33.750540586199584,0.905727318346319],[33.734416992217334,0.9052162405659917],[33.72504281468138,0.907391083428921],[33.719948816619045,0.910315275429923],[33.7199487195048,0.9103152952731927],[33.71994870039375,0.910315306243737],[33.71994852898717,0.9103153342014946],[33.71289013566031,0.91175756957495],[33.71072158333945,0.9118203213719782],[33.7084555592662,0.912189927662993],[33.70725080296267,0.9119207559815736],[33.69617878097734,0.912241149116492],[33.696194017910514,0.9121990945669554],[33.695353763073086,0.912241168460248],[33.69535352362522,0.912241301965804],[33.69256810022076,0.911203462832686],[33.69256793306715,0.9112033034274418],[33.692567927735794,0.911203301440836],[33.6925643607903,0.9111998967425927],[33.68864284044418,0.9074601574964182],[33.684535680036,0.9094894981732988],[33.68444831086821,0.909532677717248],[33.68329733720088,0.9096173847653541],[33.68172808152621,0.909733034173176],[33.680685461437776,0.912237437371834],[33.68068209811221,0.9122378328060938],[33.68068204347272,0.912237963702794],[33.67635655662825,0.9127463971003927],[33.673215776353935,0.913115666175647],[33.667737301472464,0.912484820274116],[33.6664909148577,0.9236019373462114],[33.66647184504763,0.92377222300734],[33.666471819436765,0.9237722585190263],[33.66647174098674,0.923772958252282],[33.66341173972728,0.928017083200667],[33.672300823126534,0.929807311020916],[33.672329646388505,0.9298131035898567],[33.67731835521541,0.930250744303509],[33.67733491965362,0.9301921120370292],[33.67750100348826,0.929352166699541]]]}}]}
