{"type":"FeatureCollection","name":"Napak sub-counties","metadata":{"source":"Uganda Bureau of Statistics NPHC 2024 Map Explorer","retrieved":"2026-07-26","display_only":true,"clipped_to_dashboard_district":true,"positive_area_overlaps_removed":true,"source_gap_ratio":0.0031591},"features":[{"type":"Feature","properties":{"n":"Apeitolim","c":"327101","d":"Napak","od":"Napak","dc":"327","k":"APEITOLIM","a":["APEITOLIM"],"lat":2.534333,"lon":34.140779},"geometry":{"type":"Polygon","coordinates":[[[33.94158793466371,2.388540363569031],[33.944572578075544,2.3951573488020634],[33.95264079413828,2.3976868435676795],[33.95253812405993,2.397427733762547],[33.95363160659398,2.397501363485486],[33.95391756343929,2.396733516043],[33.95653443082559,2.396731527282092],[33.956368244357094,2.398078387216694],[33.96196014521054,2.400443371653341],[33.96037643080881,2.4021171898733242],[33.96091692306411,2.403888803376802],[33.96200561648963,2.4057979192737053],[33.96358216305275,2.4057914314277666],[33.96446278324104,2.404015864049722],[33.965367450876954,2.404802192287175],[33.96857963168641,2.40460993875636],[33.96819559698932,2.402633331942696],[33.96910172202248,2.402890838658941],[33.97043377815064,2.401976251599778],[33.970765953761855,2.400347791384866],[33.972430919835276,2.400039255101726],[33.973382840786215,2.400662155365197],[33.97419416137765,2.402436562495982],[33.97390929926264,2.403755806579682],[33.97541031886061,2.4057427558894626],[33.97622992065958,2.4057393830425533],[33.97719579182701,2.404959643759933],[33.97787523273248,2.4057326122109775],[33.97977234950755,2.4057248051460594],[33.9797409613512,2.405696428468937],[33.98021608806116,2.404881898313657],[33.985529640101,2.405701112592177],[33.9858,2.4057],[33.985847494880225,2.4056906526033592],[33.98712190317335,2.402797645434786],[33.988755009466175,2.403356005482343],[33.988535608638216,2.404215615434929],[33.98957749118089,2.404703325032912],[33.99489081187084,2.400465950828608],[33.99686106577221,2.399905227556348],[33.99872070183157,2.401367752794441],[34.002766569676375,2.399492408595347],[34.00257492394698,2.400641253284715],[34.00458148818361,2.40196848493534],[34.00456234913125,2.4020074100114033],[34.0046,2.402],[34.004958089789845,2.4058968594777017],[34.0051001930242,2.406164651724994],[34.004981982725795,2.406156870839469],[34.00524417249571,2.4090101124532297],[34.00667070291536,2.408822998026853],[34.00544356798196,2.411180004509557],[34.00550415019933,2.4118392815809275],[34.00681120464258,2.413132608786166],[34.00595627943888,2.414468968067548],[34.00570064652631,2.4139776239626847],[34.006070266490916,2.4179999588716834],[34.00669337026416,2.417700501238981],[34.00631626143304,2.420514437720921],[34.006482967614815,2.420662447882312],[34.007108735399996,2.420476779230299],[34.00724474449738,2.4213387918434646],[34.00866845467461,2.4226028335896044],[34.00907571042732,2.422220066746463],[34.01010744071831,2.423043281042311],[34.00988402569477,2.4236820788878766],[34.01423799905301,2.427547756168556],[34.014374794541816,2.427562463849525],[34.01459104812339,2.427861210950671],[34.01755350340456,2.430491428256381],[34.017780727207466,2.430534975692399],[34.01780195363702,2.430712014911371],[34.020311844109415,2.4329404223401316],[34.02196288513469,2.433245818003808],[34.023458505788064,2.430775649370959],[34.02758967499411,2.428938013094485],[34.03013520910437,2.431104368371991],[34.028857264131084,2.432236472118648],[34.029733223433986,2.433034078474379],[34.028519769423426,2.433394590537524],[34.02778063804264,2.437122005789019],[34.0285659529316,2.43840530276502],[34.02776179247797,2.4397605304476198],[34.02779045476239,2.43988137683601],[34.028894557631865,2.440396653628816],[34.028123533373865,2.4412857082789765],[34.028650210597334,2.4435062933293024],[34.02983942790233,2.444130968967191],[34.02910962429622,2.444773679045214],[34.029409564920286,2.445967480400013],[34.03020241257355,2.445235452488513],[34.031075480918254,2.447277812558057],[34.03132286357535,2.446481245747951],[34.0319568803058,2.446761113812614],[34.03276610376333,2.449842438558703],[34.03167463248432,2.45015390948627],[34.03114883751193,2.453510276774172],[34.033072516950405,2.454747229133278],[34.03228220178046,2.455209995582305],[34.03452127002389,2.457859236163193],[34.03338454759436,2.462599501441071],[34.034443400552114,2.463909780531071],[34.03375735666516,2.4650391253990773],[34.033887864427584,2.4655893743433164],[34.03717985681484,2.466622183865284],[34.037331889079674,2.467340696949078],[34.03514833484178,2.466858659028915],[34.03563045521826,2.468106579560886],[34.037266561547874,2.468962708176725],[34.035142535499276,2.468812542031976],[34.03508617813291,2.470641724019812],[34.0351,2.4707],[34.03511694959416,2.470985151995941],[34.03735109958672,2.471071261345833],[34.03579845746665,2.473090641019758],[34.03667875499964,2.473117799610363],[34.036099366389045,2.474040205941217],[34.03752257493824,2.475106766998834],[34.037306121818176,2.475866637031902],[34.0357297020258,2.475750138266898],[34.035848962870745,2.476600335633838],[34.03700106959271,2.476876346797988],[34.03633192027285,2.477459298704928],[34.037058377936575,2.47794862126088],[34.03560144657756,2.4791361012459903],[34.035704982932586,2.4808779481599914],[34.036037291031455,2.480683437535247],[34.03675688664706,2.482387390802071],[34.03582774377638,2.4829432188261746],[34.03583504339044,2.483066024098059],[34.03672077812531,2.48480296221883],[34.0359952487805,2.4857612441895793],[34.03652013190837,2.494591630929018],[34.03682873195274,2.494870835857144],[34.036551165141674,2.4951137194422865],[34.03659711822903,2.4958868125590175],[34.03685479140877,2.495943690644114],[34.03662672239835,2.4963848591723354],[34.0368,2.4993],[34.035953110013736,2.50423188874353],[34.03603204073611,2.505948060216423],[34.0353988711744,2.5074595149255368],[34.0334,2.5191],[34.03333743848693,2.5191688176643723],[34.03297214090087,2.522171409573379],[34.03132942874498,2.522420446712603],[34.030913274572896,2.525117133670636],[34.02692217302624,2.529721979782911],[34.0248212952346,2.528536575241938],[34.02141304798191,2.532285647219899],[34.02131973863628,2.532713560415849],[34.02105156864672,2.532683274488608],[34.01808019141506,2.5359517894434385],[34.01802861137881,2.536213990498246],[34.01792410719833,2.536123482081839],[34.01551663976357,2.5387716962600737],[34.01570896051356,2.539466565696571],[34.014286518388005,2.540124829773194],[34.011945952850034,2.5426994518649675],[34.01201211001735,2.543856105150418],[34.01077642180205,2.545657258470367],[33.986697070094245,2.5704732228963363],[33.98640686322881,2.570792450448314],[33.98031561531827,2.587672068028067],[33.96584300304739,2.6167565829570885],[33.96933061784609,2.62134554979749],[33.98672381854943,2.644157911445407],[33.986592237946674,2.650996490875048],[33.98260995888427,2.656083875670958],[33.98261215759176,2.656140213572746],[33.9864677921936,2.668893466486523],[33.98650721086957,2.668961884126614],[34.0196419274376,2.699038782406791],[34.02316303073958,2.702967219655793],[34.04021817068023,2.7187683051890343],[34.04026520251985,2.718804062413778],[34.04163106982053,2.720077314686672],[34.0477,2.7257],[34.04776292952275,2.7257422254373433],[34.05218323458815,2.727812465747237],[34.05804652137674,2.732642471053658],[34.07050819666883,2.7410042012280065],[34.07080865023727,2.741183237205894],[34.08417830358626,2.745377265238431],[34.092833668898315,2.7508866284320783],[34.102424814707994,2.7551031693143524],[34.10307527901872,2.755364221324835],[34.10341974458619,2.755429514884879],[34.1486,2.7596],[34.17884050817824,2.7498518832460723],[34.18831723212256,2.746788271081577],[34.18765653516178,2.73983401588104],[34.189438828803624,2.725151115130884],[34.18918011416075,2.715825764081887],[34.18597580475898,2.712635789922072],[34.18352472031928,2.711896949517299],[34.18292641733694,2.709527303171393],[34.18133195839076,2.708859783379747],[34.180591922690695,2.706870293905669],[34.1772343212063,2.705651865107134],[34.17581677164348,2.703374445588043],[34.1643388079063,2.696655647431821],[34.15832484958452,2.691198253010687],[34.15592753884282,2.684959595576002],[34.15485080295853,2.67883693935379],[34.15471865825867,2.665006150735408],[34.15559535424445,2.661297496042955],[34.15993334668994,2.655223349946569],[34.18866260914694,2.635694546450702],[34.20409244469364,2.612822327060709],[34.23950594693635,2.565608787147778],[34.250736526785936,2.548573924343466],[34.26898078479422,2.525520402956316],[34.27033269075511,2.524866853909498],[34.27210426364265,2.520197209422917],[34.2748662007699,2.519410443676999],[34.26923307471687,2.512823501017531],[34.254836621917526,2.50288844526135],[34.2537820881117,2.496861255673752],[34.25602185969451,2.488418622194658],[34.25616305247596,2.47922415742958],[34.25705862127808,2.47545512983993],[34.256884581083185,2.466314835715372],[34.25477394505057,2.459632205059641],[34.255301163551565,2.454526104566933],[34.25444635868209,2.452514913179619],[34.24814095595013,2.447279983635453],[34.24421467515883,2.435739713487546],[34.23796509068219,2.429062713663063],[34.25107646688559,2.409653008219675],[34.25455675697069,2.400200685443501],[34.211875180386656,2.378785539588371],[34.18661690531348,2.37930026498382],[34.185415086308254,2.38167676699854],[34.18101357784591,2.384293990125208],[34.17720638159039,2.392205860459176],[34.17405361968812,2.402080444105426],[34.17025470048649,2.408483037190983],[34.164014542416545,2.403449940969987],[34.15901765035769,2.397263366715259],[34.132605214150075,2.382034389766094],[34.12737072458781,2.376799720421194],[34.121202879073756,2.363885880478658],[34.10623357624069,2.371769642121535],[34.09849867152977,2.366268278179705],[34.09611921720354,2.367160572578052],[34.09656114491488,2.369091281494365],[34.09314488654906,2.368201590216386],[34.09031882300021,2.371175214383528],[34.085560139178895,2.369986104016171],[34.07366284805072,2.365226738408181],[34.060725294263435,2.345895028755137],[34.060278573693466,2.342919814237756],[34.0567331826471,2.340998399559752],[34.05405629033116,2.34084968417493],[34.04409082397582,2.345459075222224],[34.03963098449409,2.342485685173093],[34.03680519291508,2.338470223234196],[34.02654594172608,2.333711657345833],[34.02684119857136,2.328952376909965],[34.014944013844776,2.322706341665576],[34.01226752270056,2.32672068594727],[34.01018622890538,2.327167422570109],[34.00661578464504,2.324788324329492],[34.00141115083347,2.326870079379604],[33.99888305031337,2.326424261905045],[33.99308260011818,2.322706295734231],[33.99144672875518,2.323449873494863],[33.99278413651799,2.325976937141182],[33.99189287582395,2.327019063477557],[33.99217423584602,2.3340434604102],[33.98805523895622,2.334057137360021],[33.987070409269826,2.334914832460401],[33.98378868989708,2.333532023411613],[33.98247633393714,2.333929056474116],[33.98168858953258,2.335645732790382],[33.978344330156254,2.335582449802918],[33.96892239557729,2.323246622972257],[33.96306892394216,2.319046874594774],[33.95817918664489,2.316833896150723],[33.95403886954711,2.313336165680659],[33.94736798716965,2.3105632797981],[33.94376062387385,2.318160490905873],[33.93834745811958,2.32654795971886],[33.93555166702088,2.332377498708357],[33.93528277751584,2.334546160591836],[33.93259384242499,2.330992371422076],[33.92977070781412,2.32993746262186],[33.923992482746854,2.323670903970615],[33.923724788523714,2.317728288400539],[33.920374734624104,2.313373181215119],[33.91505911014025,2.313508307138235],[33.90841197760325,2.306908438336433],[33.865525378577495,2.333725515673072],[33.86407254867693,2.334413521048432],[33.8494,2.3438],[33.8663,2.3581],[33.885,2.3597],[33.8959,2.3755],[33.9227,2.3883],[33.93124366312692,2.3909785538451964],[33.936025595388905,2.385223548924365],[33.94158793466371,2.388540363569031]]]}},{"type":"Feature","properties":{"n":"Lokiteded Town Council","c":"327102","d":"Napak","od":"Napak","dc":"327","k":"LOKITEDEDTOWNCOUNCIL","a":["LOKITEDED","LOKITEDEDTOWNCOUNCIL"],"lat":2.356673,"lon":34.357892},"geometry":{"type":"Polygon","coordinates":[[[34.32692016500426,2.351005741608857],[34.33011128926939,2.354621789050038],[34.32914171400542,2.359449148024928],[34.32971253381601,2.362475042707707],[34.329027498722645,2.363732179071083],[34.32919881911898,2.37184137983404],[34.33034103427792,2.374239970655931],[34.33783369538612,2.382472607923257],[34.34045129081062,2.388802175453943],[34.34264038183431,2.391039153208096],[34.34377299302477,2.394718777755256],[34.34807012971374,2.39337733541255],[34.34860218944738,2.39226335588328],[34.35032547092448,2.391193383040926],[34.3506830343577,2.391725535102076],[34.35192167301323,2.390479199585498],[34.35245483517332,2.390966036611429],[34.35351646250535,2.389940366247314],[34.355068815678656,2.390428566614575],[34.35697371215826,2.38953554130408],[34.3593668837618,2.390067711438193],[34.36042967901691,2.388997755373812],[34.36569923290352,2.389215684219064],[34.36574785502649,2.389883037506017],[34.36703410804033,2.389125075119792],[34.36756483470206,2.390014937070888],[34.37238413875202,2.389315559947909],[34.37527767112022,2.391725643550098],[34.380041903837835,2.392091767555813],[34.38316835598897,2.39363685288403],[34.3863928589269,2.393498892738497],[34.394280782577425,2.392145085988807],[34.39893684955335,2.386974966445554],[34.397842451413176,2.386214928588967],[34.39684314840795,2.382289387623793],[34.39662929241944,2.380718548638847],[34.39827085837712,2.37582943385927],[34.396771798157026,2.371653483083928],[34.39427351070611,2.368227220373955],[34.392733869846495,2.364320257518277],[34.388672610164726,2.3616515456302],[34.38610306990538,2.35833261436367],[34.38606683956917,2.355012720523946],[34.38406584528117,2.349678213793683],[34.38294737005101,2.342396817838224],[34.37154409509836,2.321942543357467],[34.36792626720379,2.323054515529909],[34.3659989062789,2.325148441037852],[34.36458312873028,2.328087072321675],[34.364789715762456,2.333974781511244],[34.3609219006988,2.336735109297611],[34.35077870340652,2.323566616279044],[34.34636870371158,2.318983612585455],[34.337364866149464,2.323250668080671],[34.331311638964024,2.324621216203318],[34.32714360650934,2.327476038691867],[34.323887607240664,2.326334481833772],[34.32243314753348,2.326754658559932],[34.32527487463494,2.347081875160131],[34.32692016500426,2.351005741608857]]]}},{"type":"Feature","properties":{"n":"Lokopo","c":"327103","d":"Napak","od":"Napak","dc":"327","k":"LOKOPO","a":["LOKOPO"],"lat":2.439362,"lon":34.29878},"geometry":{"type":"Polygon","coordinates":[[[34.25477401882564,2.459632438643995],[34.256884581083185,2.466314835715372],[34.25705862127808,2.47545512983993],[34.25616305247596,2.47922415742958],[34.25602185969451,2.488418622194658],[34.2537820881117,2.496861255673752],[34.254836621917526,2.50288844526135],[34.26923307471687,2.512823501017531],[34.272845856116234,2.5170480086345792],[34.27486621217467,2.519410441573628],[34.27813773507162,2.519369303205997],[34.28218066899202,2.521454351889222],[34.28417315803503,2.520846481656254],[34.286387592380535,2.52296067184527],[34.29442635575562,2.52015801822286],[34.29704983731716,2.522108843958188],[34.30700482000652,2.524477412191084],[34.31039354411212,2.526753473274819],[34.31350762127626,2.5275191111448],[34.319172680686385,2.526780628683174],[34.3220972965211,2.529310250926093],[34.324418667081574,2.529687909529287],[34.32605823233141,2.531006597183167],[34.328243044736745,2.530922892095166],[34.33172135369538,2.527988859264787],[34.33300077134214,2.524007718263277],[34.33583872062582,2.522168840353261],[34.33695620550214,2.520051242542495],[34.33988938216091,2.518166978460106],[34.34517139386873,2.516450134560513],[34.345696667840336,2.514319804904646],[34.34705117066919,2.514748819150827],[34.34766975272102,2.51418974142876],[34.348647294801296,2.51101262373453],[34.3477659630001,2.510953736932162],[34.34777657310247,2.510323965703555],[34.349942182420726,2.508502917237204],[34.35009687690852,2.506385024347013],[34.34903961531101,2.505158756491846],[34.35317828388419,2.505302357696004],[34.35523632615825,2.501852371305799],[34.35766356336487,2.501685581884021],[34.35633282780434,2.492987546017981],[34.35439426664854,2.490881697359838],[34.356067062006574,2.48922523802118],[34.3585105896143,2.484224578158534],[34.36202756817275,2.482843211360033],[34.36318052797833,2.483447376626804],[34.36286441774913,2.481204454587535],[34.36445714123092,2.478471419149582],[34.36880379324398,2.477218924941405],[34.37206352625894,2.478517864147918],[34.375905130782954,2.473096939435473],[34.38307656510459,2.473613229139612],[34.39181028111938,2.469609535808529],[34.39262830772061,2.472572098020912],[34.4017853322804,2.48583064595782],[34.40305266454759,2.484725868044853],[34.40361867479393,2.48189637376428],[34.40707160565668,2.482469496126429],[34.40825799133648,2.479763935007831],[34.40763659961939,2.478237599958216],[34.40910378068875,2.479081933078529],[34.41270472320207,2.476192737212045],[34.41210872213381,2.470611913165377],[34.40353455620273,2.467813473127884],[34.39349106346632,2.460468157930096],[34.38463152439641,2.455911024296081],[34.381857832034584,2.453268735842781],[34.38190835119657,2.451356243445047],[34.38044704579132,2.449454203709748],[34.37802892546235,2.448287165029368],[34.37654711891914,2.448586580484576],[34.374115896592585,2.445919955416704],[34.36951880377342,2.445120379699723],[34.36649210657758,2.443535737681171],[34.36322258564964,2.444321009428892],[34.36050692072051,2.445636629368321],[34.361365370823215,2.44735650192683],[34.360814668219845,2.450972477397701],[34.35549014972876,2.446318479310251],[34.354045943858864,2.442023215316734],[34.35018064352175,2.436699818970572],[34.34219956205551,2.433621327419786],[34.339818343337875,2.426413133258098],[34.337319996723714,2.423974261460972],[34.33248160765016,2.42024015772485],[34.323761560707894,2.415967918646271],[34.32204810366367,2.415895863133005],[34.31898955081926,2.412316165457606],[34.315764106455525,2.417078645695157],[34.31607694134273,2.419613488108407],[34.311890333432366,2.416268442567945],[34.29972534311611,2.411420290279226],[34.2936041805146,2.410075896158109],[34.2889880284237,2.410884913622556],[34.2867469173035,2.412336169952325],[34.28362451588032,2.409947109064341],[34.283206819750525,2.408423241108271],[34.27938797438697,2.406365103604624],[34.277139418420205,2.403902452928001],[34.27435578657496,2.397586030309295],[34.276631679223016,2.393767152000303],[34.27552517214085,2.387735108474331],[34.2726223671339,2.383131059487491],[34.270671468391335,2.381727450485851],[34.26950519515381,2.377943740916431],[34.26529331711547,2.373898258079304],[34.259680071210305,2.365293607583125],[34.25885814752681,2.353577916358355],[34.24550647082935,2.35125383784896],[34.249480983173065,2.363808889528153],[34.24708135930985,2.366767401919573],[34.2469326428572,2.378069839407771],[34.254556283799126,2.400200448033384],[34.25455675697069,2.400200685443501],[34.25107646688559,2.409653008219675],[34.23796509068219,2.429062713663063],[34.24421467515883,2.435739713487546],[34.24814095595013,2.447279983635453],[34.25444635868209,2.452514913179619],[34.255301163551565,2.454526104566933],[34.25483146081077,2.4590751660883003],[34.25477401882564,2.459632438643995]]]}},{"type":"Feature","properties":{"n":"Lopei","c":"327104","d":"Napak","od":"Napak","dc":"327","k":"LOPEI","a":["LOPEI"],"lat":2.689328,"lon":34.275583},"geometry":{"type":"MultiPolygon","coordinates":[[[[34.180997533761165,2.707960726374257],[34.181331936398216,2.70885972425566],[34.1813961714123,2.708886666143249],[34.18292641733694,2.709527303171393],[34.18352466692971,2.7118967380619226],[34.18597492023539,2.71263518157321],[34.1859753658634,2.712635657623982],[34.18597580475898,2.712635789922072],[34.18918011416075,2.715825764081887],[34.189186787985705,2.7160663216315317],[34.18929936281706,2.716186581879914],[34.189335544651314,2.721428245148116],[34.189438828803624,2.725151115130884],[34.18936541728448,2.7257558942897373],[34.18936848335844,2.726200076504726],[34.187659144366414,2.739812520717858],[34.18765657265794,2.739833706979934],[34.18831724305545,2.746788268454818],[34.18850942909803,2.7467350781495745],[34.1911,2.7459],[34.20700848923887,2.74161519201016],[34.21468943289095,2.739489378231379],[34.2155617408206,2.7393114508964587],[34.23397445977381,2.734352151235707],[34.23584171797026,2.733651513360967],[34.250939438264204,2.72948653107259],[34.252981952174956,2.729232654715055],[34.26086386124658,2.7271097336470533],[34.26094108113931,2.727072777927924],[34.26192098218676,2.735396762584091],[34.26188990776697,2.739007176282712],[34.264218372439174,2.767015279911207],[34.264451628229914,2.769222407238678],[34.26651335058359,2.778844474321946],[34.26931771052376,2.802539097401794],[34.271126891429596,2.825204356458241],[34.27279400463233,2.8390838137141534],[34.274451283475265,2.846266719210852],[34.275178541703845,2.858927315621583],[34.280137903083016,2.900121302310296],[34.280141569357234,2.900255550802508],[34.28127367453386,2.90968082881144],[34.28133094332618,2.9098679406850034],[34.281886272552875,2.909292583191125],[34.28281511089033,2.906695005107089],[34.28476563651858,2.905452487793512],[34.28495372495006,2.903697598728262],[34.287546399477804,2.902238695214308],[34.288910014536505,2.9020155259228333],[34.29564155100079,2.8950412127336054],[34.2954767878937,2.894657360454436],[34.297291119021345,2.893332152095915],[34.298927697536705,2.891636549437384],[34.30009781028516,2.888467614690009],[34.302929761308555,2.887490148939331],[34.30548384720997,2.884843948464422],[34.3066006215485,2.881430944222892],[34.311968096956974,2.877778468415525],[34.312471189413586,2.876217591819393],[34.31197210432717,2.874866688452321],[34.31338548171403,2.872939643208105],[34.31345547498392,2.871456089041196],[34.314008615974124,2.8714476273623344],[34.314103598140086,2.871152939103833],[34.314261816031916,2.8685148271125],[34.31567345412172,2.8662823602890253],[34.3157,2.8662],[34.31766974315294,2.8650203798067118],[34.31775374786205,2.864325056325294],[34.31965844862888,2.863788136252515],[34.323615705624725,2.860112962078754],[34.32531089258405,2.8604443242152007],[34.326471788870116,2.8597490981907776],[34.326615364825784,2.859466539353647],[34.32982528437819,2.8577407901463965],[34.33320987839915,2.855713858133838],[34.33344758148862,2.855362092556893],[34.3358,2.8436],[34.33583321062393,2.8435563293370323],[34.335488221472254,2.843190368183106],[34.336266294110814,2.8429868416023125],[34.33645717473468,2.842735841096915],[34.33635522582295,2.842032026155319],[34.3374533669367,2.8414258875714227],[34.33763616871794,2.8411855104260098],[34.338610984493755,2.838702908496519],[34.33971401967621,2.8384532182210496],[34.34166182459154,2.8358919314426196],[34.34242273928329,2.832368491556899],[34.344540802665016,2.831958041905982],[34.34610805556516,2.828174611179313],[34.348514669503835,2.8268110466256755],[34.34864834728191,2.826000447333105],[34.3483654620083,2.825442367490874],[34.34881374444688,2.8249975070774385],[34.34962083707939,2.820103434731367],[34.34927513442942,2.819523943155179],[34.3495326251043,2.816268394625526],[34.35025966249315,2.8162297061585497],[34.350486360976454,2.8148550451427887],[34.350363575605925,2.81446946975134],[34.35059304577637,2.814208126675187],[34.35201502793564,2.805585468900904],[34.35191275085937,2.805556315262824],[34.352070952330294,2.8052463528907663],[34.3532,2.7984],[34.354104015799905,2.7969280768386198],[34.35398308157642,2.796566026305217],[34.354524412414484,2.796243584914884],[34.35550946928596,2.794639710265165],[34.35537399753251,2.794066527420605],[34.35715585256381,2.791216796052271],[34.35760171699109,2.791233101822195],[34.35922441541037,2.7885910159344043],[34.35919926070826,2.788534871632514],[34.36108804134268,2.7848082263999303],[34.36197626015465,2.7758114294012763],[34.36127911365897,2.77520329615629],[34.36186941250437,2.772116745233909],[34.36108181493674,2.770082348729558],[34.362891779323476,2.761090075736659],[34.36246282092569,2.760185829378749],[34.36374686094871,2.7578769568420802],[34.3641,2.7543],[34.3640948828054,2.754014716400784],[34.36236946182681,2.751573070926038],[34.36362668855524,2.747920420673382],[34.362104026364165,2.745081913800931],[34.36184026667599,2.741417314803306],[34.36265733133426,2.739710502197033],[34.363394832522594,2.739771499051993],[34.36243550351822,2.736308788583063],[34.363764048387054,2.735570697578192],[34.3637,2.732],[34.37297570104132,2.7187736898195203],[34.474932449668906,2.572920161459098],[34.47244654432002,2.561271593916911],[34.470320853492346,2.559493147832998],[34.467481971305766,2.553964878899089],[34.465241488534154,2.54109804258397],[34.46153553308058,2.531853139629832],[34.458856039558015,2.520645587096304],[34.45228933446384,2.520374783265729],[34.446446789369034,2.518262715103654],[34.437362658891296,2.519722619759074],[34.436782049820586,2.513157647128992],[34.43553922476052,2.509284760020695],[34.436563194735044,2.507755412031594],[34.434138522818856,2.503144082522175],[34.42295002309294,2.494058979264135],[34.42220395867814,2.490910096200456],[34.42025784857818,2.487691724802365],[34.42000393819892,2.483595182353321],[34.418480986538924,2.48441082692464],[34.41731685724283,2.484096225476685],[34.41807475481066,2.481725068423165],[34.41562198311885,2.480054496691027],[34.414766479456986,2.481014119129027],[34.41681460802535,2.481772483188478],[34.41717108126124,2.482658191123525],[34.41339146983937,2.48503091714717],[34.41139016963815,2.482545581763724],[34.412244843365066,2.481206879121149],[34.411744170888575,2.480131136555321],[34.4092378220527,2.478974385748012],[34.40910378068875,2.479081933078529],[34.407639420433,2.4782392232795694],[34.408152228998595,2.4795041491774197],[34.40825799133648,2.479763935007831],[34.40707160565668,2.482469496126429],[34.407071502145506,2.482469478945497],[34.40707141787944,2.482469671103261],[34.40679380030523,2.4824233856001627],[34.40362024482796,2.481896634360755],[34.403119367335535,2.4843924197403235],[34.40305266454759,2.484725868044853],[34.4017853322804,2.48583064595782],[34.401675973199,2.485672303844224],[34.40148537212676,2.485803368841587],[34.40129831336408,2.4851254863717545],[34.39262830772061,2.472572098020912],[34.39181028111938,2.469609535808529],[34.38307656510459,2.473613229139612],[34.38307593864357,2.473613184039098],[34.3830756017373,2.473613338523205],[34.38173215132495,2.4735164413895747],[34.375905130782954,2.473096939435473],[34.37548326168541,2.473692242934833],[34.37525223148759,2.474462550602919],[34.37486014754726,2.475123129656348],[34.374860021303746,2.475123331243332],[34.374442404923094,2.475756212801887],[34.37444213636813,2.47575658195427],[34.37355985047592,2.4764063868016772],[34.37206352625894,2.478517864147918],[34.37206314691901,2.4785177129884506],[34.37206314233339,2.47851773115806],[34.368803735206775,2.477218941664911],[34.36482465528478,2.4783655194312484],[34.362865646007705,2.4812023469560196],[34.36286441774913,2.481204454587535],[34.36318052797833,2.483447376626804],[34.36202756817275,2.482843211360033],[34.3585105896143,2.484224578158534],[34.356067062006574,2.48922523802118],[34.354450135529696,2.4908263740774745],[34.35439429712127,2.490881730462196],[34.355870580035365,2.4924854087286237],[34.3563326115034,2.492987037732848],[34.356332661666336,2.4929873655431556],[34.35633282780434,2.492987546017981],[34.35700266732048,2.4973657923868804],[34.357663665338855,2.501685355138957],[34.35766353009648,2.5016853644331167],[34.35766356336487,2.501685581884021],[34.35523639591405,2.5018523665124768],[34.35318000468871,2.505301475822796],[34.353178833876825,2.50530143571927],[34.35317828388419,2.505302357696004],[34.35106262240334,2.5052289496588855],[34.34904041454063,2.505159683480583],[34.35009687690852,2.506385024347013],[34.350096748262345,2.506386785617481],[34.35009735010899,2.506387483230248],[34.34994703613259,2.5084364659886864],[34.349942182420726,2.508502917237204],[34.349942159857626,2.508502936210387],[34.349942148191936,2.508503095229495],[34.349496188962085,2.5088779505809473],[34.34777721744609,2.510323423878701],[34.34863867727207,2.511012047948271],[34.348647294801296,2.51101262373453],[34.34864573588463,2.5110176903826167],[34.34864696046085,2.511018669270581],[34.34766997316435,2.51418945909171],[34.34766978821971,2.514189626054164],[34.34766975272102,2.51418974142876],[34.34705117066919,2.514748819150827],[34.34705057715181,2.5147486311649443],[34.347050389984325,2.514748800134117],[34.34569637386955,2.514320997148539],[34.34517139386873,2.516450134560513],[34.33988938216091,2.518166978460106],[34.33695620550214,2.520051242542495],[34.33661774882728,2.520692607028859],[34.335839175710134,2.522168303311697],[34.335838914807546,2.522168472385162],[34.33583872062582,2.522168840353261],[34.33300077134214,2.524007718263277],[34.33172135369538,2.527988859264787],[34.33171903451704,2.5279908155445345],[34.32856978042875,2.530787219462126],[34.32838475249826,2.530803358370717],[34.328243044736745,2.530922892095166],[34.32605823233141,2.531006597183167],[34.326057884597304,2.5310063175037367],[34.32605780672852,2.531006324295777],[34.32441863820505,2.52968790483143],[34.3220972965211,2.529310250926093],[34.31917278390902,2.526780717964733],[34.31357722915051,2.527510037242727],[34.31350762127626,2.5275191111448],[34.31039354411212,2.526753473274819],[34.3070049529664,2.5244775014945517],[34.30007094056851,2.522827648742961],[34.29704983731716,2.522108843958188],[34.29442635575562,2.52015801822286],[34.29442104601038,2.5201598694250955],[34.28706920581361,2.523014179902311],[34.28680384796823,2.5228155475050866],[34.286387592380535,2.52296067184527],[34.28417315803503,2.520846481656254],[34.28218066899202,2.521454351889222],[34.27813773507162,2.519369303205997],[34.27813170898265,2.519369378982163],[34.27398952103639,2.5196601747724903],[34.272518615147035,2.5200791772029936],[34.2709055811717,2.524097794567445],[34.27051495161678,2.524386437081145],[34.27033269075511,2.524866853909498],[34.26898078479422,2.525520402956316],[34.250736526785936,2.548573924343466],[34.23950594693635,2.565608787147778],[34.23950593339117,2.565608805206308],[34.23950592544472,2.565608817260116],[34.22816772671577,2.5807249851802987],[34.20409244469364,2.612822327060709],[34.20146314134819,2.6167198412485964],[34.18866289341972,2.635694180820374],[34.18866282394635,2.6356942280455367],[34.18866260914694,2.635694546450702],[34.16091480246175,2.6545562024019276],[34.1599333382264,2.655223361797383],[34.15559545367569,2.661297356817293],[34.15471865916547,2.6650062456441126],[34.154850800389134,2.6788366704308135],[34.15726806649584,2.6884481265634266],[34.15794445210752,2.6902083231252005],[34.160139110326995,2.692844612350861],[34.16284103471567,2.6952964861910345],[34.17581626861834,2.7033741511347342],[34.17581677164348,2.703374445588043],[34.17688520242424,2.7050909747159886],[34.180587864007414,2.706868821063636],[34.180591922690695,2.706870293905669],[34.180592138226416,2.7068708733453457],[34.18059275889306,2.706871171360681],[34.180997533761165,2.707960726374257]]],[[[34.374632431852696,2.475468219325153],[34.374632436937475,2.475468222680377],[34.37463243185273,2.475468219325095],[34.374632431852696,2.475468219325153]]]]}},{"type":"Feature","properties":{"n":"Matany","c":"327105","d":"Napak","od":"Napak","dc":"327","k":"MATANY","a":["MATANY"],"lat":2.376887,"lon":34.433163},"geometry":{"type":"Polygon","coordinates":[[[34.239379156565754,2.337810109878087],[34.238249113394325,2.340903175205709],[34.23926038311891,2.345245687806458],[34.245506466037504,2.351253824316202],[34.24558489673569,2.3512674891653926],[34.25885814752681,2.353577916358355],[34.259680071210305,2.365293607583125],[34.26529331711547,2.373898258079304],[34.26950519515381,2.377943740916431],[34.27067141423472,2.3817272747869644],[34.271267253388544,2.382156098660602],[34.2726223671339,2.383131059487491],[34.27262272607402,2.383131628791281],[34.27262288673894,2.383131744421401],[34.274884941427864,2.386719658398145],[34.27552517214085,2.387735108474331],[34.275924400794494,2.389911474676031],[34.27663165935687,2.393766352885052],[34.27663156245204,2.3937665154317562],[34.276631679223016,2.393767152000303],[34.27435578657496,2.397586030309295],[34.277139418420205,2.403902452928001],[34.279387963176674,2.406365091326943],[34.279416712336186,2.4063805917025762],[34.283206819750525,2.408423241108271],[34.28362450082573,2.4099470541411585],[34.28674695897131,2.412336142969876],[34.2889880284237,2.410884913622556],[34.2936041805146,2.410075896158109],[34.29972534311611,2.411420290279226],[34.311890333432366,2.416268442567945],[34.31419155485407,2.4181070887032137],[34.3160769070821,2.4196132105009354],[34.315764106455525,2.417078645695157],[34.31898955081926,2.412316165457606],[34.32204810366367,2.415895863133005],[34.323761560707894,2.415967918646271],[34.33248160765016,2.42024015772485],[34.337319996723714,2.423974261460972],[34.33732057545103,2.423974826409268],[34.33732059193361,2.4239748425014995],[34.339818343337875,2.426413133258098],[34.33981849323792,2.4264135870209587],[34.33981852450134,2.426413617543981],[34.3399358943827,2.4267689723705366],[34.34219956205551,2.433621327419786],[34.35018064352175,2.436699818970572],[34.35018100640692,2.436700318745861],[34.3501811143169,2.436700360365488],[34.3508285884493,2.4375921862794514],[34.354045943858864,2.442023215316734],[34.35549012600548,2.4463184087540033],[34.355628800106075,2.4464396693468595],[34.360814668219845,2.450972477397701],[34.361365370823215,2.44735650192683],[34.36050692072051,2.445636629368321],[34.36050907827766,2.4456355841269977],[34.36050905317832,2.445635533710678],[34.36050952169363,2.4456353693115087],[34.36322258564964,2.444321009428892],[34.36649210657758,2.443535737681171],[34.36951880377342,2.445120379699723],[34.374115896592585,2.445919955416704],[34.37654711891914,2.448586580484576],[34.37802892546235,2.448287165029368],[34.37899245565593,2.448752186141902],[34.37955760551907,2.448790400268213],[34.37994288871685,2.44921088628677],[34.38044704579132,2.449454203709748],[34.38190686263005,2.4513543059221625],[34.38190798555939,2.451355531452076],[34.38190797942925,2.4513557595515305],[34.38190835119657,2.451356243445047],[34.3818578782175,2.453266987506438],[34.38322941036752,2.452534864933015],[34.384971245049485,2.449021987523314],[34.38457865315212,2.447429387647842],[34.38540978837134,2.445536397594763],[34.3863990098141,2.435504215706242],[34.389401193051896,2.428556034509935],[34.3927949663081,2.425786796386828],[34.3958139146551,2.424780703270599],[34.396804084655216,2.422125540136104],[34.398304801063894,2.421435477876892],[34.399850835554766,2.416080399103126],[34.40149260790611,2.414522973922631],[34.40863120426769,2.412791720591102],[34.41186652914095,2.410020016383021],[34.42346650732271,2.423919709492147],[34.42242564179301,2.429583074893073],[34.41899701178351,2.437541939570085],[34.41543062078457,2.443081063147193],[34.41509883786455,2.446660973432366],[34.41344798449627,2.446556272604786],[34.41140105729862,2.447969335706929],[34.4067968345119,2.453375438090739],[34.403332523976886,2.451045478716006],[34.400113390643405,2.450318048020186],[34.4010602429714,2.461737279302508],[34.39912705961007,2.464542753014978],[34.4040817384739,2.46799206271756],[34.41210872213381,2.470611913165377],[34.41270472320207,2.476192737212045],[34.4092378220527,2.478974385748012],[34.411744170888575,2.480131136555321],[34.411936692819346,2.4805447882847598],[34.41214853830018,2.480654180581825],[34.41207405248262,2.480839918621569],[34.412244843365066,2.481206879121149],[34.41139016963815,2.482545581763724],[34.41339146983937,2.48503091714717],[34.41425931615243,2.4844861094138646],[34.41717097061986,2.4826579162194413],[34.41700053851105,2.4822344536534913],[34.41681383774991,2.481772197977278],[34.414766479456986,2.481014119129027],[34.41476802374095,2.481012386898521],[34.415193851876495,2.480172553622831],[34.41541195402877,2.4802900872985925],[34.41562198311885,2.480054496691027],[34.41807475481066,2.481725068423165],[34.417316976129996,2.4840958535265076],[34.418481251941685,2.4844106847833456],[34.419128574163935,2.4840639995468123],[34.42000220458811,2.48359559843029],[34.420002439695516,2.4835959849041798],[34.42000393819892,2.483595182353321],[34.4200041635833,2.483598818662665],[34.42062327030594,2.484616517696423],[34.42277516327994,2.482950020380598],[34.42248712192974,2.480536000065309],[34.42407806847022,2.478671302293804],[34.42724419000229,2.479625879622762],[34.42762202962056,2.47663178491516],[34.42688259402821,2.475076738751976],[34.427501175759005,2.47433449094356],[34.43155675809622,2.474031772941885],[34.43181675524491,2.472783374255122],[34.430105346220614,2.472883308848625],[34.43007902954898,2.471781614576142],[34.4320513231872,2.469292007663104],[34.43490542941077,2.46837531254817],[34.43511772800802,2.466729113902984],[34.43354675134352,2.466034401310679],[34.43483134342903,2.463823707673839],[34.43597097346184,2.463373167948522],[34.43818444605774,2.464015640013816],[34.4423961620129,2.462873390528671],[34.440847530132295,2.458886852723285],[34.44182528555455,2.456877617442497],[34.44489861584066,2.456037240264292],[34.44837379904689,2.4565217492071],[34.45280713254564,2.455865685831236],[34.4596309456088,2.451670710789638],[34.46291947135702,2.445534911521348],[34.46636036545409,2.443725381088593],[34.46518462419845,2.440553073952139],[34.46735095452163,2.438260055724124],[34.46969703333624,2.437665544260597],[34.47288571264919,2.442627909098378],[34.474321040191484,2.439308424608286],[34.4800143963737,2.436010796714609],[34.47994187205187,2.434236896584857],[34.482936338616305,2.432037176742422],[34.484051317876876,2.428825481478789],[34.48758538941588,2.429725764965004],[34.49409960703589,2.428858038750827],[34.49387477464951,2.424422082717349],[34.4921045480507,2.419282966233228],[34.492050009271544,2.413129717855444],[34.49856114990424,2.403264722491596],[34.49488446178749,2.394717054258584],[34.489493272010414,2.385271624316778],[34.48488417493088,2.379374723262358],[34.481765252482774,2.380466604586531],[34.47999544465841,2.383812743803008],[34.47014078707885,2.384979492217502],[34.467545596636825,2.372850023797048],[34.46854495695136,2.360464852863796],[34.46667706357265,2.35652458429219],[34.45772661376875,2.352012637903862],[34.44737594596337,2.343732132949143],[34.440094854699765,2.340805413352402],[34.425818180878125,2.336379629759274],[34.4183351233184,2.33548412747991],[34.41515124810598,2.336214600944678],[34.402150224659124,2.30947616567572],[34.40589647217673,2.306189382088571],[34.41074984709319,2.303726989110659],[34.41650402963188,2.302356095112946],[34.43142300038377,2.295289215224428],[34.43677738354868,2.291933936315117],[34.448044047288406,2.288500468222229],[34.44254701115163,2.276012165834],[34.434425269189916,2.266761185546489],[34.412886608874345,2.277784318768652],[34.41180136435821,2.277217532225402],[34.39622731811954,2.277232765744018],[34.39133072923623,2.275782781933433],[34.368947960970424,2.272987318854569],[34.35384755314751,2.273362085142408],[34.34488908238136,2.278543899356582],[34.33608900181141,2.286276372081737],[34.33015400234159,2.287564381878248],[34.32673553834283,2.292054404549984],[34.31624731388104,2.294944025206142],[34.30991277068736,2.297742071262416],[34.3059530973817,2.300814696845693],[34.300503638309024,2.302394971995171],[34.279183108031,2.305345677596964],[34.26304138360418,2.311249012551273],[34.25759057205911,2.315281040005016],[34.2497739933689,2.318886451369421],[34.24645009731422,2.316875113431575],[34.243870701699706,2.319506548499419],[34.23496591137533,2.32516078965844],[34.23890354933978,2.33477664145346],[34.239379156565754,2.337810109878087]],[[34.328056300651824,2.3268509044609167],[34.331311638964024,2.324621216203318],[34.33131196933813,2.3246211414013],[34.331312205069864,2.324620979951851],[34.33639509216288,2.3234702405295464],[34.337364866149464,2.323250668080671],[34.34636870371158,2.318983612585455],[34.35077870340652,2.323566616279044],[34.3609219006988,2.336735109297611],[34.364789715762456,2.333974781511244],[34.36458312873028,2.328087072321675],[34.3659989062789,2.325148441037852],[34.36792626720379,2.323054515529909],[34.37154409509836,2.321942543357467],[34.37154545552682,2.321944983584269],[34.371546227595445,2.321944746850917],[34.38279454091216,2.342122685260716],[34.38294737005101,2.342396817838224],[34.38406584528117,2.349678213793683],[34.38606683956917,2.355012720523946],[34.38610306990538,2.35833261436367],[34.388672610164726,2.3616515456302],[34.392733869846495,2.364320257518277],[34.39427351070611,2.368227220373955],[34.396771798157026,2.371653483083928],[34.39827085837712,2.37582943385927],[34.39662929241944,2.380718548638847],[34.39684314810155,2.382289385373172],[34.39684314840795,2.382289387623793],[34.397842451413176,2.386214928588967],[34.39893684955335,2.386974966445554],[34.398933870179846,2.3869782747564683],[34.39893387068029,2.38697827510613],[34.39892000651674,2.3869936690357854],[34.394280782577425,2.392145085988807],[34.3863928589269,2.393498892738497],[34.38316835598897,2.39363685288403],[34.380041903837835,2.392091767555813],[34.37527767112022,2.391725643550098],[34.3752774366865,2.3917254482853507],[34.37527692147144,2.391725408736278],[34.37450498504267,2.3910820571621887],[34.37238437355214,2.3893157555178384],[34.372155322149545,2.3893487657999297],[34.36756483470206,2.390014937070888],[34.367141538498224,2.3893052022619945],[34.36703315667367,2.3891256357405535],[34.36574785502649,2.389883037506017],[34.36569923290352,2.389215684219064],[34.36042967901691,2.388997755373812],[34.3593668837618,2.390067711438193],[34.35936545126006,2.390067392892443],[34.35936522017375,2.390067625406994],[34.35808741926981,2.389783196617238],[34.35697371215826,2.38953554130408],[34.355068815678656,2.390428566614575],[34.35351671027446,2.3899404441683547],[34.35345878623537,2.3899960890410323],[34.35245483517332,2.390966036611429],[34.35192167301323,2.390479199585498],[34.35093870960434,2.3914682710976187],[34.35068649481964,2.391722563714434],[34.35068628967709,2.391722259554231],[34.3506830343577,2.391725535102076],[34.35032547092448,2.391193383040926],[34.34860218944738,2.39226335588328],[34.34807012971374,2.39337733541255],[34.34704147799803,2.3936984508592354],[34.343774460768635,2.39471892362739],[34.3437742909529,2.394718372579465],[34.34377299302477,2.394718777755256],[34.34264038183431,2.391039153208096],[34.34045129081062,2.388802175453943],[34.337833706689075,2.382472635254776],[34.330341430608414,2.374240439994664],[34.330341396779374,2.3742403689580733],[34.33034103427792,2.374239970655931],[34.32919881911898,2.37184137983404],[34.329027498722645,2.363732179071083],[34.32971253381601,2.362475042707707],[34.32914171400542,2.359449148024928],[34.32938296352487,2.3582480055492403],[34.33011102874884,2.3546214938391326],[34.32692016500426,2.351005741608857],[34.326919906180436,2.351005124337806],[34.32691988879268,2.351005104639001],[34.3264908045763,2.3499817564150685],[34.32527487463494,2.347081875160131],[34.32243314753348,2.326754658559932],[34.323887607240664,2.326334481833772],[34.32714356549823,2.3274760243133295],[34.328056300651824,2.3268509044609167]]]}},{"type":"Feature","properties":{"n":"Matany Town Council","c":"327106","d":"Napak","od":"Napak","dc":"327","k":"MATANYTOWNCOUNCIL","a":["MATANY","MATANYTOWNCOUNCIL"],"lat":2.439291,"lon":34.401833},"geometry":{"type":"Polygon","coordinates":[[[34.393491189300946,2.46046823916505],[34.399127048888715,2.464542747683983],[34.401060231854046,2.4617371452249848],[34.400113390643405,2.450318048020186],[34.403332523976886,2.451045478716006],[34.40333277428755,2.451045647065138],[34.403332931444915,2.451045682450288],[34.403428436353664,2.4511099856183645],[34.40679676962746,2.4533753944520105],[34.409059918585946,2.450718211285217],[34.41140105729862,2.447969335706929],[34.41140353888275,2.447967622585437],[34.41309992946248,2.446682762094816],[34.41329431046194,2.446662358990234],[34.41344798449627,2.446556272604786],[34.413982207462745,2.4465901542249084],[34.41511643511208,2.4464711005858466],[34.41513708835357,2.4462482538172843],[34.41474701127026,2.445649832813376],[34.4154305633174,2.4430816832131783],[34.41543062078457,2.443081063147193],[34.41543276777412,2.4430777285603638],[34.4199467689122,2.435337272270806],[34.42206745989936,2.4304145210431263],[34.423452121420745,2.423997983406623],[34.42346650732271,2.423919709492147],[34.41186652914095,2.410020016383021],[34.40863120426769,2.412791720591102],[34.40863112496168,2.412791739824406],[34.40863109432724,2.412791766137881],[34.408506887262384,2.412821869967633],[34.40149260790611,2.414522973922631],[34.399850835554766,2.416080399103126],[34.398304801063894,2.421435477876892],[34.396804084655216,2.422125540136104],[34.3958139146551,2.424780703270599],[34.39581351026882,2.4247808380361544],[34.39581338319963,2.424781178729718],[34.392798634257524,2.4257855740079606],[34.3927949663081,2.425786796386828],[34.389401193051896,2.428556034509935],[34.38813181472343,2.431493853401797],[34.38639897444068,2.4355045744454813],[34.385475241362315,2.444872606574652],[34.385409832096705,2.445536073744579],[34.385409816888775,2.4455361083854337],[34.38540978837134,2.445536397594763],[34.38457865315212,2.447429387647842],[34.38484702036361,2.4485180539969615],[34.38497118250103,2.449021701014141],[34.384971177105236,2.4490217118986783],[34.384971245049485,2.449021987523314],[34.38406907719648,2.450841451278047],[34.38322992130853,2.452534218342876],[34.38322966241383,2.4525343566139446],[34.38322941036752,2.452534864933015],[34.38190981280232,2.4532392648738433],[34.381857877823435,2.4532670024246035],[34.381857832034584,2.453268735842781],[34.38463152439641,2.455911024296081],[34.39349106346632,2.460468157930096],[34.393491139552516,2.460468213575788],[34.393491189300946,2.46046823916505]]]}},{"type":"Feature","properties":{"n":"Poron","c":"327107","d":"Napak","od":"Napak","dc":"327","k":"PORON","a":["PORON"],"lat":2.301846,"lon":34.041094},"geometry":{"type":"Polygon","coordinates":[[[33.932594314418346,2.330992893245912],[33.93266678650326,2.3310887768266633],[33.93528277751584,2.334546160591836],[33.93555166702088,2.332377498708357],[33.93834736751706,2.3265481486353132],[33.938347389886495,2.326548101992108],[33.93834738988726,2.3265481019909187],[33.93834745811958,2.32654795971886],[33.94376062387385,2.318160490905873],[33.94736798716965,2.3105632797981],[33.95403886954711,2.313336165680659],[33.95817918664489,2.316833896150723],[33.96306892394216,2.319046874594774],[33.96892239557729,2.323246622972257],[33.978344326289864,2.33558244474078],[33.978394890150255,2.3355834065431424],[33.98168858953258,2.335645732790382],[33.98247633393714,2.333929056474116],[33.98378868989708,2.333532023411613],[33.987070409269826,2.334914832460401],[33.98805523895622,2.334057137360021],[33.988056378692406,2.334057133575577],[33.988056592325286,2.334056947306879],[33.98836870076299,2.334056096523741],[33.99217423584602,2.3340434604102],[33.99189287582395,2.327019063477557],[33.99278413651799,2.325976937141182],[33.99144672875518,2.323449873494863],[33.99308260011818,2.322706295734231],[33.99888305031337,2.326424261905045],[34.00141115083347,2.326870079379604],[34.00661578464504,2.324788324329492],[34.01018622890538,2.327167422570109],[34.01226752270056,2.32672068594727],[34.014944013844776,2.322706341665576],[34.01494765662955,2.322708254131645],[34.01494777865304,2.322708071442922],[34.0268391155449,2.328951185539096],[34.0268391096696,2.3289512802342123],[34.02684119857136,2.328952376909965],[34.02654594172608,2.333711657345833],[34.03680519291508,2.338470223234196],[34.039630966837,2.342485660082299],[34.04409098276465,2.3454590017766073],[34.05405629033116,2.34084968417493],[34.0567331826471,2.340998399559752],[34.060278573693466,2.342919814237756],[34.06072528632861,2.345894975908213],[34.062854104462865,2.349075965534877],[34.07366284805072,2.365226738408181],[34.08541106993583,2.3699264706911554],[34.08556017569104,2.3699861131399076],[34.09031882300021,2.371175214383528],[34.09314488654906,2.368201590216386],[34.09656114491488,2.369091281494365],[34.09611921720354,2.367160572578052],[34.09849867152977,2.366268278179705],[34.10623357624069,2.371769642121535],[34.121202879073756,2.363885880478658],[34.12737072458781,2.376799720421194],[34.13260519315223,2.3820343687675294],[34.13260521415168,2.3820343897670195],[34.15901765035769,2.397263366715259],[34.164014542416545,2.403449940969987],[34.17025470048649,2.408483037190983],[34.17405361968812,2.402080444105426],[34.17720638159039,2.392205860459176],[34.18101357784591,2.384293990125208],[34.185415086308254,2.38167676699854],[34.18632757415417,2.379872394464242],[34.186616778642694,2.379300271926122],[34.182644489319486,2.374831444698939],[34.17592419595023,2.370544183071054],[34.18277178326574,2.352870063991361],[34.16867538903385,2.334688112649674],[34.16591543418071,2.335544556817583],[34.16410707029682,2.335259192798914],[34.156114212602674,2.331473789767962],[34.154571748881295,2.326048669676689],[34.14988901219972,2.317139269937374],[34.149832516505064,2.315312036097669],[34.1534297038643,2.310858343833373],[34.1564344291133,2.309109688685943],[34.15814822165603,2.308966543703017],[34.16353767394918,2.30471917779771],[34.16778499492001,2.298972771397494],[34.171224673795436,2.292195114718753],[34.16854035274216,2.281522149954445],[34.16873076685181,2.27576420572332],[34.167338782876115,2.270886312995958],[34.163141591209914,2.26551723730431],[34.15707433548843,2.253144821675177],[34.15766865335062,2.248979801712131],[34.1569655222061,2.243811617249824],[34.14985562946815,2.240135021186501],[34.145686878445716,2.233568036916212],[34.13809165952256,2.226943598216671],[34.12995369066465,2.21638698227774],[34.13121583534136,2.207944450328453],[34.12634560484247,2.20204425277578],[34.12435367565747,2.201596725249288],[34.125661507571756,2.199991959804944],[34.125304585541144,2.198683259681521],[34.11635186912875,2.190355151577887],[34.11322882973573,2.189790030121231],[34.10689020474296,2.194000249596008],[34.102207242328966,2.194856995544192],[34.09895214330485,2.194343129162041],[34.097181826767496,2.195028411175151],[34.09586651753229,2.196741987538276],[34.09392705005329,2.196627270157034],[34.092499043645134,2.195142628169879],[34.06695474865583,2.210770148927641],[34.06719255753147,2.211504974605363],[34.06638020349457,2.2090385665216425],[33.99767221279078,2.2512284071518813],[33.90841198662128,2.306908432112287],[33.9085296341502,2.3070252582989075],[33.91505911014025,2.313508307138235],[33.920374734624104,2.313373181215119],[33.923724788523714,2.317728288400539],[33.923992482746854,2.323670903970615],[33.92977070781412,2.32993746262186],[33.93259384242499,2.330992371422076],[33.93259420684331,2.3309928530498687],[33.932594314418346,2.330992893245912]]]}},{"type":"Feature","properties":{"n":"Iriiri","c":"327201","d":"Napak","od":"Napak","dc":"327","k":"IRIIRI","a":["IRIIRI"],"lat":2.150064,"lon":34.425378},"geometry":{"type":"Polygon","coordinates":[[[34.06745415033387,2.2104646243440356],[34.092499043645134,2.195142628169879],[34.09392705005329,2.196627270157034],[34.095494838385,2.196720003123017],[34.09631761457637,2.196154301227315],[34.097181826767496,2.195028411175151],[34.09895214330485,2.194343129162041],[34.102207242328966,2.194856995544192],[34.10689020474296,2.194000249596008],[34.11322882973573,2.189790030121231],[34.11635186912875,2.190355151577887],[34.11635322089078,2.19035640903091],[34.120902841851496,2.194073316201572],[34.1252919033951,2.1986714623366272],[34.125304585541144,2.198683259681521],[34.12562243682398,2.1998487019277393],[34.125661509929806,2.199990891035323],[34.12566128981202,2.19999116136113],[34.125661507571756,2.199991959804944],[34.12464986228935,2.2012332916407806],[34.12435389046381,2.201596773509915],[34.12634560484247,2.20204425277578],[34.13111634205998,2.207823915989179],[34.14133166943796,2.194227739475207],[34.147458167124,2.18744097764992],[34.154151147930534,2.184555044993644],[34.164055971902386,2.173671470594708],[34.18036578855545,2.186444182704061],[34.181938829362636,2.185536390283691],[34.18381854965223,2.185583828558827],[34.18660252591147,2.187630121393059],[34.19071922105789,2.187035467595897],[34.19599726420469,2.189198980087581],[34.19205738467576,2.195409716784644],[34.2055606050865,2.202776730578159],[34.20763130365376,2.199464246346972],[34.20926130302919,2.199705032333045],[34.20844923632936,2.200864155849481],[34.20992177822882,2.20168605107709],[34.21172059215829,2.199377801897138],[34.21400875555018,2.199539005956047],[34.2160525412589,2.198388600099346],[34.217034143370356,2.199292299202993],[34.22046696299332,2.19690149614009],[34.22242729969359,2.194521072490481],[34.2215277120868,2.193527885817784],[34.22183317163222,2.188281122239049],[34.223948554335074,2.186628322460278],[34.234824469477196,2.181767419923075],[34.23573723879335,2.178295272050796],[34.234043396557006,2.177111426651949],[34.23354838464311,2.174762820028083],[34.233947672199974,2.172908183042555],[34.23592604335513,2.171225668033482],[34.236396620853036,2.168998407415998],[34.24239628740283,2.165234688693836],[34.25075814067691,2.162514104509746],[34.25491881587718,2.159887578868146],[34.26840926003916,2.146180264039365],[34.272942045706785,2.143116131246454],[34.281512882912644,2.140994794868778],[34.30059136137732,2.146196439906823],[34.303459869651306,2.147393594599411],[34.30767133427358,2.153274453064371],[34.313104820685226,2.157714241043223],[34.31589705630283,2.157881944631537],[34.31893118534477,2.157508457922673],[34.32079781143855,2.155535602074582],[34.32220649319937,2.155533883940769],[34.32461039351242,2.153476917744959],[34.32867256780059,2.151702085799439],[34.334304616924946,2.152013816854221],[34.338599813458806,2.150960895447988],[34.34409285215659,2.145585522298393],[34.348733056537775,2.149167312880775],[34.3504122850527,2.152563734514192],[34.355694233444794,2.154832838530253],[34.35726388854337,2.162638376783348],[34.3599214529074,2.164741369470969],[34.35928310657487,2.16915239287533],[34.36058244482231,2.181646811906066],[34.36193930610988,2.184059012729499],[34.36751624852615,2.188732704145507],[34.36600989821802,2.192200199541775],[34.36691447331066,2.195969262946729],[34.37656326459863,2.203959700590976],[34.39359946082324,2.224161877931019],[34.40852461184808,2.237127191012764],[34.41530928470435,2.249339238430809],[34.4293301707875,2.256425446226277],[34.43442527811627,2.266761173693373],[34.43763896117141,2.270421705827862],[34.44254701115163,2.276012165834],[34.44619859465883,2.2843079233839187],[34.44804405853213,2.288500465931432],[34.48857439024008,2.282452903454077],[34.52664553968648,2.268937647047067],[34.53603468718011,2.2628291449827778],[34.51339928733993,2.190707445896855],[34.51116251940679,2.183656033400638],[34.511048536439,2.1830184139754807],[34.5052,2.1567],[34.50519217596572,2.1566798810546923],[34.48239267845517,2.114921785849196],[34.4735747904479,2.092400839370346],[34.462363256468876,2.067972101001978],[34.45582049933877,2.0590954945297346],[34.44328504005756,2.043036530083571],[34.41612389140722,2.0127637158596987],[34.41452239611609,2.021625611735457],[34.41115315146374,2.023454016579683],[34.40806878508852,2.032477433336083],[34.40121782732182,2.038015299310537],[34.394078135613015,2.036759964594074],[34.38831072057432,2.039672195582641],[34.385228173055594,2.040014853272453],[34.38195716025558,2.037245375395849],[34.376317842088206,2.039244122687303],[34.36832302728386,2.044954609411792],[34.35954264335199,2.045668666385983],[34.36007087426215,2.067439330722119],[34.35948045681506,2.070912266831591],[34.354787651306914,2.068920620996003],[34.34617814447163,2.063562128510326],[34.335548182590344,2.059145422822202],[34.321180888516025,2.056488259552581],[34.317277282056814,2.05671283200423],[34.30908216951056,2.05467267665871],[34.2882298836199,2.056556841678321],[34.272163968099555,2.062032941763513],[34.26787713206644,2.064719486875135],[34.2654472149662,2.068842840962102],[34.261182212972464,2.082034016904662],[34.25547267251987,2.092866647793528],[34.25251894411299,2.095829823439151],[34.24836661820632,2.095155583601258],[34.24489542602259,2.096695326490883],[34.2428718950458,2.100446500481265],[34.23797711334616,2.105739721940747],[34.23498712196304,2.098349142013002],[34.235819618444715,2.092697199967525],[34.23400854614639,2.087145326280891],[34.23438623651273,2.084296251544971],[34.233083922335815,2.08309426445373],[34.23192443910732,2.079169595157023],[34.23033364558415,2.078411055707444],[34.22874384720176,2.078918367227142],[34.22574407776867,2.078413959051529],[34.22364644954608,2.075540844200629],[34.223752194267426,2.072889600128592],[34.22226976799231,2.072013374709852],[34.22187230941108,2.072447250519859],[34.22107588418654,2.070051491296576],[34.2161049318732,2.0681313286661878],[34.212,2.1186],[34.0754,2.2035],[34.066530672285445,2.2089461718199237],[34.06695464895973,2.210770202337842],[34.06745415033387,2.2104646243440356]]]}},{"type":"Feature","properties":{"n":"Kangole Town Council","c":"327202","d":"Napak","od":"Napak","dc":"327","k":"KANGOLETOWNCOUNCIL","a":["KANGOLE","KANGOLETOWNCOUNCIL"],"lat":2.436838,"lon":34.49612},"geometry":{"type":"Polygon","coordinates":[[[34.46160929115647,2.459660633815487],[34.46236868627594,2.460203116583259],[34.46333005236594,2.458893946909129],[34.465256305049905,2.458305601038878],[34.46742905879403,2.460928153066222],[34.469497587842525,2.460101782344612],[34.473539206156644,2.455974607880471],[34.48974981334562,2.471411532121329],[34.49072709910002,2.466991403376794],[34.49442941001572,2.46580462648814],[34.497118825008144,2.466560847728803],[34.498924340242134,2.464723385700333],[34.49994823439176,2.465219108550454],[34.503279047026396,2.464341899154719],[34.507717857263984,2.458893839946708],[34.505780362412814,2.457350728181448],[34.49581674310572,2.454168224136853],[34.4943553157621,2.45211321320246],[34.498816360722365,2.450643066200068],[34.50342447712186,2.447355605117596],[34.50430220742091,2.441263633490324],[34.51726695928257,2.43512798878963],[34.521894601958174,2.431894031026081],[34.51908971254928,2.432243171119712],[34.50133066869731,2.424096251953627],[34.501026255865874,2.422478499699949],[34.498650519705315,2.421737866377453],[34.499280813054256,2.419625621409025],[34.50087990861447,2.418425836083338],[34.50044233602529,2.416178871464822],[34.502149972768045,2.410412308750279],[34.50069763738191,2.409325503915531],[34.50025048520941,2.406405038785487],[34.49856115656844,2.403264734548448],[34.49840988494754,2.403493903242052],[34.49205018572859,2.4131294505062995],[34.49209062997104,2.4177126817052415],[34.49210454619793,2.4192827571978572],[34.49263229443318,2.4208150583029386],[34.49387477464951,2.424422082717349],[34.49409960703589,2.428858038750827],[34.48758538941588,2.429725764965004],[34.484051317876876,2.428825481478789],[34.482936338616305,2.432037176742422],[34.48135585280064,2.4331981935494515],[34.47994189966572,2.434237572002573],[34.4800143963737,2.436010796714609],[34.47432112547524,2.439308375211394],[34.47425640565409,2.439457905014739],[34.47288571264919,2.442627909098378],[34.47009180338084,2.4382799029953763],[34.46969672686695,2.4376656219218855],[34.46735139760509,2.4382599434439243],[34.4651846830853,2.4405532328367343],[34.46636036545409,2.443725381088593],[34.46635827082591,2.4437264826317815],[34.46635842656766,2.443726903229209],[34.462919431762494,2.445534985397625],[34.4596309456088,2.451670710789638],[34.459630177549,2.451671182958446],[34.45963013778926,2.451671257132042],[34.45962689978553,2.4516731979808144],[34.45419728104702,2.4550110847140254],[34.459462965520544,2.460155343423753],[34.46160929115647,2.459660633815487]]]}},{"type":"Feature","properties":{"n":"Lorengecora","c":"327203","d":"Napak","od":"Napak","dc":"327","k":"LORENGECORA","a":["LORENGECORA"],"lat":2.268986,"lon":34.297966},"geometry":{"type":"Polygon","coordinates":[[[34.16733905624821,2.270887244065265],[34.1674416872628,2.2712469181237416],[34.16873076685181,2.27576420572332],[34.16859469782604,2.2798788055469914],[34.16854038598133,2.281522282114665],[34.171224673795436,2.292195114718753],[34.16805384252877,2.298443025204006],[34.16778516863291,2.298972466687933],[34.16778510777002,2.298972549034108],[34.16778499492001,2.298972771397494],[34.165463434503614,2.30211372300602],[34.16353820385642,2.304718518644753],[34.163538101545164,2.3047185992823724],[34.16353767394918,2.30471917779771],[34.16014759769726,2.3073908582404665],[34.158149159953844,2.308965946605384],[34.158148957851246,2.3089659635159605],[34.15814822165603,2.308966543703017],[34.1564344291133,2.309109688685943],[34.1534297038643,2.310858343833373],[34.149832516505064,2.315312036097669],[34.14988901219972,2.317139269937374],[34.15438758814593,2.3256982844811933],[34.15457162473821,2.32604840178902],[34.15457164435283,2.326048470800266],[34.154571748881295,2.326048669676689],[34.156114212602674,2.331473789767962],[34.16410707029682,2.335259192798914],[34.16591543418071,2.335544556817583],[34.16867538903385,2.334688112649674],[34.18277178326574,2.352870063991361],[34.17592419595023,2.370544183071054],[34.182644489319486,2.374831444698939],[34.18609405324994,2.3787122056304906],[34.18661678842364,2.379300264818316],[34.18679591001345,2.379296617139115],[34.211875180386656,2.378785539588371],[34.23939340370228,2.3925925920251],[34.25455627863525,2.400200433043215],[34.2469326428572,2.378069839407771],[34.24708135930985,2.366767401919573],[34.249480983173065,2.363808889528153],[34.24571117828097,2.351900486396496],[34.24550645737616,2.351253833539162],[34.24536830740501,2.351120928878398],[34.23926038311891,2.345245687806458],[34.238249113394325,2.340903175205709],[34.239379156565754,2.337810109878087],[34.23890355127683,2.334776653808121],[34.238903549338296,2.334776641449833],[34.23496591137533,2.32516078965844],[34.2349775319074,2.325153411012981],[34.23711926945175,2.323313750972112],[34.24386886617778,2.3195077139938594],[34.243870701699706,2.319506548499419],[34.24645009731422,2.316875113431575],[34.2497739933689,2.318886451369421],[34.25759057205911,2.315281040005016],[34.26304138360418,2.311249012551273],[34.279183108031,2.305345677596964],[34.30050363830671,2.3023949719954913],[34.30050365998342,2.3023949657098672],[34.3059530973817,2.300814696845693],[34.30991277068736,2.297742071262416],[34.31624731388104,2.294944025206142],[34.32673553834283,2.292054404549984],[34.32942439599231,2.288522692116666],[34.33015342249534,2.287564797132115],[34.33015373838166,2.2875647285795933],[34.33015400234159,2.287564381878248],[34.33608888280972,2.2862763979074083],[34.34134119074297,2.2816613680101443],[34.34488908238136,2.278543899356582],[34.34488925953095,2.278543796888613],[34.344889385525036,2.278543686181766],[34.347045858376944,2.277296363610534],[34.35384755314751,2.273362085142408],[34.368947960970424,2.272987318854569],[34.368948097515585,2.2729873359081774],[34.36894810529531,2.272987335715055],[34.37405959547173,2.2736257289632453],[34.39133072923623,2.275782781933433],[34.39622731811954,2.277232765744018],[34.41180136435821,2.277217532225402],[34.412886608874345,2.277784318768652],[34.433791435693976,2.26708557113798],[34.434425263965664,2.266761176078564],[34.43407342435277,2.266047417461525],[34.4293301707875,2.256425446226277],[34.41530928470435,2.249339238430809],[34.40852461184808,2.237127191012764],[34.39359946082324,2.224161877931019],[34.37656326459863,2.203959700590976],[34.36691447331066,2.195969262946729],[34.36600989821802,2.192200199541775],[34.36751624852615,2.188732704145507],[34.36193930610988,2.184059012729499],[34.36058244482231,2.181646811906066],[34.35928310657487,2.16915239287533],[34.359284153919226,2.1691451556433954],[34.35928410133139,2.169144649297871],[34.359920805594896,2.1647408572374838],[34.35726388854337,2.162638376783348],[34.35726383782576,2.1626381245761968],[34.35726382676743,2.162638115834925],[34.35725440412888,2.1625912129445104],[34.355694233444794,2.154832838530253],[34.3504122850527,2.152563734514192],[34.348733056537775,2.149167312880775],[34.34409285215659,2.145585522298393],[34.338599813458806,2.150960895447988],[34.33859902532827,2.1509610886497437],[34.338598764852314,2.150961343690446],[34.33430478735008,2.152013804004642],[34.33430469107119,2.1520137986780634],[34.334304616924946,2.152013816854221],[34.33341418088513,2.1519645316722595],[34.32867232679525,2.151702191098706],[34.32815449532812,2.1519284403349657],[34.32460943544151,2.1534777375457903],[34.32220649319937,2.155533883940769],[34.32220545207433,2.155533885210603],[34.32220423934706,2.155534922834734],[34.32127471666952,2.155535020405233],[34.32079792844679,2.15553560193187],[34.31893293142154,2.157507047572752],[34.31893246529322,2.1575071051323116],[34.31893118534477,2.157508457922673],[34.31589705630283,2.157881944631537],[34.31589698032445,2.1578819400682234],[34.315896980323686,2.157881940068318],[34.31589697981285,2.1578819400374964],[34.313104820685226,2.157714241043223],[34.30767133427358,2.153274453064371],[34.303459869651306,2.147393594599411],[34.30059136137732,2.146196439906823],[34.286151343843535,2.14225944641476],[34.28151284420783,2.140994804448463],[34.272942045706785,2.143116131246454],[34.26840926003916,2.146180264039365],[34.25491881587718,2.159887578868146],[34.25075814067691,2.162514104509746],[34.24239628740283,2.165234688693836],[34.23639686157499,2.168998256405986],[34.23607925064317,2.1705005323002884],[34.23592604335513,2.171225668033482],[34.233947672199974,2.172908183042555],[34.23354842596989,2.1747626280707246],[34.23359235616448,2.174971444918642],[34.234043396557006,2.177111426651949],[34.23405827607823,2.177121826116765],[34.23573676816648,2.178293762187129],[34.23573650602246,2.178294759908979],[34.23573723879335,2.178295272050796],[34.234824469477196,2.181767419923075],[34.22414635184572,2.1865399184585192],[34.223948535634236,2.1866283370716966],[34.22183317163222,2.188281122239049],[34.22152771489163,2.1935278376402776],[34.2215481133876,2.1935504098053378],[34.22242729969359,2.194521072490481],[34.220860576893216,2.1964235334329687],[34.2204671881778,2.196901291534459],[34.22046705546516,2.1969013838521603],[34.22046696299332,2.19690149614009],[34.217034143370356,2.199292299202993],[34.216070487129265,2.19840512172942],[34.21605244522658,2.198388654154005],[34.21400875555018,2.199539005956047],[34.212341471938,2.1994215436775275],[34.211720318298525,2.1993781533156813],[34.211194684277984,2.2000526501477315],[34.20992514377498,2.20168537851547],[34.20992316549992,2.2016842709222093],[34.20992177822882,2.20168605107709],[34.20844923632936,2.200864155849481],[34.20926130302919,2.199705032333045],[34.20763130365376,2.199464246346972],[34.2055606050865,2.202776730578159],[34.19335089007941,2.1961154204509374],[34.192062441281934,2.195412633232661],[34.19206251557181,2.1954125160710984],[34.19205738467576,2.195409716784644],[34.19599726420469,2.189198980087581],[34.19071922105789,2.187035467595897],[34.18660252591147,2.187630121393059],[34.18381854965223,2.185583828558827],[34.18381844809805,2.185583825995917],[34.18037187578412,2.1864406698008834],[34.18036578855545,2.186444182704061],[34.16405650951748,2.173671891617394],[34.156260980541404,2.18223672815581],[34.154151147930534,2.184555044993644],[34.147458183659815,2.187440970519878],[34.144747388309774,2.1904439021780906],[34.14133167480066,2.194227733534556],[34.13111634967564,2.2078239252154095],[34.13121583534136,2.207944450328453],[34.12995369177439,2.2163869748546556],[34.13195422181875,2.2189820817966126],[34.13809165952256,2.226943598216671],[34.145686878445716,2.233568036916212],[34.14985562946815,2.240135021186501],[34.1569655222061,2.243811617249824],[34.15766865335062,2.248979801712131],[34.15707433548843,2.253144821675177],[34.163141591209914,2.26551723730431],[34.167338782876115,2.270886312995958],[34.16733904415738,2.270887228597003],[34.16733905624821,2.270887244065265]],[[34.24674745709194,2.187819476856621],[34.24763206204344,2.188650834202939],[34.25014262208097,2.188795135665615],[34.25144927182628,2.18780580855117],[34.25389938694094,2.189048181205388],[34.25524367670407,2.188342214455977],[34.25633723770081,2.189430425020165],[34.25819256573412,2.189026346353997],[34.25905726460807,2.189739254332568],[34.262319774820675,2.188830584038862],[34.26279556413412,2.189672033418612],[34.2665512515403,2.188662509239246],[34.26781700503754,2.190372331935826],[34.26992632193019,2.189318281575102],[34.27402106641943,2.191291211169085],[34.27602051000107,2.190274204379641],[34.27709507184937,2.190885964514841],[34.27963089521972,2.189172886379542],[34.280968985250006,2.189885258382973],[34.28309641844021,2.188767106343104],[34.28334972397703,2.187367081611941],[34.285950739846584,2.186751601103158],[34.29281181318609,2.179279254717393],[34.29798227475163,2.1846245974436],[34.308798500538515,2.192797269287503],[34.3121750805308,2.186546741219017],[34.31578207860589,2.191378460798502],[34.31606128677123,2.193380817765221],[34.319570437677214,2.198956353870216],[34.31897776732123,2.21019434714936],[34.31491452731039,2.221071105145399],[34.316233809056364,2.226082238157486],[34.32182205793041,2.237660554794341],[34.327775201240776,2.243121490726932],[34.32027180773396,2.246101613366528],[34.309350846434334,2.247315223717689],[34.30223004809238,2.246892886868548],[34.30020769562466,2.249123465678846],[34.29417129237472,2.253204139742976],[34.281823798565746,2.251027165427155],[34.27336563255105,2.247303471388584],[34.269044065186264,2.242303326365299],[34.264794182829256,2.234082446163788],[34.26253872600193,2.237152471042071],[34.25780117801754,2.240682117729035],[34.240707528461435,2.2369006452463],[34.23508244271442,2.234300483996895],[34.22634042419583,2.224909864706854],[34.227494299540986,2.223071229412638],[34.236932631943596,2.214941438201956],[34.24511801609533,2.210754135206169],[34.242930745371275,2.20551566314455],[34.24353054428398,2.201751115987757],[34.2416262716752,2.190427314387404],[34.24555098944476,2.190903558767205],[34.24674745709194,2.187819476856621]]]}},{"type":"Feature","properties":{"n":"Lotome","c":"327204","d":"Napak","od":"Napak","dc":"327","k":"LOTOME","a":["LOTOME"],"lat":2.354269,"lon":34.513467},"geometry":{"type":"Polygon","coordinates":[[[34.42581833006006,2.336379666543868],[34.43503541927865,2.3392369831594166],[34.440094854699765,2.340805413352402],[34.44009491117944,2.340805436055069],[34.44009491117993,2.34080543605522],[34.44009491483502,2.3408054375244705],[34.44737594596337,2.343732132949143],[34.45772661376875,2.352012637903862],[34.46667706357265,2.35652458429219],[34.46854495695136,2.360464852863796],[34.46754559816156,2.372850004900932],[34.46759529985763,2.3730823279999993],[34.47014078707885,2.384979492217502],[34.478641243478314,2.3839730753078845],[34.47999556752966,2.3838125114928483],[34.481765252482774,2.380466604586531],[34.48176570913143,2.3804664447216592],[34.4817657228442,2.380466418780097],[34.48178949658051,2.380458117143197],[34.48488417493088,2.379374723262358],[34.489493272010414,2.385271624316778],[34.48949331626536,2.38527170185198],[34.489493319036,2.385271705395914],[34.49488425260805,2.394716671863844],[34.494884289943606,2.394716753186009],[34.49488446178749,2.394717054258584],[34.49488496100485,2.3947182148531714],[34.50025031733499,2.406404726722603],[34.50025048520941,2.406405038785487],[34.50069763738191,2.409325503915531],[34.502149972768045,2.410412308750279],[34.50044233602529,2.416178871464822],[34.50087990861447,2.418425836083338],[34.499280813054256,2.419625621409025],[34.49870174033424,2.4215662153265436],[34.50102379230087,2.422477731686075],[34.501026255865874,2.422478499699949],[34.50102629630912,2.4224787146289697],[34.501026350757684,2.422478736002633],[34.50133069482457,2.4240962639394454],[34.51690628673425,2.4312415297155643],[34.51908975233393,2.4322431661674964],[34.51910503147693,2.432241264288085],[34.5215547301501,2.431795085543473],[34.53093166758847,2.433708649305508],[34.53328414407101,2.431076544930197],[34.533314932252416,2.427863467252513],[34.53914348115037,2.423759787756107],[34.53905470829701,2.422295583076849],[34.54002352616677,2.421031314225189],[34.541393773261944,2.420833362739123],[34.54145177451908,2.422031034867129],[34.545050788779285,2.421460790420503],[34.547904538926566,2.423287536196842],[34.550360280066954,2.427456225773994],[34.55144539190804,2.431453687489634],[34.55481463368024,2.43448030393083],[34.55658502208734,2.435850928365464],[34.55904061917731,2.435451180076018],[34.55989638635648,2.434480892498656],[34.5620092057202,2.435679246332632],[34.56303812158638,2.439448671010664],[34.56400785074411,2.439105516609691],[34.566653902707124,2.441797348225748],[34.56600237556914,2.442713890993653],[34.56786055058896,2.44279317998237],[34.567836058680506,2.444140659349666],[34.569401798718616,2.4439105236601],[34.56959956762697,2.443173855695646],[34.57185986510606,2.444465652007146],[34.57302922714742,2.4403576108170375],[34.573,2.4397],[34.57340116998167,2.4390509526312765],[34.573644459418,2.438196261791152],[34.577201959289575,2.432784520376992],[34.577332428798485,2.432690623326026],[34.580578513188215,2.427438828256466],[34.58060550273687,2.427221878952841],[34.58111806498868,2.4265658948557145],[34.5853,2.4198],[34.536034690143396,2.2628291544244936],[34.53505896428296,2.2634639422671405],[34.52664553968648,2.268937647047067],[34.526645208009725,2.268937764792298],[34.526645171077206,2.268937788819863],[34.48857470427274,2.282452797918511],[34.4885746746218,2.282452802498578],[34.48857439024008,2.282452903454077],[34.48856353886498,2.2824545225962383],[34.44662705603565,2.2889322903096385],[34.436777470882575,2.2919339097004827],[34.43677735733344,2.2919339527426774],[34.43142300038377,2.295289215224428],[34.41650402963188,2.302356095112946],[34.41074984709467,2.3037269891103076],[34.41074971521357,2.3037270560206866],[34.40589647217673,2.306189382088571],[34.402150224659124,2.30947616567572],[34.41515124810598,2.336214600944678],[34.4183351233184,2.33548412747991],[34.425818180878125,2.336379629759274],[34.42581828034655,2.3363796605945883],[34.42581833006006,2.336379666543868]]]}},{"type":"Feature","properties":{"n":"Nabwal","c":"327205","d":"Napak","od":"Napak","dc":"327","k":"NABWAL","a":["NABWAL"],"lat":2.00234,"lon":34.314114},"geometry":{"type":"Polygon","coordinates":[[[34.22107543310431,2.0700513170540584],[34.22107588418654,2.070051491296576],[34.22154928852445,2.0714755582069797],[34.22187250617981,2.0724470357221603],[34.22226976799231,2.072013374709852],[34.22344726040314,2.0727093612813703],[34.22375102514255,2.072888600903937],[34.223751013191375,2.0728889020238195],[34.223752194267426,2.072889600128592],[34.223646450815934,2.0755408123627075],[34.224224515229174,2.0763326189684403],[34.22574407776867,2.078413959051529],[34.22874384720176,2.078918367227142],[34.23033364558415,2.078411055707444],[34.23192443910732,2.079169595157023],[34.23192462742619,2.0791702325869323],[34.23192495370302,2.079170388253434],[34.23303432328494,2.0829263794275863],[34.233083922335815,2.08309426445373],[34.23438623651273,2.084296251544971],[34.23408457728047,2.0865717919719846],[34.23400861046573,2.087145523452951],[34.235617831244504,2.0920786177893307],[34.23581945305949,2.092696669983685],[34.23581945072601,2.0926966858229097],[34.235819618444715,2.092697199967525],[34.23498712196304,2.098349142013002],[34.2379769556821,2.10573933223098],[34.24287199782706,2.1004463099477912],[34.243936930553176,2.0984721627815146],[34.24489446989357,2.096696907356249],[34.24489460577814,2.096696847040684],[34.24489542602259,2.096695326490883],[34.24836661820632,2.095155583601258],[34.248366830990875,2.0951556181524538],[34.248367000824494,2.095155542767805],[34.24996478743849,2.09541508860839],[34.25251887323534,2.095829811930291],[34.25290287955346,2.0954446600151746],[34.255472671949114,2.0928666483661136],[34.261182219357295,2.0820339971571005],[34.2654472149662,2.068842840962102],[34.265447215602,2.068842839883201],[34.265447216566635,2.068842836899696],[34.2655512249985,2.068666345150078],[34.26787713206644,2.064719486875135],[34.270137062345775,2.063303196492753],[34.27216387810731,2.062032981958945],[34.27216393478993,2.06203296263854],[34.272163968099555,2.062032941763513],[34.2882298836199,2.056556841678321],[34.28822990067522,2.056556840137241],[34.28822994321079,2.056556825638892],[34.29554621380461,2.0558957547606447],[34.30908216951056,2.05467267665871],[34.31727707156513,2.056712779602786],[34.31988827279705,2.056562623063371],[34.321180888516025,2.056488259552581],[34.32118102023248,2.056488283912919],[34.321181030873696,2.056488283300998],[34.322166823852804,2.0566706036425364],[34.335548182590344,2.059145422822202],[34.34617814447163,2.063562128510326],[34.34617823152627,2.063562182692481],[34.34617828310828,2.06356220412425],[34.354787685863094,2.0689206356617884],[34.35948045681506,2.070912266831591],[34.36007087012965,2.0674393550302015],[34.360069108594395,2.0673665599711057],[34.35954264335199,2.045668666385983],[34.36832302728386,2.044954609411792],[34.376317842088206,2.039244122687303],[34.38195716025558,2.037245375395849],[34.385228173055594,2.040014853272453],[34.38831072057432,2.039672195582641],[34.394078135613015,2.036759964594074],[34.40121777464433,2.038015290048529],[34.408068804977155,2.0324773751512013],[34.41115315146374,2.023454016579683],[34.41452239611609,2.021625611735457],[34.41612389140722,2.0127637158596987],[34.416123963446104,2.012763796151584],[34.416123963446104,2.0127637961515825],[34.39741969614127,1.991916709873958],[34.30895882512926,1.924394492566305],[34.24988666075189,1.891017496405226],[34.22404543085473,1.880516418946847],[34.22346023598489,1.922296483205288],[34.22501839126784,1.951375509049965],[34.22480000829022,1.959617661981391],[34.22312948916084,1.9631136408221095],[34.2232,1.9809],[34.216104866386914,2.0681321337966203],[34.216104866386914,2.068132133796621],[34.2161049318732,2.0681313286661878],[34.220810283944225,2.069948896134168],[34.221075415240776,2.070051263362625],[34.22107543310431,2.0700513170540584]]]}},{"type":"Feature","properties":{"n":"Napak Town Council","c":"327206","d":"Napak","od":"Napak","dc":"327","k":"NAPAKTOWNCOUNCIL","a":["NAPAK","NAPAKTOWNCOUNCIL","TOWNCOUNCIL"],"lat":2.218006,"lon":34.274717},"geometry":{"type":"Polygon","coordinates":[[[34.257801185082016,2.24068211246574],[34.26253872599983,2.237152471043634],[34.26253872705866,2.23715246960369],[34.264794182829256,2.234082446163788],[34.26895027904035,2.242121908479952],[34.26904413497933,2.2423034071173538],[34.27336563255105,2.247303471388584],[34.27336695777192,2.2473040548149497],[34.28414014527459,2.2514355582046464],[34.294167334164584,2.2532034418748954],[34.29417135574692,2.253204096902683],[34.30020763488226,2.2491235067413617],[34.300241255357754,2.249086450553778],[34.30223004809238,2.246892886868548],[34.30935079631199,2.247315220744917],[34.30994904911762,2.247248747429695],[34.32027180773396,2.246101613366528],[34.327775201240776,2.243121490726932],[34.32182205793041,2.237660554794341],[34.321200713069366,2.236373187731065],[34.32039452779469,2.235546457144393],[34.31623385032146,2.226082330577014],[34.31623384631187,2.226082315347322],[34.316233809056364,2.226082238157486],[34.31525862462649,2.2223781174081907],[34.31491490153632,2.221072549267809],[34.31491490503708,2.2210725398947835],[34.31491452731039,2.221071105145399],[34.31897776732123,2.21019434714936],[34.319570437677214,2.198956353870216],[34.31606128677123,2.193380817765221],[34.31606127073771,2.1933807027799337],[34.31606111713036,2.193380458757597],[34.31601911987687,2.1930784155249854],[34.315782112574816,2.1913787044085447],[34.31304317008702,2.1877095822347954],[34.3121750805308,2.186546741219017],[34.308798500538515,2.192797269287503],[34.308793369797485,2.1927933925320087],[34.30879331064461,2.192793501956325],[34.2979824010093,2.184624698875019],[34.297982382173615,2.1846246786109726],[34.29798227475163,2.1846245974436],[34.292939310392825,2.179411064277907],[34.28595770227031,2.186744018376786],[34.285950739846584,2.186751601103158],[34.285950408122105,2.186751679599393],[34.28595010920637,2.186751993557914],[34.28422309981721,2.1871604139738214],[34.28334989246668,2.1873670417420974],[34.2833202519248,2.1875299742297925],[34.28309641844021,2.188767106343104],[34.283095064421786,2.1887678179981003],[34.28309497089387,2.188768332116111],[34.281969342915794,2.1893594830167937],[34.280968985250006,2.189885258382973],[34.27963097922243,2.1891729311008854],[34.277095763914346,2.190885723335062],[34.27709558211315,2.1908856198056093],[34.27709507184937,2.190885964514841],[34.27602051599908,2.1902742077943764],[34.27402257695824,2.191291361634443],[34.274021649190914,2.1912909147453394],[34.27402106641943,2.191291211169085],[34.26992632193019,2.189318281575102],[34.26981699686252,2.1893729125921007],[34.267818247280495,2.190371948463176],[34.26781811895071,2.19037177530037],[34.26781700503754,2.190372331935826],[34.2665512515403,2.188662509239246],[34.26279556413412,2.189672033418612],[34.26279545874542,2.189671847035159],[34.262795290255134,2.189671892323652],[34.26275272708334,2.1895962746556594],[34.26232005912527,2.188831086841092],[34.26086301489986,2.1892363190033035],[34.25905726460807,2.189739254332568],[34.259056610440965,2.189738714999212],[34.259055700149474,2.189738968168871],[34.25825703226441,2.189079496306168],[34.25819256573412,2.189026346353997],[34.25633723770081,2.189430425020165],[34.25633702839645,2.189430216739865],[34.25633654387448,2.189430322218471],[34.25593601597333,2.1890311663379998],[34.25524430239345,2.188342837084067],[34.25484777345511,2.1885501268699628],[34.25389938694094,2.189048181205388],[34.25145058747737,2.187806475674492],[34.250143083085426,2.188795070784716],[34.250142803592794,2.188794998234321],[34.25014262208097,2.188795135665615],[34.24763206204344,2.188650834202939],[34.24688588287566,2.1879495702864866],[34.24671426949183,2.187905023070416],[34.24555267234754,2.190899220822886],[34.24555160225658,2.190902328167058],[34.24555147295796,2.190902312436531],[34.24555098944476,2.190903558767205],[34.2416262716752,2.190427314387404],[34.24353054428398,2.201751115987757],[34.242930751981305,2.2055156216576863],[34.24295141817467,2.20556517411812],[34.24511801609533,2.210754135206169],[34.236932709008315,2.2149413987788433],[34.22749428583833,2.2230712512470427],[34.22634042419583,2.224909864706854],[34.23508244271442,2.234300483996895],[34.240707528461435,2.2369006452463],[34.257801154345096,2.240682112492196],[34.257801185082016,2.24068211246574]]]}},{"type":"Feature","properties":{"n":"Ngoleriet","c":"327207","d":"Napak","od":"Napak","dc":"327","k":"NGOLERIET","a":["NGOLERIET"],"lat":2.496366,"lon":34.487899},"geometry":{"type":"Polygon","coordinates":[[[34.422203745846545,2.490909701704019],[34.422203762405175,2.4909097716148607],[34.42220395867814,2.490910096200456],[34.42295002309294,2.494058979264135],[34.4286318205304,2.4986726198482256],[34.43413801468884,2.503143622686387],[34.43413805803559,2.50314370511644],[34.434138522818856,2.503144082522175],[34.436563194735044,2.507755412031594],[34.43553922476052,2.509284760020695],[34.436782049820586,2.513157647128992],[34.43678205731544,2.513157731873655],[34.43678206749557,2.513157763591213],[34.43678518338024,2.5131930784275447],[34.437362658891296,2.519722619759074],[34.44632010220717,2.5182830749144083],[34.4464466537496,2.518262715255177],[34.446446695196684,2.518262730238031],[34.446446789369034,2.518262715103654],[34.45228929225276,2.5203747680065076],[34.452326655703715,2.52037632235338],[34.458856039558015,2.520645587096304],[34.461504546829936,2.531723533034796],[34.46153554205044,2.531853162006112],[34.465241488534154,2.54109804258397],[34.46524149757772,2.5410980945201413],[34.465241509361,2.54109812391484],[34.465698720934846,2.5437238759678227],[34.46748196108761,2.553964820217386],[34.47032087798124,2.5594931683214743],[34.47180669372993,2.5607362668780884],[34.472446482794666,2.56127145065538],[34.47244650664081,2.56127156239283],[34.47244654432002,2.561271593916911],[34.47428519843274,2.5698872423881305],[34.47493245848536,2.572920151716175],[34.47609305615547,2.5717376741421094],[34.4764,2.5713],[34.477234044238884,2.570575175840018],[34.47879817505066,2.568981557607383],[34.478893761473046,2.569132802529375],[34.481622181882145,2.5667616752690896],[34.481675020380436,2.566307860116301],[34.48482643544912,2.563971372306578],[34.485054649110126,2.5639569250261487],[34.498145520479945,2.561742548774537],[34.498200738174866,2.561694974717938],[34.49822139062358,2.561729715018898],[34.5049,2.5606],[34.57399433333689,2.4622080694594786],[34.5714861518871,2.455588998377769],[34.5722961232033,2.451848992804794],[34.57185986118587,2.444465664070869],[34.571807927755394,2.4444359689770847],[34.56960021932627,2.4431742281522615],[34.56952438822641,2.4434538908965338],[34.569401798718616,2.4439105236601],[34.569400520413666,2.4439107115479892],[34.56940046970666,2.443910898553872],[34.56842914582402,2.4440534861820757],[34.567836058680506,2.444140659349666],[34.56786055058896,2.44279317998237],[34.56600237556914,2.442713890993653],[34.56600275409111,2.4427133585038256],[34.56600190389626,2.442713322011686],[34.56614189614932,2.4425176189256437],[34.56665357652051,2.4417978070922546],[34.56512740285833,2.4402444382253643],[34.56400851146041,2.439106188757113],[34.56388999890933,2.439147220394139],[34.56303812158638,2.439448671010664],[34.563036497516,2.439442721242411],[34.563035305904414,2.439443133804404],[34.56242327089657,2.4371961706462915],[34.5620092057202,2.435679246332632],[34.55989664097748,2.434481036915189],[34.55981013090392,2.4345786908205973],[34.55904061917731,2.435451180076018],[34.55658502208734,2.435850928365464],[34.55481463368024,2.43448030393083],[34.55144539190804,2.431453687489634],[34.550360280066954,2.427456225773994],[34.547904538926566,2.423287536196842],[34.545554077373055,2.421782956085153],[34.54505070930634,2.421460803012564],[34.54347173093244,2.421710983640914],[34.541457371535344,2.422031488680621],[34.541457301898845,2.422030159083543],[34.54145177451908,2.422031034867129],[34.541393773261944,2.420833362739123],[34.54002352616677,2.421031314225189],[34.53905470829701,2.422295583076849],[34.53914348115037,2.423759787756107],[34.53914180796272,2.423760965789605],[34.539141828748676,2.42376131387608],[34.53331493147068,2.4278635488354223],[34.53328414407101,2.431076544930197],[34.53093166758847,2.433708649305508],[34.53058723418082,2.43363836033412],[34.521894615688694,2.431894034517136],[34.51984973565234,2.4333230547707263],[34.51726695928257,2.43512798878963],[34.5149980522726,2.436201762311917],[34.504302167633156,2.441263909641059],[34.50342447712186,2.447355605117596],[34.49956348147239,2.450110065256367],[34.49881759450992,2.450642326036292],[34.498817153089234,2.4506425009202375],[34.498816360722365,2.450643066200068],[34.49881258842106,2.4506443093701122],[34.494520099186225,2.452344926219093],[34.49581674310572,2.454168224136853],[34.50417340951658,2.456837447421304],[34.50578008964598,2.457350623078678],[34.50578012715567,2.4573506530373863],[34.505780362412814,2.457350728181448],[34.507717857263984,2.458893839946708],[34.503279047026396,2.464341899154719],[34.50066374801531,2.465030669469003],[34.499950157689014,2.465218932260814],[34.4999497156847,2.4652187184342194],[34.49994823439176,2.465219108550454],[34.498924340242134,2.464723385700333],[34.497118825008144,2.466560847728803],[34.497118304492695,2.4665607013680373],[34.49711825663149,2.46656075006182],[34.49677014047239,2.466462803115767],[34.49442941001572,2.46580462648814],[34.492000163212836,2.4665833222887206],[34.490727043781476,2.4669916535749503],[34.48974981334562,2.471411532121329],[34.473539206156644,2.455974607880471],[34.469497587842525,2.460101782344612],[34.4682664257263,2.4605936276620106],[34.467875636778835,2.46093612023066],[34.46774284405983,2.460802796858769],[34.46742905879403,2.460928153066222],[34.4652598532125,2.458309883733611],[34.465255754923156,2.4583057690670933],[34.46333005236594,2.458893946909129],[34.46236868627594,2.460203116583259],[34.46203440354884,2.459964317815179],[34.46160864870196,2.459660781895728],[34.459462965520544,2.460155343423753],[34.45425514244584,2.455067611839093],[34.45419727568181,2.455011088012322],[34.45280713254564,2.455865685831236],[34.44837379904689,2.4565217492071],[34.445314554223394,2.4560952302619787],[34.44489817869428,2.4560373597984135],[34.44182528555455,2.456877617442497],[34.44084767689603,2.458886551131631],[34.44239615411988,2.462873182147354],[34.44239608802666,2.462873200070927],[34.4423961620129,2.462873390528671],[34.43818444605774,2.464015640013816],[34.43597124898645,2.4633732479209876],[34.43483072410877,2.463824773480929],[34.43354675134352,2.466034401310679],[34.43359239161632,2.466054584215333],[34.43511699576765,2.466728403557558],[34.43511694890203,2.4667287693690687],[34.43511772800802,2.466729113902984],[34.43499264797921,2.467699005257116],[34.43490618325845,2.46837390913737],[34.434905585612725,2.468374101332211],[34.43490542941077,2.46837531254817],[34.4320513231872,2.469292007663104],[34.43007906007969,2.4717815760375226],[34.430079555510844,2.471803632906795],[34.430105346220614,2.472883308848625],[34.430999960391695,2.4728310694936493],[34.43181573385875,2.472782235763515],[34.431815482655395,2.4727834485656546],[34.43181675524491,2.472783374255122],[34.43158669752836,2.473888016181667],[34.43155702139926,2.474031291627922],[34.43155685473302,2.474031308931996],[34.43155675809622,2.474031772941885],[34.43154120157997,2.474032934116069],[34.427393614109796,2.4744635561817008],[34.42723886007641,2.4746492484458087],[34.42724008252394,2.4758285433978724],[34.42762202962056,2.47663178491516],[34.42724419000229,2.479625879622762],[34.42407832633272,2.4786713800386697],[34.4234389258311,2.4794204210256536],[34.42248714084523,2.4805359778950704],[34.42277548586816,2.482947999725702],[34.42277499579925,2.482948616756487],[34.42277516327994,2.482950020380598],[34.42277183192801,2.4829526002900577],[34.42178894924489,2.484190117834901],[34.42062396900508,2.4846159766006286],[34.42062327030594,2.484616517696423],[34.42000417449089,2.4835988365927673],[34.420257861789395,2.487691746650356],[34.42191305049531,2.4904290080158273],[34.422203745846545,2.490909701704019]]]}}]}
