{"type":"FeatureCollection","name":"Obongi sub-counties","metadata":{"source":"Uganda Bureau of Statistics NPHC 2024 Map Explorer","retrieved":"2026-07-26","display_only":true,"clipped_to_dashboard_district":true,"positive_area_overlaps_removed":true,"source_gap_ratio":0.20580064},"features":[{"type":"Feature","properties":{"n":"Aliba","c":"337101","d":"Obongi","od":"Obongi","dc":"337","k":"ALIBA","a":["ALIBA"],"lat":3.219893,"lon":31.529013},"geometry":{"type":"Polygon","coordinates":[[[31.475361790710917,3.234372629592],[31.482175342711535,3.236866389476138],[31.493989751623083,3.239048988777206],[31.494720284145576,3.237070426641171],[31.498622707428684,3.232999247962104],[31.501715530719974,3.232531379690074],[31.50547638820447,3.233533328791755],[31.51230675941633,3.237545957162054],[31.513037684231914,3.235101546606663],[31.51404139536511,3.236560868219852],[31.517396420761607,3.237096283615941],[31.51975790436204,3.238983635336496],[31.524909435543805,3.240185263750825],[31.52960944788014,3.240304397843705],[31.532695243104776,3.242118554823504],[31.543703481389404,3.23953452490187],[31.54913958667368,3.236426668279956],[31.549533587951935,3.236972319776584],[31.553496345744996,3.235091828440064],[31.563670549375203,3.236597660623093],[31.56409373543008,3.23603881922882],[31.570890629966744,3.2238512841975626],[31.57154425684068,3.2219649488607427],[31.568363118070618,3.2130787926270155],[31.564256323184992,3.207116543674152],[31.56358802410072,3.1997401003805286],[31.56278799515367,3.1975053087763676],[31.553977811925257,3.198494190833603],[31.545596691367706,3.201591124012601],[31.542632160467875,3.20145755493546],[31.539278780748496,3.203007126334971],[31.531225915210207,3.201635533643979],[31.5196185344726,3.207448113644968],[31.517519160303905,3.211007159687929],[31.515696843709723,3.212064298404583],[31.510855046672052,3.211140946205054],[31.507523419395035,3.212283054698394],[31.50538295320507,3.211898188745439],[31.498304247278995,3.217821451618673],[31.49224043886627,3.215539415726196],[31.48431949726891,3.222413502293838],[31.481387331025353,3.223722764683422],[31.4747766734887,3.223380103541956],[31.472314709525367,3.22545696634852],[31.47417883897552,3.229131457852299],[31.475361790710917,3.234372629592]]]}},{"type":"Feature","properties":{"n":"Ewafa","c":"337102","d":"Obongi","od":"Obongi","dc":"337","k":"EWAFA","a":["EWAFA"],"lat":3.188588,"lon":31.519155},"geometry":{"type":"Polygon","coordinates":[[[31.47231470355167,3.225456955495862],[31.47234294560138,3.2254331469681623],[31.4747766734887,3.223380103541956],[31.47477820387785,3.223380182869147],[31.474778385824248,3.223380029485244],[31.478941387605516,3.223595980054275],[31.481387331025353,3.223722764683422],[31.484319412716676,3.2224135400478575],[31.485054529211503,3.2217756143431115],[31.49224043886627,3.215539415726196],[31.498304247278995,3.217821451618673],[31.50538295320507,3.211898188745439],[31.50741964111567,3.2122643948725247],[31.50752347307263,3.2122830362972854],[31.510855046672052,3.211140946205054],[31.510855115219858,3.211140959277425],[31.51085514312007,3.211140949712306],[31.51091096710766,3.2111516104804902],[31.515696843709723,3.212064298404583],[31.517519160303905,3.211007159687929],[31.5196185344726,3.207448113644968],[31.519619395361996,3.207447682540948],[31.519619395813564,3.207447681775591],[31.531224688537954,3.201635942674092],[31.531224994407218,3.20163599475068],[31.531225915210207,3.201635533643979],[31.539278780748496,3.203007126334971],[31.542632160467875,3.20145755493546],[31.545596691367706,3.201591124012601],[31.553977811925257,3.198494190833603],[31.56278799515367,3.1975053087763676],[31.562787996077127,3.197505311355941],[31.560263274482637,3.190452783265543],[31.55920321987725,3.1880764138586417],[31.5499,3.1758],[31.549857204634893,3.175700540401461],[31.545906808186654,3.168358812250629],[31.543439885623048,3.162148772653961],[31.543468556041322,3.1608528478367774],[31.539209895466545,3.1509554052046487],[31.53904484402222,3.1507296552919493],[31.507150871406367,3.167877843165927],[31.50063270720196,3.171404929719856],[31.498616794541938,3.172009007269047],[31.495565011351612,3.1709158664761166],[31.4954,3.1709],[31.4784,3.1891],[31.471,3.2037],[31.46224963437073,3.214211621331011],[31.468975931672304,3.219668518434278],[31.47231470355167,3.225456955495862]]]}},{"type":"Feature","properties":{"n":"Gimara","c":"337103","d":"Obongi","od":"Obongi","dc":"337","k":"GIMARA","a":["GIMARA"],"lat":3.307884,"lon":31.513007},"geometry":{"type":"Polygon","coordinates":[[[31.448030737796373,3.320254153413512],[31.448956134065963,3.323491083277036],[31.46239431771672,3.343507467602091],[31.46540932479977,3.34668619169628],[31.472158258169284,3.350978416106131],[31.48162297333965,3.364899077904576],[31.485469596894724,3.372169805370071],[31.48867210452066,3.375632973442947],[31.490218417308608,3.378071549088583],[31.490991862112374,3.381938242848366],[31.495886240766087,3.393912825746677],[31.499032285465336,3.392470920803514],[31.49896131300415,3.390543157896314],[31.500816882070595,3.387902358402144],[31.500602885646888,3.385760433808511],[31.504386072777564,3.379764598755576],[31.506099538673674,3.372840876669106],[31.509132176869713,3.371628846410146],[31.51096206729312,3.367771685316148],[31.51406145886095,3.366198470825005],[31.517537983866735,3.368093362559848],[31.51943757905556,3.366818030568426],[31.519767081128798,3.367535544154477],[31.523364109100935,3.367828888612294],[31.523982182272405,3.369025717693077],[31.524816120903214,3.369003346703925],[31.52899083012423,3.36635669836818],[31.528421701509643,3.36511078416098],[31.529601529677894,3.364552460091045],[31.530295901280226,3.362592980441032],[31.531535102433967,3.362380882040272],[31.534702374962325,3.363724781541583],[31.53694627203124,3.361744367467654],[31.538756755666956,3.361795446604221],[31.53948182470228,3.362717144591636],[31.54160232173342,3.361956528742569],[31.541981924856476,3.363893333139629],[31.542720675455623,3.363918574276254],[31.544845190250747,3.361794391138012],[31.546036595616396,3.362276421059879],[31.54648632358928,3.363494920017587],[31.54779841345603,3.362924823253417],[31.548582141455306,3.364192131339895],[31.549716206746613,3.363657045871675],[31.551095881716453,3.364617298948155],[31.551521121617878,3.366552728049026],[31.553640906025837,3.366579317153866],[31.55290055104749,3.368157307455931],[31.556947514045238,3.369264685007185],[31.556590608973003,3.370268170080117],[31.557912291793784,3.370784636814159],[31.558889293452,3.370786386214609],[31.558964670592818,3.369758262564176],[31.56017696624109,3.37026261256959],[31.561390811713398,3.369429793115852],[31.561964021726844,3.370361445414244],[31.56413315107956,3.369982717235119],[31.565587368522863,3.368646414219488],[31.56748102907162,3.370096273194704],[31.567198811007565,3.368375628521157],[31.568055999405203,3.368112630415573],[31.569362780996908,3.370577853942608],[31.570461107159836,3.369934836744323],[31.572413296921933,3.370131691827738],[31.572746200650165,3.370894735549031],[31.574843370183252,3.370731040032203],[31.57460708046028,3.369511107345927],[31.572797194020364,3.369699017634686],[31.572605847587283,3.369127485475345],[31.5752769497348,3.368245038167521],[31.576453818034423,3.369550226554336],[31.57786212597922,3.368933406300119],[31.57904831454921,3.371348225522893],[31.583055906268243,3.368796666022974],[31.58313030697144,3.367840891906761],[31.584390835515066,3.36844033633682],[31.58553584443726,3.367796705221008],[31.585885265841014,3.366087471738513],[31.58664539599741,3.366901936875408],[31.589028409043983,3.366882206040993],[31.590508051006598,3.365952809401896],[31.59167324285367,3.367054218994648],[31.592960843312387,3.365026579825485],[31.59370142011253,3.365431722411021],[31.593823985701828,3.364695855395504],[31.596265372354164,3.363368168409524],[31.597052355854736,3.363679997739802],[31.597910441024915,3.362632864121893],[31.599434206547034,3.36437760713709],[31.603294323212218,3.363307458304704],[31.604460337825618,3.365605877933387],[31.609162990503393,3.367539028507442],[31.60975674056661,3.369190005028707],[31.610840101078853,3.369753809902943],[31.61128252067082,3.368643199869953],[31.611853966796254,3.369074063872695],[31.612689747855203,3.367999444086601],[31.612429630011803,3.366159006172109],[31.614432336593975,3.366137261779349],[31.61501749137478,3.365313291465893],[31.6144720394954,3.364734440708789],[31.61611814934806,3.362517406403111],[31.61464371699183,3.360599861251272],[31.614944570788527,3.358773041740021],[31.613428124253304,3.3538855753177],[31.609742454220314,3.352917064397018],[31.609735106744314,3.3529087221725002],[31.6097,3.3529],[31.60965957600745,3.3528229655990995],[31.60583049256668,3.348475476235499],[31.6048569560402,3.346081922208582],[31.604616538572955,3.3432126489786516],[31.6044,3.3428],[31.604499964949763,3.341821395754949],[31.604471211112674,3.341478231774572],[31.604677602824125,3.3400824144585446],[31.60616947095574,3.3254778106438034],[31.60602407802729,3.323866723459925],[31.600442777825418,3.3171252653509256],[31.598567432231878,3.315726570410515],[31.5970834289942,3.313067624908725],[31.5885,3.3027],[31.588491364045698,3.3026585260960135],[31.58848501648106,3.302652783216204],[31.58699970308079,3.300079476117141],[31.58633860835546,3.296276505341135],[31.58643491027428,3.292782470329577],[31.580445009260206,3.2640161555829685],[31.580266627874828,3.2637382173243683],[31.56792140304204,3.258019473468003],[31.56685272712916,3.25768445637713],[31.56656547807977,3.261198561451912],[31.564027882322446,3.26856776671348],[31.56191518134334,3.271508520831685],[31.56015165590221,3.272608373945747],[31.557297504577836,3.269356037429646],[31.554132917981693,3.268071140009192],[31.54942149375202,3.268642179915449],[31.54316341080653,3.266857607157255],[31.5385972240141,3.269046367082411],[31.538229598678775,3.264897963165604],[31.533322403267004,3.269497599310339],[31.53066997062653,3.27394020325394],[31.52846796135787,3.274847040167132],[31.522229826725862,3.282337078056871],[31.51532879977462,3.277101543968845],[31.512979349428413,3.270529072823283],[31.513284009268055,3.268325892746813],[31.5175770971661,3.269095848038855],[31.51991927570185,3.270438105436625],[31.52285492216019,3.269424573532476],[31.51794978760825,3.265819152456968],[31.51698595329542,3.263574710226549],[31.51660406927324,3.240544094624685],[31.51338392798116,3.238937273595293],[31.511750431150755,3.23721913179453],[31.507999900826206,3.235015813128947],[31.501715657608656,3.232531413495131],[31.501715530719974,3.232531379690074],[31.498622709993807,3.232999247574064],[31.494720282287705,3.2370704316729966],[31.493989751623083,3.239048988777206],[31.493986775523,3.239048438971116],[31.493986752170223,3.239048501962415],[31.48466500810645,3.23732633139888],[31.482175342711535,3.236866389476138],[31.482175243534563,3.2368663531773687],[31.482175199452804,3.236866345033366],[31.475363748965346,3.234373470185449],[31.47536371844118,3.234373335141234],[31.475361790710917,3.234372629592],[31.47417883897552,3.229131457852299],[31.474178604234023,3.229130995139995],[31.468977100507356,3.219670544846495],[31.46897594633862,3.2196685438613044],[31.462249627221915,3.2142116299187196],[31.4397,3.2413],[31.4272,3.2661],[31.430248976838186,3.287348660976549],[31.436403548994424,3.329842214574652],[31.448030737796373,3.320254153413512]]]}},{"type":"Feature","properties":{"n":"Itula","c":"337104","d":"Obongi","od":"Obongi","dc":"337","k":"ITULA","a":["ITULA"],"lat":3.436305,"lon":31.619066},"geometry":{"type":"Polygon","coordinates":[[[31.496528140456352,3.433460237875944],[31.4976530122978,3.440178379329711],[31.499713557331898,3.442618608961617],[31.505760751948014,3.443699802750611],[31.510398404065615,3.445458705959621],[31.513823163178166,3.447534280648108],[31.518314943060194,3.453558008486135],[31.523511683693737,3.455956506047443],[31.53158392255237,3.458214973576035],[31.543047781411804,3.454566694080566],[31.543961489908597,3.463033141192409],[31.54731501949906,3.463285055193078],[31.546733600215564,3.466937950983568],[31.553548335060142,3.483022996377179],[31.553957674855003,3.483705395727709],[31.5547191911639,3.483384373690387],[31.554553149735476,3.485321038111828],[31.553213371166066,3.486354326268434],[31.554975144918387,3.492097747953836],[31.559619689909365,3.495809511389743],[31.561930239059638,3.503064570412074],[31.568559601845575,3.509792021143998],[31.57017997381306,3.513077221936594],[31.572464407114055,3.513047540921496],[31.572964424504743,3.510763435428532],[31.57403528782589,3.509835132957604],[31.58431412493901,3.507194068279002],[31.586812554430946,3.505695008698899],[31.586669689817008,3.50383895352027],[31.583672575132027,3.503695519927095],[31.582958386745776,3.502482934559578],[31.58381443210368,3.500127072621751],[31.5836008111621,3.497770792538847],[31.585170230116418,3.494845920078889],[31.586241485038126,3.494559129451556],[31.587026711913268,3.49227471381128],[31.58638425281925,3.490133341160674],[31.583573107551054,3.486852622643316],[31.583839508442985,3.486033484199045],[31.590862399442134,3.485919305692966],[31.588787690565717,3.483959060701222],[31.589299941005255,3.48177063777243],[31.593051509128735,3.482968773621071],[31.602160079599074,3.483349488001421],[31.602267771644332,3.481232107147199],[31.60383759999665,3.48037516201704],[31.605190889213787,3.477095422979953],[31.608341101835673,3.477886438952493],[31.608278186349736,3.480670319264032],[31.614130750141754,3.481015635004309],[31.61431815042631,3.475154444769706],[31.616335561351267,3.475187029611847],[31.61685688332871,3.472038830498278],[31.617809281424865,3.470965029177731],[31.623283221820348,3.472221330425419],[31.624460988672514,3.470261664069296],[31.626696781945633,3.469250709067751],[31.632919034450133,3.467692154221737],[31.64247622244301,3.467145697605793],[31.642595186577395,3.4631840038671],[31.643962507937907,3.457799542917623],[31.65504063822155,3.452790812846636],[31.661579468991974,3.447383867553823],[31.65258162634193,3.433338707452818],[31.65128020872142,3.4267554043977526],[31.6512,3.4266],[31.65163852830686,3.424845886772554],[31.653584146100965,3.41624875293917],[31.654066516703274,3.415133933186896],[31.658229809266434,3.398480762934261],[31.65773938115297,3.396457949134415],[31.642225656422855,3.37724370290904],[31.63705337666323,3.372517758212259],[31.634895036815607,3.368164495138596],[31.627897936455522,3.359498361665093],[31.625714545345563,3.357572926342685],[31.6134281358111,3.353885577019796],[31.614944291040555,3.358772089206236],[31.614944285572882,3.3587721224976588],[31.614944570788527,3.358773041740021],[31.61478510983538,3.359741307335098],[31.61464403568592,3.360600275722854],[31.61611814934806,3.362517406403111],[31.61611693450895,3.362519042587953],[31.616117562198458,3.362519859475889],[31.61608043835125,3.362568196800542],[31.614565746401233,3.3646082331992644],[31.61501682113423,3.365311477125607],[31.615016374465796,3.3653121061668156],[31.61501749137478,3.365313291465893],[31.614432336593975,3.366137261779349],[31.614415963016246,3.366137439555519],[31.612467522027682,3.3664271073595],[31.612689747855203,3.367999444086601],[31.611853966796254,3.369074063872695],[31.61128253015464,3.3686432070206482],[31.611272769259934,3.368667678927757],[31.610840101078853,3.369753809902943],[31.60975674056661,3.369190005028707],[31.609162990503393,3.367539028507442],[31.604460337825618,3.365605877933387],[31.603294935595514,3.363308665419754],[31.601887904802787,3.3636973628462616],[31.599434206547034,3.36437760713709],[31.597910441024915,3.362632864121893],[31.597052355854736,3.363679997739802],[31.596265561385398,3.3633682433100565],[31.59619952335491,3.3634039787385692],[31.593823985701828,3.364695855395504],[31.593703873121616,3.3654169948803614],[31.59370161251048,3.36543092125729],[31.593701558510585,3.3654308914880513],[31.59370142011253,3.365431722411021],[31.592961459964062,3.3650269171731497],[31.592383842408797,3.3659352076726106],[31.59167324285367,3.367054218994648],[31.59072266870485,3.366155678991331],[31.590508018426355,3.365952829866285],[31.589028409043983,3.366882206040993],[31.587029077564072,3.3668987600747307],[31.58664661522615,3.366902166723019],[31.586646392366116,3.3669019286256896],[31.58664539599741,3.366901936875408],[31.586300415356494,3.3665322966202913],[31.585885049240236,3.3660885312652056],[31.585635599039396,3.3673087445403826],[31.585537019855725,3.367793023097445],[31.585536542185775,3.367793292106889],[31.58553584443726,3.367796705221008],[31.584390835515066,3.36844033633682],[31.584389086765135,3.3684395047186775],[31.584387620123746,3.368440330687291],[31.58313030289772,3.3678409442389934],[31.583062181925207,3.3687160470203166],[31.58305614781501,3.368795170876142],[31.583056016124527,3.368795254775668],[31.583055906268243,3.368796666022974],[31.579822720979976,3.370855175276321],[31.57904939954676,3.37134785553057],[31.57904927939655,3.3713476112224425],[31.57904831454921,3.371348225522893],[31.57798572704517,3.3691850309048097],[31.577862004723986,3.368933459408308],[31.576453818034423,3.369550226554336],[31.576453501289905,3.3695498752735107],[31.576453396636726,3.369549921296081],[31.57527659007291,3.3682451569883853],[31.57260675991697,3.369127184070595],[31.572681943653677,3.3693547766165657],[31.572797194020364,3.369699017634686],[31.57460708046028,3.369511107345927],[31.574694450631505,3.369962188020722],[31.574844061388497,3.370730826033205],[31.574843339669638,3.370730882494429],[31.574843370183252,3.370731040032203],[31.573935488098112,3.3708019051791553],[31.572747094290136,3.370894875133057],[31.57274700616897,3.370894672673896],[31.572746200650165,3.370894735549031],[31.572413296921933,3.370131691827738],[31.570461107159836,3.369934836744323],[31.5700885175953,3.3701529700329447],[31.569366239134293,3.370578348929508],[31.569365218113454,3.3705764271279635],[31.569362780996908,3.370577853942608],[31.568056010044554,3.3681126504865433],[31.568045044073767,3.368115991673637],[31.567198811007565,3.368375628521157],[31.567359260825413,3.3693538689657365],[31.567481426814687,3.370095811802796],[31.567480885376103,3.370095397102939],[31.56748102907162,3.370096273194704],[31.565588072292186,3.3686469530522114],[31.56436938296071,3.3697656400871154],[31.56413315107956,3.369982717235119],[31.561964021726844,3.370361445414244],[31.56196361015168,3.3703607764710326],[31.56196260575561,3.370360951505132],[31.561839503728798,3.3701590632570073],[31.561390826334293,3.369429816879553],[31.560178576296742,3.370262272518349],[31.560177881530315,3.370261984589597],[31.56017696624109,3.37026261256959],[31.559548830217828,3.3700012898409426],[31.558964603937998,3.369759171717741],[31.558902015079802,3.3706128666797586],[31.558889778398687,3.370785746869289],[31.558889340361148,3.370785746386633],[31.558889293452,3.370786386214609],[31.55796021088225,3.370784722617161],[31.557912497032703,3.370784670043237],[31.55791241252372,3.370784637030336],[31.557912291793784,3.370784636814159],[31.55752369694525,3.3706327877402877],[31.556591402936565,3.370268592963499],[31.556591438210283,3.3702684941166132],[31.556590608973003,3.370268170080117],[31.556947514045238,3.369264685007185],[31.55490888494612,3.368706851367255],[31.55290429079169,3.368159087352138],[31.552904604220032,3.368158416532611],[31.55290055104749,3.368157307455931],[31.553640387948764,3.3665804213817316],[31.552411875827246,3.3665639010517947],[31.551521121617878,3.366552728049026],[31.551520944146926,3.3665519203109846],[31.551520760978764,3.366551917847844],[31.551136742374055,3.364803271396968],[31.551095881716453,3.364617298948155],[31.549716206746613,3.363657045871675],[31.549042754805225,3.363974800369712],[31.54858372816282,3.36419232534163],[31.548583276386555,3.364191595845843],[31.548582141455306,3.364192131339895],[31.54779841345603,3.362924823253417],[31.546560389900304,3.3634627385601137],[31.54648741748909,3.36349454191719],[31.54648738648176,3.3634944581958943],[31.54648632358928,3.363494920017587],[31.54613054926276,3.3625309803202987],[31.546036212321425,3.3622762659828163],[31.544845190250747,3.361794391138012],[31.54356963318773,3.3630697490744916],[31.54272096587432,3.363918550514874],[31.542720708930087,3.363918540807015],[31.542720675455623,3.363918574276254],[31.541981924856476,3.363893333139629],[31.54160232173342,3.361956528742569],[31.53948182470228,3.362717144591636],[31.539481586264074,3.362716841492202],[31.53948131213582,3.362716939792465],[31.538756741345185,3.361795446200161],[31.53694627203124,3.361744367467654],[31.534702374962325,3.363724781541583],[31.531535102433967,3.362380882040272],[31.530295901280226,3.362592980441032],[31.529601529677894,3.364552460091045],[31.5295770251532,3.3645640562423558],[31.52842213679791,3.365111737077111],[31.52899083012423,3.36635669836818],[31.52899063646997,3.366356821139537],[31.52899065156871,3.36635685413088],[31.528597175501954,3.3666062643369092],[31.524816120903214,3.369003346703925],[31.52481544712612,3.3690033647784685],[31.524815290227174,3.369003464231019],[31.524666753467635,3.3690073535902325],[31.523982182272405,3.369025717693077],[31.52336415714001,3.3678289816345446],[31.51977062662008,3.367536341590311],[31.51977037964354,3.3675358131546145],[31.519767081128798,3.367535544154477],[31.519588200526815,3.367146019254249],[31.51943554556393,3.366819395794526],[31.517537983866735,3.368093362559848],[31.51406145886095,3.366198470825005],[31.51096206729312,3.367771685316148],[31.51095235022868,3.3677921675714924],[31.50941844603612,3.371342617018338],[31.509226979195013,3.3714290159524887],[31.509132176869713,3.371628846410146],[31.506099538673674,3.372840876669106],[31.504386072777564,3.379764598755576],[31.501529957886728,3.3842911508890503],[31.50060289677064,3.3857605451479547],[31.500816882070595,3.387902358402144],[31.49896131300415,3.390543157896314],[31.499032285465336,3.392470920803514],[31.495952641463344,3.3938823927736084],[31.49588624167066,3.393912837589192],[31.497356773143952,3.401449447794292],[31.497374593136342,3.407617831096477],[31.4981275010316,3.40873200245516],[31.50049231822302,3.409219828490025],[31.500841658616,3.410318814025221],[31.499332578499807,3.413821711961545],[31.49774100528413,3.41411077321476],[31.49513987397268,3.420918358252451],[31.4959208781666,3.423523666616338],[31.494395081543697,3.427334477709313],[31.496528140456352,3.433460237875944]],[[31.601301053358476,3.416067155348709],[31.601427684215945,3.412374157641949],[31.60828758068483,3.413358477347502],[31.607560131807293,3.419557349301142],[31.60571041607211,3.423882955504068],[31.605758189704083,3.425448365617138],[31.602916598522224,3.426382211135459],[31.600913300214398,3.42479394984502],[31.59809117546207,3.424509029549076],[31.598543079704015,3.415814119848252],[31.601301053358476,3.416067155348709]],[[31.540754344586183,3.402238452122465],[31.540872455116062,3.396691755153746],[31.53774354691533,3.396595869508594],[31.53749322516704,3.39137243476283],[31.536089337746777,3.390182556662632],[31.53543503454388,3.387708424230147],[31.53567395198128,3.386814919909078],[31.538734194576215,3.385376844817408],[31.53976182958614,3.386634361121648],[31.55090341754859,3.387201355046122],[31.551571284255804,3.38800091033977],[31.558287421750105,3.38790602035475],[31.560153948008587,3.386230929832195],[31.56896840835956,3.386398164311503],[31.577024182742203,3.385554818384339],[31.576135671041737,3.387287482719372],[31.57738479851826,3.388427371225477],[31.578678033473437,3.391836081415613],[31.584407610983078,3.39332080234627],[31.602082391051496,3.3952651856315],[31.60518637003632,3.399280019798944],[31.599970963591872,3.400462224118048],[31.59950568646107,3.401971299050248],[31.59693506511775,3.402319362097471],[31.596397114802656,3.411707430652311],[31.59046000260103,3.416315741790602],[31.5922829137743,3.41853812751056],[31.592250449493893,3.427129179200531],[31.581032898306876,3.427030733339627],[31.580992116331885,3.430160938662942],[31.583698344378206,3.430100618286743],[31.583626624369288,3.439150717619586],[31.580775788294115,3.439523316785502],[31.580219833367913,3.452625446897058],[31.57656499590906,3.454731746311224],[31.57557908222199,3.45611697649972],[31.570154632462714,3.458408085607609],[31.570418715285683,3.462191419249014],[31.569126455432126,3.46373329320853],[31.56634996118119,3.462869513753229],[31.56615717505939,3.457230364873511],[31.561847018231163,3.451000255760162],[31.55650297949132,3.451452899049076],[31.548699776799307,3.442182383142746],[31.54513041515535,3.432378742708488],[31.541363545404565,3.428184207701951],[31.540832956139358,3.412232148430757],[31.53847308693315,3.410919087701766],[31.5357489326576,3.40779664166542],[31.535826130925233,3.406799703744162],[31.53674211521559,3.406416851399544],[31.538196827007674,3.40319792721472],[31.540754344586183,3.402238452122465]]]}},{"type":"Feature","properties":{"n":"Obongi Town Council","c":"337105","d":"Obongi","od":"Obongi","dc":"337","k":"OBONGITOWNCOUNCIL","a":["OBONGI","OBONGITOWNCOUNCIL","TOWNCOUNCIL"],"lat":3.258938,"lon":31.54187},"geometry":{"type":"Polygon","coordinates":[[[31.517003763933317,3.24117224541401],[31.516985880931756,3.2635703461274037],[31.51698595329542,3.263574710226549],[31.51794978760825,3.265819152456968],[31.517954413787585,3.26582255283759],[31.522855484252375,3.269045078326276],[31.522541251893777,3.2691940164749056],[31.52285492216019,3.269424573532476],[31.51991927570185,3.270438105436625],[31.519917996962914,3.2704373726159766],[31.519917359358104,3.270437674824446],[31.518054064912246,3.269369189065592],[31.51757732311324,3.2690959775248087],[31.515761955886596,3.2687703066879323],[31.513284009268055,3.268325892746813],[31.513281208582324,3.2683461462039465],[31.513379182335502,3.2716475856061273],[31.514692250408324,3.275320828598778],[31.516116563760097,3.2776991891060736],[31.522229826725862,3.282337078056871],[31.528443582109965,3.2748763119769446],[31.52846751031798,3.274847562891428],[31.528467534189875,3.274847553061553],[31.52846796135787,3.274847040167132],[31.53066997062653,3.27394020325394],[31.53328590855312,3.2695587249190954],[31.53332228521697,3.269497785350743],[31.533322301045658,3.2694977705225883],[31.533322403267004,3.269497599310339],[31.538229598678775,3.264897963165604],[31.5385972240141,3.269046367082411],[31.538601726028098,3.2690442090831295],[31.540903252337323,3.267404820970978],[31.54268419833449,3.267087313277945],[31.54316341080653,3.266857607157255],[31.54347471529058,3.266946379630642],[31.543972522512615,3.266857630380022],[31.549421217757406,3.2686421012120386],[31.54942149375202,3.268642179915449],[31.54942162606634,3.2686421638785244],[31.552325216424872,3.268047330320087],[31.553301845856964,3.2681718686477232],[31.554132917981693,3.268071140009192],[31.554875114751475,3.2683724895491686],[31.555869317890405,3.268499268849673],[31.556368907942275,3.2689790051110714],[31.557297504577836,3.269356037429646],[31.560151351356627,3.272608026912738],[31.562396277413853,3.270838863712858],[31.563135908652644,3.269809341015167],[31.564992110198737,3.265767638632082],[31.565946727888107,3.262995418636447],[31.56664784927195,3.260190860904023],[31.566852718592017,3.2576845608175575],[31.56685271616921,3.257684450372119],[31.56418910441764,3.252896869483624],[31.562435348121696,3.247131519232192],[31.563315977227585,3.2396214620889348],[31.563,3.238],[31.563640855671903,3.2368508794848645],[31.563670546727003,3.236597672409413],[31.563089276051684,3.236511629311994],[31.553496497822206,3.2350918509482387],[31.55031000046932,3.2366038801472268],[31.549533587951935,3.236972319776584],[31.54913990059365,3.2364271030270295],[31.545778057326896,3.2383484763932713],[31.543703481389404,3.23953452490187],[31.532695243104776,3.242118554823504],[31.53269517708987,3.2421185160129555],[31.532694984475256,3.242118561226587],[31.529609202780403,3.240304391631012],[31.524909435543805,3.240185263750825],[31.51975790436204,3.238983635336496],[31.517396420761607,3.237096283615941],[31.51404139536511,3.236560868219852],[31.514041140443474,3.2365604975826856],[31.514041075074065,3.236560487144699],[31.513037672374235,3.235101586261954],[31.51232823444438,3.237474138851713],[31.513384318274763,3.238937468348229],[31.51660406927324,3.240544094624685],[31.516610458800788,3.2409294334822314],[31.517003763933317,3.24117224541401]]]}},{"type":"Feature","properties":{"n":"Palorinya","c":"337106","d":"Obongi","od":"Obongi","dc":"337","k":"PALORINYA","a":["PALORINYA"],"lat":3.521621,"lon":31.731768},"geometry":{"type":"MultiPolygon","coordinates":[[[[31.703662083820273,3.526319160160706],[31.710055825635173,3.526944142670693],[31.71074945765006,3.530827037010149],[31.708232941494412,3.534513234198359],[31.709300793225655,3.537326601946876],[31.72108106602118,3.536890246707129],[31.732315348755378,3.534338980988039],[31.735151843086324,3.537270746366985],[31.736760204933834,3.54370443892266],[31.740405534700884,3.544979827560045],[31.74180514424311,3.54424717625329],[31.74700366314256,3.546687454637612],[31.7577,3.5377],[31.75869974158552,3.5352220080358916],[31.757886850586633,3.533394725321451],[31.758575681610996,3.531014331912854],[31.76449267819733,3.514973180912892],[31.769327676056935,3.5086537282299735],[31.75104112591761,3.4969542687322335],[31.748728685606487,3.496874934097775],[31.743519257593352,3.4952672121249155],[31.736400480304468,3.493768522169361],[31.734122975498053,3.493807370626357],[31.72532417098822,3.496590197179615],[31.709849917786084,3.498320686472577],[31.707952232617384,3.508637388864718],[31.70497827050774,3.516013076428862],[31.70220228582979,3.518850041957984],[31.700779373427512,3.524429870382684],[31.702282097958243,3.524392650238259],[31.703662083820273,3.526319160160706]]],[[[31.627701655006394,3.472127209784143],[31.630837081718603,3.473432986873519],[31.6297052401768,3.473596825924649],[31.62931101468219,3.474693566866832],[31.629458059602225,3.480706382465151],[31.633042776465075,3.481413880326768],[31.636607207347073,3.47773878843083],[31.639703472509225,3.477235722744221],[31.638317148906957,3.479446867594132],[31.638359980647987,3.480803152269622],[31.641957042093704,3.480703421089852],[31.64308558822774,3.482416427501935],[31.645123413857977,3.483316669051908],[31.64647822454149,3.486167808542433],[31.647377553782313,3.486472180354301],[31.64759181147409,3.490726855795842],[31.64855179707265,3.491947466382815],[31.650413633611862,3.492002381792278],[31.650700177083042,3.494513588819669],[31.659165729805288,3.495070809791145],[31.6623007550571,3.496486061782991],[31.660989005601603,3.502517959695986],[31.65919961525078,3.506201507912795],[31.65862854264112,3.509447090099933],[31.659178935446164,3.509803361137403],[31.6579081111729,3.511315296100015],[31.659583257118754,3.511018487512207],[31.660655224839072,3.511678194584302],[31.66464052383173,3.510156259084263],[31.670066090476755,3.504826017770794],[31.672968556112984,3.503208313763204],[31.67407610946707,3.501443981737833],[31.678214763689674,3.503310324084849],[31.680217295913195,3.505667642143136],[31.68228710156606,3.505294322410959],[31.685796094942898,3.50632566846615],[31.68589498785664,3.504925276741315],[31.688800561566115,3.507439918534668],[31.686800212119305,3.511591313529198],[31.68086750159282,3.515864209467226],[31.67491979759072,3.513773048115881],[31.673599086448796,3.513606515442371],[31.67196220183888,3.514586729924271],[31.670857976027428,3.517346933510755],[31.667812353637835,3.520430777823799],[31.66440496513167,3.530253193517379],[31.661559972858484,3.542294768335139],[31.669430935452375,3.542205677996394],[31.67081048637753,3.539073728865381],[31.670881849302823,3.53761049501809],[31.669454340128464,3.537536823617255],[31.670988956664083,3.535897154951282],[31.67106029818895,3.531614799186769],[31.676556861198566,3.526688755945175],[31.675272047605603,3.522191826533192],[31.67555751159513,3.520835292169026],[31.68059059427039,3.516155540150363],[31.695178825824026,3.515972553394691],[31.69654692403385,3.513926513685352],[31.70247772156147,3.51005759602763],[31.70280132999505,3.50858233526014],[31.700402911646936,3.501225333510632],[31.70047925379745,3.498940031663243],[31.70387381007417,3.493370322695933],[31.69943514808174,3.48841984206524],[31.69661104862194,3.481335560217649],[31.690125426741584,3.47186375272332],[31.687166759224066,3.468390088451078],[31.68402117738989,3.4629489137420717],[31.679823324111485,3.456818235932598],[31.665840552974913,3.45078190428465],[31.663186742506653,3.4486656038707384],[31.6624,3.4483],[31.662170368566308,3.447855089097221],[31.66157947555921,3.447383877181202],[31.65838139429285,3.450028348738243],[31.65504063822155,3.452790812846636],[31.65504059624974,3.4527908318232554],[31.65504057204683,3.452790851836478],[31.654729707622963,3.452931393197224],[31.643962507937907,3.457799542917623],[31.642595193743873,3.4631839756457743],[31.642594945891,3.463192019104666],[31.64247622244301,3.467145697605793],[31.642473110906916,3.4671458755158104],[31.642473098701345,3.467146271617796],[31.6351950259713,3.467562018597587],[31.63291907967272,3.46769215163602],[31.6302956521807,3.4683492611369604],[31.62669726143911,3.4692505889638365],[31.624460960954593,3.4702617101886766],[31.62337151388359,3.472074422753894],[31.623283233713817,3.472221332297586],[31.62634660593943,3.472791150536821],[31.627701655006394,3.472127209784143]]]]}},{"type":"Feature","properties":{"n":"Palorinya Refugee Settlement","c":"337107","d":"Obongi","od":"Obongi","dc":"337","k":"PALORINYAREFUGEESETTLEMENT","a":["PALORINYAREFUGEESETTLEMENT"],"lat":3.511707,"lon":31.629699},"geometry":{"type":"MultiPolygon","coordinates":[[[[31.708845151105074,3.5438172067005],[31.712265710516117,3.546125364843235],[31.713861951676343,3.5465516146322034],[31.7205,3.5435],[31.740523199973318,3.551785462057925],[31.741199442904193,3.5515643734177784],[31.747003652932335,3.546687463216618],[31.741805124166056,3.544247186762992],[31.740405534700884,3.544979827560045],[31.740405036411467,3.544979653223922],[31.74040498512853,3.544979680069982],[31.73977781274226,3.5447602069757287],[31.736760204933834,3.54370443892266],[31.73550656394331,3.5386896838657083],[31.735151775772817,3.5372706767925775],[31.732315348755378,3.534338980988039],[31.72203293056208,3.5366740816496995],[31.7210811666112,3.536890231725627],[31.721081125285327,3.5368902332484518],[31.72108106602118,3.536890246707129],[31.709300793225655,3.537326601946876],[31.708232941494412,3.534513234198359],[31.710628503214238,3.5310042112755404],[31.710749447393603,3.530826979595347],[31.710055825635173,3.526944142670693],[31.703662083820273,3.526319160160706],[31.702282097958243,3.524392650238259],[31.700779373427512,3.524429870382684],[31.70220228582979,3.518850041957984],[31.704978148009644,3.516013201617909],[31.707454468604016,3.509871887391575],[31.707952232617384,3.508637388864718],[31.708972718385887,3.503089551877463],[31.709849906383898,3.498320684832978],[31.70688091117813,3.497488420960916],[31.70387381767046,3.493370331914476],[31.700479243577988,3.4989403375828463],[31.70040291268247,3.501225302511906],[31.702801260884073,3.508582122439204],[31.702801260775594,3.5085821229336815],[31.70280132999505,3.50858233526014],[31.70247772156147,3.51005759602763],[31.70247754189837,3.5100577132296964],[31.702477523034588,3.510057799215466],[31.701004426944962,3.5110186903037857],[31.69654692403385,3.513926513685352],[31.696374180075154,3.514184858441968],[31.695179705408457,3.515972214998228],[31.69517904662724,3.515972223175604],[31.695178825824026,3.515972553394691],[31.68059059427039,3.516155540150363],[31.675773367267812,3.5206345899185068],[31.67527235509957,3.522190365311641],[31.675272047605603,3.522191826533192],[31.676556861198566,3.526688755945175],[31.671060309242712,3.5316147892803422],[31.670989395039364,3.535895291852199],[31.67098898030476,3.5358957358928746],[31.670988956664083,3.535897154951282],[31.670357518650743,3.536571818035476],[31.66945611648163,3.5375369152919207],[31.670881849302823,3.53761049501809],[31.670881544887298,3.5376167367899747],[31.67088207252125,3.537616765532527],[31.670810537739975,3.539073356487166],[31.67081050040441,3.5390734412565847],[31.67081048637753,3.539073728865381],[31.669572243555205,3.5418848708541595],[31.669430947818377,3.542205679107139],[31.704321200982957,3.54297332663315],[31.708845151105074,3.5438172067005]]],[[[31.57303151680741,3.521605431077247],[31.574370875645286,3.521594026673478],[31.57390188339664,3.52232538450973],[31.574714351445998,3.52253848354738],[31.573477722543227,3.523326185763795],[31.57394362859609,3.524291866146321],[31.57295507766555,3.524549055555268],[31.573194061367133,3.528498726253384],[31.575098933080167,3.52907374525648],[31.574302844966397,3.530529472818506],[31.57528398152999,3.530733280520877],[31.576291974041066,3.533005978435627],[31.576101024482472,3.53497369667936],[31.574987180062827,3.535707161693631],[31.575186196117475,3.537459116739547],[31.57441602178148,3.537721128811675],[31.574770319887914,3.538928954618578],[31.573590572608456,3.539015430716367],[31.573650361021915,3.540489203479797],[31.57470251377707,3.540403017770671],[31.574919764754448,3.541754078330313],[31.575641096087125,3.54166849562443],[31.575271349610208,3.544072651116469],[31.57399428733639,3.544269174246856],[31.57414501134724,3.54490085162644],[31.575206081582056,3.5453995904568743],[31.5759,3.5432],[31.57866977975758,3.5438155066127957],[31.583494215255094,3.543750173968464],[31.590755387482915,3.54505445522489],[31.59928993831526,3.5483977640700575],[31.617044113651954,3.5523431363671003],[31.618212209914,3.552374192233561],[31.620545398053277,3.549684746765607],[31.623230732745434,3.541958272983798],[31.661559961703535,3.542294765484796],[31.66256495089134,3.5380411475830122],[31.66440496513167,3.530253193517379],[31.667812353637835,3.520430777823799],[31.670857976027428,3.517346933510755],[31.67196220183888,3.514586729924271],[31.671962542550872,3.514586525895943],[31.671962715110986,3.514586094614481],[31.67359806451789,3.513606822021835],[31.673598485967226,3.513606875028335],[31.673599086448796,3.513606515442371],[31.67491979759072,3.513773048115881],[31.68086750159282,3.515864209467226],[31.686599936513453,3.511735557348092],[31.68680023635881,3.511591263224112],[31.68880052798512,3.507439988226477],[31.688255154413948,3.506967893469616],[31.68589498785664,3.504925276741315],[31.685796094942898,3.50632566846615],[31.68579227696378,3.506324546304527],[31.68579221448295,3.50632544307524],[31.68254190193655,3.505369212081227],[31.682287170814423,3.505294342764097],[31.68225111104642,3.5053008138277426],[31.680217295913195,3.505667642143136],[31.678214763689674,3.503310324084849],[31.67407610946707,3.501443981737833],[31.672968556112984,3.503208313763204],[31.67296827869157,3.503208468385443],[31.672968134184178,3.503208699002399],[31.670065996302423,3.5048261102905154],[31.66464052383173,3.510156259084263],[31.664640154021363,3.5101564003101844],[31.664640081903954,3.510156471159226],[31.66065740524702,3.51167775498914],[31.660657010636857,3.511677512610615],[31.660655224839072,3.511678194584302],[31.65958358124792,3.511018686986778],[31.65791547457032,3.511314702911585],[31.657916173579828,3.511313867572775],[31.6579081111729,3.511315296100015],[31.659178935446164,3.509803361137403],[31.65862854264112,3.509447090099933],[31.65862877104107,3.50944579203243],[31.65862874346739,3.509445774343317],[31.658803155648037,3.5084547104002293],[31.65919961525078,3.506201507912795],[31.659199724648012,3.506201282713203],[31.65919973146945,3.506201243951688],[31.66009056354193,3.504367446950281],[31.660988992986425,3.5025179856649498],[31.660992102907954,3.502503717162367],[31.6623007550571,3.496486061782991],[31.659237457846515,3.4951031901533636],[31.659165614336104,3.495070802190714],[31.650700177083042,3.494513588819669],[31.650413633611862,3.492002381792278],[31.64855179707265,3.491947466382815],[31.648551582094214,3.4919471930402213],[31.64855117383816,3.49194718105627],[31.648002406936474,3.491248923177998],[31.64759181147409,3.490726855795842],[31.64759179105873,3.4907264503927498],[31.647591580367415,3.490726182306482],[31.647443154700277,3.4877748669103465],[31.647377562515928,3.4864723537842615],[31.646962411586273,3.48633167832606],[31.64647822454149,3.486167808542433],[31.645123413857977,3.483316669051908],[31.64308558822774,3.482416427501935],[31.641957042093704,3.480703421089852],[31.638359980647987,3.480803152269622],[31.638317148906957,3.479446867594132],[31.639703090757394,3.477236331627019],[31.636606953860326,3.477739049787303],[31.635270703563386,3.4791167851957905],[31.63304446420363,3.48141284015697],[31.633043894275097,3.4814127278133102],[31.633042776465075,3.481413880326768],[31.629458059602225,3.480706382465151],[31.62944470465405,3.480160285118219],[31.629282543243214,3.474878632128878],[31.62931452962161,3.4748372962970513],[31.62931101468219,3.474693566866832],[31.6297052401768,3.473596825924649],[31.630346225988227,3.4735040404036615],[31.63050743988206,3.4732957045201536],[31.627703892303323,3.472128141526882],[31.62770152073977,3.472127275571491],[31.62634660593943,3.472791150536821],[31.623283233713817,3.472221332297586],[31.623346545810513,3.472115972835098],[31.62334654256721,3.4721159721050996],[31.623283221820348,3.472221330425419],[31.617929609784373,3.4709926452380566],[31.616857060686037,3.4720386305330186],[31.61685688332871,3.472038830498278],[31.616776548054982,3.4725239653064737],[31.616336864142564,3.475185205881354],[31.616335866122437,3.4751851891363565],[31.616335561351267,3.475187029611847],[31.614318874476858,3.475154456464434],[31.614281854938177,3.476289633870985],[31.614130750141754,3.481015635004309],[31.614127739990288,3.4810154573979264],[31.614127704582863,3.481016543140991],[31.608899913565626,3.4807070027076366],[31.608278186349736,3.480670319264032],[31.608341101835673,3.477886438952493],[31.605190889213787,3.477095422979953],[31.603895695371985,3.4802343660452992],[31.603838381095674,3.480373755398972],[31.603838122019983,3.480373896877048],[31.60383759999665,3.48037516201704],[31.602267771644332,3.481232107147199],[31.602160079599074,3.483349488001421],[31.593051509128735,3.482968773621071],[31.589301131441943,3.481771017961414],[31.58885927510036,3.4836532391247563],[31.58878772766239,3.483958902217782],[31.59086276327771,3.485918913114885],[31.59086199717912,3.485918925623228],[31.590862399442134,3.485919305692966],[31.585281544669748,3.486010039503391],[31.583839475778923,3.4860335846355976],[31.583837704715187,3.4860390303620914],[31.58375453481303,3.4870643554856744],[31.58638425281925,3.490133341160674],[31.58658006057383,3.4907859856237],[31.58702671191321,3.492274016417143],[31.5870266002027,3.4922743414701394],[31.587026711913268,3.49227471381128],[31.586241485038126,3.494559129451556],[31.585170230116418,3.494845920078889],[31.5836008111621,3.497770792538847],[31.58381443210368,3.500127072621751],[31.582958386745776,3.502482934559578],[31.583672575132027,3.503695519927095],[31.584854100267563,3.50375206444188],[31.58666804665109,3.503837675501281],[31.586668139916178,3.503838879346316],[31.586669689817008,3.50383895352027],[31.586812554430946,3.505695008698899],[31.58431412493901,3.507194068279002],[31.576441512021916,3.5092168729673947],[31.57403523061544,3.5098351825517966],[31.572964424504743,3.510763435428532],[31.572464407114055,3.513047540921496],[31.570417917228706,3.513074130403079],[31.573460747134998,3.518781546265693],[31.57303151680741,3.521605431077247]]],[[[31.60144405930384,3.425214747942348],[31.60291632684179,3.42638199574092],[31.603573701521256,3.4261662642763056],[31.605757850258435,3.425448477170763],[31.60573453066278,3.424673124108482],[31.60571041607211,3.423882955504068],[31.607560131807293,3.419557349301142],[31.60828758068483,3.413358477347502],[31.601427684215945,3.412374157641949],[31.601301053358476,3.416067155348709],[31.598543079704015,3.415814119848252],[31.598091245573016,3.4245076805722534],[31.599977895141603,3.424699511819221],[31.600913300214398,3.42479394984502],[31.600914272999116,3.4247947210912715],[31.600914685568352,3.424794763040594],[31.60144405930384,3.425214747942348]]],[[[31.5374934412332,3.391373384557029],[31.53755983172946,3.3927623061376266],[31.53774351627883,3.3965952302203535],[31.538156112051812,3.396608512600606],[31.540872455116062,3.396691755153746],[31.540754344586183,3.402238452122465],[31.538197002766506,3.403197861277257],[31.538196039730874,3.4031996692672335],[31.53674211521559,3.406416851399544],[31.536408006681995,3.4065564981563607],[31.53574918698519,3.407793357280608],[31.5357489326576,3.40779664166542],[31.538472908947654,3.41091888369346],[31.538610228615404,3.410995395048294],[31.540832956139358,3.412232148430757],[31.541348244557245,3.427724190812498],[31.541363553015643,3.4281842161771383],[31.54513041515535,3.432378742708488],[31.54837172575288,3.4412813552212174],[31.549756965729195,3.4434383657408323],[31.55650297949132,3.451452899049076],[31.561847018231163,3.451000255760162],[31.56615717505939,3.457230364873511],[31.566157177107904,3.4572304247941057],[31.566157215723294,3.457230480609228],[31.566214180603232,3.4588978228092038],[31.56634996118119,3.462869513753229],[31.56635194058691,3.4628701295549704],[31.56920121613233,3.4636440916624753],[31.570418715285683,3.462191419249014],[31.570154632462714,3.458408085607609],[31.570155080021202,3.458407896573629],[31.570155076390634,3.45840784447503],[31.57557910060757,3.4561169506675777],[31.57656499590906,3.454731746311224],[31.57656542120832,3.4547315012093316],[31.576565495791648,3.454731396393097],[31.576974598639627,3.4544956903987107],[31.5802197634903,3.4526254871678432],[31.580329118479042,3.4500499364055197],[31.580775788294115,3.439523316785502],[31.583626624369288,3.439150717619586],[31.583698344378206,3.430100618286743],[31.580992116331885,3.430160938662942],[31.581032898306876,3.427030733339627],[31.59224967454504,3.4271291723995363],[31.59228289154309,3.4185381004075786],[31.59046000260103,3.416315741790602],[31.596397114802656,3.411707430652311],[31.59693506511775,3.402319362097471],[31.59950568646107,3.401971299050248],[31.599765884769454,3.401127374604818],[31.599970686936715,3.400462395060639],[31.59997092348334,3.4004623542056365],[31.599970963591872,3.400462224118048],[31.604915196158565,3.3993414882449655],[31.60506391955371,3.399121636516129],[31.602082525195293,3.395265359139472],[31.584551526216007,3.3933366343041396],[31.584407610983078,3.39332080234627],[31.58440760224339,3.3933208000815314],[31.584407583162832,3.393320797982327],[31.578678445091402,3.391836254029142],[31.57867841733078,3.3918361808856052],[31.578678033473437,3.391836081415613],[31.577772073427834,3.389448150879908],[31.57738457217404,3.388427164675561],[31.576793656387057,3.387887925785762],[31.576136062995857,3.387288617078897],[31.576136335455924,3.387288089029064],[31.576135671041737,3.387287482719372],[31.577024182742203,3.385554818384339],[31.56896840835956,3.386398164311503],[31.560153948008587,3.386230929832195],[31.558287421750105,3.38790602035475],[31.551574777280855,3.3880008609880266],[31.551574595355095,3.388000863560952],[31.551574595352978,3.388000863558423],[31.551571284255804,3.38800091033977],[31.55090341754859,3.387201355046122],[31.547916588506286,3.3870493557147756],[31.539763448932753,3.386634475572702],[31.539763421651678,3.3866344421416508],[31.53976182958614,3.386634361121648],[31.538734194576215,3.385376844817408],[31.538729479175952,3.3853790606873777],[31.53558092235365,3.3871628324565237],[31.535504806487207,3.387447490856974],[31.536089228248503,3.3901821426141727],[31.536089337746777,3.390182556662632],[31.53749322516704,3.39137243476283],[31.537493263458618,3.391373233788745],[31.5374934412332,3.391373384557029]]]]}}]}
