{"type":"FeatureCollection","name":"Pakwach sub-counties","metadata":{"source":"Uganda Bureau of Statistics NPHC 2024 Map Explorer","retrieved":"2026-07-26","display_only":true,"clipped_to_dashboard_district":true,"positive_area_overlaps_removed":true,"source_gap_ratio":0.02764504},"features":[{"type":"Feature","properties":{"n":"Alwi","c":"332101","d":"Pakwach","od":"Pakwach","dc":"332","k":"ALWI","a":["ALWI"],"lat":2.496946,"lon":31.358424},"geometry":{"type":"Polygon","coordinates":[[[31.27240418152926,2.465129399138206],[31.27347607388204,2.4669847764222346],[31.27617306541751,2.4682609138804805],[31.27846000146246,2.468401799690837],[31.279195816448258,2.4696911911974677],[31.2864,2.4731],[31.29839184189173,2.483876079119296],[31.3037753590681,2.48503042732639],[31.30551426416261,2.487004558659425],[31.305850498893843,2.489247590719823],[31.308050760558178,2.4925557525753206],[31.3081,2.4926],[31.30764173331864,2.495013212843329],[31.308632037064093,2.498266035001377],[31.311566462861208,2.497799772714258],[31.31268715654852,2.50239667269649],[31.312243109423655,2.506618062582722],[31.309405972899516,2.51464482106689],[31.307221417842435,2.517018199369204],[31.306073009014256,2.524542215905366],[31.304740541366296,2.527658146348738],[31.300603815637338,2.5320745878672186],[31.30056299016024,2.532289573092356],[31.301800904847163,2.542714720863858],[31.298753175090816,2.5418199822345406],[31.2987,2.5421],[31.295276949500014,2.541675069593105],[31.29335717134863,2.541860344678045],[31.2930497785547,2.5413985931998937],[31.284226516865406,2.540303291748809],[31.28418995064983,2.5403553627836626],[31.282284948385946,2.5508501934374133],[31.283392833003447,2.550450235933782],[31.285596160948465,2.550706961274284],[31.286905187446173,2.549779213807597],[31.289258931493915,2.549969189711696],[31.29235328847081,2.552990676773782],[31.292591775456852,2.555536790400455],[31.29168824551915,2.557706054208849],[31.28767867212672,2.558830453975607],[31.284806258181362,2.561540592443245],[31.288208666603047,2.564158837984575],[31.295399052968087,2.562540785940036],[31.300724261370146,2.563012005826847],[31.298771391055407,2.590947035506173],[31.299265510919604,2.599383099338153],[31.31153059676201,2.599147974700653],[31.32207106137745,2.600387392027791],[31.32504223173883,2.599833078372101],[31.326913982724946,2.603204654379245],[31.3334335685623,2.598408270516836],[31.336210721472696,2.599302356912212],[31.336583320661315,2.595409897209005],[31.34312742164325,2.582753647195814],[31.34848056592941,2.583356474039472],[31.36389118566223,2.580671877372322],[31.36805832546355,2.571913104788664],[31.368462822721447,2.569175534804051],[31.365096402343898,2.566869322171139],[31.343802703592477,2.560945196888066],[31.345765763815386,2.546080265697034],[31.34944669808001,2.545273283240246],[31.35473927690063,2.545720706699106],[31.361637659749267,2.544832073017675],[31.374536672877735,2.540335590384018],[31.37758404251968,2.54220532515811],[31.381155852355054,2.541583658428322],[31.383375773814567,2.542519906319932],[31.398147166929245,2.540764048187853],[31.3987196115302,2.537224711329526],[31.40231263515299,2.532584482056038],[31.405072916578064,2.530537940565096],[31.406929139561992,2.527135166717455],[31.40996866100779,2.525724095981582],[31.403611809854098,2.522727234529873],[31.397702815256963,2.52105934662639],[31.40180215930136,2.5188822693694],[31.410552478232525,2.509254555692908],[31.410189261649908,2.506860677008204],[31.406971890344998,2.503002184639686],[31.406536182993744,2.499908350837138],[31.40702684356069,2.497979422048506],[31.409933679187475,2.496092456194914],[31.411181510090042,2.493638939499285],[31.41106102544964,2.492337627262588],[31.407576521978,2.487482221588361],[31.40816631738513,2.484119234704012],[31.41044117762929,2.480390201706495],[31.410064634286567,2.470901587423371],[31.41086460231005,2.469929342128217],[31.42356995438998,2.465254172817002],[31.437572089535713,2.468873519687659],[31.438148113214147,2.456308220768924],[31.436424198937683,2.449804991407629],[31.425846306523287,2.452013089618059],[31.420712679966528,2.45083519325804],[31.41512692611085,2.445005559402895],[31.413550371683353,2.437654288544669],[31.409640886598,2.43294065989325],[31.40041519631135,2.430974432950661],[31.39928514011466,2.430112348822298],[31.39919500420786,2.424996141187068],[31.401210002383454,2.418174866514508],[31.39970430229829,2.414739917418534],[31.391006424769216,2.402382538615073],[31.38352259258087,2.399424127669478],[31.382256311236887,2.397558246706343],[31.38012448051369,2.400294222526419],[31.380759628349853,2.40391660331355],[31.37267776758301,2.405290569051233],[31.367473298155904,2.404787043424498],[31.359379130763596,2.405676668821922],[31.355823952970674,2.404090815143238],[31.35036810940025,2.403322981376255],[31.339997943016986,2.405377668441983],[31.3378139758534,2.407084007693483],[31.33555429195271,2.406692551084805],[31.334685026920283,2.407996360102681],[31.332712296301445,2.406933903547701],[31.331405056334454,2.410818597094138],[31.3300734987193,2.404396805058317],[31.32724649181867,2.403791640627207],[31.325231583120374,2.402079974177943],[31.323515188536454,2.402556175332371],[31.322753557215446,2.40030476746625],[31.325328837124356,2.399583101629455],[31.32548408590435,2.398771469674521],[31.321347512760223,2.397369448281291],[31.319032250477534,2.398602784858931],[31.317202583438352,2.397393294806515],[31.316578827005205,2.399495140400438],[31.31319446514466,2.395473819006158],[31.3130360545765,2.393914449696492],[31.306504020781905,2.391905856661226],[31.304737381834023,2.392286569614031],[31.30373436143625,2.394756569995818],[31.302068709298613,2.393958616414477],[31.30134971708176,2.394371477393901],[31.300157579854606,2.397819202910043],[31.29775327613678,2.400646733927705],[31.293766124616557,2.397339310190445],[31.292288452124854,2.399041639027381],[31.29014676040976,2.398515223826732],[31.291469343009364,2.409990377799635],[31.2916,2.411],[31.290763351084564,2.42556529702781],[31.28946450297545,2.448320054887993],[31.28945600158693,2.4483250632820743],[31.2894,2.4493],[31.287808153247106,2.4492958545657477],[31.28539980066013,2.450714679128025],[31.28247675392536,2.450906845949713],[31.280752977182665,2.4492774817114134],[31.27287040297537,2.449256954174415],[31.27123560444471,2.45259137107779],[31.27084104593123,2.456249785212933],[31.269343142048818,2.459253422391357],[31.269793496619283,2.463441484326138],[31.27240418152926,2.465129399138206]]]}},{"type":"Feature","properties":{"n":"Dei","c":"332102","d":"Pakwach","od":"Pakwach","dc":"332","k":"DEI","a":["DEI"],"lat":2.19418,"lon":31.289647},"geometry":{"type":"Polygon","coordinates":[[[31.268857892217348,2.212948603951673],[31.269110507746213,2.216238687403807],[31.269881123323636,2.216801804905231],[31.27014122205081,2.222161242711149],[31.26879911687921,2.230135614961443],[31.272797204838547,2.231398069595966],[31.27373444777549,2.230587925860975],[31.272116676752713,2.228540756645281],[31.272933597849676,2.226696406885496],[31.27665007747179,2.227383807753289],[31.279533034290154,2.225148624297093],[31.28473326932105,2.224434158074515],[31.288195245300802,2.220484431312629],[31.296809857001143,2.214837409747869],[31.30678935264655,2.215008337227584],[31.323404993127046,2.208928589405464],[31.311298234705074,2.170244025078899],[31.310595319215878,2.167190157837862],[31.3064,2.1542],[31.299070251422712,2.1596583234086175],[31.25940840203888,2.189237863733656],[31.26160168644203,2.199121885654343],[31.26357646197549,2.200142379309355],[31.268857892217348,2.212948603951673]]]}},{"type":"Feature","properties":{"n":"Pakwach","c":"332103","d":"Pakwach","od":"Pakwach","dc":"332","k":"PAKWACH","a":["PAKWACH"],"lat":2.396128,"lon":31.426779},"geometry":{"type":"Polygon","coordinates":[[[31.380132543658227,2.4002838743462127],[31.382256311236887,2.397558246706343],[31.383522469003143,2.399423945576193],[31.38689547664089,2.4007574522110042],[31.391006424769216,2.402382538615073],[31.391008851472407,2.402385986317165],[31.392308636450203,2.403914317244795],[31.396921798357685,2.410089625566335],[31.398421725360638,2.4129177155066137],[31.39970430229829,2.414739917418534],[31.401210002383454,2.418174866514508],[31.399195005225945,2.4249961377406013],[31.39919511237085,2.425002280630605],[31.39928514011466,2.430112348822298],[31.40041519631135,2.430974432950661],[31.409640886598,2.43294065989325],[31.413550371683353,2.437654288544669],[31.41512692611085,2.445005559402895],[31.420712679966528,2.45083519325804],[31.425846306523287,2.452013089618059],[31.436424198937683,2.449804991407629],[31.438019585190762,2.455823366488846],[31.438148092105553,2.456307707647043],[31.438148075164534,2.4563080772319923],[31.438148113214147,2.456308220768924],[31.437689200315543,2.4663188817269983],[31.437572101004204,2.468873517952757],[31.442541470729676,2.468498854021368],[31.445915821083897,2.467055791923278],[31.454791164788237,2.466244310929961],[31.45415918909175,2.472169577894178],[31.46142639331003,2.473426592426768],[31.46321769775936,2.475780618766035],[31.4676217671739,2.479062208960428],[31.47230778070092,2.47941041597808],[31.47346101855918,2.471069829459092],[31.47235950698351,2.464064444490306],[31.476667743531664,2.459266517414543],[31.477548479708762,2.455252734350243],[31.479612375180384,2.455080006813199],[31.48654914469253,2.445810599700887],[31.485376513151877,2.4437150624707917],[31.4846,2.443],[31.48399354715747,2.441243649559951],[31.481532135519394,2.43684501320457],[31.476920285248564,2.420758748187397],[31.4769,2.4207],[31.4736,2.3726],[31.463435467856687,2.351573369781971],[31.46337095596031,2.3514779458121873],[31.439631702340257,2.3334518735612737],[31.439291638705278,2.333253358328635],[31.409102550383956,2.321209368840901],[31.39954407010141,2.315503168624593],[31.390061764484738,2.342356291201333],[31.385573788837622,2.342349575670553],[31.385023416557065,2.344925777140049],[31.38742168433568,2.349685430176269],[31.38589788119565,2.354273217303574],[31.383167685214133,2.356132152234765],[31.38508918389093,2.365029842001823],[31.387652098208196,2.369813491455129],[31.3860505349271,2.370062574656632],[31.385907256319253,2.371993689690298],[31.383652038942593,2.373365265499967],[31.381938828133897,2.376163510778035],[31.38241890378667,2.380941329129419],[31.378483590102185,2.381436291285234],[31.38080696334086,2.388406234463074],[31.38112430184172,2.392775614905696],[31.380085436424466,2.394384412524933],[31.377731272392044,2.394698445703381],[31.380124475491574,2.400294210096793],[31.380132543658227,2.4002838743462127]]]}},{"type":"Feature","properties":{"n":"Pakwach Town Council","c":"332104","d":"Pakwach","od":"Pakwach","dc":"332","k":"PAKWACHTOWNCOUNCIL","a":["PAKWACH","PAKWACHTOWNCOUNCIL","TOWNCOUNCIL"],"lat":2.469941,"lon":31.497963},"geometry":{"type":"Polygon","coordinates":[[[31.47228402062429,2.479671862416802],[31.476584423661915,2.4811778927161],[31.477112233297273,2.482663789079112],[31.480810027277073,2.485095675272169],[31.481686229645135,2.484652233792629],[31.487648007678246,2.489172164323198],[31.491696618991874,2.490977805507347],[31.4933652774789,2.492735547492962],[31.493110490185508,2.494416366701081],[31.496951403038473,2.495495157210943],[31.50040593916862,2.494848121542447],[31.504483813482956,2.4957809618420286],[31.51343184944296,2.495957277821536],[31.51601681224202,2.49563935394662],[31.528441932101117,2.4848885410188903],[31.52953149864455,2.483469087699535],[31.522068587204714,2.468813008606848],[31.52105957551125,2.467340932582033],[31.520998534507427,2.46729488444266],[31.4985,2.4558],[31.497742164634698,2.4551021372175628],[31.495888674418882,2.45436160288576],[31.48654915234635,2.445810608506107],[31.47961278562391,2.455079550753836],[31.479612712111233,2.4550795565821195],[31.479612375180384,2.455080006813199],[31.477548479708762,2.455252734350243],[31.476667743531664,2.459266517414543],[31.47315033066422,2.4631837327867028],[31.472414667937688,2.4644152567085427],[31.47346101855918,2.471069829459092],[31.473452863473877,2.471128809654786],[31.47228402062429,2.479671862416802]]]}},{"type":"Feature","properties":{"n":"Panyango","c":"332105","d":"Pakwach","od":"Pakwach","dc":"332","k":"PANYANGO","a":["PANYANGO"],"lat":2.506146,"lon":31.443605},"geometry":{"type":"Polygon","coordinates":[[[31.403611643497317,2.5227271875735835],[31.403611809854098,2.522727234529873],[31.403613545404742,2.522728052734468],[31.413786879848494,2.52735581269475],[31.413318525636022,2.529786330096628],[31.423520762484234,2.530397473657272],[31.42126763711112,2.532665514185851],[31.41982792624718,2.536063881869012],[31.432249661599265,2.535823579188292],[31.434974049354786,2.536517764221817],[31.436454477760208,2.534876488075329],[31.43891446983138,2.535549263734137],[31.44154421246833,2.539018861031083],[31.45332622686206,2.548053864139813],[31.45761546351733,2.546592411942855],[31.464840647832546,2.5483990734650486],[31.46500833287407,2.5465837006241934],[31.4654455784624,2.538959709428917],[31.465880516466612,2.5371413652092714],[31.4663,2.5326],[31.467802028501733,2.5291081046797297],[31.468475336510767,2.526293207580816],[31.47238929112521,2.51648472951131],[31.47797800052838,2.505431246335458],[31.47799308022225,2.505416087004686],[31.478,2.5054],[31.478020807966686,2.50538821282812],[31.480845129149895,2.5025489762101],[31.484663850753645,2.500211009961088],[31.492681923763335,2.4970830720878223],[31.4953,2.4956],[31.496426682878763,2.4956222006478574],[31.496835668256498,2.495462650984107],[31.493110490185508,2.494416366701081],[31.493365273104722,2.4927355763491987],[31.493364566396384,2.49273479844838],[31.491785765192894,2.4910717108939835],[31.48765033847725,2.489173203836835],[31.487648007678246,2.489172164323198],[31.487647905633708,2.489172086957986],[31.487647856928593,2.489172064598261],[31.487540143017135,2.489090386576321],[31.481686229645135,2.484652233792629],[31.48089482182347,2.485052761191493],[31.480810374996246,2.485095896548946],[31.480810033653967,2.485095672044857],[31.480810027277073,2.485095675272169],[31.477112233297273,2.482663789079112],[31.476584423661915,2.4811778927161],[31.47228402062429,2.479671862416802],[31.472319148932137,2.479415110204569],[31.47230778162075,2.479410428540194],[31.47225037799286,2.4794061505132743],[31.4676217671739,2.479062208960428],[31.46321769775936,2.475780618766035],[31.46228141862291,2.474550216112296],[31.46142601979735,2.47342652781996],[31.45415918909175,2.472169577894178],[31.454791164788237,2.466244310929961],[31.445961031193423,2.4670516583205906],[31.44591580949804,2.467055796878042],[31.442541470729676,2.468498854021368],[31.437572101004204,2.468873517952757],[31.437572105323458,2.46887342372397],[31.43757209389543,2.4688734245854143],[31.437572089535713,2.468873519687659],[31.43757180566791,2.4688734463119895],[31.437571308987255,2.468873483751751],[31.43099530285787,2.4671735166500017],[31.42356995438998,2.465254172817002],[31.41086460231005,2.469929342128217],[31.410064634286567,2.470901587423371],[31.41044117762929,2.480390201706495],[31.40822878235438,2.4840168398724525],[31.40816630487862,2.484119306015583],[31.407576521978,2.487482221588361],[31.41106102544964,2.492337627262588],[31.411181510090042,2.493638939499285],[31.410487869031563,2.495002794100299],[31.409933961452033,2.496092046222296],[31.4099338513423,2.4960921176997464],[31.409933679187475,2.496092456194914],[31.40702684356069,2.497979422048506],[31.406536182993744,2.499908350837138],[31.406971890344998,2.503002184639686],[31.410189261649908,2.506860677008204],[31.41018930320027,2.506860950857266],[31.41018955729671,2.506861255593427],[31.410552687433672,2.509253531054823],[31.410552374939474,2.509253874911689],[31.410552478232525,2.509254555692908],[31.401952533739795,2.5187168168814504],[31.40180226054398,2.518882171857036],[31.401802236203284,2.5188821847565173],[31.40180215930136,2.5188822693694],[31.397702815256963,2.52105934662639],[31.403552766204797,2.522710568718655],[31.403611465902646,2.522727106787336],[31.403611643497317,2.5227271875735835]]]}},{"type":"Feature","properties":{"n":"Panyimur","c":"332106","d":"Pakwach","od":"Pakwach","dc":"332","k":"PANYIMUR","a":["PANYIMUR"],"lat":2.318865,"lon":31.342939},"geometry":{"type":"Polygon","coordinates":[[[31.266725790810355,2.243584454071764],[31.26959783970248,2.244747899663859],[31.26947099215626,2.246244892715083],[31.266302933929808,2.246459738288899],[31.26676669162459,2.248294539088823],[31.265689509589286,2.250647942179195],[31.269775803322485,2.253261269566707],[31.27206360743764,2.25364983778493],[31.273098518320438,2.256023813776675],[31.273758599703335,2.2649136986650085],[31.274290698920716,2.267308145143226],[31.27522931650732,2.268836178563718],[31.27706439510477,2.270877351084742],[31.28291681376652,2.274178715458036],[31.284556869102246,2.2725724570688],[31.286412043300487,2.273595479114695],[31.286889100682647,2.271989324937381],[31.28979101859459,2.270659339781476],[31.293685353103953,2.276041798249822],[31.293472603951553,2.278231167425297],[31.296757178799318,2.27956570666016],[31.298040979418815,2.282466397766617],[31.29768425312977,2.283703931105472],[31.298449501639546,2.284349093002235],[31.297050927543037,2.285634311390996],[31.295071203282156,2.283814639784622],[31.29413701270816,2.285045003922704],[31.294252217476878,2.286217978508214],[31.295708757692438,2.287159468309973],[31.295646970095323,2.289825049850936],[31.29334400336081,2.290116599709937],[31.292818257704617,2.29102491454003],[31.295201363385303,2.296220228998896],[31.292722772699477,2.297856511848717],[31.29137867087583,2.299479429366273],[31.290837491485377,2.301842004402475],[31.288813175298646,2.303580255384336],[31.28733384240592,2.3210808097477305],[31.29421510603089,2.3437206923611686],[31.294320895015222,2.34399930799117],[31.29419255910157,2.34509633569826],[31.28948494225679,2.393133242277635],[31.289417306189485,2.39407395966067],[31.29048071053115,2.398279451379759],[31.292285135806054,2.3990408238957666],[31.29228815676607,2.3990415664299327],[31.29254388099533,2.398747376303784],[31.293766124616557,2.397339310190445],[31.29376712125476,2.397340136922219],[31.293767257009165,2.397339980747712],[31.2977539900778,2.4006458943123232],[31.300157576299494,2.3978192070909583],[31.301349642591557,2.394371587612897],[31.30134968798305,2.394371561548953],[31.30134971708176,2.394371477393901],[31.302068709298613,2.393958616414477],[31.30373436143625,2.394756569995818],[31.304737381834023,2.392286569614031],[31.304877198219174,2.392256439004205],[31.304939447515245,2.392120190536796],[31.305292102961136,2.392167026501648],[31.306504020781905,2.391905856661226],[31.308920445645022,2.392648904585185],[31.310662328441055,2.392880243027175],[31.313035638658725,2.3939143218022445],[31.3130360545765,2.393914449696492],[31.313194449810094,2.395473668055033],[31.313573407277193,2.3959240805820574],[31.316578184155805,2.3994943765624797],[31.316768025070782,2.3988576077043744],[31.317202583438352,2.397393294806515],[31.31873371165627,2.3984054376220607],[31.319032503441296,2.3986026501055324],[31.321347512760223,2.397369448281291],[31.321347692731063,2.397369509279359],[31.32134773892503,2.397369484577197],[31.325482961836492,2.398770676932275],[31.32548288824948,2.3987710637496904],[31.32548408590435,2.398771469674521],[31.325328837124356,2.399583101629455],[31.325328384399914,2.399583228495572],[31.325328376665876,2.399583269150309],[31.32275401740736,2.4003061278090647],[31.3235148399348,2.402555144854119],[31.324627515808054,2.402247568246448],[31.325231583120374,2.402079974177943],[31.32724615033885,2.4037913505398447],[31.327970564294727,2.4039466395088716],[31.3300734987193,2.404396805058317],[31.330073635405594,2.4043974642644503],[31.330073835738336,2.404397507208771],[31.33140578415737,2.4108164342403025],[31.332419148864368,2.40780504273081],[31.332711487405607,2.406934572786033],[31.33271198170893,2.4069348384147133],[31.332712296301445,2.406933903547701],[31.333638708706758,2.407432842897676],[31.334685638915154,2.407995442172706],[31.33555429195271,2.406692551084805],[31.33555576535194,2.406692806329296],[31.33555611689931,2.406692278927742],[31.336922903878293,2.4069296427341373],[31.337813899760178,2.407083994511465],[31.338291465262714,2.4067109439703325],[31.339997943016986,2.405377668441983],[31.35036810940025,2.403322981376255],[31.355823952970674,2.404090815143238],[31.35582399510673,2.404090833938814],[31.355824039919764,2.404090840244957],[31.35588710996561,2.4041189875043942],[31.359379130763596,2.405676668821922],[31.367473298155904,2.404787043424498],[31.37267776758301,2.405290569051233],[31.372913366496245,2.405250515795682],[31.380753245219836,2.4038801989896816],[31.380550458723018,2.402723665237783],[31.377734694394764,2.394706446997118],[31.377731272392044,2.394698445703381],[31.380085436424466,2.394384412524933],[31.38112430184172,2.392775614905696],[31.38080696334086,2.388406234463074],[31.378483590102185,2.381436291285234],[31.38241890378667,2.380941329129419],[31.381938828133897,2.376163510778035],[31.383652038942593,2.373365265499967],[31.385907256319253,2.371993689690298],[31.3860505349271,2.370062574656632],[31.387652098208196,2.369813491455129],[31.38508918389093,2.365029842001823],[31.385089152826477,2.365029698154796],[31.38508914039146,2.365029674972942],[31.385073841373554,2.364958796956876],[31.383167685214133,2.356132152234765],[31.385813101384155,2.3543309421534055],[31.38589793453229,2.3542730567203924],[31.387376924284318,2.3498201914076042],[31.3874216686562,2.3496853990584365],[31.385023416557065,2.344925777140049],[31.385573788837622,2.342349575670553],[31.390061764484738,2.342356291201333],[31.399139456428134,2.3166490018221197],[31.399544060061345,2.315503162350323],[31.394049761411186,2.3117936008819924],[31.3891,2.3087],[31.387779508579126,2.30756014183953],[31.386512623080144,2.306704784326032],[31.36902773556367,2.291645142662787],[31.367907786114937,2.290406721033179],[31.3679,2.2904],[31.367222533084647,2.289648979533839],[31.350369710427913,2.271013406185693],[31.342207114025932,2.258928100375444],[31.33966661714862,2.260726302036825],[31.333252574229572,2.262713269891437],[31.32846250449168,2.266975245387685],[31.324642124118206,2.268778292729155],[31.3189992072328,2.269442393233365],[31.3178011770237,2.270873943563199],[31.315756182180216,2.271489573408758],[31.313583042500724,2.275208671952373],[31.313265076812502,2.273830337539671],[31.3113453649436,2.276587708515613],[31.308954291382182,2.277790874221321],[31.30768465901732,2.277330486038796],[31.305215958105965,2.279804035660406],[31.303729546659287,2.280470745676502],[31.30100417273985,2.279151702070787],[31.300559781356913,2.275611417984532],[31.299677420837593,2.274953132679345],[31.301444944192813,2.274454987384596],[31.310446232473314,2.266681155039429],[31.306410997641073,2.262973798383422],[31.296785053360555,2.248412865401762],[31.288394501454817,2.229864714821503],[31.28680141189482,2.227529052135575],[31.284164428416233,2.225645833324413],[31.28473326481363,2.224434170119406],[31.28460811539602,2.2244513531150325],[31.279533424465583,2.225148570690446],[31.279043453208534,2.225528201100719],[31.27665007747179,2.227383807753289],[31.27664881068991,2.2273835734490404],[31.276648198940393,2.227384047433415],[31.275615478308477,2.227192448070204],[31.272934330540444,2.2266965424041376],[31.27211675024091,2.2285408496391423],[31.27373444777549,2.230587925860975],[31.273454137634246,2.230830223237494],[31.273647215024468,2.231160550848964],[31.273185026045333,2.2310628406936286],[31.272797204838547,2.231398069595966],[31.26879923399212,2.230135651941553],[31.26879911386643,2.230135626546097],[31.26458518041834,2.2384625599030934],[31.26446553671095,2.239155380441234],[31.26650576749848,2.239902649658417],[31.266725790810355,2.243584454071764]]]}},{"type":"Feature","properties":{"n":"Panyimur Town Council","c":"332107","d":"Pakwach","od":"Pakwach","dc":"332","k":"PANYIMURTOWNCOUNCIL","a":["PANYIMUR","PANYIMURTOWNCOUNCIL"],"lat":2.24439,"lon":31.315164},"geometry":{"type":"Polygon","coordinates":[[[31.288394298620048,2.229864374014578],[31.288394356950388,2.229864502960468],[31.288394501454817,2.229864714821503],[31.296785053360555,2.248412865401762],[31.306410997641073,2.262973798383422],[31.310446232473314,2.266681155039429],[31.301444944192813,2.274454987384596],[31.30052701624577,2.27471368919263],[31.299678162080316,2.27495368568368],[31.300559781356913,2.275611417984532],[31.30100417273985,2.279151702070787],[31.30366529669334,2.2804396495740007],[31.303729578098853,2.280470731574705],[31.305215958105965,2.279804035660406],[31.30544839946758,2.279571137766852],[31.307684253469613,2.277330753722423],[31.30768435516039,2.277330790492523],[31.30768465901732,2.277330486038796],[31.308087706125335,2.2774766371063544],[31.308955321511032,2.277790355870182],[31.311345002513477,2.27658789088704],[31.313263773327566,2.273831342385515],[31.313263924202584,2.273831993086624],[31.313265076812502,2.273830337539671],[31.313566229223213,2.275135788871456],[31.313583103912684,2.2752085668523043],[31.315680217581946,2.2716195787781617],[31.315756058183965,2.271489742236155],[31.31575608894285,2.271489732974641],[31.315756182180216,2.271489573408758],[31.3178011770237,2.270873943563199],[31.3189992072328,2.269442393233365],[31.324642124118206,2.268778292729155],[31.32846250449168,2.266975245387685],[31.33159248870031,2.264190334784965],[31.33325232775991,2.262713418913416],[31.333252448932896,2.2627133813744402],[31.333252574229572,2.262713269891437],[31.339029890510606,2.260923549759965],[31.339666637270017,2.2607262877945993],[31.341247358308326,2.259607429817386],[31.34220710825277,2.258928090051433],[31.337897085978014,2.249772030869147],[31.3365,2.2474],[31.33588693309698,2.2455017330444655],[31.334840015524104,2.243277698307483],[31.32340499576152,2.208928600717111],[31.32297307863731,2.2090866291260145],[31.30678935264655,2.215008337227584],[31.306788151717353,2.2150083166582277],[31.306787551888927,2.215008536121468],[31.302811974076153,2.2149402132142004],[31.296809955915123,2.214837411442055],[31.29271799631625,2.2175196926331995],[31.28819527278809,2.2204844132942534],[31.28416788207519,2.2256384767777844],[31.284164428416233,2.225645833324413],[31.28680141189482,2.227529052135575],[31.28680153900509,2.22752923849466],[31.28680170006435,2.227529353479481],[31.288394298620048,2.229864374014578]]]}},{"type":"Feature","properties":{"n":"Pokwero","c":"332108","d":"Pakwach","od":"Pakwach","dc":"332","k":"POKWERO","a":["POKWERO"],"lat":2.575185,"lon":31.407815},"geometry":{"type":"Polygon","coordinates":[[[31.332663684003965,2.615253427177808],[31.332441429817766,2.618475457173308],[31.333878261013687,2.621781845716129],[31.336809231064134,2.624960833194342],[31.341722784503038,2.626912681343905],[31.349557806578797,2.624102988243262],[31.353419347889826,2.624365292450454],[31.359362137688457,2.622078923419428],[31.362177599416388,2.6198022469008],[31.380788718872765,2.62006897077831],[31.383100895029386,2.618956094696998],[31.38607021754539,2.616067920392791],[31.385869671583233,2.612799661456715],[31.38766841150809,2.611596891018284],[31.386793143011797,2.610470623313488],[31.390972747620726,2.608840709452906],[31.394318387031745,2.610154609703628],[31.397604978883592,2.613053469506009],[31.40280484384583,2.615050364499912],[31.412959147721075,2.616126056211822],[31.415722178175862,2.609916584283485],[31.4166,2.6073],[31.417280962791537,2.6064134635355454],[31.41831094378052,2.604098744916819],[31.431052186071007,2.588484889832088],[31.4325,2.5866],[31.443414481338753,2.581621464652498],[31.446375852907924,2.5784560753980403],[31.463763417190947,2.55778130990728],[31.464637260302446,2.5506009645517653],[31.464840647064477,2.5483990817802322],[31.464670367004583,2.548356494645405],[31.45761546351733,2.546592411942855],[31.45332622686206,2.548053864139813],[31.44154421246833,2.539018861031083],[31.43891446983138,2.535549263734137],[31.436454477760208,2.534876488075329],[31.434974049354786,2.536517764221817],[31.432249661599265,2.535823579188292],[31.41982792624718,2.536063881869012],[31.42126763711112,2.532665514185851],[31.4212677134514,2.5326654373402184],[31.42126774221929,2.532665369208999],[31.4212762534001,2.5326568408590826],[31.423520712065862,2.5303975244094],[31.421703414723563,2.530288609258424],[31.413318525636022,2.529786330096628],[31.413786879848494,2.52735581269475],[31.41373413768385,2.527331820750014],[31.409968677643906,2.525724101682729],[31.40692910651485,2.5271352272985137],[31.405072916578064,2.530537940565096],[31.40231263515299,2.532584482056038],[31.39871970621064,2.537224589053977],[31.39870607470828,2.537308407415912],[31.398147166929245,2.540764048187853],[31.398144017937547,2.540764422504794],[31.398143947240268,2.540764857213304],[31.38337598994454,2.542519881151696],[31.383375988977633,2.5425198807437512],[31.383375773814567,2.542519906319932],[31.381155852355054,2.541583658428322],[31.377651435989222,2.542193595452512],[31.377584612482504,2.542205234467959],[31.377584601679235,2.5422052278374494],[31.37758404251968,2.54220532515811],[31.374536866079918,2.540335708924556],[31.365912232623995,2.5433419944739843],[31.361637659749267,2.544832073017675],[31.35473927690063,2.545720706699106],[31.34944669808001,2.545273283240246],[31.345765763815386,2.546080265697034],[31.343802703592477,2.560945196888066],[31.365096402343898,2.566869322171139],[31.368462822721447,2.569175534804051],[31.368066997656207,2.5718544128349925],[31.36805836191867,2.571912978191482],[31.368058336179587,2.5719130322643196],[31.36805832546355,2.571913104788664],[31.36389118566223,2.580671877372322],[31.34858494339671,2.5833382910328377],[31.348481209452416,2.583356379820779],[31.348481147129288,2.5833563727919375],[31.34848056592941,2.583356474039472],[31.34312742164325,2.582753647195814],[31.33658335161444,2.5954098373458563],[31.3362117023999,2.599298794670118],[31.336211081504523,2.599298595740904],[31.336210721472696,2.599302356912212],[31.333714005536745,2.5984985553847215],[31.333433156263673,2.598408573840163],[31.327213897979167,2.6029840101970345],[31.32691398909158,2.603204665241955],[31.329619904313173,2.607356865417932],[31.332663684003965,2.615253427177808]]]}},{"type":"Feature","properties":{"n":"Ragem","c":"332109","d":"Pakwach","od":"Pakwach","dc":"332","k":"RAGEM","a":["RAGEM"],"lat":2.663445,"lon":31.365685},"geometry":{"type":"Polygon","coordinates":[[[31.29736670823812,2.68606447541226],[31.29786336491739,2.687259894847164],[31.299320862725473,2.68892565623279],[31.300979961385746,2.689035530705132],[31.3016767269863,2.690211341389494],[31.299323880845836,2.693280593736558],[31.30030663589068,2.694882610696693],[31.304289964461592,2.691750211336655],[31.304085853079215,2.690411859872529],[31.30859845580756,2.69224456372674],[31.310423305698272,2.694390358021407],[31.31277836304546,2.693679435764532],[31.313255523978942,2.695162980213683],[31.31658442844787,2.693801939244714],[31.31860295583857,2.694727148172324],[31.319015690396785,2.695776898214251],[31.32044335079698,2.692866950326683],[31.319971353841638,2.690019471193408],[31.322945927826908,2.69008025132369],[31.324753733490304,2.688628371559365],[31.325311715992417,2.690104679027463],[31.3279823920778,2.690976095829674],[31.329209271684324,2.692289023388024],[31.329780333693527,2.69176078980365],[31.329465668924353,2.69026283318385],[31.330294414944888,2.690989863196084],[31.331421882817935,2.690633479330194],[31.33075116545272,2.693059973429034],[31.3334058822448,2.695153124067267],[31.332799879226446,2.696731478340685],[31.33394226569772,2.696346119873305],[31.335104487103226,2.697230660405021],[31.33486989806939,2.698130537312853],[31.33721140305623,2.696974221804643],[31.338660486036368,2.697416762043645],[31.339532201550917,2.696303419895902],[31.340244691001377,2.696261032620035],[31.33948140867531,2.696681519445892],[31.339053105668956,2.699122839871964],[31.341886657554017,2.698868946254579],[31.341537262659713,2.702170930250285],[31.342935024063717,2.703855000040464],[31.341630062057458,2.705004871232013],[31.3424081439901,2.707960156882669],[31.34442115899355,2.707674623295986],[31.34316326974021,2.705141461059188],[31.344164183491177,2.705997097835029],[31.347035688673785,2.705119759425125],[31.34953224792156,2.708309935135116],[31.350833039165654,2.706776501393132],[31.351145421239934,2.709109357917177],[31.353059074839702,2.708288841266963],[31.354443205009733,2.709465985045422],[31.354379213094912,2.710915445366286],[31.356413710104576,2.711251238563923],[31.357027051151004,2.713957915084597],[31.355435695879315,2.716890278221018],[31.356249469231877,2.718603483278283],[31.35796107434032,2.718543737511354],[31.358855179957718,2.717088862918759],[31.360011603969475,2.719094129064478],[31.365841894919882,2.716917191886899],[31.367092003214097,2.717846305768327],[31.368421263316424,2.716787076854797],[31.369697236685358,2.717826614113994],[31.370621336434866,2.717160729308665],[31.373647025294538,2.719006804643211],[31.37395128065306,2.717732254210737],[31.37494143696661,2.717883738882766],[31.37535037416395,2.72119610847483],[31.37413244090804,2.722518892364366],[31.376264371685473,2.725070144444468],[31.375293616096265,2.727382508848725],[31.376771333796366,2.728027975074729],[31.378426044374663,2.726145648488514],[31.380058464666238,2.72842792990592],[31.380708993968057,2.727382643739263],[31.382342752518372,2.728627798828857],[31.38526937048563,2.728920429517548],[31.385915116459326,2.726935888444564],[31.387446461415102,2.725916031768436],[31.387010448970678,2.72448903481674],[31.388501394553085,2.724420328281875],[31.38807584727836,2.72287223671235],[31.39025142712994,2.722028363954668],[31.389246544216494,2.720709201848307],[31.390322281124057,2.719501737198059],[31.389246261156483,2.717504022577826],[31.39087961929505,2.717093061750454],[31.394168884873128,2.718292794972995],[31.39492538410645,2.720702367221195],[31.39955412864806,2.721095453415333],[31.40203721541966,2.717584589448398],[31.402056967747807,2.714616477743624],[31.404437561850614,2.710605043007614],[31.405893193482406,2.705699552008995],[31.410277755538306,2.700117920694243],[31.41866348172454,2.694779883607125],[31.420006984921297,2.692181513108066],[31.421959034851184,2.690687212683303],[31.422435648847735,2.687579287790949],[31.425610288496028,2.684930555098311],[31.427850285890315,2.679329520486157],[31.4276326741365,2.676605449726531],[31.429458748666296,2.673117150591017],[31.428642764948687,2.672068827727316],[31.428095891124094,2.668007948113205],[31.431536748314155,2.660492802501175],[31.42565287203434,2.652691451135317],[31.425442036900062,2.6520624265469808],[31.42165110625342,2.644162445199439],[31.415206339401553,2.636091393862577],[31.41475083586767,2.632826846530957],[31.415498665287235,2.631341274514653],[31.414101392456093,2.6284294751882227],[31.41251629473475,2.626086314129964],[31.41164093385863,2.623302085943158],[31.4114,2.6228],[31.41144288670394,2.6226721646324824],[31.411372757842976,2.622449108340231],[31.411156106447873,2.619617396947015],[31.41295914287508,2.616126066869106],[31.412959124821487,2.616126053785964],[31.402809965121477,2.615050907019994],[31.402808513061494,2.615050792427498],[31.402808371890913,2.6150507382418153],[31.40280484384583,2.615050364499912],[31.39782747270482,2.6131389134167664],[31.39760665029358,2.61305415487178],[31.397606562908617,2.6130540778163525],[31.397604978883592,2.613053469506009],[31.394318387031745,2.610154609703628],[31.39097278962461,2.6088407259486797],[31.38679389170194,2.61047158670419],[31.38766841150809,2.611596891018284],[31.385869731436475,2.612799621434413],[31.38587581696325,2.6128998115317463],[31.38607021754539,2.616067920392791],[31.383948487621833,2.618131665847404],[31.383101862593872,2.618955354979297],[31.38310145264401,2.6189555523213492],[31.383100895029386,2.618956094696998],[31.380788718872765,2.62006897077831],[31.371696850259415,2.6199386713379114],[31.362177480578104,2.619802342997411],[31.359362137688457,2.622078923419428],[31.355265018987463,2.6236552075606827],[31.353421396506185,2.624364513992263],[31.35342137505937,2.6243645125376824],[31.353419347889826,2.624365292450454],[31.349558012268165,2.6241030022151928],[31.346717604016693,2.6251215045238814],[31.341722784503038,2.626912681343905],[31.341722580380914,2.6269126002589243],[31.34172254277417,2.626912613743801],[31.336809523171272,2.624961015247137],[31.336809427122184,2.624960911075971],[31.336809231064134,2.624960833194342],[31.334478687631307,2.622433080176442],[31.33387833711561,2.62178196297091],[31.333878308600084,2.6217818973292673],[31.333878261013687,2.621781845716129],[31.332441429817766,2.618475457173308],[31.33266368249191,2.6152534490981827],[31.33260527618337,2.6151018981548644],[31.329619904313173,2.607356865417932],[31.32691398909158,2.603204665241955],[31.327039097553737,2.603112617908649],[31.327039093746635,2.6031126116482493],[31.326913982724946,2.603204654379245],[31.32504223173883,2.599833078372101],[31.32207106137745,2.600387392027791],[31.31212709729121,2.5992181151658516],[31.311530565517018,2.599147975299627],[31.304926099223856,2.599274584502613],[31.29926551310221,2.599383110758674],[31.300118914658935,2.637958541500881],[31.301057917691548,2.642714134494095],[31.301598749681123,2.655810165605063],[31.301025575533625,2.666397427484444],[31.29511513288238,2.679543067759122],[31.295850746445204,2.679729469549508],[31.295620403087533,2.680838590991274],[31.294529225963025,2.681766459975985],[31.29852951649127,2.684175470969171],[31.29736670823812,2.68606447541226]]]}},{"type":"Feature","properties":{"n":"Wadelai","c":"332110","d":"Pakwach","od":"Pakwach","dc":"332","k":"WADELAI","a":["WADELAI"],"lat":2.718023,"lon":31.328422},"geometry":{"type":"Polygon","coordinates":[[[31.309384768501126,2.7243106648602016],[31.325069808863113,2.7336482474168364],[31.32890741867303,2.734355518237399],[31.330041214608247,2.7366078133788223],[31.3307,2.737],[31.325634983670074,2.751003280441559],[31.325739590758936,2.751226019435149],[31.33944455567723,2.7635985572086104],[31.340992395092936,2.76444451021361],[31.343723215216052,2.765392515126816],[31.3490930234516,2.76623941181561],[31.355408310996808,2.7694489991543323],[31.358964236847743,2.770683439734708],[31.372928886356608,2.773170241105497],[31.3869,2.7756],[31.3936,2.7679],[31.4147,2.7603],[31.431595786119303,2.7614454770250374],[31.433282793150422,2.7603193971120885],[31.440792210362567,2.750276682527173],[31.448600648850842,2.738271821940781],[31.449913906470485,2.7325482828098906],[31.45050126023358,2.7282090570499045],[31.450230846128765,2.724165940567894],[31.44884861494847,2.719523233885992],[31.452938640262957,2.707995762983936],[31.453409799376153,2.704555093008469],[31.451482433593522,2.692055688165136],[31.44438360958972,2.684822695063289],[31.44395465520081,2.682323795171266],[31.4420273796278,2.678826216047268],[31.441928871296774,2.675298286649232],[31.44055878453424,2.669385280621449],[31.439044633865336,2.667250787356533],[31.431536757069278,2.660492811803586],[31.428095919651717,2.668008159948621],[31.428642764948687,2.672068827727316],[31.429458748666296,2.673117150591017],[31.4276326741365,2.676605449726531],[31.427850285890315,2.679329520486157],[31.426576559401074,2.6825144287234806],[31.425611063883185,2.684929094457596],[31.425610776802973,2.684929334103985],[31.425610288496028,2.684930555098311],[31.423720162580988,2.686507565045586],[31.42243555163489,2.6875799217006198],[31.421959034851184,2.690687212683303],[31.420007414474092,2.692181184284036],[31.41956145735847,2.6930431751261157],[31.41866348172454,2.694779883607125],[31.418662702061575,2.69478037991117],[31.418662684386632,2.694780414075079],[31.410277522794722,2.7001182169812763],[31.405893193482406,2.705699552008995],[31.404437561850614,2.710605043007614],[31.402056967747807,2.714616477743624],[31.40203721541966,2.717584589448398],[31.39955412864806,2.721095453415333],[31.39955381586559,2.7210954268529535],[31.399553429768606,2.72109597309465],[31.395453636261408,2.720747227901509],[31.39492538410645,2.720702367221195],[31.394168887890928,2.718292804585171],[31.39087947946569,2.717093096932199],[31.389247199930146,2.7175037863778204],[31.39032210307226,2.719500491559315],[31.390321796174298,2.719500836851177],[31.390322281124057,2.719501737198059],[31.389776560902643,2.7201142827671934],[31.389247120278835,2.7207099580753273],[31.39025142712994,2.722028363954668],[31.390248507017738,2.722029496619661],[31.390249633731564,2.722030980281597],[31.388861478226204,2.7225675029863052],[31.388076350970465,2.722872041338208],[31.388502020275013,2.724417680673508],[31.388500684342098,2.7244177446167748],[31.388501394553085,2.724420328281875],[31.387032125745456,2.724488035896256],[31.3870104606006,2.7244890728795648],[31.387446461415102,2.725916031768436],[31.385915351185997,2.7269357321195247],[31.38527010343601,2.728920106140198],[31.385269495454253,2.728920045457295],[31.38526937048563,2.728920429517548],[31.383053719544353,2.728698887974341],[31.382343350755864,2.728627985780428],[31.382343158765348,2.7286278394492367],[31.382342752518372,2.728627798828857],[31.38070912495987,2.7273827435735525],[31.380059035615506,2.728428144004029],[31.38005865893782,2.7284276177456586],[31.380058464666238,2.72842792990592],[31.37946985625344,2.727604998428291],[31.378425636078997,2.726146112947857],[31.37689403438713,2.727888396234071],[31.376771563124024,2.72802784668791],[31.37677147897696,2.728027809923618],[31.376771333796366,2.728027975074729],[31.375293616096265,2.727382508848725],[31.37529375265013,2.7273821835739582],[31.375293661118196,2.727382143583178],[31.376264277689394,2.7250700319606613],[31.37413244090804,2.722518892364366],[31.37535037416395,2.72119610847483],[31.37494143696661,2.717883738882766],[31.3739513963867,2.7177322719169035],[31.373890978882518,2.7179848632300114],[31.373647025294538,2.719006804643211],[31.373646601764552,2.7190065462332105],[31.373646566563995,2.719006693398429],[31.37062116543815,2.717160852524926],[31.370213554734868,2.7174545673256807],[31.369698828062656,2.717826841456677],[31.369697933200264,2.717826112221537],[31.369697236685358,2.717826614113994],[31.368421732821744,2.7167874593614267],[31.368053631820295,2.7170800262253096],[31.367092003214097,2.717846305768327],[31.36709071803798,2.7178453505911015],[31.36709058779735,2.71784545410642],[31.366949455700805,2.717740360648232],[31.365842254340702,2.7169174590180556],[31.361989522682904,2.718355605924189],[31.360011603969475,2.719094129064478],[31.358855179957718,2.717088862918759],[31.3582576747503,2.7180611139910047],[31.357961453956033,2.718543416600042],[31.35796126753814,2.718543423142901],[31.35796107434032,2.718543737511354],[31.356355102028555,2.7185997960303196],[31.356249796683286,2.718603492017027],[31.356249787254814,2.718603472177285],[31.356249469231877,2.718603483278283],[31.355584711612064,2.717203995186744],[31.35543588620419,2.716890831208792],[31.355435924773044,2.716890760101988],[31.355435695879315,2.716890278221018],[31.35638714790336,2.7151370538524437],[31.357026953989152,2.713957486308946],[31.35648961384082,2.711586202059227],[31.356248080411138,2.711223901426479],[31.354379213094912,2.710915445366286],[31.354379239795314,2.710914840584055],[31.354378680476756,2.71091478022517],[31.354186994402106,2.7092480888321377],[31.353431389047138,2.708605478648622],[31.352937958284908,2.7083407723739494],[31.3511467634059,2.709108782437099],[31.35114553563584,2.709109417658594],[31.351145521794972,2.7091093148022254],[31.351145421239934,2.709109357917177],[31.351123830533226,2.70894811940462],[31.350831802835202,2.7067779588374656],[31.34953224792156,2.708309935135116],[31.34953174692514,2.708309294947385],[31.349531682246354,2.708309371291803],[31.347034597413487,2.705120092840708],[31.344599577262265,2.7058640708493478],[31.344165289333,2.705996981368377],[31.344165098705385,2.705996818207263],[31.344164183491177,2.705997097835029],[31.343166529786398,2.705144247928095],[31.344326884693732,2.707484771847958],[31.34442115899355,2.707674623295986],[31.344127195588324,2.707716320166255],[31.342408730316127,2.707960505895506],[31.342408620570968,2.7079600892826536],[31.3424081439901,2.707960156882669],[31.341630062057458,2.705004871232013],[31.342935024063717,2.703855000040464],[31.341537262659713,2.702170930250285],[31.341886657554017,2.698868946254579],[31.339053105668956,2.699122839871964],[31.339053291580164,2.69912178018098],[31.339053247271067,2.699121784182529],[31.339079111800096,2.6989746053319084],[31.33948140867531,2.696681519445892],[31.340244691001377,2.696261032620035],[31.339532201550917,2.696303419895902],[31.338660486036368,2.697416762043645],[31.338659656181893,2.697416508611645],[31.338659569248886,2.697416619638611],[31.33742218765553,2.697038594009846],[31.33721140305623,2.696974221804643],[31.33486989806939,2.698130537312853],[31.33487025946678,2.6981291510026693],[31.334868862814616,2.698129840012954],[31.33498730183195,2.6976801797957384],[31.335104487103226,2.697230660405021],[31.334196217936604,2.696539397201834],[31.33394218670344,2.6963461465202547],[31.332799879226446,2.696731478340685],[31.33280072238964,2.696729282295141],[31.33279911691921,2.69672982143774],[31.333146149689338,2.6958296058279956],[31.33340582728022,2.6951532672242813],[31.33075129009403,2.69306017146266],[31.330751312733007,2.6930600895543493],[31.33075116545272,2.693059973429034],[31.331421882817935,2.690633479330194],[31.330883459500214,2.690803670772488],[31.33029543299617,2.690990042855299],[31.330295013170268,2.6909896741016732],[31.330294414944888,2.690989863196084],[31.32946607096419,2.6902631858793926],[31.32946594748216,2.690264159253851],[31.329780333693527,2.69176078980365],[31.329209271684324,2.692289023388024],[31.32853408628762,2.6915664834504343],[31.327981849101413,2.6909759186615214],[31.325311715992417,2.690104679027463],[31.325195552266095,2.689797333589133],[31.324753111106016,2.688628871406873],[31.322945927826908,2.69008025132369],[31.322939286369117,2.690080115617309],[31.320018220138685,2.690302207769103],[31.3204430748932,2.692865285845045],[31.320443408206774,2.692866418700398],[31.32044330217881,2.69286665702134],[31.32044335079698,2.692866950326683],[31.32044142873089,2.6928708680035784],[31.319152458596918,2.695768109117585],[31.319056179678718,2.695694370394318],[31.319015690396785,2.695776898214251],[31.318951815852753,2.695614439549372],[31.3165865412263,2.6938029076543932],[31.316585074590108,2.693802235409417],[31.3157444522772,2.694145368139088],[31.313255523978942,2.695162980213683],[31.31277836304546,2.693679435764532],[31.310423305698272,2.694390358021407],[31.31042318983301,2.6943902217784106],[31.310423103169818,2.694390247939807],[31.309938091509125,2.6938198070714026],[31.30859845580756,2.69224456372674],[31.30435661256449,2.690521823452773],[31.304289294635133,2.6917458193071138],[31.304289964461592,2.691750211336655],[31.304289011881437,2.6917509604241108],[31.304289000001827,2.691751176422966],[31.30075365195397,2.694928596467184],[31.30050374020341,2.6947276123298582],[31.30030663589068,2.694882610696693],[31.29992703710029,2.6942638159080565],[31.297449243995416,2.69227112405365],[31.297557509047994,2.696350698714931],[31.298662662524034,2.699420064339855],[31.293847928072488,2.703376060981033],[31.293354229467624,2.707497930551436],[31.292072706462687,2.709385600652408],[31.30107567704521,2.718224308614273],[31.309384768501126,2.7243106648602016]]]}}]}
