{"type":"FeatureCollection","name":"Pallisa sub-counties","metadata":{"source":"Uganda Bureau of Statistics NPHC 2024 Map Explorer","retrieved":"2026-07-26","display_only":true,"clipped_to_dashboard_district":true,"positive_area_overlaps_removed":true,"source_gap_ratio":0.00962948},"features":[{"type":"Feature","properties":{"n":"Agule","c":"210101","d":"Pallisa","od":"Pallisa","dc":"210","k":"AGULE","a":["AGULE"],"lat":1.315353,"lon":33.728708},"geometry":{"type":"Polygon","coordinates":[[[33.7041120451187,1.334034624982565],[33.70303038968237,1.3401147207911417],[33.72775320350684,1.3442094368308215],[33.72833034462852,1.3442526003612922],[33.742,1.3229],[33.746791381341595,1.3195460330608844],[33.75095983536282,1.316573637678669],[33.75727348366065,1.316435749566929],[33.75684452382349,1.307850793727896],[33.7551290724888,1.300341825696719],[33.7557647349619,1.295497398292187],[33.75216165536979,1.288469349330713],[33.74326926660223,1.289404442017381],[33.738562398315324,1.294329235559819],[33.73111158918638,1.291115481249085],[33.73161083412004,1.289648373304867],[33.728320451634836,1.286772032801865],[33.71791241740552,1.294955595081631],[33.70925279770782,1.30402822539544],[33.702064925094014,1.308747796035181],[33.69937483713561,1.314269558295806],[33.70222853490163,1.318031520642581],[33.7041120451187,1.334034624982565]]]}},{"type":"Feature","properties":{"n":"Agule Town Council","c":"210102","d":"Pallisa","od":"Pallisa","dc":"210","k":"AGULETOWNCOUNCIL","a":["AGULE","AGULETOWNCOUNCIL"],"lat":1.275021,"lon":33.715529},"geometry":{"type":"Polygon","coordinates":[[[33.69708715768849,1.276801141139682],[33.701249337222045,1.283354830942373],[33.70125049191263,1.285937144010067],[33.7006555503894,1.286187123522051],[33.70213320663338,1.294131800269725],[33.701933835640425,1.297163616766693],[33.703840472823615,1.302132704496832],[33.70332932558425,1.307913643988003],[33.709209545633925,1.3040566247882803],[33.70925279770782,1.30402822539544],[33.71791241740552,1.294955595081631],[33.718223461400164,1.2947110294080515],[33.71844355729315,1.294482426380993],[33.71942395998901,1.2937671090911034],[33.728320451634836,1.286772032801865],[33.728436022723024,1.2868730611180028],[33.7363511880786,1.277361034468585],[33.73756888338141,1.273240335344866],[33.735677803252564,1.268991081045938],[33.73276907993342,1.27024792043551],[33.73052308308562,1.268007222783277],[33.72713733481614,1.262361935418106],[33.723888113584785,1.261915125711831],[33.72079607391696,1.259841261270443],[33.719048947395464,1.260026784271208],[33.71689134161076,1.250069601710859],[33.7128457696637,1.242821728227788],[33.70945185575927,1.242974494944085],[33.70586026516809,1.244443298404408],[33.6928465429393,1.254053502966851],[33.68848032747852,1.25452190798827],[33.68707277495495,1.255999706672624],[33.68648734538907,1.260479979033508],[33.684626680230174,1.264501006753723],[33.68125385281464,1.265572370598687],[33.68601552083746,1.270385651151922],[33.69708715768849,1.276801141139682]]]}},{"type":"Feature","properties":{"n":"Akisim","c":"210103","d":"Pallisa","od":"Pallisa","dc":"210","k":"AKISIM","a":["AKISIM"],"lat":1.272366,"lon":33.755651},"geometry":{"type":"Polygon","coordinates":[[[33.72079601058022,1.25984124468248],[33.720796040589875,1.259841264809363],[33.72079607391696,1.259841261270443],[33.721647601128346,1.2604123897792237],[33.72388824135501,1.2619151432818803],[33.72713733481614,1.262361935418106],[33.727137439266016,1.2623621095744517],[33.72713758888101,1.262362130152473],[33.72849151763851,1.2646198561401352],[33.73052308308562,1.268007222783277],[33.73276907993342,1.27024792043551],[33.735677803252564,1.268991081045938],[33.73756888338141,1.273240335344866],[33.7363511880786,1.277361034468585],[33.73635099135848,1.2773612708764135],[33.73635096836004,1.277361348742409],[33.7363492874993,1.2773633184841562],[33.72843604266419,1.2868730371537642],[33.731609431419436,1.289646382827793],[33.73160923045855,1.2896469714385137],[33.73161083412004,1.289648373304867],[33.73111158918638,1.291115481249085],[33.738562398315324,1.294329235559819],[33.74326926660223,1.289404442017381],[33.75216165536979,1.288469349330713],[33.7557647349619,1.295497398292187],[33.7551290724888,1.300341825696719],[33.75684452382349,1.307850793727896],[33.756844525285004,1.3078508229778913],[33.75684453048766,1.307850845748982],[33.75727349522081,1.316435749665104],[33.76510733846472,1.3164167878121464],[33.769551805093094,1.3163590674663235],[33.77096332898529,1.302903162677309],[33.77068425620892,1.296991157617652],[33.772186172875884,1.292554299478294],[33.773279630614724,1.290476633545545],[33.782075673467304,1.284594126076789],[33.78086318189207,1.281590756548359],[33.78111068059746,1.278916926062849],[33.77891726411552,1.277636596028348],[33.77765910599085,1.279985779422658],[33.773512844258214,1.278241996656072],[33.774947511178624,1.274107745330487],[33.77370875015056,1.271492214697648],[33.76844302192363,1.26984877042111],[33.76561386371067,1.270001423667382],[33.763399291086664,1.265900691948776],[33.76368608544699,1.265099399996178],[33.760772880682715,1.262841411459734],[33.7605259246637,1.261542555948859],[33.76236909625823,1.260938594742254],[33.76435649680786,1.26151520623252],[33.7648835192371,1.257849341248597],[33.76576223794959,1.257783549840289],[33.76808241301247,1.24514412446682],[33.76768376627124,1.237720788048881],[33.76572193137456,1.237845681456836],[33.76386233505182,1.23605552927271],[33.759077997651374,1.23413003111352],[33.75750342356468,1.234591795664943],[33.75261181656238,1.233851339534873],[33.74637524067082,1.231256829334653],[33.73819562985513,1.231348232173444],[33.735071647192775,1.22993884608883],[33.73137419025888,1.232532298608886],[33.720117053879505,1.236716285288252],[33.71281943695811,1.242201069928166],[33.71688902130962,1.250065444758681],[33.71689134161076,1.250069601710859],[33.719048947395464,1.260026784271208],[33.72078016042767,1.2598429510841165],[33.72079601058022,1.25984124468248]]]}},{"type":"Feature","properties":{"n":"Chelekura","c":"210104","d":"Pallisa","od":"Pallisa","dc":"210","k":"CHELEKURA","a":["CHELEKURA"],"lat":1.29954,"lon":33.667476},"geometry":{"type":"Polygon","coordinates":[[[33.6503,1.3117],[33.672,1.3146],[33.67210641428074,1.3147068521995935],[33.675318252705836,1.316007466540296],[33.68629153458528,1.325611717506862],[33.69628388740877,1.338952743400492],[33.696352951638744,1.3390087701151665],[33.7030303966093,1.3401147219384155],[33.7030303966093,1.3401147219384149],[33.70303038968237,1.3401147207911417],[33.7041120451187,1.334034624982565],[33.70222853490163,1.318031520642581],[33.69937483713561,1.314269558295806],[33.69937553960556,1.3142681163830674],[33.70131592999802,1.309596021269294],[33.70188221212725,1.3091228386285751],[33.702064925094014,1.308747796035181],[33.70330725346982,1.3079320808935226],[33.70332931443486,1.307913646856576],[33.7033293494936,1.3079133735795805],[33.70377379634132,1.3028867977989693],[33.70193447355567,1.297165279304705],[33.701933835640425,1.297163616766693],[33.702133206207236,1.2941318067500422],[33.702130578117576,1.2941176679514497],[33.7006555503894,1.286187123522051],[33.70125049191263,1.285937144010067],[33.701249337222045,1.283354830942373],[33.69708715768849,1.276801141139682],[33.68601552083746,1.270385651151922],[33.68432981292775,1.268681671567175],[33.6809123265895,1.265227217834145],[33.675133436725254,1.263253332572367],[33.670528775488414,1.264681690623241],[33.666421419800066,1.264432927128318],[33.66413749503193,1.263499374369011],[33.658409606579255,1.263993663950485],[33.65728626331142,1.263461011135719],[33.655138296341065,1.265293879681459],[33.65431774966242,1.268883411388467],[33.64556622186964,1.282451714251733],[33.63040469301616,1.301915124625511],[33.624835249555325,1.313378656447481],[33.62432314017704,1.3155064927995768],[33.63017170280198,1.3161919576062808],[33.634654164512064,1.3159914291624057],[33.6503,1.3117]]]}},{"type":"Feature","properties":{"n":"Kameke","c":"210105","d":"Pallisa","od":"Pallisa","dc":"210","k":"KAMEKE","a":["KAMEKE"],"lat":1.267875,"lon":33.789722},"geometry":{"type":"Polygon","coordinates":[[[33.76379225050974,1.265268543377886],[33.76340334560034,1.2658893638000042],[33.763399291086664,1.265900691948776],[33.76561386371067,1.270001423667382],[33.76844302192363,1.26984877042111],[33.77370875015056,1.271492214697648],[33.77370957521808,1.2714939567522654],[33.77370964404631,1.271493978251534],[33.77481866420325,1.2738356967243396],[33.774947511178624,1.274107745330487],[33.77351286273524,1.2782419434112011],[33.777659297396426,1.2799854220376914],[33.77891726411552,1.277636596028348],[33.78111068059746,1.278916926062849],[33.78086694434004,1.2815501092727872],[33.78337667641978,1.28080479119614],[33.784972819611816,1.281739347610826],[33.786064521100876,1.280122006876529],[33.78815508639818,1.282021050311769],[33.796516202190325,1.28488285458208],[33.80230121140986,1.290662105667252],[33.81080756243456,1.297450914860194],[33.813268687009085,1.291869904477448],[33.814865531941905,1.290880239147937],[33.81898396060905,1.282762110246072],[33.8196619099006,1.280500033745599],[33.81849400447899,1.279343289699995],[33.812445377171606,1.259607009116413],[33.808499356278574,1.257319161049963],[33.807757779798926,1.254623698396689],[33.804402645974086,1.251605318219611],[33.80139796601027,1.246990987840465],[33.799386034282776,1.245817687896826],[33.79078158757369,1.246048358126441],[33.788747498754034,1.245252466514263],[33.78484570787028,1.241953015313842],[33.77871671459195,1.239957211436743],[33.774328423756806,1.237125780876486],[33.767683776923676,1.237720789517834],[33.7677413882567,1.2387937866185113],[33.76808241301247,1.24514412446682],[33.76808236459626,1.2451443882197974],[33.7680823686151,1.245144463069642],[33.765762388611236,1.257782964918801],[33.76576234474936,1.2577829680359975],[33.76576223794959,1.257783549840289],[33.7648835192371,1.257849341248597],[33.76435649680786,1.26151520623252],[33.76236968732112,1.2609387662294025],[33.76052824228217,1.2615547453724325],[33.760772880682715,1.262841411459734],[33.76368608544699,1.265099399996178],[33.763662730727916,1.2651646521455837],[33.76379225050974,1.265268543377886]]]}},{"type":"Feature","properties":{"n":"Oboliso","c":"210106","d":"Pallisa","od":"Pallisa","dc":"210","k":"OBOLISO","a":["OBOLISO"],"lat":1.300251,"lon":33.80032},"geometry":{"type":"Polygon","coordinates":[[[33.790687128165466,1.320662364259647],[33.80562476278,1.3200286464275153],[33.80779262179668,1.3187904616475163],[33.81573626060255,1.3123533750289729],[33.81996421375298,1.308355458694189],[33.825223685240736,1.3046652895462998],[33.82857315480481,1.3019510642098975],[33.833774542806104,1.294754180689323],[33.82498272296219,1.284950855921555],[33.81966191931758,1.280500040950056],[33.81966188381958,1.280500120768737],[33.81898396060905,1.282762110246072],[33.816324494799865,1.288004373253146],[33.81563552611091,1.289553546863194],[33.815187181009186,1.2902462136978525],[33.814865531941905,1.290880239147937],[33.814717348023294,1.2909720780507783],[33.814279260670354,1.291648897266374],[33.81327700776156,1.291864747583331],[33.813268687009085,1.291869904477448],[33.81080756243456,1.297450914860194],[33.80230121140986,1.290662105667252],[33.796516202190325,1.28488285458208],[33.78815508639818,1.282021050311769],[33.788154529645844,1.2820205445648942],[33.78815403545133,1.282020375401251],[33.78797019484875,1.2818530971348812],[33.786064521100876,1.280122006876529],[33.78536243447111,1.2811621385578629],[33.78497486111592,1.281738689047166],[33.78497371587119,1.2817380198148978],[33.784972819611816,1.281739347610826],[33.78337667641978,1.28080479119614],[33.780971644606815,1.2815190163118735],[33.780866943279214,1.2815501207333035],[33.78086602303255,1.2815600625371513],[33.781219097620536,1.2824723679965484],[33.782075673467304,1.284594126076789],[33.78204753073855,1.2846129470187573],[33.78207567180876,1.284685660413775],[33.77327962700087,1.2904766404121937],[33.77327921842012,1.2904774167515647],[33.77111390523853,1.295721918227726],[33.77090862182984,1.2963283522481626],[33.77075788234131,1.2985508872081641],[33.77096332898529,1.302903162677309],[33.769551805093094,1.3163590674663235],[33.76955007259983,1.316359089966236],[33.77223017537584,1.3163242834366775],[33.77408409108161,1.316267796194068],[33.790687128165466,1.320662364259647]]]}},{"type":"Feature","properties":{"n":"Apopong","c":"210201","d":"Pallisa","od":"Pallisa","dc":"210","k":"APOPONG","a":["APOPONG"],"lat":1.239654,"lon":33.644982},"geometry":{"type":"Polygon","coordinates":[[[33.623828448399536,1.234047859790314],[33.625340730348206,1.24299284918098],[33.62494751982663,1.244827199898398],[33.62552133076365,1.24596964443339],[33.627244919283505,1.245976856330107],[33.62884922645047,1.24750303303494],[33.62705921709946,1.249137627843639],[33.630335215310275,1.253691274589226],[33.63429472501525,1.257255578964645],[33.63706739521062,1.257764936373541],[33.637243209231706,1.260816789560841],[33.64242093650032,1.269361894902175],[33.6450810757265,1.276571464024937],[33.64720204001384,1.279845836433804],[33.65431050915951,1.2688946370097174],[33.65431774966242,1.268883411388467],[33.655138296341065,1.265293879681459],[33.655139391144736,1.2652929454812412],[33.655139526675555,1.265292353007332],[33.658813284554554,1.261200027285463],[33.659841242190105,1.258546023186528],[33.66055683256264,1.250788275082353],[33.66148201301894,1.248482002936147],[33.661157500772624,1.245639812175128],[33.661943822648524,1.243776276385711],[33.66781563981858,1.236314904998161],[33.67344456564706,1.232346492064551],[33.677471053705105,1.230342415255598],[33.684644943762244,1.228430441293642],[33.686656215172896,1.225834326141949],[33.684233444527436,1.221469360705317],[33.684610224988745,1.21894209917753],[33.68164173745082,1.214984671569487],[33.68259048164699,1.214166999765376],[33.67177045111046,1.202948970693085],[33.66928631179006,1.199047217837176],[33.658674391673166,1.204067617061285],[33.65718455225026,1.206022088149136],[33.64702444147657,1.209019017891117],[33.640772605720095,1.20925567737688],[33.63044472496462,1.206996434116342],[33.62192212828219,1.206184227883323],[33.62423525222687,1.224837965752612],[33.623828448399536,1.234047859790314]]]}},{"type":"Feature","properties":{"n":"Gogonyo","c":"210202","d":"Pallisa","od":"Pallisa","dc":"210","k":"GOGONYO","a":["GOGONYO"],"lat":1.24896,"lon":33.603255},"geometry":{"type":"Polygon","coordinates":[[[33.53185061426952,1.232689374152641],[33.5470349992718,1.236599973612786],[33.55300666271601,1.236785088906433],[33.566337680360114,1.235431162641485],[33.570828296001764,1.237340260295049],[33.57633844029531,1.244281066305767],[33.58185253671352,1.253119308848055],[33.583624246614285,1.254063403959654],[33.581562873652004,1.258870662502517],[33.58411213312696,1.262988180743136],[33.588803328198324,1.265824358440937],[33.58694727260668,1.268365112222807],[33.588693085724515,1.269554412427947],[33.58769729250403,1.272124636577475],[33.596225427413636,1.282796768625608],[33.59710646309081,1.288341133395075],[33.60238440372051,1.293021729741507],[33.60678582695758,1.307161682621608],[33.6114177237294,1.313993948716867],[33.62432315960393,1.3155064950764532],[33.62432315960393,1.3155064950764526],[33.62432314017704,1.3155064927995768],[33.624835249555325,1.313378656447481],[33.63040469301616,1.301915124625511],[33.6304055797613,1.301913986278265],[33.6472020328763,1.279845846267775],[33.646174471712456,1.2782594630496011],[33.6450810757265,1.276571464024937],[33.64242093650032,1.269361894902175],[33.63807434993694,1.262188469549232],[33.6372439889357,1.260818082017314],[33.63724398857811,1.2608180757616811],[33.637243209231706,1.260816789560841],[33.63706739521062,1.257764936373541],[33.63429472501525,1.257255578964645],[33.630335215310275,1.253691274589226],[33.62705921709946,1.249137627843639],[33.627059715650915,1.2491371725780713],[33.627058817849,1.249135924365639],[33.62744594849085,1.2487844737529212],[33.62884922645047,1.24750303303494],[33.62730784179848,1.2460367144910287],[33.62724479610324,1.245976855814692],[33.62552133076365,1.24596964443339],[33.62494751982663,1.244827199898398],[33.62494760701364,1.244826793165759],[33.62494734022567,1.244826261746959],[33.6250098723214,1.2445363217625391],[33.625340730348206,1.24299284918098],[33.623828448399536,1.234047859790314],[33.62423525153283,1.224837981465383],[33.6219221164772,1.206184227075751],[33.596809649878324,1.20319542254341],[33.58522157585355,1.200547111700195],[33.581632093887244,1.199181736768377],[33.56604165411137,1.190138431322218],[33.55563820965737,1.18228333009335],[33.55278828749284,1.187364337190204],[33.5507439942505,1.189075909654938],[33.54789231757763,1.1889392772201781],[33.54054912237539,1.1961248931262303],[33.54013075439877,1.197713390122327],[33.53739338988849,1.1999751758119],[33.535327667447255,1.1999974968569118],[33.52,1.2043],[33.5079,1.2203],[33.50768375021018,1.220687564558377],[33.5034307775452,1.229196000786079],[33.51671338957373,1.231341205595312],[33.53185061426952,1.232689374152641]]]}},{"type":"Feature","properties":{"n":"Kaukura","c":"210203","d":"Pallisa","od":"Pallisa","dc":"210","k":"KAUKURA","a":["KAUKURA"],"lat":1.233327,"lon":33.691235},"geometry":{"type":"Polygon","coordinates":[[[33.66413728402521,1.263499387393002],[33.66413729449893,1.263499391674057],[33.66413749503193,1.263499374369011],[33.666421319002,1.2644328859271738],[33.66859052967588,1.2645643000588656],[33.670528775488414,1.264681690623241],[33.675133436725254,1.263253332572367],[33.6809123265895,1.265227217834145],[33.68125373247134,1.2655723167478743],[33.681253844340446,1.265572359134277],[33.681253932638796,1.265572345242893],[33.68413867886623,1.2646560182480002],[33.68648570437915,1.2604835253708584],[33.68648734538907,1.260479979033508],[33.68707277495495,1.255999706672624],[33.688437721887155,1.2545666398798452],[33.68847948607405,1.254522771969043],[33.68847950667364,1.25452276975674],[33.68848032747852,1.25452190798827],[33.6928465429393,1.254053502966851],[33.69295509434737,1.2539733413329415],[33.705775989171805,1.244485465023015],[33.70583314433717,1.244463326243365],[33.70586026516809,1.244443298404408],[33.70860127000248,1.2433223473151034],[33.71098325723426,1.22386792848758],[33.71270715256741,1.197730126743062],[33.70930732248066,1.197280424896121],[33.70118379410887,1.199028003390289],[33.69951970017235,1.197942505967266],[33.68721666644524,1.19746189823038],[33.68513857094678,1.200010605160073],[33.68127054787751,1.197141310783143],[33.67579168809649,1.196934602664791],[33.66928632286549,1.199047213915744],[33.669706234598195,1.199706776261476],[33.67177042734635,1.202948933367615],[33.672918547007136,1.2041392975690721],[33.68259048164699,1.214166999765376],[33.68164173745082,1.214984671569487],[33.684610224988745,1.21894209917753],[33.684610069970454,1.2189431389654404],[33.684610218533905,1.21894333688473],[33.68423367234435,1.2214697711498435],[33.686656215172896,1.225834326141949],[33.686655074878686,1.225835798014447],[33.6866551020784,1.225835847054182],[33.68645790130978,1.226090306325477],[33.684644943762244,1.228430441293642],[33.68464418815689,1.2284306426763996],[33.68464395045569,1.228430949395665],[33.67834677282013,1.230109019966212],[33.677471053705105,1.230342415255598],[33.67746935561527,1.2303432604344258],[33.66782174526486,1.2363106006365965],[33.66781563981858,1.236314904998161],[33.661943822648524,1.243776276385711],[33.661157500772624,1.245639812175128],[33.66148201301894,1.248482002936147],[33.66061496545452,1.250643362521341],[33.66055682548937,1.250788351763958],[33.659841242190105,1.258546023186528],[33.658813284554554,1.261200027285463],[33.657977609604096,1.2621309144608046],[33.65728626836075,1.263461000762147],[33.65729079512534,1.2634631599743764],[33.65840855654871,1.2639931660601758],[33.66413728402521,1.263499387393002]]]}},{"type":"Feature","properties":{"n":"Obutet","c":"210204","d":"Pallisa","od":"Pallisa","dc":"210","k":"OBUTET","a":["OBUTET"],"lat":1.284518,"lon":33.526339},"geometry":{"type":"Polygon","coordinates":[[[33.41765521220255,1.3397095935468497],[33.421176892102395,1.3400811301445823],[33.4313,1.3364],[33.431991782404246,1.3329410879787833],[33.434054445968194,1.3224132462786],[33.437361421976625,1.321199414561945],[33.44049856438845,1.321189915553461],[33.44540384160246,1.322528067136751],[33.44917725046739,1.324680232993553],[33.451448326653,1.3266904463765492],[33.4713,1.3316],[33.49614117711067,1.3225006677250304],[33.499332380020704,1.3208602222013122],[33.5085,1.3116],[33.508827721788734,1.3115507346330655],[33.509648943143944,1.310699973283236],[33.51229997975232,1.309831003745284],[33.52343790587562,1.3093544324500703],[33.5238,1.3093],[33.545014764991336,1.3174671865224865],[33.545093140781844,1.317469717253362],[33.54967687010388,1.324859316806213],[33.55029182433808,1.3269750794169985],[33.55688009685448,1.3389986767594206],[33.55749179275262,1.3391585463268714],[33.5657,1.3341],[33.567131488515926,1.324326388753318],[33.5675093425327,1.317789585340381],[33.56857398757318,1.314296586177298],[33.57132492796451,1.310560174663016],[33.57985704944282,1.3103152037370556],[33.5799,1.3103],[33.61141773023068,1.3139939494788315],[33.61141773023068,1.313993949478831],[33.6114177237294,1.313993948716867],[33.60678582695758,1.307161682621608],[33.602384495825895,1.2930220256380427],[33.597106786788885,1.288341511961987],[33.59710676986089,1.2883414054456765],[33.59710646309081,1.288341133395075],[33.596225427413636,1.282796768625608],[33.59553606130674,1.2819340939376178],[33.58769795444895,1.272125916330314],[33.58769807216211,1.2721256122437952],[33.58769729250403,1.272124636577475],[33.58869305670738,1.2695544873235682],[33.588533885871065,1.2694459607177184],[33.58694727260668,1.268365112222807],[33.58694773273653,1.2683644823512275],[33.58694746407008,1.268364299167806],[33.58694915070268,1.2683625412979134],[33.58872957932562,1.265925313244271],[33.58870027662426,1.265762056069869],[33.58411247080617,1.262988384895433],[33.584112334521095,1.262988309479657],[33.58411232645028,1.2629882976215197],[33.58411213312696,1.262988180743136],[33.584110987542786,1.262986330416098],[33.5817461116483,1.259511708987004],[33.58173495168069,1.2591485998521172],[33.581562873652004,1.258870662502517],[33.58171547196499,1.2585147931100524],[33.58170036778893,1.258023352230355],[33.58361523833304,1.2540844118693126],[33.58362410217586,1.254063740799647],[33.58213350768375,1.2532690304923155],[33.58185253671352,1.253119308848055],[33.58185246379465,1.253119191970393],[33.58185244835803,1.253119183740362],[33.58008468977694,1.2502857240105534],[33.57633844029531,1.244281066305767],[33.570828323976116,1.237340295532702],[33.570290984524526,1.237111832800405],[33.566337680360114,1.235431162641485],[33.555271836590556,1.2365550330708397],[33.553006783555496,1.23678508094873],[33.55300675100448,1.2367850799396691],[33.55300666271601,1.236785088906433],[33.5470349992718,1.236599973612786],[33.53185061426952,1.232689374152641],[33.51671338957373,1.231341205595312],[33.51671333622299,1.2313411969789145],[33.5167133225621,1.231341195762242],[33.50344489737622,1.22920413773618],[33.49315780949032,1.2467210687056551],[33.4925,1.2479],[33.49150268765599,1.2489054426076889],[33.47056432407643,1.271030583147721],[33.456656126243345,1.2840360792492362],[33.4557,1.285],[33.455450558686415,1.2851119287945583],[33.451987182192816,1.287471232169686],[33.4171637106658,1.301900501180348],[33.40199750607449,1.3067928554765775],[33.401694710668934,1.3080369496428745],[33.40200475913247,1.310796852919721],[33.40100121521415,1.315967060174025],[33.395531540731,1.3333595391704691],[33.39540170429122,1.3338929975860971],[33.39550200750921,1.3339266284662583],[33.41765521220255,1.3397095935468497]]]}},{"type":"Feature","properties":{"n":"Kibale","c":"210301","d":"Pallisa","od":"Pallisa","dc":"210","k":"KIBALE","a":["KIBALE"],"lat":1.215352,"lon":33.754822},"geometry":{"type":"Polygon","coordinates":[[[33.738558861479845,1.220665282953074],[33.73843292124905,1.222972998074153],[33.735784914117474,1.230073262710105],[33.73892335722693,1.2313401002037028],[33.74637524067082,1.231256829334653],[33.746375455405776,1.231256918667651],[33.74637561318101,1.231256912492428],[33.74637842415351,1.2312581537117553],[33.75222982736444,1.2336924262325002],[33.75750145207233,1.2345914972346748],[33.75750342356468,1.234591795664943],[33.759077997651374,1.23413003111352],[33.76035540958608,1.234644136646416],[33.76068963540557,1.234650268511394],[33.762485983732184,1.230008811948361],[33.76953839933973,1.22199723299373],[33.77243373234829,1.216267667398795],[33.77188619069048,1.2147056315355],[33.77590919215754,1.214143844838307],[33.77580528336846,1.212310996805855],[33.77242403468195,1.211695328801424],[33.772508204562115,1.210815663451774],[33.769220922820345,1.209660796165805],[33.76460452183115,1.211441361944941],[33.76196998439713,1.204578544707855],[33.757756282024616,1.200965348288034],[33.753783390639846,1.200749165425754],[33.75068692043831,1.197150250950735],[33.74854917374978,1.195910450234998],[33.743989278208886,1.199856923396454],[33.73537741706595,1.210258038875099],[33.73780481160976,1.215997690594682],[33.738558861479845,1.220665282953074]]]}},{"type":"Feature","properties":{"n":"Kibale Town Council","c":"210302","d":"Pallisa","od":"Pallisa","dc":"210","k":"KIBALETOWNCOUNCIL","a":["KIBALE","KIBALETOWNCOUNCIL"],"lat":1.213241,"lon":33.790879},"geometry":{"type":"MultiPolygon","coordinates":[[[[33.764602321777744,1.2114356309333918],[33.76460452183115,1.211441361944941],[33.7646723875624,1.2114151858395914],[33.76900053033863,1.209621564903251],[33.76917159361818,1.2096798226519119],[33.769220922820345,1.209660796165805],[33.772508204562115,1.210815663451774],[33.77242999171004,1.2116330714809531],[33.772424258927444,1.2116953696327235],[33.77580528336846,1.212310996805855],[33.77580551937224,1.212315159678561],[33.77580555457816,1.212315166129618],[33.775806832254105,1.212338317613113],[33.77590919215754,1.214143844838307],[33.77188619069048,1.2147056315355],[33.77243373234829,1.216267667398795],[33.76953839933973,1.22199723299373],[33.76320649178137,1.229190311246654],[33.76188875386369,1.2315519516900821],[33.76068969451161,1.2346501157914986],[33.760689645117004,1.234650274083123],[33.76386049944445,1.2360547905165724],[33.76386233505182,1.23605552927271],[33.76386247805129,1.236055666932055],[33.76386268563818,1.236055758881786],[33.76386349398451,1.2360566449266104],[33.765496331333175,1.2376285061473988],[33.76676833589811,1.2377790657455614],[33.76768376627124,1.237720788048881],[33.76769277194339,1.2378884857298458],[33.76769278092148,1.237888486792529],[33.767683776923676,1.237720789517834],[33.77432429496646,1.2371261505975555],[33.774327609896794,1.237125654504506],[33.774327881102515,1.2371258294695864],[33.774328423756806,1.237125780876486],[33.778716676316755,1.2399571867406696],[33.780511464227594,1.2405416415574133],[33.78484570787028,1.241953015313842],[33.788747498754034,1.245252466514263],[33.79078141093964,1.2460482890136484],[33.79740033955521,1.245435556899958],[33.79844715411988,1.245842857638714],[33.799386034282776,1.245817687896826],[33.80139790913974,1.246990954675228],[33.801397975137185,1.246990980353901],[33.80123109965912,1.243706659029341],[33.79899526285367,1.24153960761063],[33.79914226249782,1.241006334366167],[33.80242322090579,1.241308542587302],[33.80275137441723,1.240313222764893],[33.80000067055423,1.237172460978423],[33.8029585671895,1.233504268409947],[33.81464127750024,1.232891345956566],[33.81371498087996,1.230024124430745],[33.809696740393136,1.223503171854986],[33.81131930756139,1.220366072146606],[33.80613085313882,1.219113390783772],[33.8058418260111,1.211741380338239],[33.807844928278726,1.205881863823001],[33.803661823422985,1.195968124039235],[33.79770275790001,1.192494465508627],[33.796184468108834,1.186290531604143],[33.79189396182471,1.182555593456194],[33.78671116477225,1.181217926350777],[33.78329308503695,1.178270029825831],[33.7800139800052,1.17797243500996],[33.77217158548728,1.179729620781814],[33.768010725415884,1.179558925307973],[33.76828223577054,1.184416703635381],[33.770493048052955,1.191581581972876],[33.76864278733489,1.197121594334092],[33.769369000803415,1.197401936341827],[33.7695917542335,1.19933935821938],[33.76714638648633,1.199065559431714],[33.76294170656317,1.201604954016372],[33.76126006516085,1.200436069217043],[33.75879062798122,1.201852286846305],[33.76196998439713,1.204578544707855],[33.76215689554349,1.2050654374050165],[33.76256351465451,1.205446952622038],[33.764602321777744,1.2114356309333918]]],[[[33.77987788791873,1.17798913409955],[33.77987788865369,1.177989140086765],[33.77987788791876,1.177989134099546],[33.77987788791873,1.17798913409955]]]]}},{"type":"Feature","properties":{"n":"Opwateta","c":"210303","d":"Pallisa","od":"Pallisa","dc":"210","k":"OPWATETA","a":["OPWATETA"],"lat":1.258463,"lon":33.845183},"geometry":{"type":"Polygon","coordinates":[[[33.80180230106634,1.247611931020777],[33.80440204717737,1.2516043986388552],[33.80440273469089,1.2516053980319366],[33.807757779798926,1.254623698396689],[33.80775853191424,1.2546264321656158],[33.807759803182286,1.254627576584221],[33.80802352017402,1.2555896045118184],[33.808499356278574,1.257319161049963],[33.812445377171606,1.259607009116413],[33.81244541818296,1.259607142933808],[33.81244545040238,1.259607161609027],[33.8184940462534,1.2793433310751714],[33.81849886109215,1.2793480998997344],[33.824982603705074,1.2849507373706],[33.82498267117208,1.284950812599489],[33.82498272296219,1.284950855921555],[33.82903395467047,1.2894681846260576],[33.83377454953054,1.294754171306251],[33.83504617042768,1.2933849416700924],[33.8361,1.2919],[33.837905757336756,1.2903058548511468],[33.84330460763009,1.284492592549906],[33.85936427347362,1.270374980425226],[33.86100065532909,1.2699173902172844],[33.8617,1.2693],[33.86422002865189,1.2690171396411143],[33.86509753562689,1.268771757673686],[33.866876428436456,1.2687189723183567],[33.881109427394705,1.2671213908026355],[33.881294959380234,1.267083623519226],[33.88129478623905,1.2670679933008506],[33.87747656385253,1.2436283503169125],[33.875652256669845,1.240588633476343],[33.87334386387967,1.232484690958757],[33.8731410578466,1.227459066554917],[33.85648637349041,1.224113073744137],[33.84972718978915,1.221603299420717],[33.84521018860434,1.224199801433006],[33.83690683520396,1.224567265633559],[33.83704040505181,1.223220351027807],[33.83002468485533,1.225743860448536],[33.811318953024625,1.22036686469383],[33.81124448884951,1.2205107279511906],[33.809696740393136,1.223503171854986],[33.81371498087996,1.230024124430745],[33.813980601084324,1.2308463145920618],[33.8146410525834,1.232889840498416],[33.81464079520897,1.232889853091455],[33.81464127750024,1.232891345956566],[33.802994047323686,1.233502406977941],[33.80000335652566,1.237169130009957],[33.80000067055423,1.237172460978423],[33.8026299900249,1.2401746257075994],[33.802750965727036,1.240312632616169],[33.80275093616903,1.2403127223718131],[33.80275137441723,1.240313222764893],[33.80242322090579,1.241308542587302],[33.802423002891835,1.2413085225060942],[33.80242280417786,1.241309125919717],[33.80118746561929,1.2411947174909574],[33.79914226249782,1.241006334366167],[33.79914169376684,1.2410083975617316],[33.80122886042135,1.2437044886815845],[33.80123109965912,1.243706659029341],[33.80123133564491,1.2437113035292755],[33.80180230106634,1.247611931020777]]]}},{"type":"Feature","properties":{"n":"Boliso","c":"210401","d":"Pallisa","od":"Pallisa","dc":"210","k":"BOLISO","a":["BOLISO"],"lat":1.1439,"lon":33.7648},"geometry":{"type":"Polygon","coordinates":[[[33.72721343020708,1.132772055018613],[33.73680280541303,1.139717305334716],[33.74785158691586,1.153907946239748],[33.752081042266056,1.169919697353099],[33.758105485717074,1.177372393459432],[33.76085325948311,1.178448175992312],[33.7686919788785,1.1795868731073729],[33.77110944099926,1.1796860472769235],[33.78001384460514,1.1779724653480228],[33.7800139800052,1.17797243500996],[33.78001399512328,1.1779724363819997],[33.78001412130993,1.177972412098378],[33.78208225766562,1.174552136107782],[33.78644098847238,1.171462961138472],[33.794915513595804,1.169294149189239],[33.8006224007936,1.165498502385852],[33.80062096853309,1.160051301739456],[33.80158046150821,1.159262945071575],[33.7978107301508,1.157526798645479],[33.799104297834624,1.155346594069054],[33.7912045069751,1.146806165244536],[33.78787562434439,1.140993721730676],[33.78377342910635,1.138852741487133],[33.780058250953104,1.138425220958833],[33.774060519375084,1.136245951419918],[33.763882276908205,1.129825360661611],[33.76116897775571,1.11327102021321],[33.755240966979116,1.113341804539721],[33.744505500732316,1.1117645896068888],[33.742572830251454,1.1116203604665262],[33.73603401742028,1.115463559567401],[33.730513274006675,1.1172457427026872],[33.7304,1.1173],[33.718186752444424,1.1176346095220706],[33.723256678328156,1.128810687494457],[33.72721343020708,1.132772055018613]],[[33.77987788865369,1.177989140086765],[33.77987788791873,1.17798913409955],[33.77987788791876,1.177989134099546],[33.77987788865369,1.177989140086765]]]}},{"type":"Feature","properties":{"n":"Kamuge","c":"210402","d":"Pallisa","od":"Pallisa","dc":"210","k":"KAMUGE","a":["KAMUGE"],"lat":1.21048,"lon":33.837055},"geometry":{"type":"Polygon","coordinates":[[[33.80694315522518,1.208519749159998],[33.80584183332007,1.21174135895786],[33.806133833230774,1.2191141102862182],[33.81131930756139,1.220366072146606],[33.81124448885137,1.220510727947596],[33.811318953024625,1.22036686469383],[33.83001570686802,1.225741279710176],[33.83002482686862,1.2257438093672681],[33.83704040505181,1.223220351027807],[33.83704040237489,1.2232203780218274],[33.83704040794896,1.223220376015832],[33.83704026553526,1.2232217579088234],[33.83690683520396,1.224567265633559],[33.84520983754015,1.2241998169693218],[33.84625049124514,1.2236018055968951],[33.84972718978915,1.221603299420717],[33.85648636504717,1.224113070609048],[33.8731410592452,1.227459055003764],[33.87425892031381,1.224514254013555],[33.874085551609184,1.2228696213321322],[33.86922523386027,1.2126504917062066],[33.86808201685671,1.211746915006093],[33.86759300281078,1.20921862129445],[33.8663,1.2065],[33.8552,1.1981],[33.855285978703144,1.1976608944803728],[33.85515516176527,1.197572102354495],[33.84004896235611,1.198919560869824],[33.83759461772247,1.198526120605075],[33.83464945457149,1.195642763686529],[33.83152010969059,1.196217144529394],[33.827600916693136,1.194479746389018],[33.82795998197825,1.193788597710443],[33.81774770068648,1.192584484738564],[33.81319247318147,1.192466661460929],[33.809595383664956,1.194173503539177],[33.8033567742123,1.195637396342525],[33.80344669883433,1.1958427236119946],[33.803661823422985,1.195968124039235],[33.807844928278726,1.205881863823001],[33.807844265236845,1.2058838033669366],[33.80784435791167,1.205884014973817],[33.80694315522518,1.208519749159998]]]}},{"type":"Feature","properties":{"n":"Kamuge Town Council","c":"210403","d":"Pallisa","od":"Pallisa","dc":"210","k":"KAMUGETOWNCOUNCIL","a":["KAMUGE","KAMUGETOWNCOUNCIL"],"lat":1.170484,"lon":33.821988},"geometry":{"type":"MultiPolygon","coordinates":[[[[33.786711301966314,1.1812179617602254],[33.79189396182471,1.182555593456194],[33.79223271794205,1.1828504847957462],[33.792366149696946,1.182889932839432],[33.79617738374815,1.1862843645816015],[33.796184468108834,1.186290531604143],[33.79618451272846,1.1862907139258614],[33.7961845471623,1.186290744593964],[33.797703227073214,1.1924947389990745],[33.79774128486563,1.1925169236477853],[33.803356766156824,1.195637388007637],[33.80754795000667,1.1946539348629266],[33.809595338179065,1.1941735142124634],[33.80960687957239,1.1941680486572634],[33.81319247318147,1.192466661460929],[33.81774770068648,1.192584484738564],[33.81793194983003,1.1926062092462888],[33.818046024025506,1.192609550008516],[33.82795193800156,1.193787451385153],[33.82795184224514,1.1937876379681538],[33.82795998197825,1.193788597710443],[33.827600916693136,1.194479746389018],[33.83151980661608,1.196217010174927],[33.83198577906833,1.1961316724641966],[33.83464945457149,1.195642763686529],[33.83759461772247,1.198526120605075],[33.83760567651359,1.198527893369032],[33.84046580462945,1.1988823789383827],[33.844505629065615,1.1985220304688902],[33.851340837027905,1.197412587321947],[33.855155160772625,1.197572090809325],[33.85498721152258,1.192696214248335],[33.85785645455697,1.1832049388907244],[33.85672621420688,1.1785195788939802],[33.85532996677044,1.17894107330591],[33.85285561825364,1.178375908122204],[33.85133715291016,1.175785575062878],[33.854150194697944,1.169505671457926],[33.85188958054491,1.16727559301956],[33.851817721722675,1.16519715036831],[33.85286742120912,1.164052913192132],[33.85241646110354,1.1610382204101468],[33.85187396651523,1.1612864205485882],[33.84607983652571,1.164514197920888],[33.8411044731454,1.168419365412016],[33.83777495050874,1.168411422318537],[33.837424421531054,1.1678973234825267],[33.8372,1.168],[33.83569735108117,1.1653643377252598],[33.830498197251636,1.157739065345098],[33.8281927745917,1.152201230299871],[33.824815779407245,1.1462779446287539],[33.82303488139198,1.143502275686558],[33.82232169241596,1.145881535417327],[33.81864354167369,1.149844875668252],[33.81792461979211,1.150360853746548],[33.81730235933117,1.150777159726696],[33.81668041965432,1.151157081717116],[33.81480347037199,1.152162092675443],[33.80607738722721,1.160129496989919],[33.80466163368693,1.159934615114318],[33.80446205622739,1.160630467649625],[33.80158311332375,1.159260782095476],[33.80157976937678,1.1592635137536196],[33.80062096853309,1.160051301739456],[33.8006224007936,1.165498502385852],[33.794915513595804,1.169294149189239],[33.794915277657815,1.169294209570808],[33.79491526961207,1.169294214922276],[33.79483773798216,1.1693140536296385],[33.78644116197326,1.1714629167358914],[33.78232391857309,1.174380863124999],[33.78208225766562,1.174552136107782],[33.78021455295575,1.1776409390095446],[33.78001413327267,1.177972412444674],[33.78001488912927,1.1779725175174145],[33.78329308503695,1.178270029825831],[33.78351175769856,1.1784586223775502],[33.783907720809786,1.178513665793963],[33.786711301966314,1.1812179617602254]]],[[[33.81835093005617,1.150054519859667],[33.81835093344887,1.150054524596669],[33.81835093005624,1.150054519859615],[33.81835093005617,1.150054519859667]]]]}},{"type":"Feature","properties":{"n":"Kasodo","c":"210404","d":"Pallisa","od":"Pallisa","dc":"210","k":"KASODO","a":["KASODO"],"lat":1.133198,"lon":33.648193},"geometry":{"type":"Polygon","coordinates":[[[33.639817261932926,1.165539466704605],[33.64785305395096,1.166450929056015],[33.64784310142155,1.165544528526498],[33.6539391472399,1.160960098564997],[33.65685230213605,1.159265121642455],[33.6590597563298,1.159240426849982],[33.66275196629584,1.162106426945425],[33.66561141444356,1.166339168289919],[33.67075327310082,1.166503217467313],[33.67980367540604,1.163797348756989],[33.683289204598026,1.165551052623171],[33.68909595006014,1.16704885349209],[33.69051789915119,1.16544231156278],[33.69458676347963,1.152113652357226],[33.69335843931971,1.14684813590354],[33.69359960059862,1.129524538192768],[33.692301191706946,1.123417316779483],[33.68802818262562,1.124240828390293],[33.6859,1.1249],[33.68490246352237,1.1248432296313546],[33.682666403285126,1.125274172213689],[33.67358712825088,1.124245016216839],[33.646551254792655,1.113349841510437],[33.630437959799735,1.1060409175478807],[33.6263,1.1043],[33.62092710792367,1.111781877751147],[33.62106053990125,1.112033957552491],[33.620603014914536,1.11432524198046],[33.618161459419746,1.1156331079108177],[33.6156,1.1192],[33.61472397982132,1.1196235701962856],[33.61438345685414,1.12015715556723],[33.613043945480264,1.1204358944930572],[33.6065,1.1236],[33.60143440144415,1.1368718682163235],[33.59881507209315,1.148493621270845],[33.59511506508599,1.15735898621035],[33.60597922422024,1.158054411295099],[33.639817261932926,1.165539466704605]]]}},{"type":"Feature","properties":{"n":"Olok","c":"210405","d":"Pallisa","od":"Pallisa","dc":"210","k":"OLOK","a":["OLOK"],"lat":1.184024,"lon":33.621462},"geometry":{"type":"Polygon","coordinates":[[[33.581632122384875,1.1991817476083664],[33.583911043376446,1.200048608515511],[33.585221668076876,1.2005471327766932],[33.596809649878324,1.20319542254341],[33.59680967927008,1.2031954260415216],[33.62875715383651,1.20673448167285],[33.62942364121791,1.206899124503508],[33.63044472496462,1.206996434116342],[33.63927780516512,1.2089286869555511],[33.64227253111819,1.2091988986022573],[33.64531590075585,1.2090836936734186],[33.65718169254192,1.2060229316778295],[33.65718455225026,1.206022088149136],[33.658674391673166,1.204067617061285],[33.658676007806754,1.2040668524837415],[33.6586760484024,1.204066799246983],[33.65867719820074,1.2040662893195844],[33.66928631179006,1.199047217837176],[33.66944221060234,1.1992920827813691],[33.66944221725678,1.1992920798301725],[33.66928632286549,1.199047213915744],[33.67193070408191,1.1981884535984912],[33.673675333348086,1.197414722910721],[33.674367682568636,1.1973970471229776],[33.67579168809649,1.196934602664791],[33.68127054787751,1.197141310783143],[33.68137416065324,1.1972181706026075],[33.68138508930418,1.197217891592379],[33.68465156263517,1.189578229173124],[33.68520154135999,1.185763959748025],[33.68430292242587,1.178676364831564],[33.68568643564166,1.174444307571431],[33.68756389119068,1.17162947775984],[33.685966321058395,1.171487557608457],[33.68668257389899,1.168492331026859],[33.688185587272116,1.168875525444738],[33.68940321315745,1.167447303251142],[33.686796132234946,1.166455634939735],[33.683289204598026,1.165551052623171],[33.67980367540604,1.163797348756989],[33.67075327310082,1.166503217467313],[33.67075312078224,1.1665032126076424],[33.67075294151109,1.166503266246171],[33.66561247216403,1.166339405819688],[33.66561233142032,1.1663391975457373],[33.66561141444356,1.166339168289919],[33.66275196629584,1.162106426945425],[33.6590597563298,1.159240426849982],[33.65685230213605,1.159265121642455],[33.6539391472399,1.160960098564997],[33.64784310142155,1.165544528526498],[33.64785305395096,1.166450929056015],[33.639817261932926,1.165539466704605],[33.60597922422024,1.158054411295099],[33.595120027442015,1.1573593038554446],[33.591583242266886,1.1626819052607662],[33.5915,1.1629],[33.59123733853659,1.163072024761254],[33.58598403026767,1.167800219916643],[33.58225216357284,1.1689566816037034],[33.58124637068336,1.1696154051158292],[33.579148757434105,1.171501288979948],[33.57758328841678,1.172014466036895],[33.5773,1.1722],[33.56246369866387,1.1761504944386152],[33.56180660940316,1.176774234397407],[33.56056987529876,1.176941775236138],[33.55914222746231,1.180153034356297],[33.5567866181654,1.180701234517731],[33.555638221638915,1.182283324824444],[33.56040490027823,1.185882410909235],[33.56604165411137,1.190138431322218],[33.56681833269605,1.1905889472650468],[33.581632122384875,1.1991817476083664]]]}},{"type":"Feature","properties":{"n":"Pallisa","c":"210406","d":"Pallisa","od":"Pallisa","dc":"210","k":"PALLISA","a":["PALLISA"],"lat":1.202497,"lon":33.72711},"geometry":{"type":"MultiPolygon","coordinates":[[[[33.71295173650703,1.242456735655371],[33.71281943695811,1.242201069928166],[33.713109624482584,1.2419829691297697],[33.71328120415015,1.241468118630978],[33.720115435695114,1.236717209967626],[33.72011620309383,1.2367169247266137],[33.720117053879505,1.236716285288252],[33.73137411902512,1.2325323250846345],[33.73425960356109,1.230312538873432],[33.73461933289873,1.2302561062129425],[33.735071647192775,1.22993884608883],[33.735476733928124,1.2301216011388971],[33.73578490517754,1.23007325667079],[33.73843292652133,1.2229729014655344],[33.738558857952135,1.2206653475944256],[33.73828479829171,1.2189688232182025],[33.73780481160976,1.215997690594682],[33.73537741706595,1.210258038875099],[33.73539322280194,1.210238949240169],[33.73798618875371,1.206471426804568],[33.74126936782945,1.20314193943172],[33.743989278208886,1.199856923396454],[33.74753325473112,1.1967897022058824],[33.7482674539442,1.196045147323947],[33.7483499707977,1.1960828553037157],[33.74854917374978,1.195910450234998],[33.75068692043831,1.197150250950735],[33.750687668217914,1.1971511200677192],[33.75068778020228,1.197151171241556],[33.75091982541364,1.1974209479161317],[33.753783390639846,1.200749165425754],[33.757756282024616,1.200965348288034],[33.75879062798122,1.2018522868463046],[33.76126006516085,1.200436069217043],[33.76294170656317,1.201604954016372],[33.76714638648633,1.199065559431714],[33.769590681426486,1.1993392381011438],[33.76938746029044,1.1975624897124026],[33.76936901794613,1.1974020854424758],[33.76935125777441,1.1973950869558114],[33.76864278733489,1.197121594334092],[33.77022460399596,1.1923853516143705],[33.77049297033219,1.1915813300926852],[33.76828223577054,1.184416703635381],[33.768282226874405,1.1844165444685093],[33.768282173305586,1.184416370866196],[33.76801071388315,1.179558923254378],[33.76576745924174,1.1791620406946604],[33.76085325948311,1.178448175992312],[33.760128295394885,1.1781643448732004],[33.759383549949895,1.178032582534191],[33.75883872870632,1.1776594658559818],[33.758105485717074,1.177372393459432],[33.757716006768504,1.176890578289761],[33.75658376823232,1.176115173353651],[33.75208118530291,1.169919902825785],[33.75208117222853,1.1699198581265877],[33.752081042266056,1.169919697353099],[33.75208026952069,1.1699167719157868],[33.74995912050517,1.162664909534678],[33.74581005980252,1.169919596542484],[33.744195735106686,1.176426418223076],[33.74572331696964,1.184925267233999],[33.74813612136281,1.191877668037615],[33.74381612046646,1.191905019110995],[33.73931435550349,1.189999172084804],[33.72564411288297,1.188276898608788],[33.72478166192743,1.190534843336439],[33.72230674407599,1.191554312742827],[33.72285786245339,1.195215079357111],[33.72021362578541,1.200119039195566],[33.71256910452102,1.200230272324991],[33.71098346230024,1.223864819265188],[33.71098325723426,1.22386792848758],[33.710983249421474,1.223867992296976],[33.710983247898305,1.223868015000387],[33.708601635696155,1.2433221977623876],[33.70945185575927,1.242974494944085],[33.71282986000726,1.2428224443526044],[33.71295173650703,1.242456735655371]]],[[[33.71258851509821,1.140272885124161],[33.71622754767881,1.146977910973137],[33.71953886096863,1.151077854020786],[33.721543884717384,1.15645314612362],[33.72781199995671,1.154140411609134],[33.727348416657684,1.153307776312131],[33.72914563186882,1.152329723473282],[33.732936679106466,1.152604077230161],[33.73355014806241,1.154844017145889],[33.74348082488816,1.15101137931733],[33.74599566964888,1.151524275653227],[33.73680280541303,1.139717305334716],[33.72721343020708,1.132772055018613],[33.72479644454445,1.1303522498846903],[33.72325678244754,1.128810812296166],[33.723256765359025,1.1288107746268483],[33.723256678328156,1.128810687494457],[33.71866034240513,1.1186785850059737],[33.718186747609906,1.117634609654523],[33.7085,1.1179],[33.70429081879926,1.119203728690496],[33.69892715681125,1.121454430211239],[33.69986112994988,1.124767165956841],[33.71258851509821,1.140272885124161]]]]}},{"type":"Feature","properties":{"n":"Pallisa Town Council","c":"210407","d":"Pallisa","od":"Pallisa","dc":"210","k":"PALLISATOWNCOUNCIL","a":["PALLISA","PALLISATOWNCOUNCIL","TOWNCOUNCIL"],"lat":1.159559,"lon":33.720763},"geometry":{"type":"Polygon","coordinates":[[[33.69952042677065,1.197942704677259],[33.699786482642324,1.1981165296069796],[33.70118350942489,1.1990278176893934],[33.70580419099093,1.198034037978209],[33.70930732248066,1.197280424896121],[33.70930786148043,1.1972804961906234],[33.70930800371773,1.197280465599349],[33.70948532029157,1.197303968997525],[33.71270715256741,1.197730126743062],[33.712696159419764,1.1978968054898296],[33.712569230114156,1.200230262698182],[33.71256929513188,1.2002302695514697],[33.72021362578541,1.200119039195566],[33.72285786245339,1.195215079357111],[33.72247787026804,1.1926910069202592],[33.72230668910609,1.191555778193427],[33.72230694859155,1.1915556712236273],[33.72230674407599,1.191554312742827],[33.72478120241222,1.1905350326201765],[33.72488922551735,1.1902532358558218],[33.72564411288297,1.188276898608788],[33.72564670344786,1.1882772249864042],[33.72564697179131,1.188276524966562],[33.73676708382032,1.1896782488519164],[33.73931435550349,1.189999172084804],[33.74381612046646,1.191905019110995],[33.74813612136281,1.191877668037615],[33.74572331696964,1.184925267233999],[33.74572326819729,1.1849249958843249],[33.74572322658652,1.184924876119364],[33.745637982923036,1.184450503036318],[33.744195735106686,1.176426418223076],[33.74581005980252,1.169919596542484],[33.74940618458818,1.1636317252311854],[33.7499591165911,1.16266489234476],[33.74785426111632,1.1539180701513958],[33.74785159003721,1.1539079580564569],[33.74785151805781,1.1539078578010504],[33.74599566964888,1.151524275653227],[33.74348100702783,1.1510114164642637],[33.74245122405108,1.1514087426779303],[33.73355014806241,1.154844017145889],[33.732936679106466,1.152604077230161],[33.72966514156994,1.152367319796752],[33.72734847660139,1.153307883976165],[33.72781199995671,1.154140411609134],[33.72780676041854,1.15414234483153],[33.727806782679274,1.154142385109111],[33.72765943360198,1.1541967037258003],[33.721543884717384,1.15645314612362],[33.71954010966752,1.1510812016725354],[33.71953885684375,1.1510778489135112],[33.71622754767881,1.146977910973137],[33.714265844901014,1.1433634152131187],[33.71258846292662,1.1402728215637319],[33.69986112994988,1.124767165956841],[33.69895671972186,1.1215592877351597],[33.69892714559737,1.121454432962966],[33.692301203018886,1.123417314179458],[33.69278637244902,1.125699422390683],[33.69359960059862,1.129524538192768],[33.69335843931971,1.14684813590354],[33.69458676347963,1.152113652357226],[33.69051789915119,1.16544231156278],[33.69050693814358,1.165454695492999],[33.68920544242752,1.1673720762169135],[33.68940321315745,1.167447303251142],[33.688185587272116,1.168875525444738],[33.68668257389899,1.168492331026859],[33.68655478663372,1.1690267118935427],[33.68596772840525,1.1714876826301226],[33.687343414136144,1.1716098916795024],[33.687564015779124,1.171628877445976],[33.68756363085511,1.171629454632928],[33.68756389119068,1.17162947775984],[33.685686459324586,1.1744442720641128],[33.685651334255724,1.1745516799286233],[33.68430292242587,1.178676364831564],[33.68520154135999,1.185763959748025],[33.68465156263517,1.189578229173124],[33.68173306141352,1.196404050737949],[33.68138509886455,1.197217898091359],[33.68433982869921,1.1994180992213728],[33.68513857094678,1.200010605160073],[33.68721666644524,1.19746189823038],[33.69951970017235,1.197942505967266],[33.69951997800831,1.1979426872011543],[33.69952042677065,1.197942704677259]]]}},{"type":"Feature","properties":{"n":"Puti-Puti","c":"210408","d":"Pallisa","od":"Pallisa","dc":"210","k":"PUTIPUTI","a":["PUTI","PUTIPUTI"],"lat":1.123587,"lon":33.789025},"geometry":{"type":"Polygon","coordinates":[[[33.78005834476326,1.1384252317539463],[33.78377342910635,1.138852741487133],[33.78383308377732,1.1388838759077484],[33.787875038470595,1.140993367799894],[33.78787507781308,1.1409934364900507],[33.78787562434439,1.140993721730676],[33.791204431496,1.1468060334531653],[33.79134678550443,1.1469599819309069],[33.799104297834624,1.155346594069054],[33.799103309298914,1.1553482601667082],[33.79910543669442,1.155350560834623],[33.798242620094285,1.1567988827868192],[33.7978107301508,1.157526798645479],[33.80158046150821,1.159262945071575],[33.80157976937678,1.1592635137536196],[33.80158311332375,1.159260782095476],[33.80446205622739,1.160630467649625],[33.80466163368693,1.159934615114318],[33.80607738722721,1.160129496989919],[33.81473082610589,1.1522284209729818],[33.814803407352684,1.152162147233474],[33.81480341698349,1.152162141422148],[33.81480347037199,1.152162092675443],[33.814803713621615,1.1521619624276311],[33.81864271257834,1.1498454707190313],[33.81864354167369,1.149844875668252],[33.818644648283865,1.1498436832558196],[33.82236830604759,1.1457260283352342],[33.82303484167547,1.143502408184262],[33.82303487591859,1.143502262424985],[33.822527577016466,1.1422644131625714],[33.81874878082096,1.1356363642207288],[33.818430067415825,1.135216320419152],[33.815575001543834,1.125982299222785],[33.815689980050344,1.1253418972257943],[33.8146897502892,1.1218328944571847],[33.81334187186162,1.119839640786016],[33.812394606309184,1.1137956119125578],[33.8122989164105,1.1137177625034582],[33.80552953383279,1.109275740861633],[33.80377786286898,1.106785379961201],[33.7829,1.0898],[33.77229581376892,1.1018525628870328],[33.77088576998811,1.106779187728816],[33.76728139875776,1.110453051191103],[33.76299013560262,1.1124292605101875],[33.7624,1.1131],[33.761654464035374,1.1130443629877143],[33.761168508028305,1.113268155086942],[33.76116897759132,1.1132710202151728],[33.76116897775571,1.11327102021321],[33.763882276908205,1.129825360661611],[33.77406049866955,1.1362459383585513],[33.78005834476326,1.1384252317539463]]]}}]}
