{"type":"FeatureCollection","name":"Rubanda sub-counties","metadata":{"source":"Uganda Bureau of Statistics NPHC 2024 Map Explorer","retrieved":"2026-07-26","display_only":true,"clipped_to_dashboard_district":true,"positive_area_overlaps_removed":true,"source_gap_ratio":0.01862935},"features":[{"type":"Feature","properties":{"n":"Bubare","c":"429101","d":"Rubanda","od":"Rubanda","dc":"429","k":"BUBARE","a":["BUBARE"],"lat":-1.192293,"lon":29.936538},"geometry":{"type":"Polygon","coordinates":[[[29.893638378312527,-1.173397918162172],[29.897532132151667,-1.172772324959493],[29.90541964808571,-1.182251760510291],[29.911415532412622,-1.186247995955598],[29.912461331358077,-1.185952314018514],[29.916023770644617,-1.191430121091295],[29.91945804256791,-1.193216537940194],[29.925855857396172,-1.187625338788932],[29.928597931885797,-1.183489066553446],[29.93122629643459,-1.175393635191526],[29.930905557557537,-1.167171719290031],[29.94046651373732,-1.168336447021669],[29.947208057262564,-1.173749937838304],[29.944211463958116,-1.176087884886754],[29.943787453882504,-1.177501125318868],[29.946197381429798,-1.182057233371995],[29.945704833675958,-1.183777574477523],[29.94482024867363,-1.183498739521633],[29.945931353437437,-1.188981872927094],[29.952719598445313,-1.192023138237368],[29.947195365650582,-1.201451815287147],[29.945318381135856,-1.202864258988344],[29.94628165275313,-1.204485635904685],[29.94575651220065,-1.213774893026944],[29.942728202401284,-1.211483495994861],[29.941850880745907,-1.209721152130233],[29.93898644519507,-1.213074874928399],[29.93713503510268,-1.216901345555857],[29.933218787152047,-1.215523082719671],[29.932261138043913,-1.213894772121332],[29.930997186059003,-1.215716567587937],[29.922952882325617,-1.21622263755521],[29.919218923662882,-1.214418837523537],[29.91199197345134,-1.208326500918865],[29.911195703482388,-1.209159652931468],[29.908756323019965,-1.206626620338955],[29.90536753688675,-1.205049545039585],[29.90229148697613,-1.205613508364548],[29.899860126853643,-1.198962522791026],[29.898746740863185,-1.197817409059249],[29.895806175370254,-1.19717759299968],[29.89678295043616,-1.195586804679877],[29.89589078173246,-1.19360116460267],[29.897297255946818,-1.193663462647511],[29.897340821059693,-1.192563693848476],[29.895508083532206,-1.190257227113307],[29.895883026030933,-1.18840927654791],[29.894613422487105,-1.188007695674212],[29.88953146401114,-1.189240598879618],[29.886483372374606,-1.188839704019357],[29.888705940372866,-1.182947998797024],[29.8877613189672,-1.179922935450907],[29.885633590825314,-1.177773292036296],[29.890126044328728,-1.176567475530369],[29.893638378312527,-1.173397918162172]]]}},{"type":"Feature","properties":{"n":"Butare-Katojo Town Council","c":"429102","d":"Rubanda","od":"Rubanda","dc":"429","k":"BUTAREKATOJOTOWNCOUNCIL","a":["BUTARE","BUTAREKATOJO","BUTAREKATOJOTOWNCOUNCIL","KATOJO"],"lat":-1.20341,"lon":29.780057},"geometry":{"type":"Polygon","coordinates":[[[29.755369705061455,-1.1934983395908503],[29.756066794773172,-1.19361471315743],[29.75672678213722,-1.1930034938063172],[29.75838134583581,-1.1924001722366648],[29.760127013588644,-1.193964772449813],[29.76342667800933,-1.193846774860144],[29.76740234998514,-1.19215733990659],[29.768896976207245,-1.190079975747253],[29.771626041364687,-1.18853508077688],[29.77415584408171,-1.189256693084659],[29.778037599496113,-1.1892968068886065],[29.7929,-1.1913],[29.788320245938543,-1.1848031395872372],[29.789031912717714,-1.184145330067611],[29.797627810697392,-1.195355454637461],[29.7945463157498,-1.197555529915221],[29.797067643168205,-1.199862038669808],[29.79887362908293,-1.200440242820803],[29.798488661282164,-1.205937753111218],[29.79942325738535,-1.207806820271349],[29.801355201371596,-1.208252895547798],[29.80175378835988,-1.209958668033742],[29.79947798753933,-1.211313232578319],[29.79760300460973,-1.216005240433814],[29.7960029044736,-1.216202132480453],[29.79480866298516,-1.218371733508965],[29.786805684465747,-1.217451315563358],[29.78196733586221,-1.213480420075237],[29.778002676729844,-1.216850850900527],[29.77520104521586,-1.21589486734669],[29.77356134174968,-1.216475328541183],[29.765832337036187,-1.2087768732534359],[29.765830550205667,-1.207571492191611],[29.76474674508687,-1.207695572181388],[29.762754290212282,-1.205710992622511],[29.76014299676516,-1.2011080478499],[29.759051111100344,-1.200701744628623],[29.756878394094144,-1.197407340171847],[29.754764567880336,-1.197289717978222],[29.753529086332662,-1.195141009376711],[29.753737371440003,-1.194093555165523],[29.755369705061455,-1.1934983395908503]]]}},{"type":"Feature","properties":{"n":"Bufundi","c":"429103","d":"Rubanda","od":"Rubanda","dc":"429","k":"BUFUNDI","a":["BUFUNDI"],"lat":-1.28147,"lon":29.882629},"geometry":{"type":"Polygon","coordinates":[[[29.85290629517427,-1.28994148189081],[29.85841181665627,-1.288783277587646],[29.85826755730806,-1.287673024149106],[29.864081113148913,-1.285495869319225],[29.866717415130754,-1.282202817182961],[29.866715001258235,-1.280737173313238],[29.86542070531536,-1.279220957298777],[29.865845607250026,-1.275584004816505],[29.86442726264585,-1.273217223668895],[29.864345621116268,-1.271241821639973],[29.865734379567265,-1.271437218998938],[29.86520845444691,-1.269987129441163],[29.86619343893635,-1.266541470245848],[29.865003901929946,-1.264014925102555],[29.86266588509229,-1.2641050509926],[29.86134539894841,-1.262362147191298],[29.863086589610294,-1.260511178596759],[29.861091447256506,-1.257765279995479],[29.861460418135444,-1.25560964932867],[29.86241677897065,-1.25458595301505],[29.864506991092824,-1.254339483414435],[29.864562278306312,-1.25359659984067],[29.860694028903794,-1.248260676577089],[29.85904321067066,-1.242546338345672],[29.860083377457354,-1.240036433653591],[29.860105576063397,-1.236839343075086],[29.862418932714544,-1.234346250146263],[29.875083399749077,-1.231669544382612],[29.886198488375964,-1.24373145552795],[29.89021624821928,-1.255827084767573],[29.894439319138296,-1.258848410357171],[29.905412877910454,-1.264067068034348],[29.901087397748245,-1.269762554025428],[29.900017309794436,-1.279038533657149],[29.89638218169252,-1.285026669191594],[29.889031627987507,-1.291621590404266],[29.88039455888057,-1.293630949109565],[29.8828829156461,-1.305551278879552],[29.883034157464454,-1.30955221786427],[29.882145534200305,-1.312346143687278],[29.880502812748595,-1.313979501152762],[29.87886026920375,-1.321363646368778],[29.877642901367924,-1.321050511748145],[29.877298095484406,-1.323801390426761],[29.87575958452374,-1.324211663803311],[29.875599595159336,-1.326140234992377],[29.870844992932444,-1.330142718980806],[29.86589654278815,-1.322832593683117],[29.8666669353083,-1.322469440857724],[29.8620838130552,-1.316419879414958],[29.858871681694083,-1.309210492516733],[29.85248281680339,-1.301393800201009],[29.848759635178777,-1.293638539229112],[29.850646966441765,-1.293229685979092],[29.85290629517427,-1.28994148189081]]]}},{"type":"Feature","properties":{"n":"Bubaare Town Council","c":"429104","d":"Rubanda","od":"Rubanda","dc":"429","k":"BUBAARETOWNCOUNCIL","a":["BUBAARE","BUBAARETOWNCOUNCIL"],"lat":-1.225689,"lon":29.962825},"geometry":{"type":"Polygon","coordinates":[[[29.92295125928486,-1.216222705494516],[29.922952819505472,-1.2162226072080666],[29.922952882325617,-1.21622263755521],[29.930997186059003,-1.215716567587937],[29.932261138043913,-1.213894772121332],[29.933218787152047,-1.215523082719671],[29.93713503510268,-1.216901345555857],[29.938973338745825,-1.2131019631695559],[29.93898647900165,-1.2130748353471634],[29.941850880745907,-1.209721152130233],[29.942728202401284,-1.211483495994861],[29.942728541649384,-1.2114837526898945],[29.94272855761717,-1.211483784915853],[29.942764520044886,-1.211510976056768],[29.94575651220065,-1.213774893026944],[29.94628165275313,-1.204485635904685],[29.945318653740877,-1.2028647178365839],[29.947106247814002,-1.2015188770694658],[29.947195365650582,-1.201451815287147],[29.951080951851633,-1.1948199554796197],[29.952719607653012,-1.192023145366994],[29.960743623047488,-1.199069785485975],[29.96701036967626,-1.205991383628471],[29.973500966462662,-1.208017336188007],[29.972042909194126,-1.211400645587415],[29.97949790099196,-1.215475188451488],[29.986884928128962,-1.216887995452613],[29.986807862233142,-1.220008865900159],[29.99484715204109,-1.21991965205479],[29.998082509418982,-1.213227519177571],[30.001462429791864,-1.212210561550452],[30.002912348922187,-1.213359787172004],[30.004776785940972,-1.212500977262261],[30.00576057424414,-1.215881611597533],[30.008493311474712,-1.218948213444771],[30.006832359227886,-1.21945529770147],[30.005786976401783,-1.220876548148097],[30.0059979341027,-1.2216840187322213],[30.0006,-1.2269],[29.998942618445632,-1.2275819847544283],[29.99682234943363,-1.228008710546994],[29.992249905132837,-1.229456425409263],[29.990095547995377,-1.2312224060880268],[29.98206374618519,-1.2345273580290608],[29.97876981046667,-1.231376127107359],[29.975497511534204,-1.233049161503872],[29.976043608843984,-1.234277791525666],[29.975831437287642,-1.2342718848532197],[29.967403769018627,-1.2315964346090886],[29.96655075624703,-1.230577650836684],[29.965231237553112,-1.2326331857390698],[29.9577,-1.2372],[29.9625,-1.2481],[29.9424,-1.2584],[29.941640102131494,-1.2593271481170774],[29.940587444685455,-1.259489958211918],[29.938717809344748,-1.255125385965927],[29.93431080146439,-1.25444353772512],[29.93326384081336,-1.253610730186766],[29.93219806944934,-1.248635565967935],[29.93292265157095,-1.246094112833621],[29.93713946847517,-1.242765813366711],[29.937920662533113,-1.24031349655496],[29.940410626532888,-1.237080348090281],[29.935857444840515,-1.235623441179563],[29.935322944576097,-1.234619503352223],[29.932091452519977,-1.232944238954481],[29.930318379628243,-1.232848089784717],[29.930321414994783,-1.232020348436254],[29.92483703659185,-1.22830207571702],[29.92420689610084,-1.225935718054984],[29.923386880223454,-1.225441573275342],[29.921885612478466,-1.226619411821034],[29.919399804370553,-1.225056803235223],[29.920382800757025,-1.221142358854541],[29.92295125928486,-1.216222705494516]]]}},{"type":"Feature","properties":{"n":"Habuhutu Town Council","c":"429105","d":"Rubanda","od":"Rubanda","dc":"429","k":"HABUHUTUTOWNCOUNCIL","a":["HABUHUTU","HABUHUTUTOWNCOUNCIL"],"lat":-1.299591,"lon":29.896905},"geometry":{"type":"Polygon","coordinates":[[[29.875912673746083,-1.3241708396338574],[29.877298095484406,-1.323801390426761],[29.877549003391792,-1.321799634523749],[29.87764345035597,-1.3210506529603223],[29.87886026920375,-1.321363646368778],[29.88037726364316,-1.3145439140897348],[29.880502870853398,-1.313979443379174],[29.882145534200305,-1.312346143687278],[29.88214562361858,-1.31234586254673],[29.882145737452245,-1.312345749395224],[29.88303405739535,-1.309552593046546],[29.883034055350983,-1.3095525389198575],[29.883034157464454,-1.30955221786427],[29.882897319518232,-1.3059323177626991],[29.882882932993994,-1.305551419805051],[29.882882918317236,-1.3055513495415865],[29.8828829156461,-1.305551278879552],[29.88039455888057,-1.293630949109565],[29.88871302563125,-1.2916957111980385],[29.88903137128736,-1.291621723353007],[29.88903148148218,-1.2916216244877896],[29.889031627987507,-1.291621590404266],[29.895556077449022,-1.2857678504165695],[29.896382130307018,-1.2850267276212],[29.89638214673916,-1.285026700551768],[29.89638218169252,-1.285026669191594],[29.900017309794436,-1.279038533657149],[29.900017339084915,-1.2790382797547486],[29.90001734571514,-1.279038268832476],[29.900064674710624,-1.2786279543246195],[29.901087391364346,-1.2697626093637966],[29.905412887906493,-1.264067073796743],[29.908365958721046,-1.26681608366074],[29.91483004469128,-1.276439767100253],[29.91815114066188,-1.2895331806084962],[29.9064,-1.3093],[29.908989127279856,-1.3435561455488791],[29.90820214719396,-1.3435132684922042],[29.895851181825098,-1.3406226170228952],[29.895245063844705,-1.340452831316562],[29.890250424425236,-1.336921913286623],[29.888725977100354,-1.338515231183392],[29.888799702387267,-1.338972270771488],[29.8855,-1.3382],[29.882397915277632,-1.3463782233589754],[29.879456893474146,-1.344844932344773],[29.870844998791526,-1.33014272915457],[29.8714091649742,-1.3296677918562871],[29.875599595159336,-1.326140234992377],[29.87575954659601,-1.3242121209982156],[29.875912673746083,-1.3241708396338574]]]}},{"type":"Feature","properties":{"n":"Hamuhambo Town Council","c":"429106","d":"Rubanda","od":"Rubanda","dc":"429","k":"HAMUHAMBOTOWNCOUNCIL","a":["HAMUHAMBO","HAMUHAMBOTOWNCOUNCIL"],"lat":-1.238698,"lon":29.912182},"geometry":{"type":"Polygon","coordinates":[[[29.88648336943803,-1.188839714575545],[29.889531235870795,-1.189240578649427],[29.88953126199657,-1.1892405723100092],[29.88953146401114,-1.189240598879618],[29.894613422487105,-1.188007695674212],[29.89588268130878,-1.1884091675108608],[29.89575006801637,-1.189064576597979],[29.895508083532206,-1.190257227113307],[29.897340805140217,-1.1925636738141068],[29.897340398794036,-1.1925743536302496],[29.897297255946818,-1.193663462647511],[29.896180350723572,-1.1936139907048542],[29.89589310875971,-1.193600403792989],[29.895893504078938,-1.1936012851856577],[29.89589078173246,-1.19360116460267],[29.896782895953358,-1.195586683421155],[29.89674792245745,-1.1956438516923844],[29.895806175370254,-1.19717759299968],[29.898746740863185,-1.197817409059249],[29.899860126853643,-1.198962522791026],[29.901990937451014,-1.2047913551437304],[29.902290399954357,-1.205610676467614],[29.902290448499294,-1.205610667611184],[29.90229148697613,-1.205613508364548],[29.90536753688675,-1.205049545039585],[29.908756323019965,-1.206626620338955],[29.910948961846614,-1.2089034384479258],[29.911194336448215,-1.209158293550875],[29.911194365294197,-1.2091582633678648],[29.911195703482388,-1.209159652931468],[29.91199191016427,-1.208326567137296],[29.9143571756169,-1.2103203720967333],[29.919218923662882,-1.214418837523537],[29.922848319509587,-1.21617212537018],[29.92295280104613,-1.216222608370917],[29.92295125928486,-1.216222705494516],[29.920382800757025,-1.221142358854541],[29.919399804370553,-1.225056803235223],[29.91940132450519,-1.2250577588099643],[29.919401246870674,-1.225058068449881],[29.921880963084025,-1.226618342459718],[29.921882276407082,-1.2266173147268256],[29.921885612478466,-1.226619411821034],[29.923386880216363,-1.2254415732809054],[29.923386888793164,-1.2254415784394836],[29.924206769090944,-1.2259356415183211],[29.924836636242233,-1.228301311396153],[29.924836876420915,-1.2283014742293847],[29.92483703659185,-1.22830207571702],[29.930321414994783,-1.232020348436254],[29.930318379628243,-1.232848089784717],[29.9320903849277,-1.2329441810617052],[29.93209153667348,-1.2329442825811903],[29.935322944576097,-1.234619503352223],[29.935857444840515,-1.235623441179563],[29.93658543210565,-1.2358563793202193],[29.940408919932143,-1.2370825640635157],[29.937920662533113,-1.24031349655496],[29.937139500285628,-1.2427657135076298],[29.934238995300838,-1.2450551333773223],[29.93292265157095,-1.246094112833621],[29.932779297839303,-1.2465969223561606],[29.932198086279666,-1.24863510977458],[29.932198134870927,-1.248635336503397],[29.93219806944934,-1.248635565967935],[29.93326384081336,-1.253610730186766],[29.933264555452823,-1.2536112986485626],[29.93326457686316,-1.253611398550064],[29.933584002433953,-1.2538654035700105],[29.93431080146439,-1.25444353772512],[29.938717809344748,-1.255125385965927],[29.94058739503166,-1.2594898422975642],[29.940587433583204,-1.259489961687247],[29.93858566730728,-1.260705108423257],[29.938716939538608,-1.2628936862088758],[29.9215,-1.2839],[29.91815114066188,-1.2895331806084949],[29.91607645589663,-1.2813537405166895],[29.915455951536885,-1.277878565043569],[29.914989914739067,-1.277070054409564],[29.91483004469128,-1.276439767100253],[29.9133957701168,-1.2743044297093706],[29.911753941154792,-1.271456079147319],[29.910359761398745,-1.2697844423582239],[29.908365958721046,-1.26681608366074],[29.906211012319563,-1.2648100467973946],[29.905800001207062,-1.264317239974313],[29.905554856245267,-1.2641992319426762],[29.905412887906493,-1.264067073796743],[29.905377396686593,-1.2641138063517903],[29.90537738603414,-1.2641138012239057],[29.905412877910454,-1.264067068034348],[29.89443939348557,-1.2588484457142481],[29.89021624503455,-1.2558270751798257],[29.890214381505448,-1.2558214649497494],[29.88710242819729,-1.245464919194724],[29.886569869071433,-1.2448495121999081],[29.886198488375964,-1.24373145552795],[29.88336619607889,-1.240657898566621],[29.88969785042766,-1.23388679836697],[29.892438381428796,-1.23256671678278],[29.891834467953654,-1.231879279345687],[29.89413552193533,-1.229782211412048],[29.89554764708459,-1.226143116833605],[29.898951733898762,-1.224765349947502],[29.898596801003002,-1.223022736177466],[29.901254823570223,-1.220506690666459],[29.895781231034753,-1.216575042178692],[29.892227967384407,-1.211305243953911],[29.891270952456075,-1.211577918138571],[29.88603118250909,-1.206075146130796],[29.88225205380387,-1.20021858612172],[29.880596483099282,-1.193513738529558],[29.88479977536812,-1.192500842843005],[29.88648336943803,-1.188839714575545]]]}},{"type":"Feature","properties":{"n":"Hamurwa","c":"429107","d":"Rubanda","od":"Rubanda","dc":"429","k":"HAMURWA","a":["HAMURWA"],"lat":-1.113321,"lon":29.91447},"geometry":{"type":"Polygon","coordinates":[[[29.876098979028423,-1.089977005089552],[29.880144475392324,-1.085139475246973],[29.884425990300183,-1.08252994808369],[29.88473928242612,-1.080165878445354],[29.886767030151645,-1.077617986655651],[29.88142549285614,-1.077223285383209],[29.873225302965125,-1.073889272960981],[29.870952931501712,-1.070490887685468],[29.87374373192369,-1.067970189554316],[29.87792064232917,-1.066514388602247],[29.878477714126745,-1.064969853369631],[29.88289164618493,-1.061698011351926],[29.88634175760682,-1.056296034194462],[29.888841827386713,-1.050226809222629],[29.892568285589736,-1.049123295267108],[29.89401782516215,-1.050025723365976],[29.89732894154951,-1.049481738717815],[29.901125273578604,-1.046788814747991],[29.902314855363905,-1.0433258180129392],[29.90546072990427,-1.046190497063663],[29.909236925787,-1.053179304401997],[29.9109705077358,-1.054487615154142],[29.91513016613293,-1.0549956261433953],[29.9181,-1.0577],[29.9263,-1.0621],[29.93,-1.0929],[29.9518,-1.0996],[29.9585,-1.1205],[29.96585028450153,-1.1212500290307685],[29.9658587728643,-1.122182703874348],[29.966845922335605,-1.124651290475471],[29.959935062281453,-1.125064449508484],[29.95606819040604,-1.131771062834493],[29.959466172811446,-1.136839035844943],[29.96370399728223,-1.139781527788032],[29.963338618905944,-1.141358524527228],[29.96668585403776,-1.149754623137612],[29.965483386160642,-1.155966700580773],[29.96671031678538,-1.158011353927445],[29.968694291199412,-1.15866053253204],[29.96873869869625,-1.160725161694539],[29.958763915658537,-1.163894202722892],[29.952643187603716,-1.162557721479045],[29.948250147519953,-1.167114830845274],[29.940356453140755,-1.1683230393010844],[29.930905557557537,-1.167171719290031],[29.931211766785314,-1.1750211778344808],[29.931092050148106,-1.175807117255246],[29.929784388690063,-1.1798347486517586],[29.927803095885363,-1.1846880340114063],[29.926218610705135,-1.187078144886698],[29.923903269231197,-1.1893317509911965],[29.91980944769282,-1.1929094368300683],[29.91726775861716,-1.1920772105249842],[29.916269465577415,-1.1915579250559898],[29.912532626222298,-1.186061941012849],[29.912461331358077,-1.185952314018514],[29.911415532412622,-1.186247995955598],[29.90541964808571,-1.182251760510291],[29.905414527617715,-1.1822456065897444],[29.898047207592825,-1.173140630228841],[29.897750210025013,-1.173034416999969],[29.897532132151667,-1.172772324959493],[29.8971769204725,-1.1728293953396913],[29.896949972790885,-1.172748233577233],[29.893211116586627,-1.166667732738212],[29.894876832355067,-1.1655164500906],[29.895430946974322,-1.160443539514432],[29.900779870750373,-1.160222626781566],[29.902992076071413,-1.161823680144587],[29.907117379780377,-1.155849685227423],[29.910921405506663,-1.152512793735508],[29.916352796531775,-1.151371123302676],[29.919829700126964,-1.14895815668025],[29.923834055311378,-1.147491813505666],[29.91610718023544,-1.139226914228768],[29.913609546103782,-1.135447255750764],[29.910894856598606,-1.122434801415313],[29.908102545130905,-1.124063894102179],[29.904390723427678,-1.124692143183525],[29.900583449698974,-1.123473215327029],[29.898614106675552,-1.121854510079266],[29.89776653716836,-1.123075363911737],[29.89465912610693,-1.124651943015256],[29.891791840639893,-1.125240474731382],[29.889138845314633,-1.124399863179804],[29.88763997101085,-1.125648509984041],[29.883999398362437,-1.125244002557314],[29.876929368473743,-1.122848540831588],[29.874021273654403,-1.118171845789949],[29.871461295783348,-1.108469317043355],[29.86775246065172,-1.106144032269415],[29.864710801112967,-1.100021548472513],[29.866741188466886,-1.097244856597795],[29.876098979028423,-1.089977005089552]]]}},{"type":"Feature","properties":{"n":"Hamurwa Town Council","c":"429108","d":"Rubanda","od":"Rubanda","dc":"429","k":"HAMURWATOWNCOUNCIL","a":["HAMURWA","HAMURWATOWNCOUNCIL"],"lat":-1.150165,"lon":29.898784},"geometry":{"type":"Polygon","coordinates":[[[29.878636044153733,-1.151807697241643],[29.880303514798463,-1.148546241404319],[29.88051410276938,-1.145696575793145],[29.883449181203957,-1.144360252634897],[29.886292521822035,-1.140004881579739],[29.887047137868894,-1.133759075484312],[29.885298192068145,-1.128809979755663],[29.885405861606525,-1.1254002760017956],[29.88763997101085,-1.125648509984041],[29.889138845314633,-1.124399863179804],[29.891791840639893,-1.125240474731382],[29.89465912610693,-1.124651943015256],[29.89628203095783,-1.123828544428989],[29.897766095844155,-1.123075621106981],[29.897766131392014,-1.123075569786819],[29.89776653716836,-1.123075363911737],[29.898614106675552,-1.121854510079266],[29.900583449698974,-1.123473215327029],[29.904390723427678,-1.124692143183525],[29.904391086932822,-1.1246920816580015],[29.904391287849705,-1.12469214597926],[29.908101849344035,-1.124064093584763],[29.908102045820684,-1.1240639786135627],[29.908102545130905,-1.124063894102179],[29.910894856598606,-1.122434801415313],[29.913609546103782,-1.135447255750764],[29.91610718023544,-1.139226914228768],[29.91610725842417,-1.1392269978617977],[29.91610728098554,-1.139227032003784],[29.916176650461686,-1.139301221683857],[29.923834055311378,-1.147491813505666],[29.919829700126964,-1.14895815668025],[29.91635293555995,-1.1513710268173025],[29.91446379290772,-1.1517681890957892],[29.910921405506663,-1.152512793735508],[29.907117379780377,-1.155849685227423],[29.902992076071413,-1.161823680144587],[29.900779870750373,-1.160222626781566],[29.895430946974322,-1.160443539514432],[29.894876832355067,-1.1655164500906],[29.893211116586627,-1.166667732738212],[29.89626317537141,-1.1716312951187235],[29.89694996203644,-1.172748237494021],[29.893638873376474,-1.173397838622311],[29.893638378312527,-1.173397918162172],[29.893636218369917,-1.1733998673111004],[29.88915777697091,-1.1768273675384489],[29.88563374490072,-1.1777732506810172],[29.885633586027346,-1.177773281217755],[29.885172235865483,-1.170476068344778],[29.880306699323487,-1.168033992574222],[29.87846131345904,-1.163718140143902],[29.879548007839023,-1.156745889342028],[29.878636044153733,-1.151807697241643]]]}},{"type":"Feature","properties":{"n":"Ikumba","c":"429109","d":"Rubanda","od":"Rubanda","dc":"429","k":"IKUMBA","a":["IKUMBA"],"lat":-1.093611,"lon":29.822257},"geometry":{"type":"Polygon","coordinates":[[[29.77792023082498,-1.068338852135582],[29.80933711150559,-1.072958966155817],[29.82250487700586,-1.070417925045713],[29.827045952815514,-1.068633599240481],[29.827824927739837,-1.065556918404599],[29.833070914536496,-1.055202998054899],[29.837905887050926,-1.047779231752489],[29.840954681010704,-1.045058973545194],[29.841889264781553,-1.045498462974223],[29.84409572846215,-1.047779390147112],[29.84504794943297,-1.047474687668949],[29.849363452656405,-1.050263452656406],[29.849936985812715,-1.0508369858127165],[29.85154564079499,-1.054443422440269],[29.861023825195048,-1.063370358788788],[29.863093313059093,-1.0639933130590937],[29.8693,-1.0702],[29.869767875658464,-1.0696916594197223],[29.873225096308836,-1.0738889639016123],[29.873225302965125,-1.073889272960981],[29.88142549285614,-1.077223285383209],[29.886437626510872,-1.0775936460905726],[29.88474032386705,-1.080164569861077],[29.88473928242612,-1.080165878445354],[29.88473923784147,-1.0801662148764715],[29.88473917075834,-1.080166316488057],[29.884732181866116,-1.080219458529023],[29.884425990300183,-1.08252994808369],[29.88024017259289,-1.0850811490587657],[29.88014486332376,-1.085139221403625],[29.880144833635693,-1.0851392569023386],[29.880144475392324,-1.085139475246973],[29.87653412263187,-1.0894566684044764],[29.87609891862555,-1.0899770520022394],[29.866741188466886,-1.097244856597795],[29.864710801112967,-1.100021548472513],[29.86775246065172,-1.106144032269415],[29.871461295783348,-1.108469317043355],[29.874021273654403,-1.118171845789949],[29.87467227737021,-1.1192187668977305],[29.874916360565074,-1.12003601097507],[29.87692396882451,-1.1228398573070248],[29.876929368473743,-1.122848540831588],[29.878470927475792,-1.1233708505877695],[29.876528829636626,-1.125494072706792],[29.874879662284606,-1.124517793265853],[29.87166361521119,-1.125840711622628],[29.868438001097243,-1.125345716734938],[29.86677097468434,-1.12721490737897],[29.86449277351085,-1.127354546009836],[29.864043297548807,-1.126144121786494],[29.86568696854083,-1.124624442598362],[29.864204414464464,-1.117141936564022],[29.85673758763382,-1.112616990516389],[29.854741279771645,-1.11244528252927],[29.846222429979154,-1.11660012259977],[29.832182686200706,-1.121904858000164],[29.815433020404722,-1.131327754755277],[29.81011551452662,-1.133573159329978],[29.808287024014813,-1.134031128456563],[29.80247860555157,-1.131371725197348],[29.797043440882486,-1.136714367415547],[29.796661851174402,-1.138697321512956],[29.791456983089734,-1.134989517559505],[29.790032258699263,-1.132546990551893],[29.787619808687992,-1.13155241973432],[29.786170299739407,-1.129214607520984],[29.783749023942004,-1.128706623546778],[29.782345632284713,-1.120506383745119],[29.77986864228076,-1.11478572343411],[29.780600356889575,-1.114556781674272],[29.76299730831225,-1.065435182515274],[29.766756147279985,-1.064813375343088],[29.77792023082498,-1.068338852135582]]]}},{"type":"Feature","properties":{"n":"Kacerere Town Council","c":"429110","d":"Rubanda","od":"Rubanda","dc":"429","k":"KACERERETOWNCOUNCIL","a":["KACERERE","KACERERETOWNCOUNCIL"],"lat":-1.278496,"lon":29.837246},"geometry":{"type":"Polygon","coordinates":[[[29.8165391900852,-1.273158122090494],[29.82498317577665,-1.27139541163697],[29.82863735857886,-1.268137502759085],[29.835614168956795,-1.267833915998489],[29.8508260644374,-1.261657057430103],[29.85178954060628,-1.260785599378194],[29.85167785162209,-1.259108362919988],[29.85053529817437,-1.257266355288887],[29.848586955031667,-1.256410038688739],[29.84659534711425,-1.253212046785043],[29.847690640013273,-1.246434267921534],[29.85038771572697,-1.245705630692292],[29.852903270227547,-1.243380598044187],[29.85518222933787,-1.242484812627873],[29.85904323977305,-1.2425464390841494],[29.860694028903794,-1.248260676577089],[29.864562201492383,-1.2535964938823423],[29.86450617465082,-1.2543395796860681],[29.86241677897065,-1.25458595301505],[29.861460418135444,-1.25560964932867],[29.861460407663145,-1.2556097105107573],[29.861460388910384,-1.25560973058232],[29.861431111906143,-1.2557808644846966],[29.861091447256506,-1.257765279995479],[29.861091591020458,-1.257765477856668],[29.861091580115957,-1.257765541597136],[29.861120257269583,-1.2578049309880315],[29.863086589610294,-1.260511178596759],[29.86134539894841,-1.262362147191298],[29.86134581891673,-1.2623627015056211],[29.861345573543193,-1.262362961912567],[29.862665345597556,-1.264104794089235],[29.86266568067103,-1.2641047811778834],[29.86266588509229,-1.2641050509926],[29.865003901929946,-1.264014925102555],[29.86619343893635,-1.266541470245848],[29.86520845444691,-1.269987129441163],[29.865734379567265,-1.271437218998938],[29.864345621116268,-1.271241821639973],[29.86442726264585,-1.273217223668895],[29.864427560193217,-1.2732177201839834],[29.864427572086875,-1.273218009174784],[29.864703885783943,-1.2736788226528812],[29.865845607250026,-1.275584004816505],[29.86542070531536,-1.279220957298777],[29.86542081634524,-1.2792210873658474],[29.86542080175814,-1.27922121219383],[29.866715001934736,-1.280737584068668],[29.866717414558323,-1.2822024696176746],[29.865424009182508,-1.283818433774027],[29.864081113148913,-1.285495869319225],[29.860574116928813,-1.2868092262333028],[29.85826975249642,-1.287672038869005],[29.85826977295541,-1.2876721943974945],[29.85826755730806,-1.287673024149106],[29.85841181665627,-1.288783277587646],[29.85290629517427,-1.28994148189081],[29.852905579772504,-1.2899425230792771],[29.850423528557993,-1.293278089408182],[29.849293560141778,-1.2935228748724246],[29.844077892376895,-1.293800726228312],[29.828933395588876,-1.313674534126698],[29.824621040866724,-1.308562958676669],[29.821129813604212,-1.311111584413866],[29.821243577416073,-1.309082574459998],[29.82020379853297,-1.30938223445666],[29.81731651562406,-1.303952649550315],[29.8108,-1.2813],[29.808518336181017,-1.2777705512800104],[29.814521740651454,-1.274871923365418],[29.8165391900852,-1.273158122090494]]]}},{"type":"Feature","properties":{"n":"Kashasha Town Council","c":"429111","d":"Rubanda","od":"Rubanda","dc":"429","k":"KASHASHATOWNCOUNCIL","a":["KASHASHA","KASHASHATOWNCOUNCIL"],"lat":-1.328025,"lon":29.855269},"geometry":{"type":"Polygon","coordinates":[[[29.84875962318045,-1.293638539917431],[29.84937298595649,-1.2949161280840373],[29.85248281680339,-1.301393800201009],[29.85248296830157,-1.3013939855570382],[29.852483045102773,-1.301394145528127],[29.854373929038843,-1.3037075511930751],[29.858871681694083,-1.309210492516733],[29.861316176001914,-1.3146969758682538],[29.862083758775753,-1.316419776721704],[29.862083779471263,-1.316419804038343],[29.8620838130552,-1.316419879414958],[29.8666669353083,-1.322469440857724],[29.86589654278815,-1.322832593683117],[29.86590122039914,-1.3228395037097787],[29.879455281016323,-1.3448421795611598],[29.879456893474146,-1.344844932344773],[29.882397915277632,-1.346378223358975],[29.8789,-1.3556],[29.87779612536027,-1.3559187659387455],[29.871138209134642,-1.355577329644324],[29.865352906534827,-1.359511994904381],[29.86173730732142,-1.3605560716825844],[29.858560414392134,-1.356146386347677],[29.858914445060652,-1.352290813285288],[29.858223819430304,-1.34996613626955],[29.855982710131826,-1.347688362612637],[29.852345683150997,-1.345904905678369],[29.852198497231612,-1.343364232457893],[29.85019541881984,-1.341320050706431],[29.850891864855612,-1.339498775188712],[29.847548563175625,-1.336879450482536],[29.843866247764506,-1.335366605601373],[29.840649451385175,-1.332547557771671],[29.84221139109733,-1.330483960990042],[29.84067526602251,-1.325566277906627],[29.84340335834711,-1.322549018437194],[29.84282205616734,-1.320521264332917],[29.840073318890163,-1.31951178130934],[29.8401,-1.3193],[29.836620794337,-1.3178350712997902],[29.83396067271199,-1.314740936216921],[29.83197335894102,-1.315415599026327],[29.828933401985015,-1.313674544463313],[29.830479561643426,-1.3116455325971514],[29.844077892376895,-1.293800726228312],[29.844141881377276,-1.2937973173780326],[29.84875962318045,-1.293638539917431]]]}},{"type":"Feature","properties":{"n":"Muko","c":"429112","d":"Rubanda","od":"Rubanda","dc":"429","k":"MUKO","a":["MUKO"],"lat":-1.212529,"lon":29.846023},"geometry":{"type":"Polygon","coordinates":[[[29.76954618382143,-1.158351690654457],[29.768071995115136,-1.157891219564834],[29.76629291706374,-1.148746057825942],[29.769288102367764,-1.149722177562663],[29.77212680126864,-1.155007285915286],[29.777495757193435,-1.153575834541426],[29.778264859887546,-1.15545480539479],[29.78060019125614,-1.157522173023341],[29.78285400012013,-1.155766958544883],[29.784175826527672,-1.153096698339532],[29.78806866745221,-1.150583803568795],[29.79569721401683,-1.156711400920051],[29.803059577616487,-1.150659832406621],[29.805806935058026,-1.153603338348794],[29.81024250847871,-1.153078161923058],[29.812707133502062,-1.153799756453566],[29.81634076231986,-1.152856148640264],[29.817609029600344,-1.150754049782325],[29.81932223841831,-1.149933139026044],[29.824650639593322,-1.150239599803302],[29.83318759119772,-1.155911388993751],[29.82852566600926,-1.162207988800795],[29.8253489393569,-1.164252921481123],[29.822541438928926,-1.164108508517401],[29.82220046138147,-1.167882617081558],[29.821176469836956,-1.168712940215028],[29.8263754902733,-1.171599059475976],[29.82757730604471,-1.169768877936084],[29.829171541373313,-1.169019349903659],[29.832420094020538,-1.169109739585482],[29.833976266575554,-1.168174642977627],[29.83715135662204,-1.169638451835642],[29.837901980465556,-1.170178569514614],[29.833429583732894,-1.179231200943955],[29.838972184046597,-1.180405465821378],[29.843391504422378,-1.178947828529507],[29.85337954253153,-1.179323989109433],[29.853709239854627,-1.177492443452343],[29.863159466739784,-1.169741028247807],[29.867057278110806,-1.164215528829009],[29.86867312603549,-1.159910274035679],[29.873543565503024,-1.160551619902387],[29.878461302321604,-1.16371814456457],[29.878515871542024,-1.1638457365667252],[29.880306699323487,-1.168033992574222],[29.88030988172189,-1.1680355898611723],[29.88440217137564,-1.170485856763515],[29.884625075868225,-1.170201441659645],[29.884896460737952,-1.170337653238602],[29.88536754944,-1.177115310639252],[29.88561030265966,-1.1774050063054484],[29.885633586027346,-1.177773281217755],[29.88563374490072,-1.1777732506810172],[29.885866521333895,-1.1777107713108685],[29.885866521333895,-1.1777107713108688],[29.885633590825314,-1.177773292036296],[29.887493449348177,-1.1796523068159928],[29.887785728878796,-1.1800011059522402],[29.888705885848722,-1.1829478241884543],[29.884799503601496,-1.1925009083324412],[29.880596483099282,-1.193513738529558],[29.88225205380387,-1.20021858612172],[29.88603118250909,-1.206075146130796],[29.888410641563205,-1.2085740384121568],[29.88924316511558,-1.209703532062944],[29.89126552671252,-1.2115722200583015],[29.891270952456075,-1.211577918138571],[29.892227967384407,-1.211305243953911],[29.895730689745836,-1.216500085062975],[29.89578108002275,-1.216574835619485],[29.895781102777214,-1.216574851961633],[29.895781231034753,-1.216575042178692],[29.901254823570223,-1.220506690666459],[29.899114740932205,-1.2225324617720073],[29.898598028264825,-1.223021241343163],[29.898598085004235,-1.22302152076057],[29.898596801003002,-1.223022736177466],[29.898951733898762,-1.224765349947502],[29.89554764708459,-1.226143116833605],[29.89413552193533,-1.229782211412048],[29.893815091042832,-1.2300742364383854],[29.891835365853357,-1.231878311482355],[29.891835439421907,-1.231878393997086],[29.891834467953654,-1.231879279345687],[29.892437405583514,-1.2325656059736867],[29.889698045423895,-1.233886670952587],[29.8896979884443,-1.233886731885975],[29.88969785042766,-1.23388679836697],[29.884267685522932,-1.239693841620629],[29.88336618982897,-1.2406578917843092],[29.875083399749077,-1.231669544382612],[29.862418932714544,-1.234346250146263],[29.862418354626193,-1.234346873149197],[29.86241811897738,-1.234346922903963],[29.8601058559362,-1.236838872967022],[29.860105854746024,-1.2368390427402072],[29.860105576063397,-1.236839343075086],[29.860083377482784,-1.2400364299911701],[29.858816851497927,-1.242542825649953],[29.85518222933787,-1.242484812627873],[29.852903270227547,-1.243380598044187],[29.85038771572697,-1.245705630692292],[29.847690640013273,-1.246434267921534],[29.847689350541973,-1.2464422472952006],[29.847687215849312,-1.246442828331431],[29.846608965360137,-1.2531277757565118],[29.84659534711425,-1.253212046785043],[29.848586955031667,-1.256410038688739],[29.850386467635246,-1.257200942755299],[29.850535393672843,-1.2572665092501],[29.85167785162209,-1.259108362919988],[29.851683960261393,-1.2592000965195438],[29.85178930321507,-1.2607858140970285],[29.8508260644374,-1.261657057430103],[29.835614168956795,-1.267833915998489],[29.82863735857886,-1.268137502759085],[29.82498317577665,-1.27139541163697],[29.8165391900852,-1.273158122090494],[29.814521740651454,-1.274871923365418],[29.808518336181017,-1.2777705512800095],[29.788544207373597,-1.246873070781035],[29.787036122892292,-1.241996816453036],[29.788279149873443,-1.235757513722053],[29.787351651548892,-1.231920338912864],[29.786188200476698,-1.231468115860955],[29.78543777912805,-1.229311351919021],[29.784180845942497,-1.228714506215978],[29.783965021467896,-1.225309925760517],[29.782869998045893,-1.224064189937549],[29.781045002270783,-1.224191336929243],[29.779869035214627,-1.222512089551242],[29.778770117989453,-1.217457456099784],[29.778002686647575,-1.216850857374583],[29.778025511678166,-1.2168314384841896],[29.78196733586221,-1.213480420075237],[29.78197826309865,-1.2134893881999933],[29.785413964966146,-1.21682085103736],[29.78641374948833,-1.2171296494410937],[29.786805684465747,-1.217451315563358],[29.787840533140276,-1.2175703329128003],[29.790112384587484,-1.218272028212989],[29.794806519867837,-1.218371487030277],[29.79480866298516,-1.218371733508965],[29.795767825390627,-1.216629205082718],[29.79600325864221,-1.2162020889000666],[29.79760300460973,-1.216005240433814],[29.79947798753933,-1.211313232578319],[29.80175378835988,-1.209958668033742],[29.801355201371596,-1.208252895547798],[29.799423313546203,-1.207806833238582],[29.798488672111613,-1.2059375984619118],[29.79887362908293,-1.200440242820803],[29.798872381282784,-1.2004398433253147],[29.79887241089778,-1.200439419303065],[29.79746253651008,-1.1999884676566623],[29.797067651935564,-1.1998620414767642],[29.794547959571254,-1.1975543562865085],[29.797627810697392,-1.195355454637461],[29.79716686727461,-1.1947543268435659],[29.788525056376802,-1.183310589893533],[29.784949254466504,-1.1800210354059681],[29.783709799848516,-1.1782627393199874],[29.781658211099415,-1.173279854167113],[29.776720023445385,-1.170356463318443],[29.77326424298611,-1.166466141850576],[29.76675875729378,-1.164851413479454],[29.76240798542431,-1.161084732147208],[29.76592156074884,-1.158605786979289],[29.76954618382143,-1.158351690654457]]]}},{"type":"Feature","properties":{"n":"Nshanjare Town Council","c":"429113","d":"Rubanda","od":"Rubanda","dc":"429","k":"NSHANJARETOWNCOUNCIL","a":["NSHANJARE","NSHANJARETOWNCOUNCIL"],"lat":-1.112968,"lon":29.755888},"geometry":{"type":"Polygon","coordinates":[[[29.729689988198146,-1.1187761203095883],[29.732307557773556,-1.1113786410747346],[29.732897684760797,-1.110211475201949],[29.733499437412824,-1.1080102855724518],[29.736568280769315,-1.099337467391059],[29.741570871908607,-1.097183614957314],[29.749024041131115,-1.0916535577576874],[29.7493,-1.0915],[29.749519326480407,-1.0902221848532847],[29.752090783739376,-1.082753628956679],[29.752165716829683,-1.079129472106076],[29.75155546277329,-1.078359477755621],[29.7516,-1.0781],[29.751743709538182,-1.0778334083929342],[29.751958621715364,-1.077664407520935],[29.75363074019247,-1.079032660952071],[29.756199962944045,-1.070630049935282],[29.7600183275617,-1.065617007875431],[29.762997296712154,-1.065435184268518],[29.78060035688902,-1.1145567816744455],[29.77986864228076,-1.11478572343411],[29.78231106869341,-1.1204265584068456],[29.782345639568117,-1.1205064263031992],[29.783749023942004,-1.128706623546778],[29.786170299739407,-1.129214607520984],[29.787619808687992,-1.13155241973432],[29.78761998921283,-1.1315524941585502],[29.78762001819009,-1.13155254091293],[29.788371661067146,-1.13186238281415],[29.790032258699263,-1.132546990551893],[29.790995780446465,-1.134198838379937],[29.791456685884153,-1.134989240750293],[29.791456918135893,-1.134989406203576],[29.791456983089734,-1.134989517559505],[29.795689736428464,-1.138004813875959],[29.79666184802397,-1.138697334216046],[29.795295176261195,-1.144494451395711],[29.803059570572795,-1.15065982352748],[29.80298279488028,-1.150722944745822],[29.79569721401683,-1.156711400920051],[29.78806866745221,-1.150583803568795],[29.784175826527672,-1.153096698339532],[29.78285400012013,-1.155766958544883],[29.780600542972085,-1.1575218991150573],[29.77826482703069,-1.1554547251232266],[29.777495757193435,-1.153575834541426],[29.77749439979682,-1.1535761964455424],[29.777494156913196,-1.15357560404825],[29.773614834402085,-1.154610551968676],[29.77212690643515,-1.1550072578761756],[29.77111640043127,-1.153126114966363],[29.769288102367764,-1.149722177562663],[29.76629291706374,-1.148746057825942],[29.768071995115136,-1.157891219564834],[29.76954618382143,-1.158351690654457],[29.76592156074884,-1.158605786979289],[29.765921380386185,-1.1586059142311882],[29.76592134298205,-1.158605916839671],[29.76240797913268,-1.161084722502707],[29.757769554024048,-1.156953262194492],[29.755832952453098,-1.153793692068493],[29.753202499528452,-1.1530948098927947],[29.75286144466817,-1.1527678676474198],[29.752340167466773,-1.150239034280501],[29.753230796670902,-1.148402579287584],[29.753216109210843,-1.145458953243075],[29.75085043365159,-1.144403192632113],[29.74872158242031,-1.139732146818946],[29.746388171649887,-1.13789973331588],[29.745964722635794,-1.13610265374186],[29.744722050258314,-1.135623687538547],[29.74517886231428,-1.133535592173],[29.742257696092615,-1.12734616367674],[29.74133155780101,-1.1279544247303073],[29.7409,-1.1269],[29.72914496784761,-1.1246736681529566],[29.72988947390387,-1.122353491947174],[29.729689988198146,-1.1187761203095883]]]}},{"type":"Feature","properties":{"n":"Nyamweeru","c":"429114","d":"Rubanda","od":"Rubanda","dc":"429","k":"NYAMWEERU","a":["NYAMWEERU"],"lat":-1.171325,"lon":29.980907},"geometry":{"type":"Polygon","coordinates":[[[29.95264363227959,-1.1625578185754943],[29.958763915658537,-1.163894202722892],[29.963633224451538,-1.162347197711716],[29.968738134114954,-1.160725463631902],[29.968738131482286,-1.1607253419013983],[29.96873869869625,-1.160725161694539],[29.968694291199412,-1.15866053253204],[29.96869346999788,-1.1586602638257197],[29.96869346090139,-1.158659843218116],[29.968095509195596,-1.1584646043673692],[29.966710797208314,-1.158011511127199],[29.96548344895522,-1.1559663761772763],[29.96642939157295,-1.1510795356138313],[29.966685882537362,-1.149754992024874],[29.966685815285228,-1.1497548233373305],[29.96668585403776,-1.149754623137612],[29.963338618905944,-1.141358524527228],[29.96370399728223,-1.139781527788032],[29.959466172811446,-1.136839035844943],[29.95606819040604,-1.131771062834493],[29.959935062281453,-1.125064449508484],[29.966845922335605,-1.124651290475471],[29.966816482125182,-1.12457766868759],[29.971724524891624,-1.12487248735396],[29.976824104793348,-1.123931683003484],[29.977998637768824,-1.122489656915186],[29.983,-1.123],[29.9884,-1.141],[29.989719187783948,-1.1418564875910724],[29.98993495299742,-1.143801203692995],[29.993415468867028,-1.1442563118763542],[30.015059343402946,-1.1583086781795242],[30.015183736806687,-1.158440626059332],[30.01521054042123,-1.15865033500422],[30.01557490356803,-1.1673039597407266],[30.01550245889809,-1.167761616519271],[30.016192454949078,-1.1689023039207018],[30.0302,-1.1926],[30.0239,-1.202],[30.0143,-1.1923],[30.014263520301416,-1.1924975983673196],[30.013196434506213,-1.1911067839599],[30.0102846283882,-1.189909124017991],[30.00675913299578,-1.190792641764796],[30.003081114831808,-1.193778680047336],[30.005400541958284,-1.200054033170708],[30.005845019745706,-1.203134842549051],[30.00470962688312,-1.206602235292303],[30.006743491429905,-1.211975530322836],[30.00542144919732,-1.213753991352715],[30.00477767114823,-1.212502999052578],[30.004777409306385,-1.212503119359813],[30.004776785940972,-1.212500977262261],[30.00291262150523,-1.2133596616129114],[30.002418575364796,-1.21296841553511],[30.001462429791864,-1.212210561550452],[30.001461824802977,-1.2122107435807947],[30.00146176273317,-1.212210694426342],[29.998575187576396,-1.212760628144176],[29.99837846228163,-1.2131384722510954],[29.998082509418982,-1.213227519177571],[29.99484715204109,-1.21991965205479],[29.986807862233142,-1.220008865900159],[29.986884928128962,-1.216887995452613],[29.97949790099196,-1.215475188451488],[29.972042909194126,-1.211400645587415],[29.973500966462662,-1.208017336188007],[29.97349635196414,-1.208015895834308],[29.97349688080537,-1.208014665542548],[29.968375566781976,-1.2064175115580928],[29.967010414481543,-1.205991397613838],[29.96701004319839,-1.205991023034889],[29.960743623047488,-1.199069785485975],[29.95615854574002,-1.1950431992800612],[29.954397616982003,-1.193266639154463],[29.951659869824947,-1.191140064959737],[29.945939506875774,-1.1889855258254716],[29.945931353437437,-1.188981872927094],[29.94482024867363,-1.183498739521633],[29.945704833675958,-1.183777574477523],[29.946158906003948,-1.1821916180202392],[29.946197258455644,-1.182058298243093],[29.946197140429994,-1.1820580751215803],[29.946197381429798,-1.182057233371995],[29.94378748366376,-1.1775011816220604],[29.94379981510694,-1.1774599249249007],[29.944211463958116,-1.176087884886754],[29.947208057262564,-1.173749937838304],[29.947206795170647,-1.173748924372622],[29.947207322119297,-1.173748513124529],[29.94046652728005,-1.168336444733552],[29.948194272342626,-1.1671233830970427],[29.948250147519953,-1.167114830845274],[29.948250395989625,-1.1671145730958683],[29.9482509239895,-1.167114490213166],[29.95264363227959,-1.1625578185754943]]]}},{"type":"Feature","properties":{"n":"Rubanda Town Council","c":"429115","d":"Rubanda","od":"Rubanda","dc":"429","k":"RUBANDATOWNCOUNCIL","a":["RUBANDA","RUBANDATOWNCOUNCIL","TOWNCOUNCIL"],"lat":-1.147121,"lon":29.839658},"geometry":{"type":"Polygon","coordinates":[[[29.81011563931313,-1.133573113557363],[29.815432945205497,-1.131327792931577],[29.815432990978472,-1.1313277671809965],[29.815433020404722,-1.131327754755277],[29.82346529875935,-1.1268090180493708],[29.832182710456078,-1.1219048488355856],[29.844989808684144,-1.1170658525961363],[29.846222284062495,-1.116600179069562],[29.846222296230174,-1.1166001731350905],[29.846222429979154,-1.11660012259977],[29.854741279771645,-1.11244528252927],[29.85673758763382,-1.112616990516389],[29.864204414464464,-1.117141936564022],[29.86568696854083,-1.124624442598362],[29.864043297548807,-1.126144121786494],[29.864373694810627,-1.1270338709228334],[29.864491917922727,-1.127353292790836],[29.8644922995265,-1.127353269585317],[29.86449277351085,-1.127354546009836],[29.86677097468434,-1.12721490737897],[29.868437827968588,-1.125345910859312],[29.870920920546144,-1.1257267395077608],[29.87166361521119,-1.125840711622628],[29.872913805768157,-1.125326446750403],[29.87488001620608,-1.1245180027814354],[29.876528829636626,-1.125494072706792],[29.878470927475792,-1.1233708505877695],[29.883999398362437,-1.125244002557314],[29.885405855420416,-1.125400275314451],[29.88540152500805,-1.1255376084017428],[29.885298192068145,-1.128809979755663],[29.885298327870466,-1.1288103640435438],[29.8852983224598,-1.128810535635328],[29.885549338040136,-1.1295206624175882],[29.887047137868894,-1.133759075484312],[29.886292521822035,-1.140004881579739],[29.883449181203957,-1.144360252634897],[29.88051410276938,-1.145696575793145],[29.880303514798463,-1.148546241404319],[29.878731844175988,-1.1516203191053125],[29.8786362665749,-1.15180719345407],[29.87863627590128,-1.1518072439596703],[29.878636044153733,-1.151807697241643],[29.879547926747545,-1.1567454502397951],[29.87846130386776,-1.163718132677064],[29.875398340323915,-1.1617459071181981],[29.873543565503024,-1.160551619902387],[29.86867312603549,-1.159910274035679],[29.86710403569205,-1.1640909482309802],[29.867057156197863,-1.164215701651608],[29.863159466739784,-1.169741028247807],[29.853709239854627,-1.177492443452343],[29.85337954253153,-1.179323989109433],[29.843391504422378,-1.178947828529507],[29.8396941691923,-1.1801673313610836],[29.83897199046596,-1.18040542480905],[29.833646626107903,-1.1792771839164697],[29.83780839632364,-1.1703679942895242],[29.837901980465556,-1.170178569514614],[29.837898165181375,-1.1701758241948996],[29.83789828003114,-1.170175578333578],[29.83789671584295,-1.1701747813112846],[29.83715135662204,-1.169638451835642],[29.833976266575554,-1.168174642977627],[29.832420094020538,-1.169109739585482],[29.829171541373313,-1.169019349903659],[29.828429161088415,-1.1693683791995646],[29.828124799106888,-1.169388102527072],[29.827969632006724,-1.1695844263051969],[29.82757730604471,-1.169768877936084],[29.8263754902733,-1.171599059475976],[29.823522610707442,-1.1700153475508173],[29.82117719098347,-1.1687123554595809],[29.82220046138147,-1.167882617081558],[29.82222765339288,-1.1675816424165286],[29.822541573297123,-1.1641085154290685],[29.8253489393569,-1.164252921481123],[29.825349149818038,-1.164252786002404],[29.82534917564404,-1.164252787349331],[29.827054610162477,-1.1631549415936773],[29.82852566600926,-1.162207988800795],[29.83318759119772,-1.155911388993751],[29.824650639593322,-1.150239599803302],[29.824647434493833,-1.150239415463338],[29.821540726198943,-1.149698894164734],[29.81998293586772,-1.149971138765033],[29.81932223841831,-1.149933139026044],[29.81881808515108,-1.1501747119362125],[29.81817240965124,-1.150287552326125],[29.81796043904307,-1.150585666460709],[29.817609029600344,-1.150754049782325],[29.816346010557172,-1.1528474499110382],[29.816308594305294,-1.152864502270039],[29.813090099509413,-1.1537003049864831],[29.81252116142705,-1.1537453074274935],[29.81024250847871,-1.153078161923058],[29.805806935058026,-1.153603338348794],[29.805805951952546,-1.153602285054172],[29.802813754235512,-1.149950168518257],[29.79547193013173,-1.1446348040547651],[29.795295176261195,-1.144494451395711],[29.79666184802397,-1.138697334216046],[29.796600781483775,-1.1386538311641545],[29.796600784230744,-1.1386538191126185],[29.796661851174402,-1.138697321512956],[29.797043440882486,-1.136714367415547],[29.80247860555157,-1.131371725197348],[29.808287024014813,-1.134031128456563],[29.81011551452662,-1.133573159329978],[29.810115599113704,-1.1335731236116853],[29.81011563931313,-1.133573113557363]]]}},{"type":"Feature","properties":{"n":"Ruhija","c":"429116","d":"Rubanda","od":"Rubanda","dc":"429","k":"RUHIJA","a":["RUHIJA"],"lat":-1.03833,"lon":29.812862},"geometry":{"type":"Polygon","coordinates":[[[29.788985091327927,-1.040056440546159],[29.78865229897427,-1.033226915307785],[29.789974409677548,-1.029564609941583],[29.794871932346624,-1.028699879396956],[29.796120437294146,-1.024631183830464],[29.796117080985564,-1.024022969061991],[29.790038744589594,-1.023636885309839],[29.78798870249354,-1.022063517950451],[29.783626820252962,-1.022029097849557],[29.783892184537105,-1.021545568212544],[29.781685431029217,-1.020332950313861],[29.780343953418065,-1.020246478467317],[29.778410463655344,-1.013373035436753],[29.776246587507373,-1.012522842998001],[29.777546690019886,-1.011022743341868],[29.777560821123828,-1.008905152923968],[29.77967096766076,-1.006791533064116],[29.7795215314887,-1.005641625372075],[29.78107481439682,-1.0037845263077527],[29.78480596983206,-1.0077229681560633],[29.78653238411113,-1.010431924828235],[29.787960463411654,-1.0110527113789691],[29.794466476598885,-1.0179201697432683],[29.79449022139614,-1.018526601799605],[29.79505229815399,-1.0185385369403215],[29.8061,-1.0302],[29.80750998798304,-1.0299309891348152],[29.807697166556366,-1.030279414089418],[29.808473815713747,-1.029747100949351],[29.811709760331134,-1.0291297167789284],[29.813558152568138,-1.029916151308369],[29.821825794902363,-1.027616298495953],[29.831374470744265,-1.0333604238070966],[29.83234132574021,-1.034234173301775],[29.832730752656584,-1.035922264633195],[29.83459348703109,-1.0354934870310883],[29.835400420350044,-1.0363004203500459],[29.835480669416963,-1.036631141786559],[29.836639544207785,-1.0375395442077866],[29.83692385034101,-1.0378238503410082],[29.83672194894205,-1.038836963067597],[29.84041594685055,-1.043232496029991],[29.840954671811907,-1.045058966348273],[29.84049782145581,-1.0454666022568033],[29.837905887050926,-1.047779231752489],[29.83357202720176,-1.0544335741735849],[29.833071010349112,-1.055202848829418],[29.833071005530282,-1.0552028583402235],[29.833070914536496,-1.055202998054899],[29.82824791325251,-1.0647220786543183],[29.827824954689593,-1.065556861717188],[29.82782495292799,-1.0655568686911394],[29.827824927739837,-1.065556918404599],[29.827045952815514,-1.068633599240481],[29.82250487700586,-1.070417925045713],[29.80933711150559,-1.072958966155817],[29.809335124121162,-1.0729586738943806],[29.775829109519456,-1.0676785023985704],[29.775829069042064,-1.0676784896163207],[29.78449779841028,-1.047062974769681],[29.788985091327927,-1.040056440546159]]]}},{"type":"Feature","properties":{"n":"Ruhija Town Council","c":"429117","d":"Rubanda","od":"Rubanda","dc":"429","k":"RUHIJATOWNCOUNCIL","a":["RUHIJA","RUHIJATOWNCOUNCIL"],"lat":-1.029934,"lon":29.772215},"geometry":{"type":"Polygon","coordinates":[[[29.7481340442753,-1.0023504472055207],[29.750254985808972,-1.002497593195591],[29.753721527260062,-0.998534024313505],[29.7569000360967,-0.997117362300529],[29.757124891454442,-0.995733728712912],[29.76195625564269,-0.993668773793974],[29.764796823081863,-0.993383196288316],[29.765903066197826,-0.992173379940306],[29.768260583790457,-0.992529192138631],[29.768479936195664,-0.99323540369755],[29.7706914413938,-0.9928242992490112],[29.77193421440027,-0.9941361152002844],[29.773746091741693,-0.996257555395707],[29.77450427552573,-0.998557571356034],[29.776360824933153,-0.999094498374903],[29.77781694626092,-1.000345665497638],[29.78107481439682,-1.0037845263077527],[29.7795215314887,-1.005641625372075],[29.77967095156934,-1.0067914092410293],[29.77913072494793,-1.0073326650220136],[29.777560821123828,-1.008905152923968],[29.777560818391773,-1.0089055623311194],[29.777560739265706,-1.008905641607925],[29.777549328791473,-1.0106273151113334],[29.777546690019886,-1.011022743341868],[29.776246587507373,-1.012522842998001],[29.77841036354465,-1.0133729961030071],[29.778614267581226,-1.014097546474234],[29.780343953418065,-1.020246478467317],[29.781685431029217,-1.020332950313861],[29.78168548371705,-1.0203329792659892],[29.783892184537105,-1.021545568212544],[29.783626820252962,-1.022029097849557],[29.78798870249354,-1.022063517950451],[29.790038744589594,-1.023636885309839],[29.790039150500668,-1.0236369110924972],[29.790039196009015,-1.023636946030907],[29.790625850453978,-1.0236741770982931],[29.796117080985564,-1.024022969061991],[29.79611716155013,-1.024037568600819],[29.794906672766334,-1.0285866654349747],[29.794871932346624,-1.028699879396956],[29.789974409677548,-1.029564609941583],[29.789973081736374,-1.0295682883976098],[29.78997294819677,-1.02956831201774],[29.78933036158011,-1.031348651775216],[29.78865229897427,-1.033226915307785],[29.788652314662112,-1.0332272372518558],[29.788652264917086,-1.033227375074599],[29.788696453096442,-1.0341330409697196],[29.788985086956174,-1.0400563508295535],[29.786940396483786,-1.0432490612787568],[29.78449779841028,-1.047062974769681],[29.78449765719222,-1.047063310607051],[29.784497648028555,-1.0470633323995593],[29.77582905802992,-1.0676784861388242],[29.772417197520067,-1.0666010636170178],[29.76675616943178,-1.064813371287476],[29.76565349387916,-1.061659867095569],[29.76236302063543,-1.057507328469377],[29.76086520661411,-1.053887359470976],[29.758513983075726,-1.052072975020771],[29.756868769469218,-1.0494408142840626],[29.756115061193082,-1.0421130949327337],[29.756750027080745,-1.040993549054256],[29.75656787611252,-1.034260130260944],[29.755451410188495,-1.033563531293641],[29.75517849953212,-1.033007634340091],[29.7549,-1.0303],[29.752415494474885,-1.0273796163125841],[29.750976099323577,-1.024447684704626],[29.750918661845,-1.021448112170022],[29.74771261081117,-1.019669803190364],[29.747194980318877,-1.017897410868277],[29.743804279821788,-1.0172576622466651],[29.743406944444516,-1.016790618908465],[29.743894688092443,-1.015615097303975],[29.742935799132923,-1.014397801894264],[29.741786555699875,-1.0148859514366968],[29.74156556332161,-1.0146261884657526],[29.741519035613567,-1.014011866792522],[29.741018362049108,-1.0139829869700023],[29.74018802943412,-1.01300698196642],[29.740635344614557,-1.012067056679205],[29.739044400478136,-1.010759476221366],[29.740157767890796,-1.008409082229291],[29.7481340442753,-1.0023504472055207]]]}}]}
