{"type":"FeatureCollection","name":"Rubirizi sub-counties","metadata":{"source":"Uganda Bureau of Statistics NPHC 2024 Map Explorer","retrieved":"2026-07-26","display_only":true,"clipped_to_dashboard_district":true,"positive_area_overlaps_removed":true,"source_gap_ratio":0.00613527},"features":[{"type":"Feature","properties":{"n":"Katanda","c":"425101","d":"Rubirizi","od":"Rubirizi","dc":"425","k":"KATANDA","a":["KATANDA"],"lat":-0.241564,"lon":30.187249},"geometry":{"type":"Polygon","coordinates":[[[30.14206114073992,-0.234347436266734],[30.141185433427058,-0.231656010993705],[30.14394696255728,-0.230250832496911],[30.141271296508833,-0.229147578763775],[30.14187625374671,-0.221895175603051],[30.139404971734585,-0.219037069982022],[30.139050584659103,-0.216099153415835],[30.14137516361685,-0.213467080374636],[30.141599033386324,-0.211053269596083],[30.14029300774634,-0.208412679669889],[30.148099869672524,-0.209234846980372],[30.152023949419238,-0.208498541821011],[30.157046303443245,-0.20588107755949],[30.157369014264578,-0.20748686909736],[30.16042336796777,-0.20725673976303],[30.16672266709735,-0.205075613246073],[30.168612596339234,-0.205525310317642],[30.168061727027187,-0.207325148296971],[30.16847197157568,-0.211057451326264],[30.171649931183566,-0.212324097669629],[30.17304720697377,-0.212047029372893],[30.171779120314667,-0.209941067421499],[30.1731065580187,-0.206892627510172],[30.17544342793064,-0.207524062662502],[30.177640446091914,-0.206543148764943],[30.183409348389574,-0.215746756077946],[30.183712324268313,-0.224034686711393],[30.190215687484383,-0.2239322098672],[30.190642650120893,-0.224995488216254],[30.19388581994751,-0.224305592147361],[30.195336802859803,-0.223040353980399],[30.19698568275354,-0.21755883704409],[30.196390637776663,-0.215687639075952],[30.195489872305394,-0.215566440414942],[30.204057481265643,-0.213683083772244],[30.20613028780859,-0.212043567068401],[30.206383857473934,-0.212931660531994],[30.21277614102763,-0.211387198841419],[30.220468499335073,-0.205419483058268],[30.224070146562248,-0.205161114384377],[30.222985581388247,-0.205800169240051],[30.223482923904502,-0.208072158264691],[30.225123999063385,-0.210413990103991],[30.22759933466072,-0.216975433836285],[30.22933108491427,-0.218104829993006],[30.231300128190185,-0.222690507960878],[30.232084164763943,-0.223329287233801],[30.23391188289597,-0.222939142959396],[30.23823233318938,-0.22582850425311976],[30.2375,-0.226],[30.23749300010012,-0.22601936142520146],[30.235225579917707,-0.226878953937059],[30.230535687040867,-0.230285156844455],[30.230152876134596,-0.232796228722182],[30.231940201437485,-0.234974926425069],[30.227957146063442,-0.2520999273841935],[30.22449206290351,-0.25452377865862835],[30.216406076536554,-0.258891974636743],[30.206781925694344,-0.2666898683897512],[30.201137054674177,-0.269406019717446],[30.19244410484381,-0.272286637555881],[30.183803900537665,-0.277516216921964],[30.18220069826113,-0.27470763557568],[30.179037570067813,-0.272519281010341],[30.17849481452227,-0.269618255438791],[30.174063693150714,-0.268930617403756],[30.173070095499636,-0.267213602415777],[30.173261161648092,-0.26402284971219],[30.167159491496392,-0.260561498384981],[30.16629166451144,-0.259476927693196],[30.166422088580624,-0.257218838133205],[30.16536401234723,-0.256143090834163],[30.161669558052616,-0.257612230960007],[30.161437491643774,-0.252813553201866],[30.15848485095884,-0.252722000136185],[30.155200146370625,-0.250809770991196],[30.154209886165713,-0.247857487926279],[30.152470761993143,-0.247646081724181],[30.150424537978036,-0.245689407881977],[30.148923740842722,-0.24545830793479],[30.147888906487918,-0.246229149474116],[30.146538953632593,-0.245301260418507],[30.145247712289173,-0.245743741747761],[30.144726274957872,-0.242488490042468],[30.14345594631228,-0.240639828008025],[30.13867960851968,-0.240014830475651],[30.13781788887176,-0.237697394999288],[30.139702291333755,-0.23711239232401],[30.14206114073992,-0.234347436266734]]]}},{"type":"Feature","properties":{"n":"Katerera","c":"425102","d":"Rubirizi","od":"Rubirizi","dc":"425","k":"KATERERA","a":["KATERERA"],"lat":-0.191295,"lon":30.202647},"geometry":{"type":"Polygon","coordinates":[[[30.147289721598973,-0.170551703883029],[30.165231299506132,-0.163621022407829],[30.1728375889973,-0.159140442228581],[30.17301504525124,-0.158403879804288],[30.175997026558633,-0.157668540681823],[30.177243241145177,-0.156536110560011],[30.17899938224419,-0.159219636342081],[30.177070001079887,-0.164105198125479],[30.178214844693656,-0.165955478087289],[30.177280433495465,-0.167898612147132],[30.17749096318254,-0.171053257027212],[30.178461058533983,-0.172905061205321],[30.180473204830072,-0.173835942697772],[30.18315551243333,-0.176969940081041],[30.18496439822342,-0.177274103197368],[30.186868184430626,-0.179536270040577],[30.19374074225263,-0.182287277803111],[30.199611546272035,-0.183102060520284],[30.203483883491995,-0.182451561034724],[30.207524571145044,-0.184300147951061],[30.2078449949941,-0.183664283134833],[30.209400399126196,-0.183794792053453],[30.215466592024274,-0.18863117005546],[30.221805547541603,-0.190066119051132],[30.224280034010754,-0.193252021931998],[30.224473777637733,-0.199264379795226],[30.225924084383976,-0.202635956434916],[30.225533318578506,-0.20347852239007],[30.22326977743189,-0.204327948003483],[30.224159152287488,-0.205112804360881],[30.220502795608247,-0.20541702277216536],[30.220468499335073,-0.205419483058268],[30.21310750810522,-0.2111301249428929],[30.20638381887116,-0.21293152533100185],[30.20613028780859,-0.212043567068401],[30.204057481265643,-0.213683083772244],[30.203288629297372,-0.2138520950411301],[30.195506865305237,-0.215560688183957],[30.195512440467144,-0.2155614794161918],[30.195489872305394,-0.215566440414942],[30.196390637776663,-0.215687639075952],[30.19687379538066,-0.21720699233835009],[30.19685779979186,-0.2179839696586449],[30.195336802859803,-0.223040353980399],[30.19388581994751,-0.224305592147361],[30.19142114095559,-0.2248298854895266],[30.19064264328559,-0.22499547119408633],[30.190215687484383,-0.2239322098672],[30.19021193177363,-0.22393226904786898],[30.19021180198673,-0.223931948497928],[30.189640067133514,-0.22394128021358087],[30.183712324268313,-0.224034686711393],[30.183409348389574,-0.215746756077946],[30.17796422274692,-0.20705969646085312],[30.177640456162035,-0.206543143736473],[30.17810510407758,-0.204821471015712],[30.179044406865614,-0.205972616120515],[30.18095806613547,-0.205965950889926],[30.182228712508113,-0.204345571983963],[30.184121166335977,-0.204068857438416],[30.186780878858702,-0.201878643403878],[30.185306827314008,-0.194791391920869],[30.182519201191894,-0.191870252062679],[30.182557191707705,-0.190392058615675],[30.177268146748936,-0.186898784518361],[30.175979285551275,-0.190441116597263],[30.171659186959978,-0.19363466693827],[30.169947516260947,-0.190720183423445],[30.170729674912845,-0.189943859065697],[30.170706692903188,-0.188008587271984],[30.16710498636615,-0.188980019879878],[30.16381357040352,-0.187428315557019],[30.158191958990678,-0.18634183454491],[30.154124369692397,-0.187681227122277],[30.151415331522934,-0.186128756582686],[30.147623168773073,-0.185873545208865],[30.146149793879815,-0.183045545758102],[30.14647102828029,-0.172444932669156],[30.147289721598973,-0.170551703883029]]]}},{"type":"Feature","properties":{"n":"Katerera Town Council","c":"425103","d":"Rubirizi","od":"Rubirizi","dc":"425","k":"KATERERATOWNCOUNCIL","a":["KATERERA","KATERERATOWNCOUNCIL"],"lat":-0.198516,"lon":30.164688},"geometry":{"type":"Polygon","coordinates":[[[30.143315329555055,-0.199952465239147],[30.143275620740813,-0.19707891172402],[30.14455661092691,-0.195085978269295],[30.145236725273207,-0.191806391081648],[30.14750771759843,-0.191689733289217],[30.147623170507217,-0.185873557350194],[30.148135162497955,-0.1859080022273354],[30.151415331522934,-0.186128756582686],[30.154124369692397,-0.187681227122277],[30.154125062393724,-0.18768099902672733],[30.154125351264895,-0.187681164525666],[30.15566344129271,-0.18717443527916575],[30.15819194414032,-0.18634183943489738],[30.15819199331708,-0.18634184117912575],[30.162476837022556,-0.18716996695730032],[30.16578048032491,-0.18835559508119548],[30.16710498636615,-0.188980019879878],[30.167342147537127,-0.18891605406466114],[30.167732233285573,-0.189056049999984],[30.170684354907134,-0.18801461215422752],[30.170706692903188,-0.188008587271984],[30.170729674912845,-0.189943859065697],[30.169947516260947,-0.190720183423445],[30.16994812495547,-0.19072121985536733],[30.169947913371818,-0.190721430277841],[30.170203587635182,-0.1911561994160372],[30.171659186959978,-0.19363466693827],[30.17166051868816,-0.19363368248365662],[30.171660978149877,-0.193634463789417],[30.17565839470242,-0.19067832902612908],[30.175979285551275,-0.190441116597263],[30.177268146748936,-0.186898784518361],[30.182272432601938,-0.19020398276910888],[30.18255718689398,-0.19039224591547008],[30.182519201191894,-0.191870252062679],[30.185306827314008,-0.194791391920869],[30.18674742040921,-0.2017177749141301],[30.184137914951393,-0.20405506532658993],[30.184121166335977,-0.204068857438416],[30.182228712508113,-0.204345571983963],[30.18222844175201,-0.2043459172629387],[30.182228356780943,-0.204345929629715],[30.18127532892846,-0.205561364729312],[30.18095806613547,-0.205965950889926],[30.17904458591594,-0.20597261549688692],[30.179003899720716,-0.2059229733406204],[30.17810510407758,-0.204821471015712],[30.178098435668836,-0.20484617965432006],[30.17741064906412,-0.2066457474153101],[30.17544342793064,-0.207524062662502],[30.1731065580187,-0.206892627510172],[30.171779120314667,-0.209941067421499],[30.172617556451833,-0.2113334916622779],[30.173047070027003,-0.21204705652831068],[30.171750294102626,-0.21230419652825475],[30.171649664608335,-0.21232399142015343],[30.16847197157568,-0.211057451326264],[30.16847056964363,-0.21104469689661565],[30.1686045507658,-0.20555159736670542],[30.168612596339234,-0.205525310317642],[30.16672266709735,-0.205075613246073],[30.16672175771995,-0.2050759281171588],[30.166721455156065,-0.205075856125464],[30.16242907399816,-0.20656226589885526],[30.16042336796777,-0.20725673976303],[30.1601717207727,-0.2072757000430484],[30.15736898881938,-0.20748674248342192],[30.157046303443245,-0.20588107755949],[30.15208463910629,-0.20846691261165112],[30.15202393844641,-0.20849854387992697],[30.152023425440706,-0.20849864013911928],[30.146964591303984,-0.20911528693540932],[30.140293590130078,-0.20841274100271073],[30.14029300563135,-0.208412667083698],[30.13945243140119,-0.204006059515144],[30.141744917578,-0.200726071515753],[30.143315329555055,-0.199952465239147]]]}},{"type":"Feature","properties":{"n":"Kirugu","c":"425104","d":"Rubirizi","od":"Rubirizi","dc":"425","k":"KIRUGU","a":["KIRUGU"],"lat":-0.204084,"lon":30.121965},"geometry":{"type":"Polygon","coordinates":[[[30.10895981745386,-0.184333444106435],[30.119340093254817,-0.173787612556985],[30.122800120418344,-0.171765729806106],[30.135868860307887,-0.170541182772867],[30.139013738556574,-0.172824515259416],[30.141251632641712,-0.173339777311675],[30.144478622540223,-0.170656962989866],[30.14728970970314,-0.170551706482069],[30.146506453996338,-0.172161529618968],[30.14648700142091,-0.17240799477197316],[30.14647102828029,-0.172444932669156],[30.14646289025001,-0.17271348457445418],[30.14597134485232,-0.178941390596456],[30.146149839670304,-0.18304403468934868],[30.146149793879815,-0.183045545758102],[30.147483218401735,-0.1856049241165076],[30.147623159532,-0.185873552782915],[30.147619783916518,-0.18604416376923913],[30.14750771759843,-0.191689733289217],[30.145236725273207,-0.191806391081648],[30.14455661092691,-0.195085978269295],[30.143275620740813,-0.19707891172402],[30.143275624116573,-0.19707915601301149],[30.143275547502384,-0.197079275203778],[30.143307327921608,-0.19937342196245803],[30.143315329555055,-0.199952465239147],[30.141744917578,-0.200726071515753],[30.13945243140119,-0.204006059515144],[30.139482282469174,-0.20416255008718165],[30.139300167249996,-0.204439121372145],[30.139820545966266,-0.20593585508863863],[30.14029300563135,-0.208412667083698],[30.140293590130078,-0.20841274100271073],[30.140696451030625,-0.20845516766098052],[30.140696451030625,-0.20845516766098057],[30.14029300774634,-0.208412679669889],[30.141599027510512,-0.21105325771606329],[30.14159503479313,-0.2110963832660021],[30.14137516361685,-0.213467080374636],[30.139897867991625,-0.21513979188915466],[30.139050837071423,-0.216098518876474],[30.139050874047484,-0.21609882574730863],[30.139050584659103,-0.216099153415835],[30.139352474171787,-0.21860185811878127],[30.139404755169622,-0.219035747296701],[30.139404821429544,-0.21903582393298687],[30.139404971734585,-0.219037069982022],[30.141876122723325,-0.22189502407090453],[30.14169705502612,-0.2240434619383926],[30.141271296508833,-0.229147578763775],[30.14394696255728,-0.230250832496911],[30.141185433427058,-0.231656010993705],[30.142005034599872,-0.2341749979633427],[30.139706020670534,-0.23710802093332595],[30.139702291333755,-0.23711239232401],[30.137871099606475,-0.23768087601102017],[30.137817882329667,-0.237697385545083],[30.135956403135346,-0.232685891190968],[30.13416688095155,-0.233218652781303],[30.132221054367182,-0.230870795835285],[30.12658079903298,-0.231901122567724],[30.12375400218505,-0.230949339211625],[30.1231894974254,-0.229405282437042],[30.119921806084918,-0.22983762641981],[30.117606280446008,-0.22663618201488],[30.119494052114945,-0.221370797717996],[30.123003060400695,-0.220120997217459],[30.119472743805463,-0.21850428177983],[30.120328832593763,-0.217595838841716],[30.118630413055744,-0.213728704408245],[30.118662952389325,-0.212089992902412],[30.116949711053973,-0.21001971756834],[30.11659621409439,-0.207347666277186],[30.11717402630977,-0.206692954825763],[30.115147228091608,-0.205709347107981],[30.113121531223623,-0.206048377626247],[30.11187455604176,-0.204383663710525],[30.110100942088934,-0.206132776469072],[30.107907134662977,-0.206743954670167],[30.10436381868814,-0.204823649186696],[30.10471857278549,-0.202174984163653],[30.103301414108152,-0.20084835231327],[30.105157878016097,-0.199471427380067],[30.10440285927142,-0.194025095454775],[30.103053447918775,-0.18923346834862],[30.10073552150808,-0.185782742434566],[30.10590060646538,-0.185841002095196],[30.10895981745386,-0.184333444106435]]]}},{"type":"Feature","properties":{"n":"Kyabakara","c":"425105","d":"Rubirizi","od":"Rubirizi","dc":"425","k":"KYABAKARA","a":["KYABAKARA"],"lat":-0.152059,"lon":30.23601},"geometry":{"type":"Polygon","coordinates":[[[30.180295139751486,-0.16049420918763],[30.193346043524574,-0.156551413323118],[30.204626469936926,-0.151702162340592],[30.205060168324458,-0.149680744577706],[30.20684630457401,-0.1474334150881],[30.2074043407203,-0.145915641121051],[30.206345007851024,-0.143108435170809],[30.20065267849908,-0.139848365690707],[30.200150635419202,-0.138050491456754],[30.20225610878737,-0.129855908797827],[30.204682197841294,-0.127589862954858],[30.203790900444375,-0.122278513964542],[30.20285632115862,-0.121864378668774],[30.203030729520023,-0.118803783924041],[30.200605420717434,-0.117596081702304],[30.198295702341117,-0.114681736787159],[30.19070901649486,-0.111399110656922],[30.189744423611312,-0.108691039686662],[30.196746812987104,-0.099699726551672],[30.198356120163872,-0.095431331535071],[30.201806556849263,-0.092191974879361],[30.201996218662224,-0.090500342559399],[30.1994239154577,-0.083348567879712],[30.19695670841968,-0.080410559260765],[30.203569715430497,-0.07788741094558749],[30.215991909645858,-0.07839966637714871],[30.215988085603737,-0.07847247924393963],[30.212626563382006,-0.0989217394261292],[30.212532303638433,-0.098946894341581],[30.211675028387695,-0.104063097585857],[30.21306703816214,-0.104791580074542],[30.21405910181424,-0.103715823172808],[30.217010759718917,-0.10346083527900629],[30.219402885855043,-0.10510072049182266],[30.221201281312375,-0.107061751340072],[30.22160684936931,-0.10661161371858154],[30.222181029920975,-0.10700523434834135],[30.22368877397065,-0.108149251610339],[30.223803768983718,-0.1081176781083346],[30.225576276474186,-0.10933279330620244],[30.22628349072723,-0.110460101630149],[30.228001244645448,-0.11099519287014893],[30.2283,-0.1112],[30.236077556196207,-0.12239209306283316],[30.236103936015162,-0.122854414993997],[30.238108335781867,-0.123952552360635],[30.238045983923808,-0.124644807982392],[30.240315779497884,-0.125452946173392],[30.241255885579083,-0.123625413178065],[30.241230676624827,-0.12354205669659497],[30.24336143794081,-0.12378620643071775],[30.24339267457102,-0.123878772540165],[30.243838464954436,-0.12384086577602935],[30.246094718755177,-0.12409939485736418],[30.245977096814556,-0.124483438153247],[30.246905254422305,-0.12499766066748874],[30.247875475964946,-0.12607921910846825],[30.247635192828376,-0.126386644618578],[30.248002138171795,-0.1262204163226577],[30.248222141078557,-0.1264656654646207],[30.248045813955194,-0.126861003243015],[30.248543734536952,-0.1268241630903726],[30.25592261154541,-0.1350497964768549],[30.255409938673406,-0.135518978624299],[30.25569871559023,-0.136508356166908],[30.25722763321545,-0.136606979077795],[30.25903131528715,-0.1385152367135466],[30.259241414728162,-0.1387494459264782],[30.258207354113292,-0.139790426870827],[30.25979324174064,-0.1403072137325],[30.260119350311157,-0.139728128215718],[30.260160788285457,-0.1397743213673972],[30.26034134989186,-0.140840716469433],[30.26181237004813,-0.142009516676996],[30.26217940232473,-0.14202457964068527],[30.2644,-0.1445],[30.268403431381618,-0.1524154602202778],[30.26730178823448,-0.15252115988798],[30.267371774558974,-0.153314065373946],[30.26910944966808,-0.154085140247179],[30.26926137556648,-0.154943714743728],[30.269607534032694,-0.15479617459432213],[30.280709777638126,-0.17674718592378455],[30.280596110264835,-0.177336097539584],[30.281768691906212,-0.179532243974923],[30.28216067177729,-0.17961584876514666],[30.28621910381678,-0.18764005457838162],[30.28359315831515,-0.190079231089324],[30.28341367551515,-0.192337784451129],[30.2850435029735,-0.2012216727830624],[30.284153123749757,-0.21073254176393885],[30.269382166708326,-0.217748691909752],[30.2518888188883,-0.22263046646286688],[30.23823219275477,-0.22582853713970646],[30.23823219275477,-0.22582853713970613],[30.23823233318938,-0.22582850425311976],[30.23391188289597,-0.222939142959396],[30.23391102845601,-0.2229393253479449],[30.233910138035913,-0.222938729996306],[30.23176815893597,-0.2230718273399802],[30.23151432404691,-0.22286502006681908],[30.22933381350578,-0.21811118457246828],[30.22933108491427,-0.218104829993006],[30.229330819304092,-0.2181046567699244],[30.229330549797517,-0.218104069205728],[30.22901579613532,-0.21789920800191706],[30.22759933466072,-0.216975433836285],[30.225123999063385,-0.210413990103991],[30.224002836612474,-0.20881407927092657],[30.223292413760813,-0.20720185873992572],[30.22298586199862,-0.20580145114068438],[30.222985799687706,-0.20580004061216237],[30.223615170940572,-0.20542919820931865],[30.224153996910704,-0.20511323330167422],[30.224159152287488,-0.205112804360881],[30.22326977743189,-0.204327948003483],[30.225533318578506,-0.20347852239007],[30.225924084383976,-0.202635956434916],[30.225923844674895,-0.20263539917519363],[30.225924047653198,-0.202634961695081],[30.22494639943842,-0.20036309951553746],[30.224473777637733,-0.199264379795226],[30.22438311166549,-0.1964507839126451],[30.22428015109443,-0.193252419923295],[30.22428004161808,-0.19325225800674062],[30.224280034010754,-0.193252021931998],[30.224278860052173,-0.19325051045958827],[30.22236237498149,-0.190416010917958],[30.222005584011335,-0.190323666131359],[30.221805547541603,-0.190066119051132],[30.215466592024274,-0.18863117005546],[30.209400399126196,-0.183794792053453],[30.2078449949941,-0.183664283134833],[30.207524571145044,-0.184300147951061],[30.203483883491995,-0.182451561034724],[30.203479735585013,-0.1824522578261462],[30.203478441173928,-0.182451666395407],[30.199641256807407,-0.18309706955826852],[30.199611546272035,-0.183102060520284],[30.19454546541151,-0.18239896174278936],[30.18687410820654,-0.17953864126158936],[30.186868385157098,-0.1795363503891311],[30.186297514913406,-0.17885817412024774],[30.18496439822342,-0.177274103197368],[30.183155685309206,-0.17696996915002122],[30.18173068610621,-0.17530517874815724],[30.180473204830072,-0.173835942697772],[30.180472540071325,-0.17383563515968806],[30.178182106028355,-0.17237257188388966],[30.177839728948854,-0.17171901210199078],[30.177280465992315,-0.1678985445690288],[30.177865961553014,-0.16668099027592873],[30.17821448738846,-0.165957234820622],[30.178214213277553,-0.1659567911346235],[30.178214844693656,-0.165955478087289],[30.17726215081362,-0.1644157477915781],[30.17707011454271,-0.16410491081593642],[30.177073140920182,-0.1640972474498721],[30.178317761744065,-0.161391653785342],[30.180295139751486,-0.16049420918763]]]}},{"type":"Feature","properties":{"n":"Katunguru","c":"425201","d":"Rubirizi","od":"Rubirizi","dc":"425","k":"KATUNGURU","a":["KATUNGURU"],"lat":-0.206769,"lon":29.944029},"geometry":{"type":"Polygon","coordinates":[[[29.800125441359267,-0.20984313341606986],[29.8858,-0.2092],[29.887145139346558,-0.20856785801200067],[29.88914203318298,-0.208538593493127],[29.894738329305728,-0.20499947365960278],[29.9041,-0.2006],[29.904097378577625,-0.2005302701648541],[29.904873670066006,-0.200220629794642],[29.90815354962501,-0.197765583270851],[29.907982166565944,-0.195331400179158],[29.904591353413775,-0.18685705485767573],[29.915692287009165,-0.18189706325122493],[29.92048038741117,-0.18199544594388],[29.92735073819977,-0.17690615193858905],[29.939080514768445,-0.18187204274868493],[29.941646271582368,-0.183509649768336],[29.946631427224,-0.18506877940870012],[29.9545,-0.1884],[29.955018926544444,-0.1876920071951777],[29.955569298251053,-0.187864138398831],[29.961156728860242,-0.184839974411271],[29.962796420059895,-0.181363416033783],[29.964276155481706,-0.17506198942031181],[29.967181611645422,-0.17109795620469467],[29.967613411019055,-0.17081196697303114],[29.981011273712074,-0.1715632489932004],[29.984684275514404,-0.172425635352629],[29.987169949811435,-0.17190859531652902],[29.9888,-0.172],[29.989150665452904,-0.17149659069951584],[29.990026193784306,-0.171314473838664],[29.991448716544173,-0.16819754802861203],[30.000668793754624,-0.15496136356698267],[30.002033528704374,-0.15342906390467],[30.002035109071212,-0.1529999047689328],[30.0051,-0.1486],[30.0196,-0.1398],[30.01973536010228,-0.13975259953097033],[30.036284853915955,-0.135331346336026],[30.04595193272604,-0.131013609065375],[30.047058681724963,-0.13018450495551817],[30.0473,-0.1301],[30.0652,-0.1127],[30.0801,-0.1155],[30.08012895921131,-0.11545996814907346],[30.08190768682518,-0.114605079453947],[30.0843922468672,-0.110871085548221],[30.08583866182319,-0.10756714395029635],[30.093687112420216,-0.09671781518381446],[30.102892828741684,-0.101574445663965],[30.10657990933172,-0.101504252062654],[30.106591682101705,-0.10149690496807584],[30.1066,-0.1015],[30.106699914583942,-0.10142935975275509],[30.11656660561081,-0.09527180190933],[30.12184445633654,-0.091303166033398],[30.122722193494003,-0.09010150651061134],[30.137840474141143,-0.07941278579830172],[30.138041968912713,-0.079330882946729],[30.149172900327116,-0.077370422660448],[30.156191429503906,-0.07251395190481692],[30.15625877725766,-0.07252422899711036],[30.15992829894544,-0.07591221450644],[30.16440583160722,-0.07376744832967291],[30.186723698763867,-0.07717309688929126],[30.18279935089398,-0.085559863975002],[30.18445118022397,-0.088493943650125],[30.18927979009036,-0.086139298064398],[30.18970131949857,-0.084830119038221],[30.19103072444535,-0.084582913900087],[30.193910003439342,-0.081974190774078],[30.194423685076657,-0.081881352809467],[30.195599853846794,-0.080965682976797],[30.196983081704502,-0.080399118865427],[30.19698394838763,-0.08040016603433672],[30.19695670841968,-0.080410559260765],[30.1994239154577,-0.083348567879712],[30.20164572252097,-0.08952585812694383],[30.201996210205973,-0.09050041798241686],[30.201806556849263,-0.092191974879361],[30.19906015975997,-0.09477036147259628],[30.19835722617996,-0.095429859122746],[30.198356972890352,-0.09543053097402629],[30.198356120163872,-0.095431331535071],[30.196746812987104,-0.099699726551672],[30.189744423611312,-0.108691039686662],[30.189744914802652,-0.10869241869435362],[30.189744585190503,-0.108692841991854],[30.190297649421918,-0.11024420764306846],[30.19070901649486,-0.111399110656922],[30.19070943934049,-0.11139929361482291],[30.19070946355835,-0.11139936154681],[30.197212045849135,-0.11421285759684195],[30.198295702341117,-0.114681736787159],[30.200605420717434,-0.117596081702304],[30.203030729520023,-0.118803783924041],[30.202873061679945,-0.12157060862712356],[30.202856245820364,-0.121863332973164],[30.202856377435207,-0.12186339110243423],[30.20285632115862,-0.121864378668774],[30.203790900444375,-0.122278513964542],[30.204682197841294,-0.127589862954858],[30.20225610878737,-0.129855908797827],[30.201561061797076,-0.1325610581955419],[30.200852628427587,-0.133623850504429],[30.200083783940077,-0.136904233550547],[30.200239002302123,-0.13770656417780872],[30.200150635419202,-0.138050491456754],[30.20065267849908,-0.139848365690707],[30.206345007851024,-0.143108435170809],[30.20740426211304,-0.14591543281375927],[30.20740430007106,-0.14591575168083343],[30.207401960499265,-0.1459221149624804],[30.20641854410202,-0.14797162639389116],[30.205060168324458,-0.149680744577706],[30.204626505488736,-0.15170199663774375],[30.194527393344853,-0.1560435724341935],[30.193346043524574,-0.156551413323118],[30.180295139751486,-0.16049420918763],[30.178317857977802,-0.16139161010909656],[30.178317766503632,-0.161391639570499],[30.1789963759053,-0.1592272489666119],[30.17899938224419,-0.159219636342081],[30.178998963393212,-0.15921899630387568],[30.178998989177657,-0.159218914065682],[30.178944741161157,-0.1591361403432911],[30.177243241145177,-0.156536110560011],[30.1759970580038,-0.15766851210772576],[30.173016039939323,-0.158403631234909],[30.17301603910195,-0.15840363472652483],[30.17301504525124,-0.158403879804288],[30.1728375889973,-0.159140442228581],[30.165231299506132,-0.163621022407829],[30.14784150112915,-0.17033855606582035],[30.14448500093572,-0.17065672416139988],[30.144478622540223,-0.170656962989866],[30.141251632641712,-0.173339777311675],[30.1390137734351,-0.1728245232899931],[30.134790932777967,-0.169625425860269],[30.13328192271239,-0.166724667478856],[30.133778065176312,-0.163977812859872],[30.13526613370916,-0.162729760206618],[30.137333403190457,-0.15108471190279],[30.136011887319054,-0.145589928895177],[30.139813256563475,-0.141850046762376],[30.140309604261425,-0.140188150898396],[30.13741819085033,-0.134195730281608],[30.1427087093631,-0.117553326417028],[30.142047916086987,-0.115972812061209],[30.132377923004697,-0.126207369372744],[30.12576632602552,-0.128040932655298],[30.114361889985695,-0.129530545141305],[30.095354313085846,-0.134859357128756],[30.082296263184762,-0.140342575978165],[30.077172274669344,-0.144001245463952],[30.06932110418223,-0.148409537444624],[30.06725455633345,-0.148825407253453],[30.06138728410631,-0.153486376255444],[30.042379804511757,-0.160468155255171],[30.03238011976887,-0.167712746798515],[30.025604155801915,-0.170783171412343],[30.00141360435542,-0.202524921614689],[29.962820005227208,-0.23345730195759],[29.95517542918302,-0.24956117576442],[29.939930523835507,-0.264180456021836],[29.927751952642797,-0.266582050101621],[29.915891026309282,-0.278356496722756],[29.910835767501162,-0.285205189168935],[29.906932978601922,-0.294899519592181],[29.89881345771279,-0.300746188140316],[29.89419705719628,-0.301466185271671],[29.88663509987069,-0.306431342302876],[29.880904182794506,-0.30851306566999],[29.877202502440074,-0.312237346558636],[29.873145171098603,-0.310555266876657],[29.8709945750221,-0.313196940425441],[29.870286234631138,-0.312728508590583],[29.864184942267467,-0.313731683461338],[29.862277336187788,-0.313557350097787],[29.860587688423152,-0.312212658492601],[29.858731566948553,-0.312262199108405],[29.84234256968951,-0.298767825274336],[29.82768213756215,-0.305913948902714],[29.807022847996812,-0.321294805895628],[29.789917850845065,-0.331187019396091],[29.707116641214174,-0.335444708611978],[29.684482529476572,-0.338727012773372],[29.683576021056236,-0.3384942450969763],[29.676,-0.3365],[29.6993,-0.2106],[29.747192285410694,-0.21024048686554975],[29.780115048746755,-0.210136386117639],[29.800125441359267,-0.20984313341606986]]]}},{"type":"Feature","properties":{"n":"Kichwamba","c":"425202","d":"Rubirizi","od":"Rubirizi","dc":"425","k":"KICHWAMBA","a":["KICHWAMBA"],"lat":-0.283118,"lon":29.992965},"geometry":{"type":"Polygon","coordinates":[[[29.862276856009807,-0.31355704930101],[29.862276971504762,-0.3135570598679456],[29.862277336187788,-0.313557350097787],[29.864184942267467,-0.313731683461338],[29.864185170305586,-0.31373164596729625],[29.864186767199246,-0.313731792071274],[29.86722367096672,-0.31323205549918987],[29.870286234631138,-0.312728508590583],[29.8709945750221,-0.313196940425441],[29.873145171098603,-0.310555266876657],[29.877202502440074,-0.312237346558636],[29.880904182794506,-0.30851306566999],[29.88663509987069,-0.306431342302876],[29.89419705719628,-0.301466185271671],[29.89881345771279,-0.300746188140316],[29.906932978601922,-0.294899519592181],[29.91083576750078,-0.28520518916988274],[29.910835873060073,-0.2852050461613156],[29.915891026309282,-0.278356496722756],[29.927751952642797,-0.266582050101621],[29.939930523835507,-0.264180456021836],[29.939931495053223,-0.26417952466125044],[29.939931495053813,-0.264179524661134],[29.939931559251875,-0.26417946309720347],[29.95517542918302,-0.24956117576442],[29.962820005227208,-0.23345730195759],[30.00141360435542,-0.202524921614689],[30.001415118115304,-0.20252293532726764],[30.026236734370062,-0.17049652809261792],[30.03238011976887,-0.167712746798515],[30.041826089924275,-0.16086931150369657],[30.042379807356262,-0.16046815421033425],[30.06138728410631,-0.153486376255444],[30.06725455633345,-0.148825407253453],[30.06932110418223,-0.148409537444624],[30.077172274669344,-0.144001245463952],[30.082296263184762,-0.140342575978165],[30.08229698250669,-0.14034227392697107],[30.08706566562471,-0.138854304187027],[30.088552358901172,-0.13771557254229402],[30.09247156407664,-0.13606985516063214],[30.114360686516026,-0.12953088253641995],[30.114361696232553,-0.12953059946038384],[30.12034657476711,-0.12874884395554845],[30.12576632602552,-0.128040932655298],[30.132377923004697,-0.126207369372744],[30.142047916086987,-0.115972812061209],[30.142708706197524,-0.11755331884546523],[30.14270867271061,-0.11755344171489854],[30.140645115691147,-0.12404478074577693],[30.13832776080291,-0.129786282884438],[30.137418507520287,-0.134194276088359],[30.137418595297845,-0.13419445800954594],[30.13741819085033,-0.134195730281608],[30.140309604261425,-0.140188150898396],[30.139813256563475,-0.141850046762376],[30.136011887319054,-0.145589928895177],[30.137333403142392,-0.15108471170294469],[30.13732164573316,-0.1511509423383443],[30.13526613370916,-0.162729760206618],[30.133778065176312,-0.163977812859872],[30.13328192271239,-0.166724667478856],[30.134790932777967,-0.169625425860269],[30.135730820306296,-0.17033745646247267],[30.135868848880406,-0.170541173272417],[30.135352732666792,-0.17058954417396735],[30.122800120418344,-0.171765729806106],[30.119340093254817,-0.173787612556985],[30.10895981745386,-0.184333444106435],[30.10590060646538,-0.185841002095196],[30.10073552150808,-0.185782742434566],[30.100738572266007,-0.1857872841358811],[30.100738326464306,-0.185787281574198],[30.103053482677517,-0.1892335917734935],[30.10440285927142,-0.194025095454775],[30.104560687355292,-0.19516358921794552],[30.105157712887166,-0.19947154985491794],[30.103301414108152,-0.20084835231327],[30.103303452837405,-0.20085026081032442],[30.10330141351027,-0.200851775954734],[30.104290556408294,-0.20177430908925817],[30.1047184624603,-0.20217488088593769],[30.104363603702247,-0.204823141559779],[30.10436386753057,-0.20482328451933163],[30.10436381868814,-0.204823649186696],[30.107907134662977,-0.206743954670167],[30.107907981485955,-0.20674371875167277],[30.107908136098345,-0.206743802530843],[30.11010023051187,-0.206133093986134],[30.110100398890463,-0.20613292780006917],[30.110100942088934,-0.206132776469072],[30.11187386919276,-0.20438434107120057],[30.112428205407056,-0.20512278652246832],[30.113121531223623,-0.206048377626247],[30.11312286104062,-0.20604815506158178],[30.113123052792258,-0.206048410498845],[30.113888710825275,-0.20591997870236975],[30.115147228091608,-0.205709347107981],[30.11717395052068,-0.20669291804522308],[30.116893367407886,-0.20701096575061992],[30.11659621409439,-0.207347666277186],[30.116949711053973,-0.21001971756834],[30.11694988051176,-0.21001992234058614],[30.116949962145,-0.210020539333895],[30.118237607914008,-0.21157600800281823],[30.11866287854786,-0.21208990367262173],[30.118630373405935,-0.213728487566862],[30.11863041545975,-0.21372858334024145],[30.118630413055744,-0.213728704408245],[30.118884127271954,-0.21430638675339314],[30.120328616762873,-0.21759606787175464],[30.11949043782074,-0.21848550568622274],[30.119473107973253,-0.218503845646084],[30.119473140708422,-0.21850386060425372],[30.119472743805463,-0.21850428177983],[30.123003060400695,-0.220120997217459],[30.119494052114945,-0.221370797717996],[30.117606280446008,-0.22663618201488],[30.119921806084918,-0.22983762641981],[30.1231894974254,-0.229405282437042],[30.12365804196202,-0.23068686483930648],[30.123753041814133,-0.230948512201775],[30.123753806110496,-0.23094880290039332],[30.12375400218505,-0.230949339211625],[30.123764580848732,-0.23095290105089603],[30.126057096856428,-0.231824855006731],[30.126340327022707,-0.23182015556892785],[30.12658079903298,-0.231901122567724],[30.127092336982205,-0.23180767799961233],[30.12972002907633,-0.231764078563421],[30.132210870002012,-0.23087265625171394],[30.132221054367182,-0.230870795835285],[30.133326084971742,-0.23220413859117145],[30.133200672681927,-0.238241158758565],[30.115598502027076,-0.245601980371087],[30.11369483626592,-0.246087404620324],[30.111948293139,-0.244568157044945],[30.10434364172483,-0.245760800305186],[30.10024182070883,-0.249582344754324],[30.093579529529148,-0.253058733106469],[30.093927508948347,-0.257000422563386],[30.092501054053045,-0.262210057866455],[30.090599467359663,-0.265490900836533],[30.08990824653108,-0.270613379606345],[30.082949977860878,-0.274891240876116],[30.081001694265897,-0.276959686215893],[30.081218149182387,-0.277728529689287],[30.078703606922172,-0.27972245582329],[30.079040942522894,-0.28082301707634],[30.07716427789779,-0.280228078701041],[30.074999123443252,-0.281031561501738],[30.070954020721494,-0.286868418011329],[30.069488674000194,-0.285977691921429],[30.06907990832109,-0.287396927033244],[30.067627729912953,-0.287763310297303],[30.066838933366412,-0.288936473287933],[30.051158097604183,-0.291052624657767],[30.044337854428303,-0.2992765141737],[30.02591978023489,-0.317233090755981],[30.015297658930603,-0.329210614308962],[30.000563234504956,-0.339071287663253],[29.991076021557305,-0.344045080960326],[29.979141063666624,-0.351756592563714],[29.961573186798006,-0.365476804105188],[29.945674059671273,-0.380829264946582],[29.938271592504776,-0.38927679809307],[29.92597144113655,-0.405952745955426],[29.911791495515086,-0.430619963416362],[29.90480248812377,-0.446839873157791],[29.90472721221611,-0.4472871392213965],[29.899664821802155,-0.44879380303507277],[29.891766103857705,-0.448122493608288],[29.890542021938835,-0.451165763365727],[29.889401901564465,-0.4514889413408742],[29.887243772764787,-0.45057447998507966],[29.886338901770785,-0.450003958463909],[29.885780938547523,-0.44995463497776345],[29.88413026757148,-0.4492551981235078],[29.88355577423271,-0.44855294253708],[29.882210451786257,-0.44844171685858325],[29.880683529775602,-0.44779471600661097],[29.880170218243478,-0.447202241676996],[29.879757662401325,-0.44740239932259546],[29.872589868689417,-0.44436519859721096],[29.87244983313232,-0.44312813527102274],[29.873976215734633,-0.43657946152561133],[29.87467866170881,-0.435514087341085],[29.874453502686276,-0.4345317465395198],[29.875086736877904,-0.4318149675883424],[29.875428670677437,-0.431295768841442],[29.87524627264992,-0.4311305076632404],[29.8753,-0.4309],[29.873338908724822,-0.42857374000461845],[29.873050925991635,-0.426315607776396],[29.871116270808823,-0.42593723158012015],[29.861558236885976,-0.41459942582336323],[29.86080443343265,-0.41349074197885427],[29.86081236324394,-0.4131164548860998],[29.861785429017953,-0.412680252268109],[29.862124441464836,-0.407562903516963],[29.86349004106693,-0.405782450914602],[29.862968344493225,-0.404050396745873],[29.864228979110557,-0.402487599381506],[29.86364527032148,-0.400330365626559],[29.864088583588654,-0.395049576222643],[29.86133282033004,-0.390121688948561],[29.86129974653986,-0.39011196331859116],[29.8613,-0.3901],[29.86119762682298,-0.3900819341452319],[29.85187028710159,-0.387339150380909],[29.8480417642164,-0.385211639704274],[29.845016541385018,-0.38722644847970866],[29.8409,-0.3865],[29.830494747473324,-0.38054018399880385],[29.8196414758986,-0.374273833448829],[29.68448255372276,-0.33872702025699],[29.69470102876479,-0.3372451687705787],[29.707116641214174,-0.335444708611978],[29.789917850845065,-0.331187019396091],[29.807022847996812,-0.321294805895628],[29.82768213756215,-0.305913948902714],[29.84234256968951,-0.298767825274336],[29.858731566948553,-0.312262199108405],[29.860587688423152,-0.312212658492601],[29.862023176738475,-0.3133550794914371],[29.862276856009807,-0.31355704930101]]]}},{"type":"Feature","properties":{"n":"Magambo","c":"425203","d":"Rubirizi","od":"Rubirizi","dc":"425","k":"MAGAMBO","a":["MAGAMBO"],"lat":-0.263783,"lon":30.143706},"geometry":{"type":"Polygon","coordinates":[[[30.092500834097965,-0.262210564495341],[30.092500900072714,-0.2622103235315929],[30.092501054053045,-0.262210057866455],[30.093927508948347,-0.257000422563386],[30.093579565980246,-0.25305914600129803],[30.09490738171121,-0.2523658588782808],[30.10024182070883,-0.249582344754324],[30.10434358575355,-0.2457608524519623],[30.11074278211124,-0.24475721825552502],[30.111948293139,-0.244568157044945],[30.11369483626592,-0.246087404620324],[30.113697845523177,-0.2460866372763528],[30.11369785122979,-0.246086642230218],[30.113697904763043,-0.24608662217051447],[30.115598502027076,-0.245601980371087],[30.120833871524724,-0.24341266964893435],[30.13218789800739,-0.239158147625871],[30.133197871644878,-0.23824233008762744],[30.133200672681927,-0.238241158758565],[30.13320070165842,-0.23823976390575782],[30.13320079253813,-0.238239681498428],[30.133559492696044,-0.232542895871492],[30.13383818242865,-0.23282204132767237],[30.13416688095155,-0.233218652781303],[30.134218734257246,-0.23320321544844544],[30.134271823380185,-0.233256391384646],[30.134440290961045,-0.2331372554380397],[30.13559759359935,-0.2327927129676165],[30.13867863420449,-0.240013672350777],[30.138679199653264,-0.24001373090511327],[30.13867960851968,-0.240014830475651],[30.14337889752139,-0.24062974595221784],[30.144722426650635,-0.2424828897440617],[30.144726274957872,-0.242488490042468],[30.145247712289173,-0.245743741747761],[30.146060974841067,-0.24546505372647914],[30.14653913400301,-0.24530138439597432],[30.147760949491648,-0.24614119833126072],[30.14788660155231,-0.246227630763234],[30.147886647446573,-0.246227596723786],[30.147888906487918,-0.246229149474116],[30.148897514509567,-0.2454778437638095],[30.14892383456279,-0.24545832236625612],[30.150424537978036,-0.245689407881977],[30.152470761993143,-0.247646081724181],[30.15420923502197,-0.24785740877389423],[30.154513060517832,-0.2487613478421281],[30.155200146370625,-0.250809770991196],[30.157353395699552,-0.25206331024034945],[30.158483940345015,-0.252721539881841],[30.158484067156742,-0.25272154383663775],[30.15848485095884,-0.252722000136185],[30.160894980024676,-0.2527967314456159],[30.161437496351958,-0.2528136505578835],[30.161669558052616,-0.257612230960007],[30.161670358944402,-0.25761191247663473],[30.16167038599019,-0.257612472003825],[30.16337222754398,-0.25693514582879823],[30.16536401234723,-0.256143090834163],[30.166422009473518,-0.257218757704921],[30.166291530302423,-0.259476298307206],[30.166291689374948,-0.2594764972203079],[30.16629166451144,-0.259476927693196],[30.16695017842365,-0.2602999084274915],[30.167158848717097,-0.260560841329212],[30.167159063069246,-0.26056096295622244],[30.167159491496392,-0.260561498384981],[30.169285955583288,-0.2617677974975916],[30.17326112999928,-0.2640233782387507],[30.173070095499636,-0.267213602415777],[30.173070209274755,-0.26721379902813974],[30.17307020457294,-0.267213877248266],[30.174063284629387,-0.268930050005776],[30.174063372729947,-0.26893006369143924],[30.174063693150714,-0.268930617403756],[30.177260570045178,-0.26942672075133495],[30.17849485201213,-0.2696184558218817],[30.179037570067813,-0.272519281010341],[30.179038166875245,-0.2725196939010572],[30.179038243095604,-0.272520101149735],[30.17994877640797,-0.27314968307835136],[30.18220069826113,-0.27470763557568],[30.183803900537665,-0.277516216921964],[30.183832084034183,-0.2774991585484997],[30.183938573461575,-0.27768143954777874],[30.1839,-0.2777],[30.184194862367587,-0.28625100866004943],[30.18285673325245,-0.285993350372695],[30.182365314329367,-0.284440196938855],[30.17842681091962,-0.284320736441623],[30.177383765871955,-0.28690101963844783],[30.17440624791919,-0.29372877632323485],[30.171124186661263,-0.294922617197712],[30.16989441402167,-0.29469370300397],[30.16826781560088,-0.29250283401387],[30.167323773222698,-0.288770717873109],[30.16060144126124,-0.283507183123807],[30.151014181257576,-0.279782140850187],[30.14873133616595,-0.276849310812768],[30.137856849080315,-0.275001532770585],[30.137183542902463,-0.273495885401055],[30.13441840891419,-0.271273911081357],[30.12915888408264,-0.271518060900792],[30.128046147690846,-0.272743542063973],[30.124732991625155,-0.273122632116659],[30.11861363394831,-0.272094612392607],[30.11953302892524,-0.276633741286026],[30.116786667321357,-0.279467259438167],[30.118057439824042,-0.283018992038915],[30.115706366475482,-0.284203411969388],[30.110723344274216,-0.282019376322048],[30.10696022667978,-0.279156778134049],[30.10733047284213,-0.278311848615419],[30.110034191392273,-0.277670226731211],[30.10912785896244,-0.27259894572749],[30.110355158501356,-0.270776943214487],[30.1084774966511,-0.26792957006995],[30.112499706797546,-0.267125051844121],[30.11277372160583,-0.266454360218159],[30.11494169168782,-0.266666953179326],[30.114404819463143,-0.262449537762927],[30.1097987699058,-0.259219284422989],[30.106392010352938,-0.260160715307849],[30.106209678497244,-0.255824125104896],[30.102220581805888,-0.252403017193303],[30.10088485648369,-0.255449455055654],[30.101451497656214,-0.261591104659768],[30.098764961906276,-0.263524207909264],[30.10062166400091,-0.265857660114156],[30.104294187337054,-0.26830307466233],[30.104508704407554,-0.270011626613245],[30.102887223952045,-0.270444412335707],[30.101795282160065,-0.271990165977329],[30.102547735804094,-0.273552386414592],[30.10398071468973,-0.273807567637389],[30.10541136419949,-0.275728979986038],[30.10600290399738,-0.276983004452997],[30.105384308762822,-0.278237825632338],[30.10337140318656,-0.27663035528439],[30.100402822019028,-0.276641877894973],[30.09843294722361,-0.277505465569868],[30.096458220407825,-0.276966513788635],[30.089908258657243,-0.270613380385504],[30.08998687649349,-0.2700306710182167],[30.090599467359663,-0.265490900836533],[30.09172833140795,-0.2635432506505699],[30.092500834097965,-0.262210564495341]]]}},{"type":"Feature","properties":{"n":"Rubirizi Town Council","c":"425204","d":"Rubirizi","od":"Rubirizi","dc":"425","k":"RUBIRIZITOWNCOUNCIL","a":["RUBIRIZI","RUBIRIZITOWNCOUNCIL","TOWNCOUNCIL"],"lat":-0.275119,"lon":30.107268},"geometry":{"type":"Polygon","coordinates":[[[30.103309194626114,-0.281584634209737],[30.105305481331715,-0.27817487545742425],[30.105384308762822,-0.278237825632338],[30.106000913720287,-0.27698704173247574],[30.106002056163113,-0.276985090382295],[30.106001955019014,-0.27698492945675185],[30.10600290399738,-0.276983004452997],[30.10541136419949,-0.275728979986038],[30.10413609545915,-0.274016249447346],[30.104045959156196,-0.273872837881725],[30.104028055818077,-0.27387114842917964],[30.10398071468973,-0.273807567637389],[30.10265761349628,-0.2735719531535939],[30.101798752642924,-0.271997371283988],[30.101795626145133,-0.27199088014823924],[30.10288735135638,-0.2704443783305006],[30.104508704407554,-0.270011626613245],[30.10450845166349,-0.27000961359695225],[30.104508717150228,-0.270009542433061],[30.10432916256715,-0.26858163989480444],[30.104294187337054,-0.26830307466233],[30.104294128908684,-0.2683030357567666],[30.104294121759068,-0.268302978899669],[30.1036269209825,-0.26785876357113036],[30.10062213209684,-0.26585797180410187],[30.100166132656966,-0.26528516083061454],[30.098765375561086,-0.26352472777926744],[30.099577504138665,-0.26293954119495766],[30.101451497656214,-0.261591104659768],[30.100891461753058,-0.255521047541262],[30.10088487438061,-0.2554494142374952],[30.102220202132642,-0.2524038831280378],[30.103872286171086,-0.25381954311598554],[30.106209678497244,-0.255824125104896],[30.106392010352938,-0.260160715307849],[30.106394156268845,-0.2601601223010693],[30.106394214893992,-0.260161504143903],[30.10643029193296,-0.260150136497929],[30.109706973734582,-0.2592446515642139],[30.109939635501146,-0.2593180744065054],[30.114395149269676,-0.26244275599161626],[30.11440913353043,-0.26248342704428806],[30.114941671796633,-0.2666667969235164],[30.112775947279403,-0.266454214443249],[30.112775805479963,-0.266454564564601],[30.11277372160583,-0.266454360218159],[30.112499762265887,-0.2671249160771781],[30.108480305664425,-0.267925989591825],[30.108482059797094,-0.2679286573543077],[30.1084774966511,-0.26792957006995],[30.110262973900266,-0.2706371502280948],[30.110355023601482,-0.2707771434817437],[30.10912785896244,-0.27259894572749],[30.10946920340563,-0.2745089001034962],[30.110033741342303,-0.27767033353297466],[30.10733047284213,-0.278311848615419],[30.10696022667978,-0.279156778134049],[30.110723344274216,-0.282019376322048],[30.11072337328744,-0.2820193890384088],[30.110723393517,-0.282019404437001],[30.115706352451085,-0.28420341853003],[30.11198240476429,-0.28710021766892],[30.1142888118073,-0.290016297933918],[30.114269242888625,-0.292033164871363],[30.116512168485357,-0.294455681310382],[30.11585565691354,-0.295706590834518],[30.104330956739894,-0.295267886827302],[30.103200803510763,-0.296725651174009],[30.10123084875303,-0.296695626935424],[30.101245229035325,-0.295790541447149],[30.099841907702082,-0.295664351588463],[30.09996639142443,-0.293355776355181],[30.098717163114156,-0.291156914491075],[30.09847859961123,-0.28544084053435],[30.096614778760085,-0.285824112924199],[30.09487235979351,-0.283044904292437],[30.09713672915989,-0.28102097921139],[30.103309194626114,-0.281584634209737]]]}},{"type":"Feature","properties":{"n":"Rutoto","c":"425205","d":"Rubirizi","od":"Rubirizi","dc":"425","k":"RUTOTO","a":["RUTOTO"],"lat":-0.340747,"lon":30.10093},"geometry":{"type":"Polygon","coordinates":[[[30.01347234202373,-0.361244601069578],[30.01663835731982,-0.35596790959383],[30.027945468933076,-0.345565358550308],[30.04287081219156,-0.334258267781812],[30.06959012420878,-0.311056461146138],[30.079540122698724,-0.31077912491966],[30.081243194956123,-0.309652766773283],[30.085498813438864,-0.309183427567893],[30.088678078411082,-0.306805006278367],[30.091660348766062,-0.305851045751453],[30.09473049233501,-0.305733436409257],[30.098571764334654,-0.308127837261529],[30.101330484642197,-0.306109595653553],[30.10438798169358,-0.305092859482066],[30.105360541029352,-0.302343325545552],[30.108682941907425,-0.302917018413446],[30.11076553289884,-0.305436618582798],[30.115334614661016,-0.306087662561783],[30.11598753329592,-0.304159257410086],[30.117702750261166,-0.303549500310499],[30.122590473615208,-0.307328592648832],[30.126971952423112,-0.304880565887754],[30.129231830425127,-0.30485307469086],[30.15856986708432,-0.306942187146953],[30.167235699335492,-0.30939009076965],[30.166670963807,-0.311270764149539],[30.1667363359585,-0.3113166778882629],[30.1667,-0.3114],[30.16720944905297,-0.3131892844787278],[30.16643826852214,-0.315274012805543],[30.166972528518006,-0.317121172109831],[30.166207332363022,-0.320196110240884],[30.168346685392862,-0.322430081560696],[30.166900467629702,-0.323968420583331],[30.168346121737656,-0.324507339845396],[30.168426728622247,-0.325275090997945],[30.17025690782654,-0.3238925543176106],[30.170627561649404,-0.32519436286620546],[30.169907532042618,-0.32695334320646313],[30.169102977325,-0.32799307545692075],[30.16819122857775,-0.328047760133216],[30.1674394797905,-0.3301428261168923],[30.16654645319118,-0.3312968912606285],[30.164903436665647,-0.332510216578044],[30.164638808054953,-0.33376215574437046],[30.1643,-0.3342],[30.16447278444586,-0.3345476016499052],[30.16413997133945,-0.336122116823794],[30.165516865297004,-0.337585467650054],[30.165909199534727,-0.3374373308286883],[30.16912594227728,-0.3439086603460596],[30.168951240795327,-0.345893942776812],[30.17063108666675,-0.34693665670605],[30.17086217289321,-0.34740154782045524],[30.170555755172526,-0.348510520412409],[30.172594364325136,-0.3508863094070408],[30.1728,-0.3513],[30.172815554015674,-0.35149053669201624],[30.168566883944496,-0.354512659707113],[30.16902414663063,-0.356511625463639],[30.171087990559446,-0.35651333919936],[30.17032348288398,-0.357436370738548],[30.168795916689053,-0.357591485446083],[30.168870157313776,-0.360125607878117],[30.173833378902664,-0.36395889155765415],[30.173931163918184,-0.3651567579977634],[30.173223340063426,-0.364826823969239],[30.173912805818897,-0.365823451860841],[30.172692171703176,-0.366596847160039],[30.174152688641236,-0.3678704358551292],[30.1748,-0.3758],[30.157201168854684,-0.37459223707826267],[30.156081046572364,-0.373556362102019],[30.154840662432825,-0.373239292471157],[30.139521573725464,-0.371942149410272],[30.134450159496854,-0.3730308932988038],[30.1238,-0.3723],[30.103342616645474,-0.35900270081955765],[30.102390986828734,-0.358232149599678],[30.10196731880317,-0.35810875722206],[30.1018,-0.358],[30.099153413653156,-0.357117804551052],[30.097269813751595,-0.355302936917803],[30.094145087309787,-0.35544836243659594],[30.093294550377593,-0.3551648501258645],[30.091440771102306,-0.350424161107523],[30.08363840364097,-0.351820680753725],[30.079550377493423,-0.3534653870712337],[30.062260023526473,-0.3594275780943194],[30.055891333106725,-0.361327692319804],[30.05026914344211,-0.36432569803989423],[30.047453569907365,-0.36558581486663355],[30.041098074187516,-0.367666716666639],[30.021408040644296,-0.376098143592754],[30.015797270050978,-0.3797536693478131],[30.004117914118016,-0.38498079368144666],[30.004728149887818,-0.381145166770634],[30.01347234202373,-0.361244601069578]]]}},{"type":"Feature","properties":{"n":"Ryeru","c":"425206","d":"Rubirizi","od":"Rubirizi","dc":"425","k":"RYERU","a":["RYERU"],"lat":-0.358606,"lon":29.992713},"geometry":{"type":"Polygon","coordinates":[[[29.91179173065683,-0.43061955436736504],[29.92416017666309,-0.4091035940502481],[29.92853150228224,-0.40248193938468063],[29.93518115977387,-0.3934666567013028],[29.945674074241087,-0.38082925087772945],[29.95917690501582,-0.36779069353652183],[29.9615731960863,-0.36547679685119133],[29.97554738177288,-0.3545631966948602],[29.983454018053216,-0.3489698715629591],[29.985341436522283,-0.34775035746345595],[30.00056202341186,-0.33907192259437113],[30.000563234504956,-0.339071287663253],[30.015297658930603,-0.329210614308962],[30.02591976211805,-0.31723311118456127],[30.026972657579197,-0.3162065951264024],[30.044337854428303,-0.2992765141737],[30.04541451208399,-0.29797827401150573],[30.05115858646179,-0.29105255868572927],[30.066838933366412,-0.288936473287933],[30.067191171196637,-0.2884125962652312],[30.067628176453315,-0.28776319763558406],[30.068142274169126,-0.28763349125921306],[30.069078983419324,-0.287397936010052],[30.069079223972803,-0.28739709969368127],[30.06907990832109,-0.287396927033244],[30.069488674000194,-0.285977691921429],[30.069527211043813,-0.2860011170601216],[30.070875585416584,-0.286929468667896],[30.070928911849435,-0.2868531553249585],[30.070954020721494,-0.286868418011329],[30.074999123443252,-0.281031561501738],[30.07716427789779,-0.280228078701041],[30.077740933678793,-0.28041088955006915],[30.079038271664082,-0.280823291469336],[30.07903789185392,-0.2808220499562586],[30.079040942522894,-0.28082301707634],[30.078703606922172,-0.27972245582329],[30.081218149182387,-0.277728529689287],[30.08100172527381,-0.27695979635537565],[30.08295001614411,-0.2748912173400366],[30.089322292413346,-0.27097361726673524],[30.089908251355222,-0.270613389748482],[30.09060559296224,-0.27128975958204393],[30.096458220407825,-0.276966513788635],[30.09843294722361,-0.277505465569868],[30.100402822019028,-0.276641877894973],[30.10337140318656,-0.27663035528439],[30.105305481331715,-0.27817487545742464],[30.103318296596534,-0.2815690875834878],[30.1033086836679,-0.2815845875502372],[30.09713672915989,-0.28102097921139],[30.09529436652986,-0.2826677087559003],[30.094872991182747,-0.283043679288326],[30.09487325651335,-0.2830441027916745],[30.09487235979351,-0.283044904292437],[30.096614778760085,-0.285824112924199],[30.09661494873251,-0.28582407797141013],[30.096615096672465,-0.285824314103493],[30.096856253826594,-0.2857744564747753],[30.09847859961123,-0.28544084053435],[30.098717163114156,-0.291156914491075],[30.09996635884109,-0.2933557190027638],[30.099840114670215,-0.295658569782082],[30.099842208899705,-0.29565876581904393],[30.099841907702082,-0.295664351588463],[30.101245229035325,-0.295790541447149],[30.10123084875303,-0.296695626935424],[30.101466788319957,-0.29669922290930173],[30.101473070827673,-0.296725219769971],[30.10316460722778,-0.2967250995035547],[30.103200803510763,-0.296725651174009],[30.104330956739894,-0.295267886827302],[30.111163678242217,-0.29552798403227004],[30.11546391269111,-0.296071558982504],[30.115704291580034,-0.2957008288990783],[30.11585565691354,-0.295706590834518],[30.116512168485357,-0.294455681310382],[30.114269242888625,-0.292033164871363],[30.114269365212756,-0.29202055755757655],[30.11428898231453,-0.290016724202464],[30.11428880978659,-0.2900165061978699],[30.1142888118073,-0.290016297933918],[30.11198240476429,-0.28710021766892],[30.115407521383776,-0.2844358744212666],[30.118055869480308,-0.283019974010223],[30.118055811716385,-0.28301981224435857],[30.118057439824042,-0.283018992038915],[30.11708384238302,-0.2802978458353471],[30.11678709581057,-0.2794668173507296],[30.11953302892524,-0.276633741286026],[30.11861363394831,-0.272094612392607],[30.124732991625155,-0.273122632116659],[30.128046147690846,-0.272743542063973],[30.129158861632565,-0.2715180856255531],[30.12929244019599,-0.2715118611580389],[30.13441840891419,-0.271273911081357],[30.137183542902463,-0.273495885401055],[30.137856849080315,-0.275001532770585],[30.14873107237673,-0.27684926599006243],[30.149500478717496,-0.2778374481097324],[30.151014181257576,-0.279782140850187],[30.1510148271039,-0.27978239178787545],[30.151014839854973,-0.279782408164633],[30.151573485378748,-0.27999945335598975],[30.160601294171613,-0.28350712597347727],[30.16120949627181,-0.2839832855680135],[30.16732287569734,-0.2887700151175861],[30.167927765000375,-0.291836713809525],[30.168198944851508,-0.2922305648432181],[30.16826781560088,-0.29250283401387],[30.16989441402167,-0.29469370300397],[30.171124186661263,-0.294922617197712],[30.17244195225324,-0.2944432835402791],[30.174073435510227,-0.294283249141586],[30.173794550570666,-0.29513146162244186],[30.17238400186852,-0.2983659957152888],[30.17080764612478,-0.299111115977797],[30.170161051758182,-0.302092810379976],[30.169312953242404,-0.302842919135268],[30.168996559017874,-0.304379116823846],[30.16946155039079,-0.3050674792762957],[30.167601243522945,-0.30933335536979883],[30.167385595727822,-0.309465634490057],[30.1672266749714,-0.309420143565105],[30.167235699335492,-0.30939009076965],[30.158582362821743,-0.30694571691305217],[30.15857037836943,-0.306942286374254],[30.15857011113419,-0.30694225608557774],[30.15856986708432,-0.306942187146953],[30.158568887371544,-0.30694211738324684],[30.14969932247261,-0.305936833124348],[30.14467341602946,-0.3059526441406694],[30.129231830425127,-0.30485307469086],[30.12697328075819,-0.3048805497286865],[30.126973220809884,-0.304880544343808],[30.12697320962445,-0.3048805505940215],[30.126971952423112,-0.304880565887754],[30.122590473615208,-0.307328592648832],[30.117702750261166,-0.303549500310499],[30.117702183373257,-0.30354970183831403],[30.117702152361222,-0.303549677860318],[30.115988861982913,-0.30415823788733],[30.115988651875917,-0.3041588597565491],[30.11598753329592,-0.304159257410086],[30.115334614661016,-0.306087662561783],[30.11076553289884,-0.305436618582798],[30.108682941907425,-0.302917018413446],[30.10868257438401,-0.30291695495163923],[30.108682467794992,-0.302916825998444],[30.10857535404118,-0.30289844076619526],[30.105360541029352,-0.302343325545552],[30.10438798169358,-0.305092859482066],[30.101330484642197,-0.306109595653553],[30.098571764334654,-0.308127837261529],[30.094908373074805,-0.305844315772918],[30.094731183997705,-0.305733806283695],[30.094731091387594,-0.30573380981994364],[30.09473049233501,-0.305733436409257],[30.091660348766062,-0.305851045751453],[30.088678078411082,-0.306805006278367],[30.085499043116364,-0.3091832557452032],[30.083182131877123,-0.3094389273237425],[30.081243194956123,-0.309652766773283],[30.079540146438546,-0.31077910921889135],[30.07927929876789,-0.3107863948629495],[30.06959012420878,-0.311056461146138],[30.04287081219156,-0.334258267781812],[30.027945468933076,-0.345565358550308],[30.02794539163698,-0.3455654296627735],[30.027945386071224,-0.345565433879265],[30.02747932723678,-0.34599420925551966],[30.01663835731982,-0.35596790959383],[30.01347234202373,-0.361244601069578],[30.004728149887818,-0.381145166770634],[30.004117914118016,-0.3849807936814465],[30.001679884479515,-0.386071939813364],[30.00083353966726,-0.386331279156522],[29.98622555486314,-0.386707144623613],[29.984635657733406,-0.3871090163294094],[29.9818,-0.3872],[29.980392127496977,-0.3881816358736677],[29.976941280652195,-0.389053892123471],[29.96079599503515,-0.4018449942874196],[29.96,-0.4024],[29.959366282629134,-0.40336566456513007],[29.95339131426095,-0.411511206807383],[29.951002398030287,-0.41611063157289563],[29.9474,-0.4216],[29.944903066120865,-0.4278537885229662],[29.944195855308724,-0.42921539462788],[29.94351428691468,-0.43133210708524483],[29.936512133183516,-0.44886961138439707],[29.93173060982296,-0.44660409773079],[29.929026221028487,-0.4472585625623317],[29.928329419069144,-0.44710552661798986],[29.92246496687674,-0.444290200665158],[29.917574328493043,-0.444005125671143],[29.915128732096182,-0.444169453817277],[29.915073774901487,-0.44420780508884267],[29.90472721221611,-0.44728713922139557],[29.90480248812377,-0.446839873157791],[29.9117914553393,-0.43062005665529296],[29.91179173065683,-0.43061955436736504]]]}}]}
