{"type":"FeatureCollection","name":"Rukiga sub-counties","metadata":{"source":"Uganda Bureau of Statistics NPHC 2024 Map Explorer","retrieved":"2026-07-26","display_only":true,"clipped_to_dashboard_district":true,"positive_area_overlaps_removed":true,"source_gap_ratio":0.04198689},"features":[{"type":"Feature","properties":{"n":"Bukinda","c":"430101","d":"Rukiga","od":"Rukiga","dc":"430","k":"BUKINDA","a":["BUKINDA"],"lat":-1.147968,"lon":30.089718},"geometry":{"type":"MultiPolygon","coordinates":[[[[30.1335211295531,-1.190224451102964],[30.137281038616088,-1.186090987154237],[30.147813125013503,-1.191897463336195],[30.148774311756128,-1.19377704454686],[30.153852670844515,-1.198373640456309],[30.153824605320523,-1.200102058906019],[30.156007511940754,-1.202583194093027],[30.158616038345464,-1.207840939624503],[30.15940116082251,-1.211799455048262],[30.161399462531147,-1.215154099329513],[30.164150392734104,-1.217526904321724],[30.16402295164676,-1.221540518088843],[30.16505255267364,-1.224242926214256],[30.163997812826047,-1.226087980694611],[30.16230149930549,-1.224693550629401],[30.15734148164884,-1.224300316285001],[30.155716228191164,-1.2250783993345384],[30.1555,-1.2247],[30.146969003384754,-1.228021803991777],[30.14475600596185,-1.228388409771865],[30.14474330078178,-1.2288884492531122],[30.1442,-1.2291],[30.1405,-1.2526],[30.13394913077625,-1.2526],[30.133845685310234,-1.252484353810879],[30.134460451781212,-1.238319603520714],[30.1332426874855,-1.232887729613917],[30.132742238552936,-1.222855467960454],[30.133237908533594,-1.220851230047607],[30.13748751877885,-1.219630289708404],[30.138305207126457,-1.212803247099138],[30.13733858580652,-1.210122041926687],[30.139740302412196,-1.205795657047358],[30.139813428302585,-1.20340141256957],[30.130075475848248,-1.193155270313706],[30.13348507252421,-1.19117649903552],[30.1335211295531,-1.190224451102964]]],[[[30.072640789537925,-1.146079109032028],[30.075026407016807,-1.145769611263955],[30.078160565753407,-1.142752285351812],[30.078770989946417,-1.136487663109745],[30.080033339557666,-1.133959637976969],[30.077265556899913,-1.128633053308954],[30.076374724416198,-1.124246379086841],[30.079134504939102,-1.119033350656108],[30.082620098093127,-1.1161337029561675],[30.082652595438628,-1.1161881985047772],[30.08491185558162,-1.122424635272145],[30.088377609736074,-1.12637764364013],[30.08878635075971,-1.1264740343509025],[30.0891,-1.127],[30.099161680652102,-1.1324443340514805],[30.099291427080153,-1.132569026895188],[30.10424601552759,-1.1356971029599872],[30.10607068370096,-1.1383608521181885],[30.107523899502596,-1.141296103246241],[30.109409350122675,-1.1432348176973348],[30.110181733302472,-1.1443623843831712],[30.110048090540687,-1.1498562267232],[30.112386709664595,-1.155640133713689],[30.11324070630591,-1.156075866547708],[30.104662468814116,-1.161140580249854],[30.10303466522836,-1.158916240528071],[30.101950139077115,-1.159846522666349],[30.100327182951155,-1.168733144451833],[30.101814285625874,-1.172259223490471],[30.107131388612032,-1.175085908840793],[30.105428589201725,-1.179065780710406],[30.10196257633098,-1.182515729883574],[30.090899171871396,-1.179808551373979],[30.089224136297506,-1.17719347518488],[30.08243223669141,-1.174956019287831],[30.08018689766779,-1.172148207074484],[30.076562879639415,-1.169869789182408],[30.07418251607085,-1.165487427269234],[30.0757526465165,-1.161651981277184],[30.067243917880234,-1.143488304294163],[30.067495211461846,-1.142299358703608],[30.072640789537925,-1.146079109032028]]],[[[30.096659170436162,-1.181616846089836],[30.096659172582804,-1.181616840444804],[30.096659170436183,-1.181616846089843],[30.096659170436162,-1.181616846089836]]]]}},{"type":"Feature","properties":{"n":"Kamwezi","c":"430102","d":"Rukiga","od":"Rukiga","dc":"430","k":"KAMWEZI","a":["KAMWEZI"],"lat":-1.216369,"lon":30.211316},"geometry":{"type":"Polygon","coordinates":[[[30.150972172803403,-1.164007341032091],[30.160043775308903,-1.161211524703568],[30.17146506614813,-1.159754106184116],[30.180877945647786,-1.15682180187853],[30.181503924363493,-1.1564499154437105],[30.193,-1.1543],[30.1929710261136,-1.1543918324874087],[30.18890319316029,-1.162911048543122],[30.187167868926085,-1.170093829968082],[30.187055450942058,-1.173048481835357],[30.19010085061372,-1.188078682097905],[30.190295060183146,-1.1883943808824342],[30.1904,-1.1889],[30.190672307921275,-1.1890076186994267],[30.19111904938719,-1.189733822553358],[30.19637126046878,-1.193263282821529],[30.200072260348833,-1.194703725163678],[30.20705350360209,-1.195481624178072],[30.2071,-1.1955],[30.20714789728597,-1.1954838661773577],[30.211194491729984,-1.195040240230326],[30.215662031849682,-1.193228528593316],[30.216327942107892,-1.1923916405531303],[30.2166,-1.1923],[30.248166500285578,-1.164880923109609],[30.250559732694622,-1.164589503826587],[30.255558303928915,-1.1584603053464182],[30.2577,-1.1566],[30.299,-1.1559],[30.298786165432574,-1.1569627897157146],[30.29761226304428,-1.159794213186649],[30.297315176552363,-1.1642738240009407],[30.29551490348401,-1.1732214498481388],[30.29510634503608,-1.173554909033673],[30.294419834169773,-1.176463673980289],[30.293110100935948,-1.177423715275127],[30.293591543920822,-1.180653763962114],[30.291548648658793,-1.186908067726573],[30.292320147597753,-1.1890998634320769],[30.2923,-1.1892],[30.281134638245597,-1.196591154964183],[30.280627149054677,-1.196620969686129],[30.278274208028677,-1.198212184346948],[30.278253434249734,-1.1984984308487674],[30.2781,-1.1986],[30.27740547984418,-1.2072318933651718],[30.27735428562387,-1.2073258982731725],[30.27091421034863,-1.2109743529355403],[30.270722092904755,-1.210933424427945],[30.267827197819873,-1.211593434220422],[30.26179312146462,-1.214894731411142],[30.254952765963708,-1.2200168879518911],[30.2541,-1.2205],[30.24866344107197,-1.2302762682477755],[30.246150189204293,-1.233099089567521],[30.245487015179283,-1.2359882621776028],[30.2427,-1.241],[30.2386928487308,-1.244629796216945],[30.23471625565957,-1.246763811488186],[30.233312787946343,-1.2495032145060048],[30.2204,-1.2612],[30.21621756634114,-1.2677350525919715],[30.21377728440169,-1.268975859500808],[30.211151864850176,-1.2756502111715968],[30.2108,-1.2762],[30.20939639078675,-1.275868675936787],[30.203486841896137,-1.273211170710055],[30.19982062463413,-1.2736083019522624],[30.188984917719402,-1.2710505170582276],[30.18830569906864,-1.269413394268477],[30.186507608916386,-1.26874211925971],[30.18162404470946,-1.270041186193236],[30.179610199420367,-1.269056395731856],[30.169986360570473,-1.271815997077496],[30.16891339542104,-1.27331745449438],[30.166015162029794,-1.2699126538035355],[30.162906115371726,-1.2656990774116819],[30.161979671299267,-1.2629640792444385],[30.162081931542563,-1.262260652722357],[30.164787134544095,-1.254089064437152],[30.16376843221574,-1.2506595723341403],[30.164806166623116,-1.2435212174712944],[30.165338167867002,-1.241463047875205],[30.16174139861008,-1.231351174073349],[30.165051206187698,-1.22489322915644],[30.164921876988604,-1.2244715169503477],[30.16505255267364,-1.224242926214256],[30.16402324405744,-1.221541285583218],[30.164022956998227,-1.2215403495504065],[30.164150392734104,-1.217526904321724],[30.161464598925438,-1.2152102824930786],[30.161399425640486,-1.2151540373993996],[30.15940119593459,-1.2117995139925797],[30.158616075892425,-1.207841031043878],[30.158616043546935,-1.2078409658498364],[30.158616038345464,-1.207840939624503],[30.156007511940754,-1.202583194093027],[30.15600735394879,-1.2025830145162133],[30.15600734885064,-1.202583004240619],[30.153824610670437,-1.2001017294309821],[30.153852670844515,-1.198373640456309],[30.148774362803923,-1.1937770907519591],[30.148672925815788,-1.193578786393642],[30.147813125013503,-1.191897463336195],[30.14781202372778,-1.1918968561830565],[30.143811317046772,-1.189274434777658],[30.147833410593446,-1.179089220837165],[30.14730466711789,-1.17632428338873],[30.14407353734474,-1.171332743954353],[30.14362536656882,-1.169850495136677],[30.144433478512486,-1.166469424743622],[30.142829740473093,-1.164803088382016],[30.146480732096826,-1.163918188237469],[30.150972172803403,-1.164007341032091]]]}},{"type":"Feature","properties":{"n":"Kashambya","c":"430103","d":"Rukiga","od":"Rukiga","dc":"430","k":"KASHAMBYA","a":["KASHAMBYA"],"lat":-1.076422,"lon":29.999953},"geometry":{"type":"Polygon","coordinates":[[[29.925777006614823,-1.041330589561528],[29.925337526731187,-1.038649587112632],[29.9260850115623,-1.035353294795882],[29.925524993772036,-1.033772666474483],[29.926530134961663,-1.032733588612543],[29.92913945062294,-1.033256134770517],[29.930145042001552,-1.031368073260754],[29.93529545986434,-1.027112423369849],[29.935624750894988,-1.021792197392485],[29.935694943323547,-1.0215748051709306],[29.943151083910653,-1.0138158771488155],[29.943888275553128,-1.013954921502447],[29.943904548399374,-1.0130318151174054],[29.944457848428886,-1.0124560460511611],[29.946161962550658,-1.0125614914427852],[29.96553791370263,-1.0191268963785767],[29.971344370190167,-1.023326994586623],[29.97555853729269,-1.022837281299375],[29.97798326078653,-1.024524919249591],[29.980646312692492,-1.024541201554482],[29.98108033247431,-1.0243933357970803],[29.9811,-1.0244],[29.9939,-1.0339],[30.0081,-1.0258],[30.0261,-1.0316],[30.0202,-1.0523],[30.03,-1.0592],[30.040800177823108,-1.0602472899707256],[30.04301013445656,-1.061061491788703],[30.046740027718386,-1.0609184686163695],[30.05086909619463,-1.0629564208685949],[30.056985097128283,-1.067514745250623],[30.055338827756216,-1.069220973910711],[30.05519609164862,-1.075616342406162],[30.054096815747364,-1.078136086958806],[30.05176248635832,-1.080113672309003],[30.05108666364012,-1.082914019950024],[30.052064280638554,-1.085255802735663],[30.051076818985074,-1.087741957445204],[30.05244023442469,-1.091140318214493],[30.05146236681658,-1.092360937012685],[30.049256451692845,-1.092718153504966],[30.049398332635032,-1.097569144369666],[30.045444156578895,-1.099667577799738],[30.04459991275238,-1.101299661094122],[30.042458795417314,-1.102080486363451],[30.041292083583677,-1.104861150869197],[30.044757203735095,-1.108786931400546],[30.044318421830216,-1.11100725368936],[30.047331394387218,-1.112197481745017],[30.048790518709527,-1.116640295631097],[30.044562022899576,-1.116990469889111],[30.03927445812426,-1.122047659958288],[30.039233605177056,-1.123118409443885],[30.038162490018625,-1.1237355606015],[30.03699204033575,-1.122688719242028],[30.03608484425773,-1.123325307796736],[30.037334433219037,-1.125881840402276],[30.03474290447503,-1.128384427958336],[30.030611127225914,-1.124879698276892],[30.030494477627332,-1.126514969270113],[30.033270257771097,-1.12970833197542],[30.031129953587264,-1.135621834035724],[30.026265601470218,-1.13992289150098],[30.02085296213113,-1.134882501968713],[30.010569207954788,-1.129894317899336],[30.00823611389956,-1.127271782309707],[30.005734502108865,-1.119643671917844],[29.997942749406942,-1.115527609397322],[29.990570390293833,-1.114591629571882],[29.985045874401397,-1.115499611506194],[29.98459267017844,-1.122975603963027],[29.978396690408378,-1.122002950322136],[29.97800001640109,-1.1224897975919477],[29.96585031596325,-1.121250032241148],[29.965740057306082,-1.10913755464863],[29.959758092513855,-1.101028055279802],[29.959100629994648,-1.09623000709939],[29.95677424943742,-1.094874768323145],[29.9565745577183,-1.093704346135437],[29.953661790196875,-1.090720176457284],[29.947123926110027,-1.088379126274516],[29.945267169990238,-1.089806514678865],[29.94393943550439,-1.088878525960025],[29.945466994702862,-1.077228447569911],[29.94418220777924,-1.07467324864255],[29.940240846494724,-1.075039913722017],[29.936415021155614,-1.0703256378453],[29.932294740722217,-1.07022647133711],[29.928240138869963,-1.066228980892983],[29.927404298852334,-1.064036049311026],[29.92842997387659,-1.063619528681764],[29.928040691992532,-1.062331380015309],[29.931443491674873,-1.059344889577502],[29.919911698952323,-1.055585878029804],[29.92100902198447,-1.050563769229732],[29.925777006614823,-1.041330589561528]]]}},{"type":"Feature","properties":{"n":"Mparo Town Council","c":"430104","d":"Rukiga","od":"Rukiga","dc":"430","k":"MPAROTOWNCOUNCIL","a":["MPARO","MPAROTOWNCOUNCIL"],"lat":-1.171579,"lon":30.039656},"geometry":{"type":"Polygon","coordinates":[[[30.024817145606505,-1.163244899450076],[30.027105590820828,-1.161379769113344],[30.029291718967514,-1.16025250178013],[30.030073608195043,-1.16069722230562],[30.031167989461174,-1.158850956422728],[30.030719241333514,-1.158014180534443],[30.0322213704945,-1.157021779608528],[30.032579066963034,-1.154034533755017],[30.03496865491894,-1.150903799909145],[30.03576922394424,-1.146778209204525],[30.042770516742234,-1.152374433990043],[30.044353675656193,-1.155031611121828],[30.04626077434307,-1.161417753624617],[30.0518261602617,-1.157838625735824],[30.0541189445837,-1.158245394626473],[30.0570231643816,-1.157503048981686],[30.061342390851124,-1.154865711275224],[30.06279123453954,-1.159299705077684],[30.06299941463669,-1.162125226015317],[30.061101966085655,-1.169415713629918],[30.061864125796582,-1.17763632784982],[30.05830051940342,-1.18416582804168],[30.058149952476427,-1.185941971174141],[30.054011325620824,-1.189115163255653],[30.04953728093981,-1.187156166379035],[30.043988663733078,-1.192192432564096],[30.036189510541874,-1.19491407413909],[30.032231800323274,-1.195252895476609],[30.030182414012693,-1.19451953544145],[30.030278951092868,-1.192067418838816],[30.02885600845979,-1.189589927872516],[30.02725165672322,-1.183411797433931],[30.023646174731063,-1.177751413527059],[30.019053502318116,-1.173632423288311],[30.016967318567225,-1.169526519260082],[30.024208021844203,-1.165366322670708],[30.024817145606505,-1.163244899450076]]]}},{"type":"Feature","properties":{"n":"Muhanga Town Council","c":"430105","d":"Rukiga","od":"Rukiga","dc":"430","k":"MUHANGATOWNCOUNCIL","a":["MUHANGA","MUHANGATOWNCOUNCIL"],"lat":-1.195497,"lon":30.120036},"geometry":{"type":"Polygon","coordinates":[[[30.104653849251132,-1.161128801902335],[30.104662468814116,-1.161140580249854],[30.104664610540464,-1.1611393157440857],[30.104664992126036,-1.161139688555389],[30.11549846522439,-1.154930614679284],[30.129511768402395,-1.156508072007475],[30.136504354880618,-1.156171831453654],[30.14043830601772,-1.160151500343749],[30.143571606228438,-1.159766307367827],[30.14477381506318,-1.158493416760855],[30.150578018276693,-1.1564989406398407],[30.150597152767883,-1.1564998627839944],[30.15161087301618,-1.158929674441396],[30.154231263970416,-1.161348002101112],[30.154353307881674,-1.1613119331816337],[30.1545,-1.1615],[30.164021775152744,-1.1597193043870195],[30.16764811086444,-1.1602411703344535],[30.160045133159638,-1.161211351434466],[30.16004412466904,-1.161211460347702],[30.160044015159993,-1.1612114940972706],[30.160043775308903,-1.161211524703568],[30.150972172803403,-1.164007341032091],[30.146480732096826,-1.163918188237469],[30.142829740473093,-1.164803088382016],[30.144433478512486,-1.166469424743622],[30.143641664651113,-1.1697823053717087],[30.1436254694626,-1.169849940425358],[30.14362548603962,-1.1698499952811952],[30.14362536656882,-1.169850495136677],[30.14407353734474,-1.171332743954353],[30.144073582708714,-1.171332814033885],[30.144073663549708,-1.171333081548796],[30.147427908523493,-1.176968744820988],[30.147680110196884,-1.1782875731064353],[30.147491658810527,-1.179954644523405],[30.1458492053138,-1.1841138566494653],[30.144436113584792,-1.186387047642735],[30.14381130549248,-1.18927443144153],[30.139636276398942,-1.187389460369606],[30.137281038616088,-1.186090987154237],[30.13712943414165,-1.1862576538525706],[30.13695749668194,-1.186180026336578],[30.133521789971827,-1.190223706983708],[30.133521789251144,-1.1902237258625281],[30.1335211295531,-1.190224451102964],[30.133485074959616,-1.191176434731196],[30.133340291533724,-1.1912605231864162],[30.130075475848248,-1.193155270313706],[30.13959871907413,-1.2031754984147511],[30.13979404089811,-1.204036183453824],[30.139753809420434,-1.2053534186046857],[30.137338820122302,-1.210121334105875],[30.137338882572408,-1.2101215073409513],[30.13733858580652,-1.210122041926687],[30.13830512961229,-1.2128030320910739],[30.13748737378695,-1.2196303313655086],[30.133237908533594,-1.220851230047607],[30.13313036595347,-1.221286077677564],[30.13292004299213,-1.221365945455749],[30.1329394259669,-1.2220581421057013],[30.132742238552936,-1.222855467960454],[30.133242664478363,-1.2328872684008108],[30.13324267718497,-1.232887722173835],[30.132321156687762,-1.232480905680022],[30.128696973034067,-1.233432582482576],[30.123854251418283,-1.231662719211618],[30.119674053215885,-1.23483848937359],[30.117094185286003,-1.2353570375672602],[30.108485694547586,-1.223726417101526],[30.10798065164351,-1.222485022381438],[30.107990608798428,-1.220198237628982],[30.109333302937628,-1.217390962792831],[30.10715321351329,-1.205615959929383],[30.10853624580324,-1.204083810532723],[30.108615282195622,-1.201092554268854],[30.107102055526102,-1.197594988033976],[30.108439303009458,-1.19339904150947],[30.101923663840278,-1.182597136560159],[30.105409579028905,-1.1790847027780518],[30.105428589201725,-1.179065780710406],[30.10542876422762,-1.1790653716307222],[30.105429085120722,-1.179065048296475],[30.106025924873105,-1.177669656527573],[30.107131388612032,-1.175085908840793],[30.10192604456713,-1.1723186369272314],[30.101814250951833,-1.1722591412746235],[30.100327182951155,-1.168733144451833],[30.100338343112874,-1.1686720361232197],[30.102289444277808,-1.1595554742971899],[30.102690968371757,-1.1592110559608866],[30.104653849251132,-1.161128801902335]]]}},{"type":"Feature","properties":{"n":"Rwamucucu","c":"430106","d":"Rukiga","od":"Rukiga","dc":"430","k":"RWAMUCUCU","a":["RWAMUCUCU"],"lat":-1.14539,"lon":30.03373},"geometry":{"type":"Polygon","coordinates":[[[30.026263744376017,-1.139921298732153],[30.026263833975968,-1.1399212455646877],[30.026265601470218,-1.13992289150098],[30.026274867740987,-1.1399146982694657],[30.027352205965105,-1.13927541952876],[30.02785788473886,-1.1385149955110083],[30.031129953587264,-1.135621834035724],[30.033270257771097,-1.12970833197542],[30.030699458223545,-1.1267507867186703],[30.030494483026292,-1.1265148935839333],[30.030611127225914,-1.124879698276892],[30.03474290447503,-1.128384427958336],[30.037233608983826,-1.125979204352792],[30.037334256388352,-1.12588224464674],[30.037334178771133,-1.1258820861175345],[30.037334433219037,-1.125881840402276],[30.03608484425773,-1.123325307796736],[30.036991972672677,-1.1226887667218817],[30.037288300999034,-1.1229536925425003],[30.038162490018625,-1.1237355606015],[30.039233605177056,-1.123118409443885],[30.039257723360134,-1.1224862755614986],[30.039274888003693,-1.1220472488083377],[30.041714915850996,-1.1197135309018462],[30.044562257271874,-1.1169904504800474],[30.048790518709527,-1.116640295631097],[30.048789660888588,-1.116637683695479],[30.048790140699182,-1.116637643696381],[30.047827035095686,-1.1137066330821743],[30.047331394387218,-1.112197481745017],[30.044318421830216,-1.11100725368936],[30.04450715516248,-1.1100522261013734],[30.04475747574845,-1.10878760016868],[30.044757145439576,-1.108787226387272],[30.044757203735095,-1.108786931400546],[30.041292083583677,-1.104861150869197],[30.042458483814954,-1.1020812290160913],[30.04407907814526,-1.1014895996910024],[30.04459991275238,-1.101299661094122],[30.04460004166892,-1.1012994118740178],[30.044600323232277,-1.101299309083865],[30.044936476054577,-1.1006490204548085],[30.04544415224004,-1.0996675861875687],[30.0455424072439,-1.0996154373595939],[30.049398332635032,-1.097569144369666],[30.049398325757124,-1.0975689092100982],[30.049398388746724,-1.097568875778379],[30.04925653326685,-1.0927181402952193],[30.05146236681658,-1.092360937012685],[30.05146239689122,-1.0923608994721488],[30.051462452839235,-1.092360890417306],[30.05161643246584,-1.0921686252661038],[30.05244023442469,-1.091140318214493],[30.05244014750332,-1.0911401015599307],[30.052440189874883,-1.091140048653094],[30.05211398586064,-1.0903271322339796],[30.051076914274105,-1.0877421949564572],[30.051372398914783,-1.0869977691198103],[30.052064280638554,-1.085255802735663],[30.052064053181393,-1.0852552578850083],[30.0520642384823,-1.085254791049302],[30.051660783134967,-1.084289265216917],[30.05108666364012,-1.082914019950024],[30.051681022870827,-1.0804512254555412],[30.051762522370463,-1.080113641800419],[30.054096815747364,-1.078136086958806],[30.05519609164862,-1.075616342406162],[30.05519609301139,-1.0756162813465757],[30.05519611289281,-1.075616235776028],[30.055338889936877,-1.06922090946535],[30.056945215143926,-1.0675560797891182],[30.056985108093038,-1.067514749834301],[30.061817836579326,-1.0683603056078217],[30.06899032644702,-1.0719003757141943],[30.07049661100204,-1.0737604809973733],[30.07178690216722,-1.0764656431643709],[30.072264540458942,-1.081653628580474],[30.07487702800309,-1.087448536607728],[30.079010618443814,-1.092060448518242],[30.079952883813636,-1.093586046064453],[30.083482932979944,-1.1009869767303682],[30.08416705199786,-1.1037479430756911],[30.083906440949647,-1.1058021713380626],[30.082737695089076,-1.110767828080716],[30.082636143143706,-1.1158151069849052],[30.0826,-1.1161],[30.08262009246339,-1.1161336935155324],[30.07913476306165,-1.119033034794549],[30.079134667382835,-1.119033215519971],[30.079134504939102,-1.119033350656108],[30.076374724416198,-1.124246379086841],[30.076806506688992,-1.1263725792426047],[30.07726552343565,-1.128632953932759],[30.07726554524043,-1.1286329958948316],[30.077265556899913,-1.128633053308954],[30.080033339557666,-1.133959637976969],[30.079282436700073,-1.1354634220945825],[30.078771190818852,-1.136487142992107],[30.078771176587022,-1.1364872893367892],[30.078770989946417,-1.136487663109745],[30.078160565753407,-1.142752285351812],[30.078075003853936,-1.1428346577388102],[30.074866732571053,-1.1457903266070546],[30.073312726251768,-1.1459919354113357],[30.07262025755529,-1.1460640270010183],[30.067522554797502,-1.1423194441012825],[30.06749898295816,-1.14230155051878],[30.06749895879873,-1.1423021113579468],[30.067495211461846,-1.142299358703608],[30.067243917880234,-1.143488304294163],[30.067430686076758,-1.1438870004257953],[30.06741508816583,-1.144249091723722],[30.068784246022936,-1.1467764597904682],[30.07297763987787,-1.1557281439608793],[30.073734950757743,-1.158354837517844],[30.0757513476118,-1.1616492084909815],[30.0757526465165,-1.161651981277184],[30.074580525136582,-1.1645151881280842],[30.074182450268655,-1.165486757947835],[30.0741826440247,-1.1654871147091628],[30.07418251607085,-1.165487427269234],[30.07642863239054,-1.169622633647778],[30.076562746832515,-1.169869577408997],[30.076562773828652,-1.1698695943797872],[30.076562879639415,-1.169869789182408],[30.08018689766779,-1.172148207074484],[30.08243223669141,-1.174956019287831],[30.089224136297506,-1.17719347518488],[30.090899171871396,-1.179808551373979],[30.097993686390026,-1.1815445556311683],[30.10196257097614,-1.182515740089066],[30.101980703419883,-1.1825396630602374],[30.101923663840278,-1.182597136560159],[30.10403053874499,-1.1860900037785314],[30.104365697870946,-1.187364477389656],[30.105458450439386,-1.1884572567829423],[30.107765103562418,-1.1922813248657576],[30.108363688741722,-1.193636300078178],[30.107102055526102,-1.197594988033976],[30.10858765343508,-1.2010286950850773],[30.108615281741688,-1.2010925714487353],[30.10861488878082,-1.201107443669157],[30.10851439054698,-1.204108022200042],[30.10715321351329,-1.205615959929383],[30.107197841117138,-1.2058570005753588],[30.107166086345615,-1.205897887622696],[30.108398523714687,-1.213793207084731],[30.108747772262365,-1.2142284203297207],[30.10910817537802,-1.21617501374531],[30.108687099986376,-1.218742029451378],[30.107990608798428,-1.220198237628982],[30.10798065164351,-1.222485022381438],[30.10804655407685,-1.2226470104662706],[30.108029068046132,-1.222753611128234],[30.105705134855466,-1.221882656920391],[30.10426012172383,-1.2220920243447655],[30.102510347850398,-1.2217420695700798],[30.102261435491034,-1.221452364229992],[30.100948761509994,-1.2214297523019984],[30.089962246913174,-1.2192324493826348],[30.08848712278593,-1.218372725306238],[30.08115431512655,-1.217245455431078],[30.076919594242497,-1.211040830244257],[30.063680179040006,-1.206251437537688],[30.059147373939272,-1.205925580205273],[30.0588240780017,-1.2062121634139433],[30.04779040157883,-1.210697397732183],[30.044305742092735,-1.209827243061284],[30.04272835720095,-1.207941353562168],[30.037655290779117,-1.204676087773283],[30.02952375412528,-1.203188698373132],[30.028312243522087,-1.201608819642832],[30.029781446447622,-1.198409032584039],[30.030182409988186,-1.194519546246303],[30.03018248509572,-1.1945195608780663],[30.032231800323274,-1.195252895476609],[30.033423242461534,-1.195150895583599],[30.03380249667645,-1.195224778420562],[30.03465008772756,-1.1950458648130262],[30.036189510541874,-1.19491407413909],[30.037590410319684,-1.1944252073372443],[30.03844294265444,-1.194245250699721],[30.040648088966307,-1.1933581805557978],[30.043988663733078,-1.192192432564096],[30.044341014266138,-1.191872617552748],[30.044803836447254,-1.191686436827866],[30.049534549791538,-1.1871586453371552],[30.04953728093981,-1.187156166379035],[30.054011325620824,-1.189115163255653],[30.054011856580512,-1.1891147561551483],[30.054012038878877,-1.189114835953076],[30.05590961812533,-1.1876596933730432],[30.058149952476427,-1.185941971174141],[30.058300507158744,-1.184165972484391],[30.05913550305373,-1.1826359099465291],[30.061864125796582,-1.17763632784982],[30.06186409419992,-1.177635987049894],[30.061864158943024,-1.177635868413384],[30.061102007616203,-1.1694155540588282],[30.06299941463669,-1.162125226015317],[30.062918549763086,-1.1610276888510476],[30.06298751637031,-1.160709250753593],[30.06286231134984,-1.1602643939141017],[30.06279123453954,-1.159299705077684],[30.061345711983158,-1.154875875158995],[30.061344107344464,-1.154870173834123],[30.06134389191925,-1.154870305094983],[30.061342390851124,-1.154865711275224],[30.05708419232183,-1.157465785066712],[30.057022941181412,-1.1575031060337342],[30.0567766004197,-1.1575660730280788],[30.054118494708664,-1.158245314812961],[30.05305121892086,-1.158055966611276],[30.051826901179957,-1.157838310449777],[30.051826356655354,-1.157838660578538],[30.0518261602617,-1.157838625735824],[30.05030747221216,-1.1588153017169611],[30.04626066678507,-1.161417393454094],[30.044366350387666,-1.155074053939252],[30.04435373561936,-1.155031767255053],[30.044353708879356,-1.1550317223734607],[30.044353675656193,-1.155031611121828],[30.04302028844125,-1.1527936513162023],[30.042770572541244,-1.152374517251377],[30.042770560725778,-1.1523745078121146],[30.042770516742234,-1.152374433990043],[30.03576922394424,-1.146778209204525],[30.035016000099475,-1.1506598149053016],[30.034968585201472,-1.1509038912499296],[30.032579066963034,-1.154034533755017],[30.032578823894145,-1.1540365637066696],[30.032578540562273,-1.154036935089702],[30.032221240543237,-1.1570218654625],[30.030719241333514,-1.158014180534443],[30.031167989461174,-1.158850956422728],[30.030073608195043,-1.16069722230562],[30.029359997987743,-1.160291337309112],[30.029292238926185,-1.160252477799073],[30.029291944065708,-1.1602526298107825],[30.029291718967514,-1.16025250178013],[30.027105590820828,-1.161379769113344],[30.024817145606505,-1.163244899450076],[30.02481709504682,-1.163245075536602],[30.02481704461837,-1.163245116632359],[30.024791742045444,-1.1633333735954914],[30.024208021844203,-1.165366322670708],[30.017453721117782,-1.1692470532808135],[30.016967312377247,-1.169526509215826],[30.015599093400503,-1.1678784682619392],[30.015497535054,-1.1654664575325344],[30.015485977073265,-1.158991775959556],[30.01521093947601,-1.1586598125552512],[30.0152,-1.1584],[30.014757827432437,-1.1581129178106109],[30.01288167813987,-1.155848453197912],[30.00997853005824,-1.153442686410951],[30.005322871030167,-1.151129880360269],[29.999016230672567,-1.14498886001311],[29.993417368516486,-1.1442575452308525],[29.989719417630248,-1.1418566368196388],[29.98808453702326,-1.12712284846084],[29.986882079895867,-1.124914997746662],[29.98459268138526,-1.122975607511108],[29.98459360640367,-1.1229601601246897],[29.985045874401397,-1.115499611506194],[29.990570390293833,-1.114591629571882],[29.997942749406942,-1.115527609397322],[30.005734502108865,-1.119643671917844],[30.00823611389956,-1.127271782309707],[30.010569207954788,-1.129894317899336],[30.02085296213113,-1.134882501968713],[30.02201643010217,-1.1359659533895397],[30.026263744376017,-1.139921298732153]],[[30.096659172582804,-1.181616840444804],[30.096659170436162,-1.181616846089836],[30.096659170436183,-1.181616846089843],[30.096659172582804,-1.181616840444804]]]}}]}
