{"type":"FeatureCollection","name":"Rwampara sub-counties","metadata":{"source":"Uganda Bureau of Statistics NPHC 2024 Map Explorer","retrieved":"2026-07-26","display_only":true,"clipped_to_dashboard_district":true,"positive_area_overlaps_removed":true,"source_gap_ratio":0.01484927},"features":[{"type":"Feature","properties":{"n":"Buteraniro-Nyeihanga Town Council","c":"435101","d":"Rwampara","od":"Rwampara","dc":"435","k":"BUTERANIRONYEIHANGATOWNCOUNCIL","a":["BUTERANIRO","BUTERANIRONYEIHANGA","BUTERANIRONYEIHANGATOWNCOUNCIL","NYEIHANGA"],"lat":-0.708091,"lon":30.392846},"geometry":{"type":"Polygon","coordinates":[[[30.35395020247197,-0.740368528804861],[30.361408834526163,-0.734246843079331],[30.358684881902004,-0.725080039877097],[30.35906559504926,-0.724109223981019],[30.360549898267507,-0.724506882164497],[30.362499947939792,-0.722864768063965],[30.364606943974945,-0.723018877816732],[30.367519868688177,-0.721331492826887],[30.37009050097007,-0.721073534664894],[30.37376000453727,-0.717451782662261],[30.37599326396681,-0.71653121531848],[30.37782425008236,-0.712633628338255],[30.377045173979027,-0.710354049533495],[30.37702258820357,-0.705859671373935],[30.37749965626646,-0.7042846647696029],[30.384404642909878,-0.6943991083520406],[30.38445599486507,-0.694436083275836],[30.386892274882122,-0.693099341259601],[30.389510346163146,-0.689624755674262],[30.390234166632595,-0.686224976919248],[30.39122281612888,-0.6848573462655368],[30.391715067755353,-0.6844873316201373],[30.39281846801665,-0.68471145864314],[30.395566675776738,-0.683569204283701],[30.397551009034537,-0.681078204683832],[30.398885321394488,-0.680657243626821],[30.399808896190027,-0.6784033800450795],[30.402356908956996,-0.6764880952806456],[30.402931485300673,-0.676312987096552],[30.403808000232868,-0.6753973421068366],[30.404814215767285,-0.674640992174925],[30.405695727947812,-0.674745949439471],[30.405782021578627,-0.6739135139811658],[30.4058,-0.6739],[30.408308621643677,-0.6701068431773298],[30.40831606365762,-0.670110021605333],[30.408317927995373,-0.6700927715250681],[30.41053750975199,-0.6667366569412665],[30.411433707010307,-0.665968727827948],[30.411611376881655,-0.6651129180885786],[30.413543926399537,-0.6621908100826244],[30.414333663128822,-0.662019035916382],[30.415226835911007,-0.660073511438414],[30.41582073842183,-0.660335226453398],[30.416772559457268,-0.658828284586708],[30.41835637939463,-0.658347188946708],[30.41870061102716,-0.656549798178457],[30.420592884013722,-0.654041372958401],[30.42315292878787,-0.657959722811459],[30.423228751781295,-0.65919797781803],[30.421969063953966,-0.65951610917066],[30.421893629764593,-0.661645618481417],[30.423994605144582,-0.663762636863896],[30.42486280106843,-0.666998841385286],[30.429636578162203,-0.668420244353729],[30.435942021124497,-0.671659230243367],[30.4395496235767,-0.676794846085811],[30.440308594862994,-0.681758053631914],[30.444196432774543,-0.681171110833306],[30.444643079708317,-0.682511457553211],[30.441669785954232,-0.689811446808457],[30.44154097466209,-0.692817372926753],[30.434669983356056,-0.694699190731194],[30.431125105034504,-0.693747403865159],[30.424682248592827,-0.694385402761517],[30.41746566774975,-0.697781559302088],[30.415314419005693,-0.697686345978241],[30.410555607178342,-0.69553538234177],[30.406900762638568,-0.696087385528713],[30.403074592450196,-0.694831032317197],[30.402652328670484,-0.69359428168605],[30.400788380143627,-0.695278116787864],[30.40186553630519,-0.697213538348424],[30.407983227389416,-0.700343225705114],[30.409627318862796,-0.702246594211159],[30.408613670713706,-0.704416655282682],[30.40698017471006,-0.704325950541454],[30.406667171444113,-0.706174892882227],[30.407475821799437,-0.705891353985173],[30.409688190251952,-0.710006937263042],[30.411152085092983,-0.710697856924814],[30.409718498237027,-0.71456448000092],[30.41063455212489,-0.715795854946679],[30.411801660658323,-0.723373275006919],[30.39607072407913,-0.724972512915117],[30.392352789452687,-0.723963194608365],[30.39003384395289,-0.726814987149218],[30.39221783130194,-0.733012029497709],[30.396835385295716,-0.733224498470887],[30.401272038509244,-0.736950714613634],[30.40271856115886,-0.742968944345878],[30.396568943429795,-0.743614694309538],[30.395108625879068,-0.748162610417457],[30.395727258932748,-0.750556662882518],[30.39481354556636,-0.754268618366974],[30.393195603097155,-0.756609916961321],[30.389570225547047,-0.759523408865911],[30.387743421884597,-0.76305100491752],[30.384353863796086,-0.76089749249143],[30.377234426064025,-0.758613125072601],[30.373217997843543,-0.75493930493961],[30.37276147273515,-0.753312407352746],[30.371333560262208,-0.752540912700146],[30.369715496852038,-0.749971302628231],[30.367221739604805,-0.74873371015511],[30.36423277977852,-0.74821054240499],[30.363690544254652,-0.750266146567843],[30.360435522988865,-0.75301669961333],[30.356243999058073,-0.753731569465053],[30.35420722915685,-0.75182809880146],[30.352236990323338,-0.746221996841094],[30.352903237024332,-0.741986558835934],[30.35395020247197,-0.740368528804861]]]}},{"type":"Feature","properties":{"n":"Kinoni Town Council","c":"435102","d":"Rwampara","od":"Rwampara","dc":"435","k":"KINONITOWNCOUNCIL","a":["KINONI","KINONITOWNCOUNCIL"],"lat":-0.660325,"lon":30.451191},"geometry":{"type":"Polygon","coordinates":[[[30.421862728988824,-0.650123250567045],[30.42287468372738,-0.649614691713904],[30.423446684566244,-0.647714590782583],[30.427144007762458,-0.645587671620696],[30.42713479739747,-0.6438679193776352],[30.43619012983523,-0.6344352814216361],[30.43930834358455,-0.633736503922307],[30.439236787354986,-0.632966692527641],[30.44096444919415,-0.632194598368176],[30.44139176808978,-0.6300697817818645],[30.443158105653396,-0.6290783536009974],[30.444276418541435,-0.629725629144951],[30.446009535871088,-0.628164920534489],[30.446545873794634,-0.628839139722047],[30.446612478045203,-0.628034550860534],[30.44951621756565,-0.627482896079771],[30.452292665528123,-0.6239512135422792],[30.453963209777097,-0.6230135532218875],[30.454367969965823,-0.623116373949471],[30.454574919783525,-0.6226702063150527],[30.4547,-0.6226],[30.46468325689427,-0.6207031811900886],[30.464750354313757,-0.620715216314755],[30.464788373651267,-0.620683209006259],[30.470595524991463,-0.6195798502516218],[30.47127457653785,-0.6199377913811],[30.471637579307377,-0.6193818599315982],[30.4747,-0.6188],[30.48439236498252,-0.6117625002083448],[30.485422112837828,-0.611808520340494],[30.48243068734043,-0.619839504533449],[30.482004445735058,-0.623214798111933],[30.482741286676795,-0.625826068638568],[30.487407728997876,-0.629143244877811],[30.488403542109662,-0.630855880080818],[30.48997196067954,-0.630154816756024],[30.49375201768014,-0.631660023775968],[30.494297199618774,-0.632854373304698],[30.49879539519267,-0.636196395316887],[30.501955488728882,-0.637693359960304],[30.501652476894513,-0.642724006398105],[30.486963549743322,-0.648885983774496],[30.481028994020367,-0.655684461901993],[30.480338926788086,-0.66113304509558],[30.482499305769046,-0.663929424194397],[30.488716918445448,-0.663468805555914],[30.495215027823257,-0.66679180835507],[30.495341099686254,-0.667593877106404],[30.49812894620059,-0.667833352688795],[30.499907804634727,-0.67629314080798],[30.49890842956143,-0.678877231668427],[30.4938592215405,-0.683545729604183],[30.493664369752874,-0.68194689062716],[30.486585347545926,-0.687068286682911],[30.486151076174938,-0.692723878669801],[30.48222338704849,-0.692344850666084],[30.479758972795935,-0.693737865027014],[30.479586514115176,-0.697563987107706],[30.480348744635826,-0.70036440988049],[30.476461180171313,-0.709288988684037],[30.47085026282207,-0.706083884275454],[30.46807562211682,-0.702549860348241],[30.466567349599043,-0.701864667433581],[30.464910775484977,-0.70294427798326],[30.465309255017864,-0.704739903949644],[30.462644414120998,-0.706928936414823],[30.456095984548455,-0.709289430813944],[30.451937182864928,-0.708817375017258],[30.452929928661423,-0.703049810054986],[30.451630265224342,-0.699295730198169],[30.449797516227182,-0.697388554339992],[30.448701509355683,-0.697387103515043],[30.44710154903889,-0.69468753322683],[30.441551994798452,-0.6925602082390327],[30.441669785954232,-0.689811446808457],[30.444643079708317,-0.682511457553211],[30.444196432774543,-0.681171110833306],[30.440308594862994,-0.681758053631914],[30.4395496235767,-0.676794846085811],[30.435942021124497,-0.671659230243367],[30.429636578162203,-0.668420244353729],[30.4270278881561,-0.6676435009814301],[30.424862791228513,-0.6669988047069558],[30.423994605144582,-0.663762636863896],[30.42399411060644,-0.663762138549471],[30.42399403076264,-0.663761840984373],[30.423503781998892,-0.6632680658032996],[30.42189381646843,-0.6616458066109184],[30.421969180173512,-0.6595160798196728],[30.423228751781295,-0.65919797781803],[30.423228685674495,-0.6591968982368723],[30.423228934170012,-0.659196835735381],[30.423153042619113,-0.657960523069566],[30.423152971085194,-0.6579604135632786],[30.42315292878787,-0.657959722811459],[30.420664892232523,-0.6541515872001235],[30.420592887994832,-0.654041360935196],[30.42176508464989,-0.652716717883422],[30.421862728988824,-0.650123250567045]]]}},{"type":"Feature","properties":{"n":"Ndeija","c":"435103","d":"Rwampara","od":"Rwampara","dc":"435","k":"NDEIJA","a":["NDEIJA"],"lat":-0.76191,"lon":30.427589},"geometry":{"type":"Polygon","coordinates":[[[30.334911162783975,-0.718981628535678],[30.336167876675134,-0.718820423852726],[30.33928973588971,-0.716412429495184],[30.343117812124625,-0.714876905548789],[30.34572128968009,-0.715072311648662],[30.350374317262364,-0.712870068824343],[30.353875997545494,-0.712804841066736],[30.356024813593937,-0.7109844458390183],[30.368510526631674,-0.7074221378819228],[30.372412795410053,-0.707125677740508],[30.37515063295659,-0.7055276442694477],[30.375187300085553,-0.7055171827439525],[30.377164551855156,-0.7053909883783326],[30.37702258820357,-0.705859671373935],[30.377042781772477,-0.7098780206763373],[30.377031239773018,-0.710214707473451],[30.377044679139615,-0.7102555806782768],[30.377045173979027,-0.710354049533495],[30.37782425008236,-0.712633628338255],[30.375993279397033,-0.7165311824724427],[30.37592085170763,-0.7165610642290934],[30.37376000453727,-0.717451782662261],[30.37009050097007,-0.721073534664894],[30.367519868688177,-0.721331492826887],[30.36526170912161,-0.7226395886180307],[30.36460673443394,-0.7230188624904992],[30.362499947939792,-0.722864768063965],[30.360549898267507,-0.724506882164497],[30.360524634782266,-0.7245001138495556],[30.359187259694764,-0.724040327629655],[30.35912141547549,-0.7241241787753105],[30.35906559504926,-0.724109223981019],[30.358998192130255,-0.7242811009589607],[30.35868571655522,-0.724679031639042],[30.358751519084674,-0.7249101155215195],[30.358684881902004,-0.725080039877097],[30.361408834526163,-0.734246843079331],[30.35395020247197,-0.740368528804861],[30.352903237024332,-0.741986558835934],[30.352903172231894,-0.741986970731934],[30.35290315246047,-0.741987001292678],[30.352861794812323,-0.7422500136785489],[30.352236990323338,-0.746221996841094],[30.35420722915685,-0.75182809880146],[30.35420725992725,-0.7518281275580503],[30.354207281740003,-0.751828189626794],[30.356243760469013,-0.753731403233499],[30.356243811817947,-0.753731394479117],[30.356243999058073,-0.753731569465053],[30.359517908539672,-0.7531731999497383],[30.36043528057407,-0.75301679893458],[30.360435366547293,-0.7530167262946436],[30.360435522988865,-0.75301669961333],[30.361440713832653,-0.7521672947981493],[30.363689751679143,-0.750267052353141],[30.363689831961995,-0.7502667484682838],[30.363690544254652,-0.750266146567843],[30.364051457553877,-0.7488979313778299],[30.364233045458686,-0.7482105889078883],[30.367221739604805,-0.74873371015511],[30.369715496852038,-0.749971302628231],[30.371333560262208,-0.752540912700146],[30.37133384722106,-0.752541067742716],[30.371334071569393,-0.752541424008764],[30.371816335134916,-0.7528017537809278],[30.372761283117185,-0.753312304903018],[30.37287445627369,-0.7537150416062118],[30.373217997843543,-0.75493930493961],[30.37558116481598,-0.757100889791714],[30.377234137889605,-0.758612908941646],[30.377234217815808,-0.7586129345883074],[30.377234426064025,-0.758613125072601],[30.384353863796086,-0.76089749249143],[30.387743421884597,-0.76305100491752],[30.38957016558697,-0.7595235246500731],[30.39055999478264,-0.7587279924946616],[30.393195603097155,-0.756609916961321],[30.39319588285889,-0.756609512122601],[30.393196210577862,-0.756609248732734],[30.39481325453412,-0.75426905684975],[30.394813261165513,-0.7542690299188789],[30.39481354556636,-0.754268618366974],[30.3953539228597,-0.7520733386091443],[30.395727077440274,-0.750557913568754],[30.395727012746644,-0.7505576630122028],[30.395727258932748,-0.750556662882518],[30.395108625879068,-0.748162610417457],[30.395265421873805,-0.7476742953727092],[30.396569085464833,-0.7436146793949328],[30.40271856115886,-0.742968944345878],[30.401272038509244,-0.736950714613634],[30.401271701173055,-0.7369504312947682],[30.401271681584383,-0.736950349792318],[30.39683602116139,-0.733224886041069],[30.39683583668856,-0.7332248775826212],[30.396835385295716,-0.733224498470887],[30.39221868320357,-0.7330120686965282],[30.391334169064997,-0.7305046467024376],[30.39003384395289,-0.726814987149218],[30.390363552393964,-0.7264095183389334],[30.39235342402816,-0.7239633668783765],[30.39607072407913,-0.724972512915117],[30.411801660658323,-0.723373275006919],[30.41063455212489,-0.715795854946679],[30.409718498237027,-0.71456448000092],[30.411152085092983,-0.710697856924814],[30.411151331982904,-0.7106975014767678],[30.411151643871378,-0.710696659756097],[30.410251303469863,-0.7102727118140229],[30.409688282305,-0.7100069807096474],[30.407477911162,-0.705894917738411],[30.407477765163414,-0.7058949691498491],[30.407475821799437,-0.705891353985173],[30.40666830172104,-0.7061744965706793],[30.40688471951847,-0.7048898141319688],[30.406980051600087,-0.7043266777646756],[30.408196673644944,-0.7043935002757947],[30.408613670713706,-0.704416655282682],[30.408613785297227,-0.704416409977407],[30.40861378799081,-0.704416410125351],[30.40862551048842,-0.7043913081893866],[30.409627318862796,-0.702246594211159],[30.40962716565097,-0.7022464168374735],[30.40962718522616,-0.702246374920198],[30.409163151818674,-0.7017092269492831],[30.407983227389416,-0.700343225705114],[30.40186553630519,-0.697213538348424],[30.400788380143627,-0.695278116787864],[30.402652328670484,-0.69359428168605],[30.403074592450196,-0.694831032317197],[30.403076397560326,-0.69483162503937],[30.4030764177865,-0.694831684426081],[30.404183459710737,-0.6951951376432375],[30.406900762638568,-0.696087385528713],[30.40690103272997,-0.6960873447359204],[30.406901498939646,-0.696087497797338],[30.410262008916092,-0.6955797254525861],[30.410555607178342,-0.69553538234177],[30.41156024720344,-0.695989475556658],[30.415313360233224,-0.697685948938955],[30.415313560249235,-0.697685957823807],[30.415314419005693,-0.697686345978241],[30.41746566774975,-0.697781559302088],[30.417466051732177,-0.69778137859817],[30.420777950120673,-0.696601253740851],[30.42167985811309,-0.6957983416985053],[30.424234539321837,-0.6945960968286945],[30.42621904240146,-0.6942332229383726],[30.430512046055664,-0.6938081115583139],[30.43122300054685,-0.6937736884522292],[30.434669983356056,-0.694699190731194],[30.43467366818014,-0.6946981815365583],[30.442233270024712,-0.692831653457291],[30.4471015640397,-0.6946875585372895],[30.448701509355683,-0.697387103515043],[30.449797104458284,-0.6973885537949183],[30.45112344367058,-0.6987683269185925],[30.451630079377644,-0.6992955368043468],[30.45208628399533,-0.7006129411265268],[30.452929928661423,-0.703049810054986],[30.452929678299643,-0.7030512645842617],[30.45105661535833,-0.711400776013965],[30.449084096736943,-0.7117052059283],[30.450816084612587,-0.712483008765521],[30.452457909959765,-0.715112304764313],[30.445400651339,-0.715667641101372],[30.44123076771083,-0.719212935120521],[30.43587491219114,-0.720991012661925],[30.42887832141858,-0.724707565768254],[30.42923140584097,-0.727207913569192],[30.430602356016617,-0.728636869594179],[30.430906916068885,-0.730350202067363],[30.427587460792232,-0.738463056824217],[30.43975652913813,-0.740183866010525],[30.44363458634041,-0.741453842531203],[30.44652117925184,-0.743569261480872],[30.45116741508357,-0.74446559347426],[30.45426390231684,-0.74714866297349],[30.46459233255224,-0.749164823734974],[30.468901471507888,-0.754162693764902],[30.468930037701714,-0.755471413227517],[30.46883306654751,-0.757781916092731],[30.466629470459196,-0.762351611886893],[30.463942601348688,-0.762633835876037],[30.456926535135917,-0.765588848458065],[30.45695551166787,-0.767348086049707],[30.45817353958059,-0.768110469066786],[30.458021253671436,-0.768890925867569],[30.455946639973217,-0.77030016115681],[30.452386692134954,-0.777228555686427],[30.449873368237487,-0.77869551611419],[30.44821875515589,-0.781724998936243],[30.448463571799433,-0.78309737137079],[30.450723543810135,-0.785036739383487],[30.449706680111596,-0.78809915682548],[30.4482196134279,-0.788813026183511],[30.44909994445652,-0.791918184775736],[30.450765803769688,-0.794238207228631],[30.452243843053356,-0.794315636571195],[30.45807155421941,-0.802465062605496],[30.453726902629857,-0.806710387503634],[30.451621140254925,-0.81094802572441],[30.449420741707108,-0.825272241189407],[30.44777533662229,-0.8308278287653352],[30.438311148536496,-0.8300424189656843],[30.437497898256055,-0.8294481608143937],[30.434353725878175,-0.8237048059374654],[30.433011283584815,-0.820037678029017],[30.430505565269435,-0.8166754992254999],[30.4303,-0.8163],[30.41623368177959,-0.8122455906305881],[30.41325876210167,-0.811375512926065],[30.404973492751033,-0.812292024593108],[30.400305603086956,-0.814973292910548],[30.389343756640205,-0.807217763320606],[30.378086004141633,-0.8011499782907346],[30.37567383295027,-0.7996460334993601],[30.371460980786246,-0.794426238127032],[30.362521185869507,-0.7885862617848507],[30.361001114459214,-0.7873062016498663],[30.359911906741747,-0.78561709163294],[30.359826972845887,-0.7854112518382753],[30.35900303998118,-0.779450945362686],[30.356411498902496,-0.7771337502813426],[30.353065201944005,-0.7690239011819447],[30.352854073967908,-0.768033013669295],[30.352374886249414,-0.7673509007927],[30.3519,-0.7662],[30.348241959035736,-0.7614677724033717],[30.34664337210492,-0.759192220072241],[30.346133823538473,-0.758740581244214],[30.338445504649695,-0.7487945814119084],[30.33880971005895,-0.748656217655358],[30.33580454149387,-0.745347933689868],[30.334864649650548,-0.742470651823218],[30.332304163062066,-0.740849829992991],[30.332142258314953,-0.7406403817883919],[30.328255561508172,-0.733511125328563],[30.323976435978285,-0.7300766592417505],[30.32394040387699,-0.730030046285311],[30.323403947042053,-0.725822780081981],[30.32500384671942,-0.722580289328791],[30.321535820002648,-0.718511687955374],[30.314865109576402,-0.7172387912338878],[30.33142884650953,-0.7159136922792374],[30.33233847148681,-0.717278916344356],[30.334911162783975,-0.718981628535678]]]}},{"type":"Feature","properties":{"n":"Rugando","c":"435104","d":"Rwampara","od":"Rwampara","dc":"435","k":"RUGANDO","a":["RUGANDO"],"lat":-0.665047,"lon":30.509648},"geometry":{"type":"Polygon","coordinates":[[[30.49302342038356,-0.646343879412165],[30.501652476894513,-0.642724006398105],[30.501652962207423,-0.6427159491627868],[30.502069462893065,-0.641470365865857],[30.50174317507314,-0.6412182220772631],[30.501819862915315,-0.6399450393949181],[30.501983871977917,-0.639634430501447],[30.50189501476053,-0.6386973575569608],[30.501955488728882,-0.637693359960304],[30.50179248969715,-0.6376161458574247],[30.50176257218454,-0.637300640910734],[30.498795075873716,-0.6361961580726518],[30.494297369353976,-0.632854499412771],[30.494183464840106,-0.6326052104662413],[30.49375201768014,-0.631660023775968],[30.48997196067954,-0.630154816756024],[30.488403542109662,-0.630855880080818],[30.487407728997876,-0.629143244877811],[30.486771727969572,-0.6286911386791133],[30.48274122726047,-0.6258258580746727],[30.482004445735058,-0.623214798111933],[30.48243068734043,-0.619839504533449],[30.48533099006583,-0.6120531547270669],[30.490203532011314,-0.61032304736615],[30.4910030559715,-0.609105459223718],[30.49028964126238,-0.608181259336229],[30.4907274600928,-0.607343694015866],[30.492993050652295,-0.606477255315664],[30.494734470568776,-0.604507377577514],[30.49631444851244,-0.604373764625669],[30.49624632008093,-0.6031554980281911],[30.4977,-0.6021],[30.49835313332467,-0.6021940511987526],[30.498835740103626,-0.602755731044812],[30.499047736979932,-0.6022940741251106],[30.500861534488944,-0.6025552609664083],[30.501522497599996,-0.603623241560773],[30.50495585312937,-0.605562973710845],[30.50653823252979,-0.604686930471434],[30.510020158071402,-0.606572481193507],[30.51306614438293,-0.6043127247911421],[30.5227,-0.6057],[30.52311660962857,-0.6061544832311667],[30.522445014766483,-0.607279143200336],[30.52522298624844,-0.6084523486346622],[30.525370445978407,-0.6086132137946237],[30.525865142644683,-0.609890861984074],[30.527016388450775,-0.6104087874008458],[30.52944710770358,-0.6130604811311768],[30.530644611436095,-0.615204537761683],[30.53135207348233,-0.6151386256170873],[30.533969341294643,-0.6179938268668826],[30.529025894146166,-0.620601684296425],[30.526326809796245,-0.624043074101879],[30.52625531876268,-0.625142483577625],[30.530809431344252,-0.629025468681239],[30.53355025989841,-0.633565195550481],[30.53827749164495,-0.636935252935847],[30.541291278336423,-0.636244928946054],[30.540663204010617,-0.638511340920869],[30.54135543361613,-0.6394814565140531],[30.54111294197122,-0.6420622604491513],[30.54109514757789,-0.642085865395141],[30.53633778125417,-0.64372575703618],[30.53470969627635,-0.64633145364304],[30.533015198895953,-0.646627535556942],[30.532061228287414,-0.647698709805273],[30.531915118972414,-0.649368735584439],[30.52985611687238,-0.650667520974567],[30.525426044199747,-0.659681208908709],[30.525834628252213,-0.662693721212055],[30.528281395566022,-0.6661650004669467],[30.5316,-0.6733],[30.531617455357797,-0.6733121369284681],[30.531625287897697,-0.673341084414255],[30.540767188970477,-0.680519639458437],[30.54612707550294,-0.6834008571856374],[30.55718290479526,-0.6910881134904516],[30.55761445765547,-0.696651471453278],[30.555492204725105,-0.698185669873595],[30.550399780407055,-0.698774907737201],[30.54749144730838,-0.703406946824933],[30.539453925022062,-0.704915465807919],[30.529616029801744,-0.705399867204119],[30.526849635345158,-0.706634566924995],[30.522129066410123,-0.711697351644382],[30.519015846619773,-0.719289120407116],[30.519308995961964,-0.720303671574223],[30.51760971336594,-0.721168341675193],[30.516217481327402,-0.723869449817683],[30.510868667065946,-0.727347951758929],[30.507272574616604,-0.727535883237127],[30.505473803345648,-0.726212949776153],[30.50388731765342,-0.722520831434395],[30.49921169634704,-0.715653936608947],[30.50062804098612,-0.711346321564355],[30.503154851686435,-0.708419867836972],[30.503501099145804,-0.704524547830298],[30.502222824456776,-0.701378022050189],[30.5030434773426,-0.697499998826191],[30.50261545391654,-0.695239474840672],[30.500472734330398,-0.691043009099297],[30.497356281647875,-0.690561360016237],[30.494702251383185,-0.692818534986797],[30.49134991664642,-0.693950150553516],[30.48663289961485,-0.693412389683982],[30.486151086663565,-0.692723883697287],[30.486162084400366,-0.6925805166255081],[30.486585347545926,-0.687068286682911],[30.493664369752874,-0.68194689062716],[30.4938592215405,-0.683545729604183],[30.49890842956143,-0.678877231668427],[30.499012884233153,-0.6786071425199737],[30.499222060215086,-0.678406755007736],[30.499564655175078,-0.6771804246778043],[30.499907804634727,-0.67629314080798],[30.499866890405645,-0.6760985633742368],[30.49990778398546,-0.675952183412228],[30.498220697080374,-0.667908708122968],[30.49814301577412,-0.6679002639216884],[30.49812894620059,-0.667833352688795],[30.495341099686254,-0.667593877106404],[30.495215027823257,-0.66679180835507],[30.488716918445448,-0.663468805555914],[30.488716750583773,-0.66346881799159],[30.488716684750354,-0.66346878431394],[30.488613644990494,-0.6634764563506304],[30.482499305769046,-0.663929424194397],[30.480338962444012,-0.6611330912483546],[30.481216710117312,-0.6554694190514687],[30.486963454873052,-0.6488860924554949],[30.49302342038356,-0.646343879412165]]]}},{"type":"Feature","properties":{"n":"Bugamba","c":"435201","d":"Rwampara","od":"Rwampara","dc":"435","k":"BUGAMBA","a":["BUGAMBA"],"lat":-0.783896,"lon":30.491265},"geometry":{"type":"MultiPolygon","coordinates":[[[[30.51930930551658,-0.720303018067624],[30.519272726456418,-0.7201781476043997],[30.51901598914085,-0.7192896136537533],[30.522129180656083,-0.7116972291162046],[30.526849635345158,-0.706634566924995],[30.52961601133541,-0.7053998754460308],[30.53283163446425,-0.7052415362447764],[30.539453925022062,-0.704915465807919],[30.539454034098412,-0.7049154453359705],[30.53945410190101,-0.70491544199733],[30.547490074513917,-0.703407354373016],[30.547490181239993,-0.7034071844464448],[30.54749144730838,-0.703406946824933],[30.550399780407055,-0.698774907737201],[30.555492204725105,-0.698185669873595],[30.555504961024404,-0.6981764482139354],[30.559318661313856,-0.699138007755928],[30.562784797071615,-0.7007972385516205],[30.5682,-0.7102],[30.56874332348976,-0.7107532699151999],[30.569150631798927,-0.711357605280774],[30.57041403084274,-0.7124545622998145],[30.585436958762227,-0.7277525094947173],[30.585372153385986,-0.727933204219848],[30.58278642472494,-0.727688985373926],[30.57333685251284,-0.729729504870286],[30.574163010047187,-0.730836866435295],[30.569241111299636,-0.732685606940643],[30.564848450968448,-0.728635226269779],[30.559233910570537,-0.727601524476647],[30.547122529667902,-0.721307896893784],[30.54197531827684,-0.72101461401177],[30.537464265459533,-0.72227076320977],[30.535827870834922,-0.723713512098494],[30.536778916844234,-0.730989389147982],[30.53639820412253,-0.732892954803984],[30.535160887747356,-0.733559202516064],[30.53068761214548,-0.73255987009369],[30.52859357997241,-0.731179743618789],[30.528245978372226,-0.730785678288268],[30.530790701632732,-0.729742031947138],[30.52389922848728,-0.724041197619812],[30.51739284462721,-0.723077684373965],[30.515505089909453,-0.724513639203734],[30.515697673716346,-0.7242074970363281],[30.516217481327402,-0.723869449817683],[30.51760971336594,-0.721168341675193],[30.519308995961964,-0.720303671574223],[30.519308871008434,-0.7203032391265586],[30.51930930551658,-0.720303018067624]]],[[[30.448152719319964,-0.735588957945048],[30.455289086501715,-0.737877443540909],[30.455806828269978,-0.735633364486432],[30.45102489577116,-0.732821278823524],[30.44979031571981,-0.729752119403477],[30.45242338969296,-0.728109271735957],[30.452826839434035,-0.725993743764339],[30.454815795354524,-0.727545515805531],[30.459420135889392,-0.727869347099206],[30.461812809862433,-0.72901454625793],[30.464210691600687,-0.72622128386543],[30.471158716104412,-0.723484903337299],[30.47672665284335,-0.723627670652944],[30.482080340434933,-0.725650132821987],[30.479965130357296,-0.733372755573034],[30.48519131716459,-0.735830312066585],[30.492489441892747,-0.737358675780246],[30.501036737983934,-0.745339749602877],[30.498397510191374,-0.746619055078173],[30.499948543010714,-0.751558975408625],[30.511212737634477,-0.756851620477163],[30.514197134235204,-0.757032756609344],[30.514331497104674,-0.760226880490573],[30.51680040174789,-0.759786559702463],[30.52283233101102,-0.762998830902785],[30.52528952608136,-0.777595728269709],[30.527064393698407,-0.779724815238122],[30.526421054682366,-0.782761502172284],[30.53786384519096,-0.784694964415048],[30.54182293856596,-0.78650329977616],[30.54844780012242,-0.785456423708736],[30.549761258228337,-0.786065563991777],[30.55019907832303,-0.788749588607415],[30.54757301618342,-0.790785474578749],[30.54726758352933,-0.791947583462631],[30.539645454173126,-0.793637310934062],[30.534613724647336,-0.79706336690101],[30.53139443404584,-0.79800009165682],[30.528927542841572,-0.806513931728643],[30.533712785276972,-0.8102456518373],[30.53997086774002,-0.816813057897936],[30.54638138508602,-0.826333675033418],[30.534099345365934,-0.827652441498007],[30.53358232763727,-0.8280082027106339],[30.5155,-0.8302],[30.5099,-0.8436],[30.4939,-0.8457],[30.485653148897125,-0.8437645145370802],[30.48527954155669,-0.843378534351767],[30.47430518464782,-0.841087538085303],[30.463359992658614,-0.832060184016225],[30.462271108729347,-0.8322723459223438],[30.4619,-0.832],[30.447775331885097,-0.8308278283722074],[30.447775331885097,-0.8308278283722073],[30.44777533662229,-0.8308278287653352],[30.449420741707108,-0.825272241189407],[30.449420777240594,-0.8252720098725285],[30.44942079590894,-0.825271946839181],[30.45006783424321,-0.8210597802594928],[30.451621140254925,-0.81094802572441],[30.453726902629857,-0.806710387503634],[30.45807155421941,-0.802465062605496],[30.452243843053356,-0.794315636571195],[30.45077349568325,-0.7942386101812566],[30.450765785288983,-0.7942381814907712],[30.44909994445652,-0.791918184775736],[30.4482196134279,-0.788813026183511],[30.449706680111596,-0.78809915682548],[30.44970704792616,-0.7880980491040258],[30.44970726430186,-0.788097945106387],[30.45005960514977,-0.7870362771158613],[30.450723543810135,-0.785036739383487],[30.448463571799433,-0.78309737137079],[30.44821875515589,-0.781724998936243],[30.449873368237487,-0.77869551611419],[30.452386692134954,-0.777228555686427],[30.455946639973217,-0.77030016115681],[30.45758317940286,-0.769188499203325],[30.458020904947084,-0.76889136738728],[30.45802095053456,-0.7688911317811736],[30.458021253671436,-0.768890925867569],[30.45817353958059,-0.768110469066786],[30.45695551166787,-0.767348086049707],[30.456926535135917,-0.765588848458065],[30.463942054583406,-0.7626340661615331],[30.464145710164832,-0.7626125016844687],[30.466629470459196,-0.762351611886893],[30.46883306654751,-0.757781916092731],[30.468833075956375,-0.7577816919105385],[30.468833096295956,-0.757781649752345],[30.46883311151714,-0.7577808446147853],[30.468930037701714,-0.755471413227517],[30.468901471507888,-0.754162693764902],[30.4688847508492,-0.7541433006379213],[30.465186745692847,-0.749435931162108],[30.464746620236227,-0.7493437712694396],[30.46459233255224,-0.749164823734974],[30.454263988587257,-0.7471486798139034],[30.453480056289816,-0.7464694696783918],[30.45116741508357,-0.74446559347426],[30.451167161418468,-0.7444655445382703],[30.451167072319304,-0.744465467341484],[30.44652103458943,-0.7435691554660606],[30.446518258177644,-0.7435671207925612],[30.44442095323762,-0.741876500595538],[30.446793815281065,-0.740605601651395],[30.448152719319964,-0.735588957945048]]]]}},{"type":"Feature","properties":{"n":"Kabura Town Council","c":"435202","d":"Rwampara","od":"Rwampara","dc":"435","k":"KABURATOWNCOUNCIL","a":["KABURA","KABURATOWNCOUNCIL"],"lat":-0.766847,"lon":30.595229},"geometry":{"type":"Polygon","coordinates":[[[30.564133662503107,-0.73392337869834],[30.568969323238953,-0.7324349968263689],[30.569241111299636,-0.732685606940643],[30.574163010047187,-0.730836866435295],[30.57333724469165,-0.7297300305372749],[30.582066140680656,-0.7278445219000558],[30.582786343145834,-0.7276890029899358],[30.582826273933392,-0.7276927490819458],[30.585372153385986,-0.727933204219848],[30.585436958762227,-0.7277525094947173],[30.585435567450148,-0.7277510927123937],[30.585435567450148,-0.7277510927123919],[30.610857251454775,-0.7536381622365556],[30.611292559531964,-0.754415400731551],[30.611739875350864,-0.7545369440071732],[30.6119,-0.7547],[30.616845639443383,-0.7566544623229873],[30.617279664274307,-0.756948434546968],[30.616064910705703,-0.759778238973895],[30.61486463681948,-0.759245714200612],[30.613885858712212,-0.760182734045062],[30.613873900040968,-0.764193095487282],[30.612546259221894,-0.766661312221405],[30.614118918760795,-0.768723310001731],[30.61287373664072,-0.772249398605127],[30.617162374415063,-0.777041808760101],[30.615449212718683,-0.781729634382903],[30.616067822561032,-0.788487013930204],[30.612237315200545,-0.791736689712865],[30.612760372922065,-0.794744996785648],[30.610723583408838,-0.795765321288606],[30.610717828778792,-0.797684534243809],[30.6092539122375,-0.797622278497127],[30.6051221347491,-0.795295541681783],[30.60305089111722,-0.791964561372206],[30.60167129282057,-0.794689947863202],[30.599118935223782,-0.793048477329225],[30.596942496891522,-0.794082944669305],[30.596418608168523,-0.795309071295342],[30.597215749627935,-0.801673669186313],[30.591939298362917,-0.804564709174418],[30.588900366483408,-0.804633675024918],[30.587627012591344,-0.805902915316098],[30.586389804175894,-0.803267018911798],[30.586364298444117,-0.799442574230914],[30.588846397395702,-0.797977541950868],[30.58963278485617,-0.795335175217836],[30.5937727688699,-0.79030220280019],[30.58938726591069,-0.7859816331103],[30.58726537134813,-0.78197463404934],[30.585378904055563,-0.780576611745674],[30.588329060715033,-0.777545284082433],[30.586428321637143,-0.769452697369807],[30.583824789556058,-0.768072021901969],[30.57787355622971,-0.767032371907409],[30.57709847771548,-0.765641524846981],[30.571788551196406,-0.764510247349174],[30.564411576757117,-0.764807559328752],[30.55718665585061,-0.763647772669933],[30.556856967914808,-0.758026119408124],[30.557838490307084,-0.757252800310405],[30.55885031725101,-0.757726455608804],[30.55899848474415,-0.756063065994665],[30.56027651956081,-0.755378022257458],[30.560217959059827,-0.754010778275775],[30.562590436370588,-0.750054373197406],[30.557839090778184,-0.74518242871431],[30.556147998018886,-0.741645096486775],[30.559610772496033,-0.737393323698124],[30.564133662503107,-0.73392337869834]]]}},{"type":"Feature","properties":{"n":"Mwizi","c":"435203","d":"Rwampara","od":"Rwampara","dc":"435","k":"MWIZI","a":["MWIZI"],"lat":-0.804258,"lon":30.622301},"geometry":{"type":"Polygon","coordinates":[[[30.53461405398382,-0.797063183936322],[30.539645790286027,-0.7936372364221802],[30.54107728106414,-0.7933198934357469],[30.547265517896882,-0.791948568091425],[30.5472658180741,-0.7919479748412165],[30.54726758352933,-0.791947583462631],[30.54726927771182,-0.7919411374441812],[30.548035415390277,-0.7904269940827259],[30.55019907832303,-0.788749588607415],[30.55019899826577,-0.7887490978221496],[30.5501991089631,-0.788749022937307],[30.549761935148382,-0.786066887328617],[30.549761436288883,-0.7860666555791634],[30.549761258228337,-0.786065563991777],[30.54848458048832,-0.785473481277907],[30.548448503441403,-0.785456721376681],[30.548448457588428,-0.7854567286206543],[30.54844780012242,-0.785456423708736],[30.541823106488913,-0.7865032732405837],[30.541821917136694,-0.786502833233322],[30.53786384519096,-0.784694964415048],[30.536154492684744,-0.7844061390163954],[30.53539340277711,-0.784124569703664],[30.537892969889523,-0.780260957214245],[30.53815516845662,-0.772266484775046],[30.539269650424608,-0.770466968956896],[30.543240368460793,-0.768924459870796],[30.548008350036483,-0.768967363375529],[30.552601154745894,-0.764570802470968],[30.553553490975204,-0.757559268523493],[30.551837377332838,-0.758272670987977],[30.549144156657952,-0.757898997676058],[30.546708476107636,-0.754668836389211],[30.546736315591986,-0.75365193649324],[30.551046706213867,-0.745305980833883],[30.556147988098875,-0.741645102386858],[30.556364359195847,-0.7420976685647037],[30.557839090778184,-0.74518242871431],[30.562590436370588,-0.750054373197406],[30.560217959059827,-0.754010778275775],[30.56027651956081,-0.755378022257458],[30.55899848474415,-0.756063065994665],[30.55894504603854,-0.7566629910255881],[30.558849971742973,-0.7577262938699674],[30.557838490307084,-0.757252800310405],[30.557837177689763,-0.7572538344916434],[30.55783629341438,-0.757253419815579],[30.55687000183411,-0.7580158502804986],[30.556856967914808,-0.758026119408124],[30.55718665585061,-0.763647772669933],[30.56434696810392,-0.764797187968983],[30.5644114001689,-0.764807536295375],[30.564411426626243,-0.7648075352288641],[30.564411576757117,-0.764807559328752],[30.57178854773649,-0.7645102474886181],[30.57181477781719,-0.7645158349191391],[30.57709847771548,-0.765641524846981],[30.57787355622971,-0.767032371907409],[30.583824183120104,-0.7680719159607126],[30.584206660802938,-0.7682745315104623],[30.586428321637143,-0.769452697369807],[30.588329060715033,-0.777545284082433],[30.585378904055563,-0.780576611745674],[30.58726537134813,-0.78197463404934],[30.58938726591069,-0.7859816331103],[30.5937727688699,-0.79030220280019],[30.58963278485617,-0.795335175217836],[30.589632764386582,-0.7953352439983882],[30.589632694929115,-0.795335328426762],[30.58959407569602,-0.7954652431578676],[30.588846607856887,-0.7979768347732205],[30.58636477965946,-0.799441470272179],[30.586364784963415,-0.7994422870681172],[30.586364298444117,-0.799442574230914],[30.586382855304105,-0.8022250736742385],[30.586389613946388,-0.803265887433399],[30.58638979925748,-0.8032662814221987],[30.586389804175894,-0.803267018911798],[30.587627012591344,-0.805902915316098],[30.588900366483408,-0.804633675024918],[30.591939298362917,-0.804564709174418],[30.597215749627935,-0.801673669186313],[30.596456320777918,-0.7956101791995536],[30.597460989964432,-0.7938365034345444],[30.59832026646567,-0.793428086865394],[30.599219412102716,-0.7931130959533255],[30.59946170629143,-0.7932689200321399],[30.599619292401982,-0.793880967013393],[30.601670550224508,-0.794689527158452],[30.601670571864037,-0.7946894842021132],[30.60167129282057,-0.794689947863202],[30.60305089111722,-0.791964561372206],[30.6051221347491,-0.795295541681783],[30.6092539122375,-0.797622278497127],[30.609255284057898,-0.7976223368363157],[30.60925529368947,-0.797622342258713],[30.60926209785781,-0.7976226266057042],[30.610717828778792,-0.797684534243809],[30.610723583408838,-0.795765321288606],[30.610740263649358,-0.7957569653647327],[30.612646132516314,-0.795020998184522],[30.61262046964991,-0.7948150809724005],[30.612760372922065,-0.794744996785648],[30.612237364124745,-0.7917369710948408],[30.614007753212405,-0.7902347086460259],[30.616067822561032,-0.788487013930204],[30.615449212718683,-0.781729634382903],[30.617162374415063,-0.777041808760101],[30.617162100008265,-0.7770415021196246],[30.61716217233064,-0.777041304191168],[30.614332955950484,-0.7738800276781356],[30.61287373664072,-0.772249398605127],[30.613883472408077,-0.7693900435563177],[30.61411894825105,-0.768724430423378],[30.614118669524053,-0.7687240157867054],[30.614118918760795,-0.768723310001731],[30.614112817771396,-0.768715310669207],[30.61262885605199,-0.7665077564740195],[30.613873358900918,-0.7641941015206222],[30.613873815430466,-0.764193332391914],[30.61387381566028,-0.7641932523593981],[30.613873900040968,-0.764193095487282],[30.613885858712212,-0.760182734045062],[30.614357325616755,-0.7597313816473337],[30.614865008358098,-0.7592458790409219],[30.616064910705703,-0.759778238973895],[30.61606538676135,-0.7597771299881586],[30.61606575127036,-0.759777291587625],[30.61732964051711,-0.75702695979965],[30.621081919909887,-0.760433698036529],[30.627907102477923,-0.764257353740177],[30.63020231996052,-0.763858882369721],[30.635243929063765,-0.76566074321842],[30.637298441497048,-0.76499872407723],[30.63916898185724,-0.766508636786219],[30.641562566997425,-0.7669212397402928],[30.654672211497953,-0.7837284762794263],[30.654616857531096,-0.784360400536637],[30.656561294732892,-0.7863554661562233],[30.65564765360709,-0.7900252580115255],[30.65481329716973,-0.790817711539321],[30.654590551337932,-0.7942712854593068],[30.652520879719376,-0.8025844664605057],[30.652238979903085,-0.803028991240274],[30.652180360608607,-0.8039522182221033],[30.6506,-0.8103],[30.6506,-0.8108047321546996],[30.65025902640438,-0.811581552933228],[30.6506,-0.8125566720940689],[30.6506,-0.8182525182794976],[30.65036893252833,-0.820794308290253],[30.6506,-0.8232528278335352],[30.6506,-0.8321],[30.64,-0.838],[30.63300408959987,-0.8580752211482006],[30.630515347292135,-0.859983902267919],[30.63151479805585,-0.8623488403614764],[30.6308,-0.8644],[30.60321576228764,-0.8673660470658454],[30.602841249956654,-0.867354887093361],[30.603732062223166,-0.862437304061823],[30.596058143866266,-0.860802172145155],[30.594754925904727,-0.861439918117124],[30.58908879243553,-0.8614005614199584],[30.5808,-0.8578],[30.5690772109428,-0.8584312271030798],[30.567822533058912,-0.8583904427135586],[30.56971835262036,-0.8491728372596289],[30.570687581265428,-0.847025013360144],[30.570487407206862,-0.845433640821799],[30.570688279861827,-0.8444569841200724],[30.575882406006556,-0.841913350701702],[30.58037566971588,-0.837476615190727],[30.59130303522328,-0.8289925127895452],[30.5937,-0.8272],[30.59364552442714,-0.827173783630561],[30.59396511689355,-0.826925649237157],[30.594222851514992,-0.824313315323445],[30.593379645035615,-0.823835623878968],[30.59261043221841,-0.819771696319084],[30.58953042804904,-0.820623481908725],[30.579985267011256,-0.819560111948942],[30.578135125067224,-0.8197094039386008],[30.5777,-0.8195],[30.576994492629346,-0.8198014440583706],[30.570757276394943,-0.820304738643183],[30.567142165326953,-0.822598083029663],[30.566498797656504,-0.82428596827404],[30.56276579403247,-0.8258809789134003],[30.562272152500512,-0.825841046249337],[30.558347415908692,-0.826602903176094],[30.555683153475613,-0.828878275756171],[30.555622555787316,-0.828870958420243],[30.548592367866394,-0.8262346379498984],[30.548540527398508,-0.826167625256707],[30.54638139783583,-0.826333674224609],[30.543907019864903,-0.8226588571283858],[30.53997086774002,-0.816813057897936],[30.533712785276972,-0.8102456518373],[30.53371270858724,-0.8102455920316355],[30.533712680055896,-0.810245562090023],[30.53369827188615,-0.8102343337247665],[30.528927542841572,-0.806513931728643],[30.53139443404584,-0.79800009165682],[30.534613724647336,-0.79706336690101],[30.534613948166555,-0.7970632147089359],[30.53461405398382,-0.797063183936322]]]}},{"type":"Feature","properties":{"n":"Rweibogo-Kibingo Town Council","c":"435204","d":"Rwampara","od":"Rwampara","dc":"435","k":"RWEIBOGOKIBINGOTOWNCOUNCIL","a":["KIBINGO","RWEIBOGO","RWEIBOGOKIBINGO","RWEIBOGOKIBINGOTOWNCOUNCIL"],"lat":-0.737635,"lon":30.5261},"geometry":{"type":"MultiPolygon","coordinates":[[[[30.430906862627467,-0.730350576157063],[30.430906832465013,-0.7303504063978973],[30.430906916068885,-0.730350202067363],[30.430643658804534,-0.7288692224823712],[30.43060242520013,-0.728637153089443],[30.43060240213946,-0.7286371290627616],[30.430602356016617,-0.728636869594179],[30.429231623545142,-0.7272081404845778],[30.429198354131326,-0.7269738597161003],[30.42887840092102,-0.7247081287603756],[30.435756411768917,-0.7210539594779706],[30.435874882529994,-0.7209910284177724],[30.441229825831904,-0.719213424904399],[30.441230167614506,-0.7192131343450509],[30.44123076771083,-0.719212935120521],[30.44488870589222,-0.7161029043586793],[30.44540070774887,-0.7156676366624741],[30.44609273551734,-0.715613180933028],[30.45245372013598,-0.715113841458248],[30.452453003889136,-0.715112690823467],[30.452457909959765,-0.715112304764313],[30.450816084612587,-0.712483008765521],[30.449084096736943,-0.7117052059283],[30.45105661535833,-0.711400776013965],[30.451057225609993,-0.7113980557085596],[30.451937180663407,-0.708817386310362],[30.456095273351092,-0.709289501628756],[30.456095593092048,-0.7092893863806481],[30.456095984548455,-0.709289430813944],[30.462644414120998,-0.706928936414823],[30.46264445960148,-0.7069288990548994],[30.46264456435776,-0.706928861296324],[30.465308733955016,-0.704740448264877],[30.46530871206104,-0.704740349961303],[30.465309255017864,-0.704739903949644],[30.464910775484977,-0.70294427798326],[30.4656729064261,-0.7024475874957727],[30.466569578284332,-0.7018656799027154],[30.46807562211682,-0.702549860348241],[30.47085026282207,-0.706083884275454],[30.476461180171313,-0.709288988684037],[30.476462077052556,-0.7092869297375174],[30.476463141470592,-0.709287537277186],[30.480348183302297,-0.700366108845243],[30.48034811461508,-0.7003658562024351],[30.480348744635826,-0.70036440988049],[30.479586514115176,-0.697563987107706],[30.479586850510064,-0.6975565239408441],[30.48000909983929,-0.6935964802890017],[30.48222338704849,-0.692344850666084],[30.48575017936099,-0.6926851915145312],[30.486151077499862,-0.69272389089991],[30.48615360781268,-0.6927274863946682],[30.48663289961485,-0.693412389683982],[30.48664396965649,-0.6934136517178434],[30.488085671020844,-0.693644402327006],[30.490648157841964,-0.693895560045157],[30.491347437859375,-0.693949867960795],[30.49134991664642,-0.693950150553516],[30.49135013359881,-0.6939500773189726],[30.49135015728137,-0.693950079158222],[30.491350227955607,-0.693950045467852],[30.494702251383185,-0.692818534986797],[30.495950066098224,-0.6917573051356702],[30.49818892012052,-0.6906900446451163],[30.500472651434404,-0.691042996287686],[30.501055419685077,-0.6921841846150854],[30.50261545391654,-0.695239474840672],[30.5030434773426,-0.697499998826191],[30.502712124581045,-0.6990658176112693],[30.502222905677204,-0.701376642537051],[30.502223044201315,-0.7013769836398749],[30.502222824456776,-0.701378022050189],[30.503501099145804,-0.704524547830298],[30.5031548569536,-0.7084198085808077],[30.500628436337287,-0.71134562969773],[30.500628312066837,-0.7113460076092243],[30.50062804098612,-0.711346321564355],[30.49921169634704,-0.715653936608947],[30.50388731765342,-0.722520831434395],[30.505473803345648,-0.726212949776153],[30.505473968544077,-0.7262130712738304],[30.505474003023167,-0.726213151509528],[30.506941546579572,-0.72735618276233],[30.507027985115826,-0.727355996199789],[30.507272574616604,-0.727535883237127],[30.510868667065946,-0.727347951758929],[30.510869045055856,-0.7273477059402157],[30.510869098586102,-0.72734770582468],[30.51087709146614,-0.7273424731068399],[30.516217481327402,-0.723869449817683],[30.515697673716346,-0.7242074970363281],[30.515505089909453,-0.724513639203734],[30.51739284462721,-0.723077684373965],[30.523739975299613,-0.7240176142347765],[30.53057840915769,-0.7295664172122898],[30.530790701632732,-0.729742031947138],[30.528505675405288,-0.7306791708882049],[30.528250143342298,-0.73078312542984],[30.52825068321994,-0.7307837487279193],[30.528245978372226,-0.730785678288268],[30.52859357997241,-0.731179743618789],[30.53068761214548,-0.73255987009369],[30.530688045184384,-0.7325599668348376],[30.530688163819423,-0.732560045014659],[30.531269215484627,-0.7326898006245803],[30.535160887747356,-0.733559202516064],[30.53639820412253,-0.732892954803984],[30.536778916844234,-0.730989389147982],[30.535827870834922,-0.723713512098494],[30.535829829143793,-0.7237117855296665],[30.53836324046521,-0.7220204343446172],[30.53996411342968,-0.7215746547512804],[30.542632826195767,-0.7210520781457951],[30.54626874333396,-0.7212592490148418],[30.547581942396313,-0.7215466287644683],[30.559233910570537,-0.727601524476647],[30.559423928032924,-0.7276365088881346],[30.559787428418076,-0.727828572905367],[30.564848469391798,-0.728635243257568],[30.56890005044261,-0.7323711218225742],[30.568969320828042,-0.7324349975684298],[30.564133662503107,-0.73392337869834],[30.559610772496033,-0.737393323698124],[30.556147998018886,-0.741645096486775],[30.556151378933933,-0.7416521684937273],[30.55615136966018,-0.7416521753291218],[30.556147988098875,-0.741645102386858],[30.551046706213867,-0.745305980833883],[30.550956073255314,-0.7454814680970361],[30.55088560499328,-0.745533408079888],[30.547039873794517,-0.751992040221872],[30.546865596770264,-0.7534016169569937],[30.546736315591986,-0.75365193649324],[30.546708476107636,-0.754668836389211],[30.549144156657952,-0.757898997676058],[30.551431722457423,-0.7582163880393847],[30.551836810938287,-0.758272648010818],[30.55183691093947,-0.7582726062778121],[30.551837377332838,-0.758272670987977],[30.553553490975204,-0.757559268523493],[30.5526011607145,-0.7645707585273817],[30.55245594642781,-0.7647098062507269],[30.548008350036483,-0.768967363375529],[30.543240368460793,-0.768924459870796],[30.539269650424608,-0.770466968956896],[30.53815516845662,-0.772266484775046],[30.538155143908455,-0.7722672332521182],[30.538155137469005,-0.772267243652856],[30.538141246975172,-0.7726909527688213],[30.53789297142214,-0.7802609104845312],[30.53539339079757,-0.784124567210449],[30.52647553419905,-0.7827707074521006],[30.526421054682366,-0.782761502172284],[30.527064393698407,-0.779724815238122],[30.526901797276942,-0.7795297686224049],[30.525289469909985,-0.7775953945852617],[30.52283233101102,-0.762998830902785],[30.51680040174789,-0.759786559702463],[30.514331497104674,-0.760226880490573],[30.514197134235204,-0.757032756609344],[30.514194002006203,-0.7570325665006145],[30.514193997399577,-0.757032458508505],[30.514002022176918,-0.7570209144019205],[30.511212737634477,-0.756851620477163],[30.499948816177007,-0.7515591037597655],[30.49927690557415,-0.7494198617894856],[30.498397510191374,-0.746619055078173],[30.501036737983934,-0.745339749602877],[30.494081856499857,-0.7388455996448218],[30.49248978322851,-0.737358929288723],[30.492489693190773,-0.7373589104308389],[30.492489441892747,-0.737358675780246],[30.485361516147982,-0.7358659549145784],[30.485191300499462,-0.7358303042299943],[30.479965130357296,-0.733372755573034],[30.479968157130397,-0.7333617048376724],[30.48221252131196,-0.726685101801978],[30.48193396380964,-0.7261845532413386],[30.482080340434933,-0.725650132821987],[30.48151842452176,-0.7254378578886566],[30.481318760474352,-0.725079075408525],[30.476726879279074,-0.7236277561935502],[30.47672665284335,-0.723627670652944],[30.471158716104412,-0.723484903337299],[30.464210691600687,-0.72622128386543],[30.461825248900023,-0.7290000561788977],[30.459444370699718,-0.7278809465418007],[30.459420135889392,-0.727869347099206],[30.45941961527164,-0.7278693104832521],[30.459419375626513,-0.727869197840292],[30.45783466123754,-0.7277578379039783],[30.454815795354524,-0.727545515805531],[30.452826839434035,-0.725993743764339],[30.452487687035813,-0.7277721223628035],[30.45242302424927,-0.7281094997463813],[30.44979031571981,-0.729752119403477],[30.44979154485141,-0.7297551750180766],[30.449791028474348,-0.729755497898131],[30.450933858850018,-0.7325949615233301],[30.45102489577116,-0.732821278823524],[30.455806828269978,-0.735633364486432],[30.455402013627644,-0.737387976757437],[30.455288863447205,-0.7378773720119332],[30.448152719319964,-0.735588957945048],[30.446793916294922,-0.7406052287401953],[30.444573963340975,-0.7417945487689107],[30.444421031418937,-0.7418764587218228],[30.44405047696114,-0.7417586249951946],[30.44363458634041,-0.741453842531203],[30.43975652913813,-0.740183866010525],[30.43857118421207,-0.7400162482127008],[30.436860411476314,-0.739472234444609],[30.42765868200875,-0.73828898989544],[30.428038174309574,-0.7373614985869791],[30.430278740076815,-0.733167353564508],[30.430906862627467,-0.730350576157063]]],[[[30.49023592607615,-0.693847165115974],[30.490235925947275,-0.693847166213686],[30.490235926051035,-0.69384716511332],[30.49023592607615,-0.693847165115974]]]]}}]}
