{"type":"FeatureCollection","name":"Sheema sub-counties","metadata":{"source":"Uganda Bureau of Statistics NPHC 2024 Map Explorer","retrieved":"2026-07-26","display_only":true,"clipped_to_dashboard_district":true,"positive_area_overlaps_removed":true,"source_gap_ratio":0.01099005},"features":[{"type":"Feature","properties":{"n":"Bugongi Town Council","c":"426101","d":"Sheema","od":"Sheema","dc":"426","k":"BUGONGITOWNCOUNCIL","a":["BUGONGI","BUGONGITOWNCOUNCIL"],"lat":-0.659138,"lon":30.262575},"geometry":{"type":"Polygon","coordinates":[[[30.235042785060358,-0.671052724110334],[30.238411243995067,-0.664748272669612],[30.23214072471137,-0.653528623718908],[30.232657588687136,-0.640000824948686],[30.235062785197663,-0.634155278787918],[30.242922373643985,-0.627625971537543],[30.249048525329776,-0.627764948463827],[30.2501345380699,-0.6263884898861012],[30.26109144994922,-0.6247154990400118],[30.26536026732632,-0.624501938721043],[30.268540420313577,-0.6235781293714754],[30.288495933534193,-0.6205311585356393],[30.28868673828736,-0.620537737737214],[30.28984770815693,-0.630716756888678],[30.29285184580561,-0.641225049700797],[30.2929055917755,-0.652404966546283],[30.284117211686404,-0.671929457464033],[30.28043984426955,-0.677683955561746],[30.27616264674317,-0.677122210620314],[30.270832837016,-0.672201647421409],[30.267081353549713,-0.667236652320913],[30.264296281166008,-0.665815284467549],[30.262008271519413,-0.667904606908135],[30.259056002967927,-0.669003441442925],[30.255025208729982,-0.673984006708323],[30.25193813155502,-0.674583868145164],[30.251053465586033,-0.681307742254252],[30.243023017568703,-0.683579996137554],[30.236300581654675,-0.690653717606662],[30.233761019075907,-0.690073887634885],[30.233514898530096,-0.689162740577273],[30.230747500345295,-0.687841752662456],[30.230138357018113,-0.684405813390722],[30.230773449634174,-0.680691584195606],[30.225630245754942,-0.675086364046416],[30.229842674377167,-0.67439292438785],[30.235042785060358,-0.671052724110334]]]}},{"type":"Feature","properties":{"n":"Kakindo Town Council","c":"426102","d":"Sheema","od":"Sheema","dc":"426","k":"KAKINDOTOWNCOUNCIL","a":["KAKINDO","KAKINDOTOWNCOUNCIL"],"lat":-0.505249,"lon":30.338208},"geometry":{"type":"Polygon","coordinates":[[[30.309953753681754,-0.497930650864697],[30.310721477681255,-0.493947615915655],[30.315798878870623,-0.488795280051444],[30.32001728359081,-0.485377516419668],[30.32466995126493,-0.486215186231698],[30.328802507204212,-0.484552108453408],[30.330202269546277,-0.48480877842503],[30.334798749401926,-0.481903765587567],[30.33879294885514,-0.480888353534142],[30.342222700933537,-0.475015051118111],[30.345827870139406,-0.474598967924178],[30.351352332375992,-0.478183590035889],[30.364581883127858,-0.480675620113318],[30.36740780417806,-0.482111414777053],[30.367906115883727,-0.483426783913675],[30.36703545969362,-0.492726188975693],[30.365585538838477,-0.497358429005616],[30.367146869866815,-0.508238561498717],[30.368325113927856,-0.511565260775752],[30.371247601447653,-0.514096698219027],[30.373605134949116,-0.514920143178264],[30.37663719428645,-0.51801231968231],[30.379030261053522,-0.527936797285419],[30.37324162042448,-0.526452681440677],[30.37209003797753,-0.527031438552713],[30.360030404359296,-0.525499029725619],[30.35354512638088,-0.530034848896555],[30.352181700729645,-0.530199029509493],[30.348023521279323,-0.529180504362855],[30.344545505770135,-0.525808351959027],[30.335470610869613,-0.522749954649486],[30.327889111975768,-0.518902734450687],[30.31274305495271,-0.514603508827428],[30.3081266333661,-0.514409375898409],[30.307905089988623,-0.5131393873807626],[30.3079,-0.513],[30.30793691983747,-0.5127061180937398],[30.310403755347767,-0.50225983625962],[30.309953753681754,-0.497930650864697]]]}},{"type":"Feature","properties":{"n":"Kasaana","c":"426103","d":"Sheema","od":"Sheema","dc":"426","k":"KASAANA","a":["KASAANA"],"lat":-0.702783,"lon":30.212828},"geometry":{"type":"Polygon","coordinates":[[[30.17750014685584,-0.686688330779781],[30.18208183530859,-0.683604125116258],[30.181092952747644,-0.679131283513767],[30.181449872532454,-0.675443233728107],[30.182244562399084,-0.674672025033653],[30.17987467134102,-0.670474913075198],[30.180129961391607,-0.668432593896904],[30.187209493530784,-0.667740272170964],[30.194191534104917,-0.665894939748301],[30.20886143349315,-0.660465928292019],[30.226346453552132,-0.658009815263115],[30.232509142354722,-0.655020414213783],[30.234429131401523,-0.6576232000304255],[30.238411243995067,-0.664748272669612],[30.235042785060358,-0.671052724110334],[30.230792485185226,-0.6737828300037197],[30.2256655024323,-0.6750805601787423],[30.225630245754942,-0.675086364046416],[30.22879898660418,-0.6785397542819133],[30.23077342297823,-0.680691740088276],[30.230138357018113,-0.684405813390722],[30.230747500345295,-0.687841752662456],[30.233514898530096,-0.689162740577273],[30.233761019075907,-0.690073887634885],[30.236300581654675,-0.690653717606662],[30.236575742472596,-0.6903641780691954],[30.23710891796741,-0.690419246518743],[30.239170787431267,-0.69190247596874],[30.23911303411057,-0.69655540351543],[30.240252148140502,-0.696237868803242],[30.240769678200817,-0.697915380685875],[30.239774016932614,-0.700731292871972],[30.240469566407224,-0.702114740934282],[30.243678041626954,-0.703451356062332],[30.23874997606108,-0.705992778594048],[30.239380073136324,-0.707598837501844],[30.238801969135636,-0.709628002221033],[30.239144633216014,-0.71393825305067],[30.240615223748204,-0.716296008960375],[30.240685060166975,-0.720260856678527],[30.238391814169525,-0.724380110372935],[30.23578579422929,-0.725978336818887],[30.233833455799562,-0.729712880847377],[30.231103785283022,-0.732418159705954],[30.229048226462695,-0.736314257156574],[30.229099614010828,-0.737780866138053],[30.225515859654106,-0.739223322738184],[30.22189986717511,-0.74333876313141],[30.22092391797353,-0.746470145011779],[30.221171247569888,-0.749916121754061],[30.219824451586913,-0.751770305674737],[30.21523097972648,-0.74935959234711],[30.213197677772865,-0.750616867446919],[30.210932436604754,-0.750540727417303],[30.20982361115157,-0.748465841928329],[30.210137140107292,-0.746438182711609],[30.20876638607739,-0.744325210833139],[30.202171426164224,-0.73991418400411],[30.197202948958807,-0.737843925929167],[30.197325068235855,-0.730885680753193],[30.194119813095533,-0.730477058795342],[30.1936374170778,-0.727553370600456],[30.190126532267502,-0.725840240742856],[30.194396626294946,-0.721754993828363],[30.187711756500896,-0.722039094553139],[30.176205406485103,-0.719603061938391],[30.17699019433778,-0.716171898334392],[30.175527096247787,-0.712744373363905],[30.17607437065654,-0.708651739017614],[30.175183440700668,-0.705866655285728],[30.181535545874503,-0.705003248953763],[30.185070278928848,-0.701167215679731],[30.18169823068762,-0.697165325687853],[30.180969492268968,-0.691973552255415],[30.17635301908765,-0.691080755209206],[30.17279686162818,-0.687686256404423],[30.176100840344752,-0.686303096227116],[30.17750014685584,-0.686688330779781]]]}},{"type":"Feature","properties":{"n":"Kigarama","c":"426104","d":"Sheema","od":"Sheema","dc":"426","k":"KIGARAMA","a":["KIGARAMA"],"lat":-0.511959,"lon":30.417616},"geometry":{"type":"Polygon","coordinates":[[[30.367035474250425,-0.492726186041516],[30.381378951388392,-0.48843315080507],[30.38182881881278,-0.483755515693713],[30.38389668605511,-0.482333469743808],[30.38478214357335,-0.480164549173564],[30.38615392877047,-0.479084848054003],[30.388417361373836,-0.478926754523172],[30.393595067669345,-0.481134892069539],[30.395269894507038,-0.483894682999032],[30.398709699356974,-0.485310740540706],[30.40520446243051,-0.491651149974874],[30.405620144670426,-0.488520334897273],[30.412183932670306,-0.489562180215118],[30.421167630106343,-0.488480518132618],[30.427386956131887,-0.490058909772613],[30.42838729776992,-0.489430253857463],[30.428247329248034,-0.486381745296026],[30.426904475349932,-0.480865640278819],[30.433334052423927,-0.480272832315984],[30.437098373500586,-0.474837111891009],[30.439027053860976,-0.475349033011354],[30.444140861368272,-0.479476734795681],[30.446886909790223,-0.483139051433855],[30.44858487847679,-0.488013579192805],[30.45045220343601,-0.489558351678661],[30.455702951378896,-0.491256544499608],[30.45684004312835,-0.494893817449149],[30.468747700640428,-0.49839214226543793],[30.46480124695717,-0.5193673882197835],[30.464354296508585,-0.521464617791681],[30.460065884061564,-0.529109618400489],[30.457165289412565,-0.540975546176624],[30.451074254912584,-0.536960709620511],[30.449574908720493,-0.537013478339429],[30.444495935388122,-0.530350239618884],[30.444960134149902,-0.526730419669688],[30.441488648131774,-0.529531595752614],[30.436612388438586,-0.53179985957914],[30.433691060082833,-0.534861945828815],[30.428337251591877,-0.536605250168171],[30.427168472247228,-0.540052768953786],[30.422374300423282,-0.536176557969135],[30.42135119493258,-0.536297194932413],[30.41676584535518,-0.538155340603538],[30.41530026814292,-0.540509978699595],[30.40760271406793,-0.545494949395086],[30.401430239651067,-0.546755602397076],[30.40022215203292,-0.549573575049288],[30.391750141394386,-0.544987735777025],[30.388955674612237,-0.541877524935237],[30.385924871945885,-0.540646958576948],[30.383998653245527,-0.537122379701765],[30.381648935102223,-0.534989186237192],[30.3791508543206,-0.528768351819723],[30.378951830631216,-0.5279166889664],[30.379030261053522,-0.527936797285419],[30.376640454990486,-0.5180258424074696],[30.376637414858315,-0.518012833063475],[30.37663728651901,-0.518012702187307],[30.37663719428645,-0.51801231968231],[30.373605134949116,-0.514920143178264],[30.37360264752771,-0.5149192743657456],[30.370645055876697,-0.5135747776259467],[30.36997825653572,-0.5129972008844015],[30.36809661630144,-0.5109201118514043],[30.367645823547463,-0.5096473263748297],[30.366602583723065,-0.5044457044743662],[30.365746729903602,-0.4984816886561412],[30.365902910099813,-0.4963444841024264],[30.367035436078215,-0.49272626442272405],[30.367035474250425,-0.492726186041516]]]}},{"type":"Feature","properties":{"n":"Kitagata","c":"426105","d":"Sheema","od":"Sheema","dc":"426","k":"KITAGATA","a":["KITAGATA"],"lat":-0.644698,"lon":30.204864},"geometry":{"type":"Polygon","coordinates":[[[30.177848745167736,-0.6439428865276374],[30.1782,-0.6435],[30.183085046080187,-0.6323341803881458],[30.183119022531766,-0.6322929596323706],[30.191045468041192,-0.6293593285541492],[30.19587597099188,-0.630212021980263],[30.205117424498244,-0.6251481310531],[30.206146352796125,-0.6237703890007231],[30.210815275104554,-0.6220423892851482],[30.21297601606072,-0.622531501860609],[30.21591297370765,-0.625216819173952],[30.218546905413813,-0.625869053971539],[30.221472637945173,-0.624749691472351],[30.22712708538376,-0.620252705381733],[30.228305703588713,-0.6199137934746064],[30.24153006229539,-0.627229396163406],[30.241743856337337,-0.627516310460255],[30.24211036480691,-0.6275504145740336],[30.2422,-0.6276],[30.242367839286718,-0.6275743729261143],[30.242922357087387,-0.62762597156499],[30.240598683091374,-0.6295563639081375],[30.235062785197663,-0.634155278787918],[30.235062764753764,-0.6341553284743996],[30.23506270268985,-0.634155380034002],[30.23357053183931,-0.636666779200241],[30.233352569608478,-0.6383117558689769],[30.232657588687136,-0.640000824948686],[30.23246667028753,-0.6449977019076631],[30.232245149624553,-0.64666953432031],[30.232316525641306,-0.6489274138933839],[30.23214072471137,-0.653528623718908],[30.23248123923386,-0.6541378959708694],[30.232509137048638,-0.655020403975471],[30.231763607000925,-0.6553820589828675],[30.226346453552132,-0.658009815263115],[30.20886143349315,-0.660465928292019],[30.20885836878658,-0.6604670624734233],[30.18721004496546,-0.6677401264284296],[30.187209493530784,-0.667740272170964],[30.180129961391607,-0.668432593896904],[30.180106430215204,-0.6686208431950987],[30.169143117436064,-0.669979953593086],[30.164970593970516,-0.669866623268036],[30.164518445500025,-0.6607506556738826],[30.17748831223578,-0.6443973454418404],[30.17773402804474,-0.644280611472205],[30.177848745167736,-0.6439428865276374]]]}},{"type":"Feature","properties":{"n":"Kitagata Town Council","c":"426106","d":"Sheema","od":"Sheema","dc":"426","k":"KITAGATATOWNCOUNCIL","a":["KITAGATA","KITAGATATOWNCOUNCIL"],"lat":-0.707259,"lon":30.157167},"geometry":{"type":"MultiPolygon","coordinates":[[[[30.119174089221307,-0.6515104359068399],[30.132772781297056,-0.6529600426763359],[30.13354303238105,-0.653581092794103],[30.137549316855317,-0.6535051710399453],[30.137687979646003,-0.6535276305060426],[30.13864002200987,-0.657612515945635],[30.14044729187541,-0.658077808549125],[30.144230915007732,-0.656567098621231],[30.145729945491375,-0.6548302024387438],[30.146940355547663,-0.6550262547718047],[30.14784434848105,-0.655496136884697],[30.151050178843267,-0.655723964718091],[30.15133468070858,-0.6559967227349845],[30.159150987168797,-0.6658794090639962],[30.159565404695808,-0.666743355449787],[30.15968677529606,-0.6665568423283494],[30.1598,-0.6667],[30.164518445500025,-0.660750655673883],[30.164970593970516,-0.669866623268036],[30.169143117436064,-0.669979953593086],[30.17308386240409,-0.6694914235684705],[30.17578746184293,-0.669367320421468],[30.178099626222625,-0.6688696245833511],[30.180106430215204,-0.668620843195099],[30.17987467134102,-0.670474913075198],[30.17987501334822,-0.6704755187749827],[30.179874997212966,-0.670475648074325],[30.18224453004072,-0.6746720564359077],[30.181449872532454,-0.675443233728107],[30.18144966208027,-0.6754454083291662],[30.18144942848161,-0.675445635559953],[30.18109297801608,-0.679130500210476],[30.181093013173605,-0.6791306591327048],[30.181092952747644,-0.679131283513767],[30.18208183530859,-0.683604125116258],[30.17750014685584,-0.686688330779781],[30.176100840344752,-0.686303096227116],[30.176099905212418,-0.6863034877059714],[30.17609979082089,-0.686303456243989],[30.176054632259927,-0.686322440535383],[30.17279686162818,-0.687686256404423],[30.172801025018597,-0.6876902305321047],[30.172800123742753,-0.687690609421132],[30.17611783016597,-0.6908562576939445],[30.17635301908765,-0.691080755209206],[30.180969492268968,-0.691973552255415],[30.18169823068762,-0.697165325687853],[30.185070278928848,-0.701167215679731],[30.181535545874503,-0.705003248953763],[30.175183440700668,-0.705866655285728],[30.17607436824214,-0.7086517314701046],[30.176053674597643,-0.7088065085447951],[30.175527096247787,-0.712744373363905],[30.17552716257791,-0.7127445287520888],[30.175527155631595,-0.712744580706707],[30.175583304222382,-0.7128760489075877],[30.17699019433778,-0.716171898334392],[30.176205406485103,-0.719603061938391],[30.187711756500896,-0.722039094553139],[30.194396626294946,-0.721754993828363],[30.190126532267502,-0.725840240742856],[30.1936374170778,-0.727553370600456],[30.19395338550536,-0.7294683805251994],[30.19411908688815,-0.730476400098987],[30.194119717691986,-0.730476480577008],[30.194119813095533,-0.730477058795342],[30.197325068235855,-0.730885680753193],[30.197202948958807,-0.737843925929167],[30.197204462079767,-0.7378445564142742],[30.19720445190301,-0.737845139563877],[30.201780429682902,-0.7397512641416931],[30.202171426164224,-0.73991418400411],[30.20876638607739,-0.744325210833139],[30.210137140107292,-0.746438182711609],[30.20982361115157,-0.748465841928329],[30.209823910640132,-0.7484664023451801],[30.209823877308885,-0.748466617756853],[30.21009805489247,-0.7489793937537265],[30.210932436604754,-0.750540727417303],[30.21093289688087,-0.750540742888255],[30.21093294791701,-0.750540838337729],[30.212129534933496,-0.7505809646792276],[30.213197677772865,-0.750616867446919],[30.21394477721804,-0.7501549048113006],[30.215231394739583,-0.7493598101513436],[30.219759051699466,-0.7517359829695847],[30.219824452970652,-0.751770318601683],[30.221518322804307,-0.7580827162399766],[30.221412879993437,-0.7581084010272401],[30.21607908890974,-0.75843326373457],[30.20301737608915,-0.7625893571064889],[30.2001,-0.7633],[30.192244694121044,-0.752199088698002],[30.192701141136403,-0.748035644467245],[30.189213324999702,-0.743190637488268],[30.18341736964993,-0.739653724257213],[30.182983043794838,-0.7395209047172471],[30.168804008306157,-0.7334305807489521],[30.168112554437055,-0.729147777585633],[30.166899430203564,-0.727173794605251],[30.166827425016407,-0.724414495454114],[30.159336677793778,-0.7252914053888715],[30.150564310939714,-0.7176244993985313],[30.148041814205534,-0.715238674473675],[30.147775344772896,-0.7151869883177737],[30.14503314018007,-0.7127903460923383],[30.14493064026887,-0.712587637832834],[30.14482114731729,-0.7126050677773075],[30.13248843097103,-0.7018264742226489],[30.132054101031024,-0.701046338052202],[30.12992566751791,-0.699586660635571],[30.119316152249578,-0.6903141168034921],[30.122530769255807,-0.685824156049619],[30.125804132465976,-0.683035337133632],[30.125784621744735,-0.682031274313836],[30.124793541045126,-0.679589769926919],[30.121792419513827,-0.6781556706352099],[30.121109850457888,-0.6741641255037294],[30.120147293763765,-0.665826366940405],[30.11928227931621,-0.6634768073056644],[30.1172,-0.6513],[30.117520420901617,-0.6513341565428117],[30.117815727188717,-0.651449019477635],[30.119174089221307,-0.6515104359068399]]],[[[30.18012305130766,-0.6684878745352959],[30.180106430215204,-0.668620843195099],[30.180106430215204,-0.6686208431950987],[30.180123051307664,-0.6684878745352572],[30.18012305130766,-0.6684878745352959]]]]}},{"type":"Feature","properties":{"n":"Kyangyenyi","c":"426107","d":"Sheema","od":"Sheema","dc":"426","k":"KYANGYENYI","a":["KYANGYENYI"],"lat":-0.465909,"lon":30.346199},"geometry":{"type":"Polygon","coordinates":[[[30.309384627833044,-0.4696891909342604],[30.3096,-0.469],[30.309550278119392,-0.4685474033944639],[30.310434850985505,-0.462450255608994],[30.30870286866809,-0.46083380454285916],[30.30738148726071,-0.4488058455782377],[30.308121589093766,-0.447139076525532],[30.306977742016556,-0.444211704959089],[30.307127413793,-0.441049004914118],[30.306316408849728,-0.43911090106803663],[30.3057,-0.4335],[30.317083577972134,-0.450538645738934],[30.31723881019891,-0.451996802424028],[30.319549655140463,-0.455512596867735],[30.321166348906555,-0.4566496319117479],[30.3212,-0.4567],[30.321397342936397,-0.45670124115054334],[30.32845991883437,-0.457784674147689],[30.33034118770342,-0.4567574917465624],[30.3371,-0.4568],[30.33725743439134,-0.4567288122752195],[30.337400012442128,-0.45674889137515],[30.337453721682568,-0.4566400562826643],[30.350278935714385,-0.45084082906827716],[30.351108790970798,-0.451728717389972],[30.354334616635466,-0.450690654898141],[30.35738612260626,-0.448034786478441],[30.360517366982663,-0.4466782446551085],[30.36194052174177,-0.4476270144945137],[30.367763374038695,-0.455901333568417],[30.36867135543697,-0.456651241116886],[30.3742144386897,-0.455849487096895],[30.3797032411452,-0.463271517462094],[30.38843662406237,-0.471611975451783],[30.38788532636651,-0.476363457790039],[30.389502385014186,-0.479364558524365],[30.389429698341278,-0.47935848609306014],[30.388417361373836,-0.478926754523172],[30.38615392877047,-0.479084848054003],[30.38478214357335,-0.480164549173564],[30.384781553734562,-0.4801659939785959],[30.384781242997636,-0.480166238311349],[30.38458818165666,-0.4806396572191598],[30.38389668605511,-0.482333469743808],[30.38268211881804,-0.4831687121544461],[30.381829757122315,-0.483753932183859],[30.38182966024902,-0.483754937048733],[30.38182881881278,-0.483755515693713],[30.381500557271202,-0.48716871618201896],[30.381378651692703,-0.4884332405046693],[30.372187979250175,-0.4911840296099119],[30.36703547123675,-0.49272606568448923],[30.367906115883727,-0.483426783913675],[30.36740780417806,-0.482111414777053],[30.366873177368042,-0.481839781455641],[30.366458808526453,-0.481202979823308],[30.365075751057205,-0.48092654465259144],[30.364581883127858,-0.480675620113318],[30.351352377829404,-0.478183598597878],[30.351304293862466,-0.4781524195960481],[30.345827870139406,-0.474598967924178],[30.345789189604872,-0.4746034321585684],[30.343065117769033,-0.474653314810977],[30.342634834997448,-0.47496748551221357],[30.342222700933537,-0.475015051118111],[30.341964783897826,-0.4754567229108098],[30.34109371704168,-0.476092731840495],[30.338794984622552,-0.48088486737030584],[30.33879297549559,-0.4808883079135193],[30.33479921455879,-0.48190362337147],[30.33479915111897,-0.48190366346238966],[30.334798749401926,-0.481903765587567],[30.332098348701525,-0.4836104409015715],[30.330202138868152,-0.4848087544629979],[30.328802507204212,-0.484552108453408],[30.324878151354653,-0.48613139959995183],[30.324669859904382,-0.4862151697830758],[30.32001728359081,-0.485377516419668],[30.320014719339518,-0.48537959398343766],[30.320013589210923,-0.485379391083198],[30.32000359268174,-0.48538860883355744],[30.315798878870623,-0.488795280051444],[30.310721634422748,-0.49394745686089686],[30.310721482249427,-0.493947597179168],[30.310225263091883,-0.490728009113318],[30.30811004548597,-0.4889089511724363],[30.30563126941008,-0.48437232325995616],[30.3053145890417,-0.48271331506655896],[30.309169082492307,-0.4703789360246212],[30.309299544864796,-0.470275647348765],[30.309384627833044,-0.4696891909342604]]]}},{"type":"Feature","properties":{"n":"Masheruka","c":"426108","d":"Sheema","od":"Sheema","dc":"426","k":"MASHERUKA","a":["MASHERUKA"],"lat":-0.449951,"lon":30.387217},"geometry":{"type":"Polygon","coordinates":[[[30.38434564921436,-0.43521603861317076],[30.384886470410404,-0.4347510761196843],[30.39617567657852,-0.4367638803202009],[30.396857469452673,-0.437464897248686],[30.39720523754659,-0.4369474454540429],[30.3975,-0.437],[30.402247193736958,-0.4292858101774446],[30.40786857829824,-0.432516311929019],[30.41494256347799,-0.433268995779986],[30.416862067212705,-0.432402430142593],[30.41991947598623,-0.428525751953498],[30.423508312215898,-0.428671473956802],[30.4299615088324,-0.42639375997352474],[30.432700921034378,-0.4261158485907155],[30.433963271818673,-0.426388413593772],[30.436653381496594,-0.42571487434092536],[30.4368,-0.4257],[30.43690981094347,-0.4257193784017883],[30.442003294013258,-0.430042453066678],[30.44759766018306,-0.429832456714545],[30.445578476943197,-0.433331943199025],[30.445078974086275,-0.436650614248534],[30.44164065623015,-0.441445225909174],[30.439429153458118,-0.442333479328575],[30.430732120894906,-0.439139629690305],[30.42820630221481,-0.439096385764991],[30.423317641300226,-0.443267926606371],[30.42347934537422,-0.448655568013747],[30.41905995228447,-0.44887284273072],[30.413115582703927,-0.450367114893218],[30.411307606298283,-0.451894746277545],[30.408523638067255,-0.452037513820508],[30.40075686615585,-0.44843704275534],[30.399261700479535,-0.445907974990099],[30.397118952533038,-0.446493162375348],[30.397510687791957,-0.452394837889952],[30.396539534567992,-0.455125278759388],[30.39258201478968,-0.451053355448649],[30.389552877569816,-0.452776153481508],[30.391578269948887,-0.454760270238603],[30.39201799981339,-0.458448369875982],[30.39456357797998,-0.466076725651845],[30.394868866785234,-0.470925287251609],[30.390136588906735,-0.472055317615981],[30.390050461875976,-0.472888464430465],[30.38831346602681,-0.473376251367142],[30.388435504090985,-0.47162162817531816],[30.38843662406237,-0.471611975451783],[30.388436203401604,-0.47161157371702794],[30.388436204748988,-0.471611554344761],[30.38400304356963,-0.4673778668372518],[30.3797032411452,-0.463271517462094],[30.376602349018683,-0.4590784506303383],[30.37421444841736,-0.455849481646716],[30.37728802868856,-0.4495348648722399],[30.38434564921436,-0.43521603861317076]]]}},{"type":"Feature","properties":{"n":"Masheruka Town Council","c":"426109","d":"Sheema","od":"Sheema","dc":"426","k":"MASHERUKATOWNCOUNCIL","a":["MASHERUKA","MASHERUKATOWNCOUNCIL"],"lat":-0.462263,"lon":30.434418},"geometry":{"type":"Polygon","coordinates":[[[30.3900406155644,-0.4728912294930088],[30.390050461875976,-0.472888464430465],[30.390136588906735,-0.472055317615981],[30.394868866785234,-0.470925287251609],[30.39456357797998,-0.466076725651845],[30.39201799981339,-0.458448369875982],[30.39182544803249,-0.45683340075369727],[30.39157853806594,-0.454761756666205],[30.39157843516736,-0.4547616559579916],[30.391578269948887,-0.454760270238603],[30.389552877569816,-0.452776153481508],[30.39258201478968,-0.451053355448649],[30.396539534567992,-0.455125278759388],[30.397510687791957,-0.452394837889952],[30.39711897386516,-0.4464934837537952],[30.397242703848782,-0.4464593657223166],[30.399261700479535,-0.445907974990099],[30.40075686615585,-0.44843704275534],[30.408073709023956,-0.4518289385565182],[30.408523176803,-0.452037310343791],[30.40852319691609,-0.45203730931443653],[30.408523638067255,-0.452037513820508],[30.410713758497515,-0.4519251999984118],[30.411307156637648,-0.451894830863764],[30.411307234139933,-0.4518947653625808],[30.411307606298283,-0.451894746277545],[30.413115582703927,-0.450367114893218],[30.41905995228447,-0.44887284273072],[30.42347934537422,-0.448655568013747],[30.423334100022362,-0.44381629679087536],[30.42331810486898,-0.44326753103874483],[30.427815151614634,-0.439430158291308],[30.428206363357067,-0.43909638681179264],[30.430732120894906,-0.439139629690305],[30.439429153458118,-0.442333479328575],[30.44164065623015,-0.441445225909174],[30.444306219182508,-0.4377281934100465],[30.445078297215442,-0.436651726025868],[30.445078329249426,-0.43665151345052927],[30.445078974086275,-0.436650614248534],[30.445500612328015,-0.4338492716599311],[30.445578604251768,-0.4333317225580152],[30.44746253477181,-0.43006664524238264],[30.447597674440015,-0.429832456003201],[30.457063819046354,-0.4292759680670036],[30.457163819374745,-0.4292936151837786],[30.45752463987819,-0.43137738154198],[30.458239245967576,-0.43162791096736636],[30.461037900387574,-0.4378968968681687],[30.461173594277366,-0.438635429732376],[30.46215352387313,-0.4403958934758164],[30.4622,-0.4405],[30.4771,-0.454],[30.47362280305825,-0.4724811648478776],[30.473600774405796,-0.472516198992989],[30.46991678801517,-0.490618439231583],[30.469672809844656,-0.49347522326660187],[30.468747702561462,-0.49839213205523136],[30.46431062869057,-0.4970885845423422],[30.45684004312835,-0.494893817449149],[30.455702951378896,-0.491256544499608],[30.45045220343601,-0.489558351678661],[30.448584930536587,-0.4880136222600513],[30.448346875289598,-0.4873303197476467],[30.446886909790223,-0.483139051433855],[30.444366894653797,-0.47977818813340806],[30.444141450062588,-0.479477488229331],[30.444141392927158,-0.4794774437187058],[30.444140861368272,-0.479476734795681],[30.439027053860976,-0.475349033011354],[30.438746393644003,-0.47527453860799973],[30.43858691429201,-0.475150298260899],[30.437182581384118,-0.47485946281808034],[30.437098373500586,-0.474837111891009],[30.437095398780542,-0.47484140741898395],[30.43709460723218,-0.47484124349039],[30.43454387006433,-0.478525842533623],[30.433334052423927,-0.480272832315984],[30.426904475349932,-0.480865640278819],[30.428247329248034,-0.486381745296026],[30.42838729776992,-0.489430253857463],[30.427386956131887,-0.490058909772613],[30.421167630106343,-0.488480518132618],[30.412183932670306,-0.489562180215118],[30.406492251233143,-0.4886587610833481],[30.40562337513287,-0.488520728025706],[30.405623359583686,-0.4885208451883314],[30.405620144670426,-0.488520334897273],[30.40520446243051,-0.491651149974874],[30.398709699356974,-0.485310740540706],[30.395270017983858,-0.48389473383048576],[30.39359538907354,-0.481135203787616],[30.393595213905204,-0.4811351330379684],[30.393595067669345,-0.481134892069539],[30.389571048049262,-0.4794187675342148],[30.387885391408446,-0.476362897211583],[30.38821634299526,-0.4735105170340872],[30.3900406155644,-0.4728912294930088]]]}},{"type":"Feature","properties":{"n":"Rugarama","c":"426110","d":"Sheema","od":"Sheema","dc":"426","k":"RUGARAMA","a":["RUGARAMA"],"lat":-0.711652,"lon":30.261212},"geometry":{"type":"Polygon","coordinates":[[[30.221171006432005,-0.749916453737518],[30.221171247569888,-0.749916121754061],[30.220923925562182,-0.7464702507424665],[30.221031335343195,-0.7461254910026789],[30.22189986717511,-0.74333876313141],[30.225515859654106,-0.739223322738184],[30.229099614010828,-0.737780866138053],[30.229099577322796,-0.7377798190556312],[30.229100490782454,-0.737779451213858],[30.229074628058676,-0.7370677629999233],[30.229048226462695,-0.736314257156574],[30.231103785283022,-0.732418159705954],[30.233833455799562,-0.729712880847377],[30.23578579422929,-0.725978336818887],[30.238391814169525,-0.724380110372935],[30.240685060166975,-0.720260856678527],[30.240685056440213,-0.7202606450978495],[30.240685135627906,-0.720260502858526],[30.240616305261923,-0.7163574101215736],[30.240615223748204,-0.716296008960375],[30.239144633216014,-0.71393825305067],[30.23891658360365,-0.7110696972633233],[30.238801997867107,-0.7096279013725907],[30.239380073136324,-0.707598837501844],[30.23874997606108,-0.705992778594048],[30.238751699811225,-0.7059918896494101],[30.24272266273607,-0.704505595021844],[30.243673265164002,-0.703453819302808],[30.243678041626954,-0.703451356062332],[30.243676189001537,-0.7034505842791675],[30.243676811742183,-0.703449895259792],[30.240286262961774,-0.7017501503398247],[30.23977465656644,-0.7007325651037979],[30.23977402895585,-0.7007312588680579],[30.240769678200817,-0.697915380685875],[30.240769375088732,-0.6979143981842556],[30.240769462679523,-0.697914150841348],[30.240646817651662,-0.6975171428888551],[30.240252148140502,-0.696237868803242],[30.23911303411057,-0.69655540351543],[30.239114062741795,-0.6964725312838648],[30.239311924202937,-0.692281625616158],[30.239167462849316,-0.692170322713211],[30.239170787431267,-0.69190247596874],[30.23710891796741,-0.690419246518743],[30.236861561358044,-0.6903936985610901],[30.236680362761405,-0.6902540907745729],[30.243022970389525,-0.6835800457821141],[30.248069772612656,-0.6821519925290442],[30.251053465586033,-0.681307742254252],[30.25193813135044,-0.6745838697000758],[30.25194349912008,-0.6745828251536515],[30.255025208729982,-0.673984006708323],[30.255026044316825,-0.6739829742331931],[30.25502612344433,-0.673982958835298],[30.25565758962658,-0.6732026186884529],[30.259056002967927,-0.669003441442925],[30.259839670992417,-0.668711760156449],[30.262008131182537,-0.66790469011788],[30.262008188427465,-0.6679046378349627],[30.262008271519413,-0.667904606908135],[30.264296281166008,-0.665815284467549],[30.26708118305626,-0.6672365653092008],[30.268784158135052,-0.6694902718555003],[30.270832837016,-0.672201647421409],[30.270833253766476,-0.6722020321719276],[30.270833330595995,-0.672202133847633],[30.276162215525627,-0.677121880207112],[30.276162305044828,-0.677121895159091],[30.27616264674317,-0.677122210620314],[30.276169886439785,-0.677123161444522],[30.280223935170728,-0.677800290504951],[30.277395556301602,-0.679220371904481],[30.277240938850838,-0.687577728211255],[30.276039719724007,-0.69147007063332],[30.279682710078955,-0.691591448872348],[30.279103313607532,-0.696755417127396],[30.2804117341563,-0.698859007406694],[30.280778127351304,-0.703379145264748],[30.283380391104334,-0.710090918307733],[30.28349125532273,-0.712233931598612],[30.291309839647607,-0.716682658392864],[30.300950905624383,-0.716227203000886],[30.312981274587155,-0.716853575562026],[30.31402569147238,-0.7178847758043116],[30.3118,-0.7354],[30.30629585889517,-0.7331290606630421],[30.303923408280685,-0.729863825743995],[30.30276049963122,-0.729472360530724],[30.29766865465191,-0.7295695847864537],[30.2975,-0.7295],[30.297374669720824,-0.7295751981675046],[30.297097639296087,-0.729580487817321],[30.295302407195713,-0.7308185556825725],[30.2865,-0.7361],[30.28639052464154,-0.7361022999024887],[30.277409629630025,-0.732130570107036],[30.27569393045016,-0.732102172719928],[30.273598198269404,-0.7363710462548444],[30.272510652984728,-0.7363938938448586],[30.270720224300423,-0.736084626418556],[30.2694980104731,-0.7364571846539265],[30.2627,-0.7366],[30.2622088803734,-0.7368630997999633],[30.260724380508545,-0.737167496540096],[30.254238003099406,-0.7411332126253173],[30.235772512659945,-0.7510254396464578],[30.23366440548957,-0.750919491188267],[30.228872063913737,-0.75337193678583],[30.223481188739786,-0.7576045822300528],[30.22151858788493,-0.7580826516690558],[30.21989118733318,-0.7516784281006837],[30.221170687258933,-0.7499168931549083],[30.221171016870482,-0.749916599236953],[30.221171006432005,-0.749916453737518]]]}},{"type":"Feature","properties":{"n":"Shuuku Town Council","c":"426111","d":"Sheema","od":"Sheema","dc":"426","k":"SHUUKUTOWNCOUNCIL","a":["SHUUKU","SHUUKUTOWNCOUNCIL"],"lat":-0.684177,"lon":30.322571},"geometry":{"type":"Polygon","coordinates":[[[30.279747564881532,-0.6775930351771066],[30.28043984426955,-0.677683955561746],[30.28109138505581,-0.6766643973316064],[30.28195636770692,-0.67606665691894],[30.28322411053798,-0.6733270194362506],[30.284117211686404,-0.671929457464033],[30.292905153356223,-0.6524059405498102],[30.292905600850712,-0.652404973498255],[30.309468509585855,-0.652061420302252],[30.31419548368914,-0.653582253640069],[30.319487290641444,-0.65383807013066],[30.330162198817707,-0.651738078500278],[30.329606726154477,-0.655250175888883],[30.330948203574657,-0.656835592247735],[30.334229357784427,-0.66801118549319],[30.33901480727958,-0.673560769951277],[30.347017777293843,-0.67541484818988],[30.352329721929504,-0.678455345959057],[30.355478850164854,-0.67845731923048],[30.362562140309276,-0.681895215841249],[30.36630105451942,-0.682689849097189],[30.369644572819826,-0.685926903755565],[30.372072549669106,-0.685664864137308],[30.37469593256403,-0.688176188494838],[30.379482616915084,-0.690753881195802],[30.382107005868537,-0.691085788130761],[30.384393263292594,-0.694217419914566],[30.379705183070282,-0.697002530216019],[30.378415372747142,-0.699951037101038],[30.37842209378101,-0.702349174738152],[30.377381105937143,-0.703813365781141],[30.37745255795102,-0.7043520932931424],[30.377,-0.705],[30.375187442476335,-0.705517142118333],[30.37516747220126,-0.70551825761027],[30.375152109314264,-0.7055272230487543],[30.368510374181177,-0.7074221813776866],[30.359415211314364,-0.708113180763681],[30.35602576554703,-0.7109841742365818],[30.3416,-0.7151],[30.331207321793247,-0.71593141425654],[30.329993855188885,-0.71376213061376],[30.31362979715817,-0.717168489351265],[30.313273428232296,-0.7171420321294315],[30.312981274587155,-0.716853575562026],[30.300951290347204,-0.7162272230318444],[30.300951098362887,-0.716227208778717],[30.30095105550455,-0.716227210804539],[30.300950905624383,-0.716227203000886],[30.291309839647607,-0.716682658392864],[30.289181150058727,-0.7154714469999571],[30.28349122502872,-0.7122333460132394],[30.283380391104334,-0.710090918307733],[30.280778149499817,-0.7033792023903126],[30.280727670027538,-0.7027566608341198],[30.2804117341563,-0.698859007406694],[30.280411608036577,-0.6988588046399115],[30.280411590463235,-0.69885858791548],[30.280118074939676,-0.6983868819313659],[30.279103313607532,-0.696755417127396],[30.279608766172903,-0.6922504863403617],[30.27968233617855,-0.691595036530065],[30.279682307650777,-0.6915950355809973],[30.279682710078955,-0.691591448872348],[30.276039719724007,-0.69147007063332],[30.277240938850838,-0.687577728211255],[30.277395556301602,-0.679220371904481],[30.280223935170728,-0.677800290504951],[30.27959875464449,-0.6776958694852679],[30.279747564881532,-0.6775930351771066]]]}},{"type":"Feature","properties":{"n":"Kabwohe Division","c":"426201","d":"Sheema","od":"Sheema","dc":"426","k":"KABWOHEDIVISION","a":["KABWOHE","KABWOHEDIVISION"],"lat":-0.561389,"lon":30.374291},"geometry":{"type":"Polygon","coordinates":[[[30.332043637959927,-0.553287937184028],[30.333928854089155,-0.549338929348806],[30.337754546225298,-0.547978598063918],[30.338252677935255,-0.546134555863155],[30.33770292358039,-0.544007190613236],[30.339555090314843,-0.543038572960338],[30.34166066065328,-0.54366979670351],[30.341690307863562,-0.536412834549611],[30.343949100177806,-0.530074597273613],[30.342144710062648,-0.525054764040441],[30.344541705372425,-0.5258070711589452],[30.344545505770135,-0.525808351959027],[30.344548136800174,-0.5258109029063257],[30.346978415537265,-0.528653893109977],[30.34770168351835,-0.5288684626320321],[30.348023521279323,-0.529180504362855],[30.352181700729645,-0.530199029509493],[30.3533032430758,-0.5300639759334795],[30.353544382087996,-0.530035169957416],[30.35354478178988,-0.5300348903914189],[30.35354512638088,-0.530034848896555],[30.36003034497827,-0.5254990712568537],[30.372087685049003,-0.527031170111604],[30.372087733642392,-0.5270311457425316],[30.37209003797753,-0.527031438552713],[30.37324162042448,-0.526452681440677],[30.37674565815398,-0.527351061258701],[30.37895183351361,-0.5279167013007598],[30.3791508543206,-0.528768351819723],[30.380252010594518,-0.5315105012722965],[30.3811812695969,-0.53422863881794],[30.38157761671373,-0.5348115859413939],[30.381648935102223,-0.534989186237192],[30.38177808586308,-0.5351064358570187],[30.38286867861858,-0.536710479087523],[30.38399586707923,-0.537119850278501],[30.383998653245527,-0.537122379701765],[30.385278026045363,-0.5394633653556501],[30.385923703682103,-0.540645591637445],[30.38592424511536,-0.5406458116076921],[30.385924871945885,-0.540646958576948],[30.388955674612237,-0.541877524935237],[30.391750141394386,-0.544987735777025],[30.391750731914566,-0.5449880554214109],[30.391750749082014,-0.544988074527562],[30.391751583017726,-0.544988516117514],[30.40022215203292,-0.549573575049288],[30.400256979219115,-0.5494923375158712],[30.40029006872596,-0.54950985924272],[30.40113359059038,-0.557335359821124],[30.40201643206255,-0.558631041608209],[30.39928423464829,-0.561945585329947],[30.40072972002934,-0.566268256010197],[30.400127713897934,-0.567842829402258],[30.397546449833982,-0.569258335034002],[30.395577751062106,-0.575104215001942],[30.394778272433978,-0.574883771910868],[30.393084763854105,-0.576517091132101],[30.392599410646167,-0.579486384519519],[30.39365124336296,-0.581183758066758],[30.39198107646922,-0.591244714034975],[30.388556888754888,-0.598136432600514],[30.38540821160254,-0.595708616010144],[30.379263247115325,-0.593186464556798],[30.37641980519249,-0.59396564108461],[30.37541433685899,-0.593443800319481],[30.371916803270434,-0.596386682362769],[30.366686172166464,-0.597455630795721],[30.36571684437616,-0.595786644209011],[30.361736022206703,-0.593344244554078],[30.360266646178868,-0.591526970614867],[30.358968092204297,-0.587631393171047],[30.355495701383493,-0.584412071310258],[30.354796008454517,-0.581700453889914],[30.355644512987425,-0.579621668491718],[30.355725522267978,-0.575808352536138],[30.358576165385273,-0.571090700379949],[30.358758287059935,-0.568799164229223],[30.360279262301265,-0.567661322206516],[30.360032728346873,-0.564675782243372],[30.35697619150654,-0.565587345324633],[30.35526335224849,-0.564104111378538],[30.35180326811126,-0.56332558150611],[30.347987918163106,-0.560832621472914],[30.343433673116394,-0.562920992768034],[30.339791906597693,-0.562727064200517],[30.328288114632084,-0.557930074934453],[30.32855468720977,-0.556445176162284],[30.332043637959927,-0.553287937184028]]]}},{"type":"Feature","properties":{"n":"Kagango Division","c":"426202","d":"Sheema","od":"Sheema","dc":"426","k":"KAGANGODIVISION","a":["KAGANGO","KAGANGODIVISION"],"lat":-0.600731,"lon":30.417498},"geometry":{"type":"Polygon","coordinates":[[[30.382354215792272,-0.621490162595972],[30.38423853213565,-0.614325692305973],[30.383314923807195,-0.611368419113226],[30.38515042638657,-0.609522562865876],[30.384149248637954,-0.607674870808836],[30.384335166696935,-0.605781443457318],[30.386044688015456,-0.60376820289787],[30.3919809834253,-0.591245097284765],[30.39198103228485,-0.5912448029629988],[30.39198107646922,-0.591244714034975],[30.39365124336296,-0.581183758066758],[30.392599410646167,-0.579486384519519],[30.393084748642316,-0.576517184194771],[30.39388627403594,-0.5757440675988523],[30.394778272433978,-0.574883771910868],[30.395577751062106,-0.575104215001942],[30.397546434303266,-0.5692583811511166],[30.400126646862674,-0.567843788271561],[30.400126827766254,-0.5678433153364174],[30.400127713897934,-0.567842829402258],[30.40072972002934,-0.566268256010197],[30.39944707598897,-0.5624325563488988],[30.402016322311567,-0.558631522313641],[30.402016248582566,-0.5586312641955034],[30.40201643206255,-0.558631041608209],[30.402016006673836,-0.5586304172963417],[30.40082297567593,-0.5544537306717136],[30.40029006872596,-0.54950985924272],[30.400256979219115,-0.5494923375158712],[30.401430239651067,-0.546755602397076],[30.40760271406793,-0.545494949395086],[30.41530026814292,-0.540509978699595],[30.41676584535518,-0.538155340603538],[30.421320262203924,-0.536309729967066],[30.421351214182533,-0.5362971926626021],[30.422374300423282,-0.536176557969135],[30.427168472247228,-0.540052768953786],[30.42833267884703,-0.5366187382776477],[30.428337274873517,-0.5366052425872155],[30.432534308118804,-0.5352386068023735],[30.433690769508857,-0.534862111871471],[30.433690868373706,-0.534862008253041],[30.433691060082833,-0.534861945828815],[30.43505917679401,-0.5334279093703677],[30.436612658186878,-0.5317997341017595],[30.441488648131774,-0.529531595752614],[30.44148939204415,-0.5295309954824289],[30.44148939316712,-0.529530994960068],[30.441493140778036,-0.5295279705923248],[30.444960134149902,-0.526730419669688],[30.444495935388122,-0.530350239618884],[30.444496311512506,-0.5303507330663574],[30.444496294492232,-0.530350865005445],[30.44957343198474,-0.537011609291059],[30.44957348272946,-0.5370116075442809],[30.449574908720493,-0.537013478339429],[30.451074254912584,-0.536960709620511],[30.456192547567046,-0.5403343743820687],[30.457165288809374,-0.540975558275468],[30.45754017616792,-0.5460756738337885],[30.454950942889553,-0.563246378732431],[30.454360251340983,-0.566932756775976],[30.454605561792487,-0.568930345084738],[30.45621627575207,-0.57127041352842],[30.4576,-0.5746],[30.455334489700633,-0.5778909518032925],[30.452749740431106,-0.578256763760181],[30.451362556699593,-0.579512371192809],[30.448164874123197,-0.5883057617999864],[30.4481,-0.5884],[30.448055241112602,-0.5946214853482763],[30.447023147848718,-0.599185923360119],[30.448000174924946,-0.602275685432749],[30.448,-0.6023],[30.445254391900516,-0.606186091463887],[30.44458628420331,-0.60638226060714],[30.442833563575245,-0.6096124946319604],[30.4415,-0.6115],[30.44141571776396,-0.6122255601189733],[30.441150541415407,-0.612714275576505],[30.440639381544344,-0.616004412923021],[30.440916277155548,-0.6165250923131307],[30.44007159425965,-0.623796710286495],[30.43886522456118,-0.625013736097282],[30.43813502241847,-0.627084051379809],[30.43926769943353,-0.6307171961809108],[30.4392,-0.6313],[30.43618645739138,-0.634439106883978],[30.436184912826334,-0.634439453964053],[30.432041288063903,-0.638734495360548],[30.42954459390267,-0.639935967821229],[30.42712985244859,-0.642989937185307],[30.42713475538349,-0.6438679631421943],[30.4224,-0.6488],[30.413342936302353,-0.6624947167958364],[30.412747504792417,-0.662780547337472],[30.412075956987643,-0.6644104505789276],[30.41082826943616,-0.6662970142862867],[30.40960747961732,-0.666958901623127],[30.408331556241826,-0.6700721649596472],[30.40829221947792,-0.6701316440424187],[30.40640386371704,-0.671768481219202],[30.405951634070195,-0.6736707219781984],[30.4058,-0.6739],[30.404813922759267,-0.6746412124225641],[30.404560670997597,-0.674610994418733],[30.404278788189462,-0.675043461226712],[30.40277905867587,-0.6761707746865946],[30.401293736122344,-0.676784003029515],[30.397270279456254,-0.672298147322068],[30.395631586462606,-0.67249627260421],[30.39361543267414,-0.674167373238481],[30.387383859013006,-0.670838010602409],[30.383920148814582,-0.666678730829157],[30.382942177774755,-0.662737014814799],[30.372826815575273,-0.644277443625112],[30.371395400222305,-0.643020343397867],[30.37099534609164,-0.640977341285843],[30.367366943289944,-0.636891041359444],[30.378789866416508,-0.627029577716415],[30.382354215792272,-0.621490162595972]]]}},{"type":"Feature","properties":{"n":"Kashozi Division","c":"426203","d":"Sheema","od":"Sheema","dc":"426","k":"KASHOZIDIVISION","a":["KASHOZI","KASHOZIDIVISION"],"lat":-0.642123,"lon":30.332038},"geometry":{"type":"Polygon","coordinates":[[[30.2887,-0.6205],[30.2898,-0.6098],[30.290716060620962,-0.6081752887099885],[30.295592049464158,-0.599955078601314],[30.295778354708077,-0.5991968803290681],[30.300322181630722,-0.5911380174851304],[30.300404077181543,-0.591037202753872],[30.308055766704992,-0.592622414121058],[30.317539520970772,-0.597624688465081],[30.319501221115242,-0.597752185685463],[30.321994396488176,-0.596479161476148],[30.32503343729135,-0.597272349180598],[30.326803753892488,-0.600484619562996],[30.327060735619966,-0.603140094550844],[30.324914982646202,-0.611463571410445],[30.329630616174445,-0.612260883048332],[30.336086445108457,-0.623498958523378],[30.342713635370153,-0.626773807166831],[30.347564279742148,-0.627319751321385],[30.352675631282487,-0.630189334710229],[30.35455977531282,-0.630232167080721],[30.35552899698812,-0.631108559863],[30.356216004051127,-0.630246487404652],[30.358243177126425,-0.630874611591221],[30.364753935430706,-0.634457695153998],[30.366552377400694,-0.633972722323704],[30.367079036187764,-0.636511349147762],[30.367392582638544,-0.6368689067883496],[30.367366943289944,-0.636891041359444],[30.370992972314777,-0.6409746679431205],[30.37099535457055,-0.6409773845860683],[30.371395400222305,-0.643020343397867],[30.371396017287747,-0.6430208853182151],[30.37139611167964,-0.643021366818673],[30.372255981878062,-0.6437761250043549],[30.372826815575273,-0.644277443625112],[30.381952763125614,-0.6609314274525558],[30.383919876254,-0.6666776322726895],[30.383920148814582,-0.666678730829157],[30.387383859013006,-0.670838010602409],[30.387784558224805,-0.6710520934419317],[30.388266638641674,-0.671597676178575],[30.39360684779796,-0.6741627865694421],[30.39361543267414,-0.674167373238481],[30.39563142403477,-0.6724964072334535],[30.39727067549366,-0.6722985888743974],[30.39732066967022,-0.6723543286725001],[30.401202585824137,-0.676759234170847],[30.399727895263755,-0.677795293883955],[30.39947516529827,-0.6786542381650578],[30.3909,-0.6851],[30.39089670797019,-0.6851047130498726],[30.390688581647474,-0.685173135455399],[30.39059073341004,-0.6855427629597264],[30.384415245620023,-0.6943839289324812],[30.38432647362433,-0.6942570985429795],[30.384393263292594,-0.694217419914566],[30.382107005868537,-0.691085788130761],[30.379482616915084,-0.690753881195802],[30.37469593256403,-0.688176188494838],[30.372072549669106,-0.685664864137308],[30.369644572819826,-0.685926903755565],[30.36630105451942,-0.682689849097189],[30.362562140309276,-0.681895215841249],[30.35655625061612,-0.678980238846129],[30.355479298158706,-0.678457519355788],[30.355479262448885,-0.6784575193338005],[30.355478850164854,-0.67845731923048],[30.352329721929504,-0.678455345959057],[30.347017777293843,-0.67541484818988],[30.339014852806333,-0.6735607804986318],[30.338152339797208,-0.6725605846728357],[30.334229357784427,-0.66801118549319],[30.330948203574657,-0.656835592247735],[30.329606726154477,-0.655250175888883],[30.330162198817707,-0.651738078500278],[30.319487290641444,-0.65383807013066],[30.315518752768156,-0.6536462231036101],[30.314195452347427,-0.6535822435563412],[30.309468509585855,-0.652061420302252],[30.309468380254433,-0.6520614229848861],[30.309468358549672,-0.652061416001363],[30.292905602418177,-0.65240496261374],[30.292897819533668,-0.6507882310483399],[30.29285184580561,-0.641225049700797],[30.291095009055432,-0.6350797404131003],[30.289847705020186,-0.6307167293867054],[30.289119730601623,-0.6243340783441981],[30.28868675113417,-0.620537734240142],[30.288690422123615,-0.6205014624284371],[30.2887,-0.6205]]]}},{"type":"Feature","properties":{"n":"Sheema Central Division","c":"426204","d":"Sheema","od":"Sheema","dc":"426","k":"SHEEMACENTRALDIVISION","a":["CENTRAL","CENTRALDIVISION","SHEEMA","SHEEMACENTRAL","SHEEMACENTRALDIVISION"],"lat":-0.574889,"lon":30.332579},"geometry":{"type":"Polygon","coordinates":[[[30.30972327783744,-0.573970264088221],[30.30602365582743,-0.5639042037405617],[30.30629588733137,-0.562592542857939],[30.308159075003132,-0.557413217059535],[30.307849715109896,-0.5551059181068709],[30.3092,-0.5486],[30.309192911107875,-0.5484058734156148],[30.30924291752137,-0.54828890421691],[30.30918644121123,-0.548228697784519],[30.30854182734817,-0.5305761950729585],[30.308994410600548,-0.529334732234735],[30.308411546728827,-0.5270085104202205],[30.308246391259424,-0.5224857914118758],[30.309193239168593,-0.518878412107734],[30.30812663553854,-0.514409387294996],[30.31009850426342,-0.5144922983667671],[30.31274305495271,-0.514603508827428],[30.31801661051382,-0.5161004136099389],[30.327889247266196,-0.5189028031036101],[30.327890762658495,-0.5189035720871505],[30.332698244413194,-0.521563736508237],[30.334298187438637,-0.5221550101446651],[30.335470610869613,-0.522749954649486],[30.340438518348357,-0.5244242258155538],[30.3421446961663,-0.525054759495045],[30.342255291118224,-0.5253624017586256],[30.34394902736012,-0.5300743946940094],[30.34268332529653,-0.5336263985990115],[30.341690307863562,-0.536412834549611],[30.34166066065328,-0.54366979670351],[30.339555090314843,-0.543038572960338],[30.33946401853793,-0.5430862002765802],[30.337705113445733,-0.544005804147908],[30.33770516815017,-0.5440060167826785],[30.33770292358039,-0.544007190613236],[30.338252677935255,-0.546134555863155],[30.337754676135667,-0.5479781171465281],[30.334998812247537,-0.5489584759551271],[30.333928854089155,-0.549338929348806],[30.333928757032336,-0.5493391326560715],[30.33392870272256,-0.549339151975991],[30.33342763291858,-0.550388849460937],[30.332043637959927,-0.553287937184028],[30.330686283203733,-0.5545162415226286],[30.328555088304228,-0.556444574517441],[30.328555037249487,-0.5564448594025728],[30.32855468720977,-0.556445176162284],[30.328288114632084,-0.557930074934453],[30.339791906597693,-0.562727064200517],[30.343433673116394,-0.562920992768034],[30.34343420778615,-0.5629207475926074],[30.3434343632767,-0.562920755931524],[30.344290193976935,-0.5625282309468148],[30.347987713840258,-0.5608327151661529],[30.351562783194325,-0.5631684480073084],[30.35180326811126,-0.56332558150611],[30.35526335224849,-0.564104111378538],[30.35697619150654,-0.565587345324633],[30.360032728346873,-0.564675782243372],[30.36027895481777,-0.5676575985641729],[30.36027926018903,-0.56766132378668],[30.358789847488882,-0.5687755538631017],[30.358758361320085,-0.568799041700209],[30.358758355659056,-0.5687991129102014],[30.358758287059935,-0.568799164229223],[30.358576165385273,-0.571090700379949],[30.355725522267978,-0.575808352536138],[30.355648210901933,-0.5794475981099793],[30.35564450919389,-0.5796216777856493],[30.354796008454517,-0.581700453889914],[30.355462786765578,-0.5842845127090108],[30.355495618429956,-0.584411817153717],[30.35549564126501,-0.5844118383247192],[30.355495701383493,-0.584412071310258],[30.358968038825093,-0.587631343682138],[30.3598829772822,-0.5903759888851736],[30.360266646178868,-0.591526970614867],[30.361736022206703,-0.593344244554078],[30.36571684437616,-0.595786644209011],[30.366686172166464,-0.597455630795721],[30.36668942352978,-0.597454966336757],[30.36668948568758,-0.597455072968079],[30.36865564230098,-0.5970531436058986],[30.371916803270434,-0.596386682362769],[30.37191711400125,-0.5963864209087709],[30.371917447950494,-0.596386352641571],[30.37235110286484,-0.5960212555711667],[30.37541433685899,-0.593443800319481],[30.37641980519249,-0.59396564108461],[30.379263247115325,-0.593186464556798],[30.38540821160254,-0.595708616010144],[30.38701075520761,-0.5969442720532774],[30.38855688080983,-0.598136441096556],[30.38604829179903,-0.6037606004186802],[30.386044811715816,-0.6037679419417398],[30.385900100481944,-0.6039384783332806],[30.384335166696935,-0.605781443457318],[30.384335028269106,-0.6057828532345114],[30.384334718721234,-0.605783218024276],[30.384282874260364,-0.6063140002741342],[30.384149248637954,-0.607674870808836],[30.384149843261763,-0.6076759681980783],[30.384149833705578,-0.60767606603406],[30.384380881418167,-0.6081023533899704],[30.385150371859332,-0.6095224622348522],[30.38467834929878,-0.6099973028371066],[30.383314923807195,-0.611368419113226],[30.384238525935796,-0.61432567245485],[30.382354150458568,-0.6214902641321784],[30.378789866416508,-0.627029577716415],[30.372405253667335,-0.6325414441452768],[30.36739257509336,-0.6368688981840782],[30.367345869817314,-0.6368156370858757],[30.366554959992502,-0.6339851710609217],[30.366552377400694,-0.633972722323704],[30.366551544252637,-0.6339729469927112],[30.36655140288766,-0.633972441083248],[30.365407766028508,-0.6342813813886167],[30.364753935430706,-0.634457695153998],[30.358243177126425,-0.630874611591221],[30.35791692779801,-0.6307735224950177],[30.357787294930695,-0.630703656441527],[30.356230015295292,-0.630250828820514],[30.356216004051127,-0.630246487404652],[30.35552899698812,-0.631108559863],[30.35455977531282,-0.630232167080721],[30.353001636267262,-0.6301967458030464],[30.352123375098987,-0.629879290457149],[30.347564279742148,-0.627319751321385],[30.342713635370153,-0.626773807166831],[30.33608646778,-0.6234989697265981],[30.335949518160923,-0.623260601003891],[30.329630616174445,-0.612260883048332],[30.32962978635418,-0.6122607427436726],[30.32962922161455,-0.612259759781729],[30.327415244150732,-0.6118863115541356],[30.324915368658747,-0.6114636366768175],[30.326628055466728,-0.6048184812463918],[30.327060735619966,-0.603140094550844],[30.326803753892488,-0.600484619562996],[30.32503343729135,-0.597272349180598],[30.321994396488176,-0.596479161476148],[30.321993979892518,-0.5964793741913714],[30.321993496740173,-0.596479248100689],[30.320792365317615,-0.5970929228653729],[30.31950128818109,-0.5977521514414019],[30.31825445537896,-0.5976711543584828],[30.317539520970772,-0.597624688465081],[30.308055766704992,-0.592622414121058],[30.30805572608693,-0.5926224057061563],[30.308055682759317,-0.592622382852641],[30.300404078640632,-0.591037190568163],[30.300393302421966,-0.5910118787233067],[30.3004,-0.591],[30.303215302694362,-0.577435359745341],[30.30733043197054,-0.576572113797378],[30.30972327783744,-0.573970264088221]]]}}]}
