{"type":"FeatureCollection","name":"Ssembabule sub-counties","metadata":{"source":"Uganda Bureau of Statistics NPHC 2024 Map Explorer","retrieved":"2026-07-26","display_only":true,"clipped_to_dashboard_district":true,"positive_area_overlaps_removed":true,"source_gap_ratio":0.00339064},"features":[{"type":"Feature","properties":{"n":"Bulongo","c":"111101","d":"Ssembabule","od":"Ssembabule","dc":"111","k":"BULONGO","a":["BULONGO"],"lat":0.10273,"lon":31.257147},"geometry":{"type":"Polygon","coordinates":[[[31.12893334755374,0.119131051087292],[31.133467080522372,0.122759443533676],[31.143058422205108,0.126154601704689],[31.15104719542077,0.131729006318024],[31.151819352742848,0.143298041006701],[31.153270509157576,0.14953731545546],[31.156008306714728,0.154058988773346],[31.158892686915465,0.154710734489995],[31.164554634943492,0.162116789018635],[31.165510838998372,0.164586042464493],[31.165565763800306,0.170526448846423],[31.16624882336339,0.172181432070287],[31.169549709156183,0.170713137552554],[31.17338029561441,0.170165981028521],[31.17906750233206,0.173045017401837],[31.18151939308036,0.17283159763478],[31.18582517213956,0.176685593633719],[31.186821872648505,0.176657995105495],[31.193031772150935,0.183650850400102],[31.193947796117033,0.185614100806579],[31.19429167435241,0.190805636970445],[31.19743559970536,0.19603553040043273],[31.220914437635862,0.18265805297491594],[31.22190227416368,0.181907951264751],[31.22245292423171,0.18178147340286363],[31.224,0.1809],[31.2336,0.1792],[31.24483548660279,0.16719627499702197],[31.245253001720524,0.166691128131501],[31.24541064404311,0.1666735416418651],[31.25461415804481,0.1644727013371112],[31.260511761265448,0.162089289131798],[31.262765771663073,0.16252340242839522],[31.2637,0.1623],[31.264628981839707,0.16288224918122415],[31.26600753408558,0.163147752774561],[31.274826304543087,0.168628989545569],[31.277912688289526,0.171161231543329],[31.2779693090242,0.17127017538700365],[31.293857955079307,0.187357429517798],[31.293134416812666,0.184774290791849],[31.29561293130155,0.180497286710551],[31.295790276992307,0.177289043898179],[31.293312407815453,0.169446394650261],[31.29304830595353,0.151622723632401],[31.290418785258577,0.142190032977417],[31.29120415436605,0.131640658522648],[31.292693934257375,0.130371837845773],[31.29300802233066,0.12848730925721],[31.292237376111913,0.127116268574653],[31.29369330916933,0.12349044023976],[31.29275562879029,0.123094521047842],[31.293396896753066,0.121214620939529],[31.291125151900424,0.116206867751652],[31.294479723377524,0.115647729213847],[31.295941667590814,0.114296174101918],[31.28728361583546,0.104618644109565],[31.284929707327574,0.100115226115944],[31.287236819572037,0.100911952596019],[31.294248571269847,0.101064935312503],[31.292228464955482,0.09703202503621],[31.29643450975632,0.094202406961888],[31.291273293950187,0.089768692540932],[31.29796695385477,0.085837100404019],[31.299930056575572,0.082838886723252],[31.30431310477701,0.071971932797674],[31.301972579311045,0.071841870675169],[31.286770676918266,0.075209393700623],[31.27739986808243,0.079939282442548],[31.27397923886482,0.082738113287095],[31.26529748253067,0.082747539688879],[31.265949479974662,0.078969700601487],[31.265169112565818,0.078317585019411],[31.267062056234657,0.074604033511058],[31.27001284307417,0.064134271692005],[31.283813225758244,0.049096710217799],[31.289647727105113,0.047555640496973],[31.29645632912149,0.048855707128368],[31.309874068410593,0.048028344854154],[31.311300934980604,0.045008876466261],[31.318838858522156,0.03569431019511],[31.31775522790219,0.032023957599521],[31.31399581194099,0.02983466806206],[31.312805951077777,0.028312000463866],[31.31111597451214,0.027906937803484],[31.309760261260777,0.026669840996874],[31.308975017846635,0.024124146623778],[31.30457320661385,0.021887543961124],[31.30167007583059,0.019151077590234],[31.297862943072513,0.021482947427543],[31.296362563982708,0.023719452822503],[31.286925319131125,0.023891219788993],[31.28462070339126,0.02032489341668],[31.284984731267375,0.014014445201934],[31.28433752316609,0.011558964834889],[31.283328062977706,0.009590141727264],[31.280346322536815,0.009392372263035],[31.26999555311843,0.015269735435777],[31.264213158895693,0.022241679025742],[31.25330628880968,0.026245225209276],[31.24153907947229,0.031763975829555],[31.235860836411923,0.035290162589545],[31.236638872769397,0.037321579219325],[31.23987580654004,0.037464895540084],[31.243729664389136,0.039605859110645],[31.24601308038297,0.040009993534099],[31.247108500560675,0.041271482532414],[31.250977184943597,0.04164981656473],[31.254851778523022,0.051344560331473],[31.253113796304554,0.066014825896401],[31.25034702464737,0.063931334979278],[31.248405472336312,0.065358939750373],[31.246170077571588,0.067696962695464],[31.245420566989125,0.072015532389883],[31.245491932052975,0.077512236963721],[31.247102702390123,0.082963642346916],[31.249636103118508,0.083678201921776],[31.250029339855914,0.08567575596955],[31.249600348793212,0.094262452189372],[31.247889922554148,0.093434490267566],[31.24590506315458,0.090536008425651],[31.234612813567498,0.0913497641391],[31.232042323482293,0.090450348262745],[31.22279544721957,0.093248493440627],[31.222450458038853,0.094261695891282],[31.227413074902305,0.099394527053808],[31.228289596455713,0.104395665265232],[31.2279088470623,0.111934008987798],[31.224691729054435,0.120690662702708],[31.216161825718896,0.130152374342306],[31.21220422129326,0.131674064701079],[31.204510907184414,0.131348061276834],[31.204815465106496,0.132784647338349],[31.203040624802888,0.135514966147088],[31.199297185349817,0.136163503656927],[31.196327706293907,0.134502749765245],[31.19247456643328,0.133930445258813],[31.189024327927633,0.130618816001603],[31.186399988524283,0.129930138993736],[31.182626997016502,0.130181021288436],[31.178536454352145,0.128552128606999],[31.17511279904234,0.125616374580523],[31.174230183295062,0.123437669432707],[31.17388515917318,0.117831827070342],[31.171301480936773,0.113448786095275],[31.17170124228915,0.10939265632698],[31.165307794490456,0.109231198787833],[31.160947977126025,0.11020200415521],[31.15336414219483,0.10916692624116],[31.14808678374705,0.092498186593496],[31.14512389644106,0.091276052981174],[31.13355610435573,0.091802083355663],[31.11773803668571,0.107027897498181],[31.12631744661717,0.118603942837382],[31.12893334755374,0.119131051087292]]]}},{"type":"Feature","properties":{"n":"Kyeera","c":"111102","d":"Ssembabule","od":"Ssembabule","dc":"111","k":"KYEERA","a":["KYEERA"],"lat":0.184632,"lon":31.104139},"geometry":{"type":"Polygon","coordinates":[[[31.030011606458338,0.1941393994254708],[31.077889948320312,0.20338366943889422],[31.080057738100393,0.203621602461763],[31.080666925583408,0.20391984355526607],[31.0816,0.2041],[31.1044,0.2155],[31.10448593156438,0.21560959387921125],[31.109246478837903,0.219349259500119],[31.111926583172902,0.2245899613619276],[31.11373394042373,0.22542634477055706],[31.118737610281983,0.227263396569794],[31.122971481827808,0.2297011644628686],[31.1301,0.233],[31.130162746870937,0.2330051358648811],[31.14499178350893,0.232773658998397],[31.155289377834453,0.23506176402203718],[31.156991304528194,0.2352010676304215],[31.166762157254663,0.23318247723809407],[31.1675,0.233],[31.18946916903807,0.20069239847342304],[31.189587880482996,0.200497225280938],[31.193603204442667,0.197386615639783],[31.196938378191696,0.19631883103031278],[31.19743559139366,0.19603553513617095],[31.197149380672766,0.1955594074426429],[31.19429167435241,0.190805636970445],[31.194291660555788,0.19080542868256278],[31.194291629308992,0.190805376701756],[31.194073043508997,0.18750496303019962],[31.193947796117033,0.185614100806579],[31.193031772150935,0.183650850400102],[31.186821872648505,0.176657995105495],[31.18582517213956,0.176685593633719],[31.18351082926275,0.17461408274921797],[31.181519169991162,0.17283161705311872],[31.17906750233206,0.173045017401837],[31.179066833435623,0.17304467878619215],[31.17906679381234,0.173044682241817],[31.178571291617544,0.17279382050204994],[31.17338029561441,0.170165981028521],[31.169766671129228,0.17068214695612333],[31.169549697801354,0.17071314260338916],[31.16624882336339,0.172181432070287],[31.165565763800306,0.170526448846423],[31.16556575921169,0.17052595256366745],[31.165565724289667,0.170525867992896],[31.165510778603366,0.16458588650345476],[31.164554634943492,0.162116789018635],[31.16137794459781,0.15796155096200268],[31.158892658408455,0.1547107280486382],[31.156008306714728,0.154058988773346],[31.1560078175695,0.15405818091414925],[31.156007722532156,0.154058159427815],[31.155012606449965,0.15241451681155638],[31.153270509157576,0.14953731545546],[31.15327041958595,0.14953693034056464],[31.153270410596527,0.149536915492648],[31.151819369914232,0.143298168413618],[31.15181936500284,0.14329809371876456],[31.151819352742848,0.143298041006701],[31.151180112443864,0.13372046791132172],[31.14633668856893,0.143522636706465],[31.145327137208092,0.147533219503073],[31.14333589930273,0.146938116225278],[31.135555100488556,0.158397137187994],[31.117538786415547,0.149853434697961],[31.11602649829329,0.147160932372826],[31.110446553317743,0.14423450447506],[31.108817391113114,0.145052765637511],[31.103022891176366,0.141826192503497],[31.095397535126402,0.142753705139712],[31.09454171729516,0.138258761224711],[31.092761183295874,0.137624126376431],[31.09217852163929,0.135662118361885],[31.09263015809445,0.133837873284319],[31.087885280371108,0.136775141193542],[31.086248147850917,0.136437820915258],[31.085791191922006,0.139607013572166],[31.079281169032416,0.137947255776279],[31.073128257176172,0.142475795577141],[31.066601996911025,0.143692686470241],[31.064237793395126,0.14206728239781],[31.062232312605676,0.142493691957194],[31.046680089274624,0.147271086017791],[31.042933084815104,0.150250862452683],[31.041610599808905,0.15078753023437963],[31.0164,0.1689],[31.013423112064235,0.19797427217265606],[31.013428736862924,0.19819610347621386],[31.0193,0.1974],[31.0267,0.1935],[31.026957133190635,0.19354964684555037],[31.02982089310878,0.194058194466514],[31.030011606458338,0.1941393994254708]]]}},{"type":"Feature","properties":{"n":"Lwemiyaga","c":"111103","d":"Ssembabule","od":"Ssembabule","dc":"111","k":"LWEMIYAGA","a":["LWEMIYAGA"],"lat":0.060239,"lon":31.084048},"geometry":{"type":"Polygon","coordinates":[[[31.03032006059677,-0.009460839962606533],[31.05685970491897,0.011967465453095235],[31.05694642644242,0.011988912821807],[31.05697013356532,0.013104603653793644],[31.05702548007068,0.01397631111323973],[31.058290477647923,0.014513896083071],[31.059332995493858,0.018193076070865],[31.05879424072885,0.023889230881981],[31.057745283666915,0.025313217753914676],[31.0589,0.0435],[31.058860812051947,0.04366313122562133],[31.058897502180386,0.043934869982598],[31.058739185125443,0.04416943866385228],[31.056602863479373,0.0530624985393508],[31.057130250294822,0.058990878099023],[31.054586285635008,0.06148756094573279],[31.052025260768787,0.07783871970698568],[31.052029796053432,0.078042542761412],[31.051373996381585,0.07912021700137643],[31.044419817212503,0.0915645376197302],[31.04542055499206,0.092671443310337],[31.04781628178832,0.092581621333822],[31.049580313176193,0.093775145263962],[31.049771104976077,0.094580933034131],[31.04740184778342,0.09807898813254746],[31.047870019948885,0.09908945972300816],[31.048235546719127,0.099288914887112],[31.048024323301465,0.0994224977923302],[31.049507053993274,0.10262272486881524],[31.04999349255152,0.102969764627338],[31.05023803583073,0.10420042733465987],[31.05049506825025,0.10475518897345375],[31.051465659083664,0.105304805802807],[31.05143895059178,0.106685281572825],[31.051402441344557,0.10671360256866949],[31.052426496805435,0.10892385560506103],[31.05389935390691,0.110069863807718],[31.054670896220287,0.1137680176754514],[31.05537637845622,0.11529068350133867],[31.056787282166617,0.116768524523405],[31.056397035077385,0.117484078374847],[31.05639295294717,0.1174847901109744],[31.0564,0.1175],[31.04918967463338,0.14063642864893316],[31.049710389583915,0.142312655919298],[31.04758188046361,0.145795504446432],[31.0473,0.1467],[31.046817062668623,0.14704696468467904],[31.046680101886608,0.147271071621015],[31.04668107680589,0.14727078266399352],[31.062232312605676,0.142493691957194],[31.064236032733497,0.1420676567534027],[31.064236034594188,0.142067656201911],[31.064236034767394,0.14206765632095097],[31.064237793395126,0.14206728239781],[31.066601996911025,0.143692686470241],[31.073128257176172,0.142475795577141],[31.079281169032416,0.137947255776279],[31.085790986557747,0.1396069612136822],[31.08585278975351,0.1391798052071318],[31.086248147850917,0.136437820915258],[31.086249475013908,0.13643809436837429],[31.086249527964195,0.136437728399702],[31.086902182538118,0.1365725804169924],[31.087885280371108,0.136775141193542],[31.088355881009743,0.13648382069288373],[31.09262108975555,0.133838868266836],[31.09261977050803,0.13384430361319696],[31.09263015809445,0.133837873284319],[31.09218032965071,0.1356548154617502],[31.092178541161637,0.13566218409986935],[31.092761183295874,0.137624126376431],[31.09454171729516,0.138258761224711],[31.095397535126402,0.142753705139712],[31.103022891176366,0.141826192503497],[31.108817391113114,0.145052765637511],[31.110446553317743,0.14423450447506],[31.11044834476708,0.14423544400893304],[31.11044855937164,0.14423533626319],[31.116025775096485,0.147160534414897],[31.116025789959014,0.14716056088364435],[31.11602649829329,0.147160932372826],[31.117538786415547,0.149853434697961],[31.135555100488556,0.158397137187994],[31.143258122084845,0.1470526611186077],[31.143334259959264,0.146940492728295],[31.14333428129119,0.14694049912048332],[31.14333589930273,0.146938116225278],[31.145327137208092,0.147533219503073],[31.145331531164096,0.14751576390343973],[31.14526607983648,0.146163477220322],[31.14619834659383,0.1440722193893237],[31.14633668856893,0.143522636706465],[31.147427247242717,0.14131555335437318],[31.151132316510868,0.13300435373225486],[31.15104719542077,0.131729006318024],[31.143058422205108,0.126154601704689],[31.135531886818836,0.12349034690474602],[31.133467571189648,0.122759661964116],[31.13346747093902,0.12275958173397351],[31.133467080522372,0.122759443533676],[31.12893334755374,0.119131051087292],[31.12631744661717,0.118603942837382],[31.11773803668571,0.107027897498181],[31.117831283609732,0.10693814188680627],[31.132771419042108,0.092346814295863],[31.130248291207952,0.087842604326499],[31.128641621766636,0.082224116726966],[31.122604209361597,0.071085835330189],[31.11456324436144,0.069168496169004],[31.113242240340497,0.064787663937382],[31.11128310299573,0.061624785721501],[31.114793084364575,0.056527845456556],[31.11575673520137,0.050424640675691],[31.115471299802813,0.047283487471563],[31.1175672348182,0.037490081201],[31.117186521393446,0.033552077136639],[31.114714536161493,0.030727371500252],[31.117182805057514,0.026057764981037],[31.114684610177413,0.020852605230249],[31.114526449653457,0.017750285225619],[31.11663156676976,0.018371355752732],[31.12156409723759,0.016635746577583],[31.12232690633139,-0.001664805906186],[31.12550673297134,-0.001797776702471],[31.122381691360257,-0.007397148017975],[31.12222915440563,-0.009624496610766],[31.1182696629293,-0.015125899031845],[31.115451624066647,-0.017540743064518],[31.11632119443234,-0.01848602419598],[31.106617367992467,-0.025716865926324],[31.087410062046292,-0.036440800685306],[31.08335961099883,-0.030047281600388474],[31.0831,-0.0296],[31.08300922900017,-0.029592262144276387],[31.075610431666245,-0.023890387356186],[31.071045848002385,-0.02857243294446537],[31.053932958883628,-0.02711362928188284],[31.05391526098118,-0.027099924244446],[31.05320691727322,-0.027051737210175942],[31.0526,-0.027],[31.052585517727415,-0.027009464792319422],[31.05258362381012,-0.027009335953372],[31.04328158803977,-0.030996800978327],[31.039956067806475,-0.03526335726033423],[31.03991052459883,-0.03529312171887366],[31.03916203434119,-0.03534373129829987],[31.026668310843082,-0.03608410009818765],[31.02353977021577,-0.025679639926248],[31.028250225971508,-0.017560942339028],[31.03032006059677,-0.009460839962606533]]]}},{"type":"Feature","properties":{"n":"Nabitanga","c":"111104","d":"Ssembabule","od":"Ssembabule","dc":"111","k":"NABITANGA","a":["NABITANGA"],"lat":-0.002605,"lon":31.24502},"geometry":{"type":"Polygon","coordinates":[[[31.106936383726808,-0.025479150186167268],[31.11632119443234,-0.01848602419598],[31.11545180720265,-0.017540942145599238],[31.118269588527156,-0.015125983843081],[31.11826962806405,-0.01512592890870328],[31.1182696629293,-0.015125899031845],[31.12222915440563,-0.009624496610766],[31.122229163174385,-0.009624368569170478],[31.122229249151516,-0.009624249108588],[31.122267946869908,-0.00905804803487211],[31.122381691360257,-0.007397148017975],[31.1232697335366,-0.00580597628076232],[31.125498881890007,-0.001812475857067],[31.1254985380488,-0.0018124601594992824],[31.12550673297134,-0.001797776702471],[31.12232690633139,-0.001664805906186],[31.12156409723759,0.016635746577583],[31.11663156676976,0.018371355752732],[31.11663143651072,0.018371317322541304],[31.116631315152908,0.018371360082509],[31.116613606342167,0.01836605690634158],[31.114526449653457,0.017750285225619],[31.114684610177413,0.020852605230249],[31.117182805057514,0.026057764981037],[31.117182650801343,0.026058056811323088],[31.117182732771955,0.026058227604416],[31.116393087637313,0.027551795724469322],[31.114714536161493,0.030727371500252],[31.117186521393446,0.033552077136639],[31.11719004091494,0.03358848218319519],[31.117579136281428,0.036752610525668],[31.117523035137083,0.03703289079855529],[31.1175672348182,0.037490081201],[31.115471299802813,0.047283487471563],[31.11575673520137,0.050424640675691],[31.115482952010858,0.052158624410711965],[31.114793317665182,0.056526808567361],[31.114793227385434,0.05652693964548371],[31.114793084364575,0.056527845456556],[31.11128310299573,0.061624785721501],[31.113242240340497,0.064787663937382],[31.11442951635684,0.06872501534416317],[31.114947023673036,0.06926000696445649],[31.122604209361597,0.071085835330189],[31.128641621766636,0.082224116726966],[31.130248291207952,0.087842604326499],[31.131982322455066,0.09093814341283141],[31.132771428567903,0.092346807780399],[31.133047360926536,0.09229177862443547],[31.13355610435573,0.091802083355663],[31.136077839148804,0.09168741072948011],[31.138728787187038,0.091158732491923],[31.140355515459277,0.09149288893526548],[31.143020907123326,0.09137168369879015],[31.14384539433125,0.091158963580567],[31.14432819994636,0.09131223624951065],[31.14512389644106,0.091276052981174],[31.14808678374705,0.092498186593496],[31.148089338764446,0.09250625671421486],[31.148105562309105,0.092511407080971],[31.14775010243867,0.087251034680222],[31.14682369298748,0.085562740606227],[31.149344552284408,0.083063554928629],[31.155328907631358,0.082351100376513],[31.15531023561439,0.084042833920589],[31.153568934629092,0.085070452959428],[31.155844344805843,0.086909553592724],[31.157108179019993,0.084240060810846],[31.159050118993854,0.082469775619168],[31.16061953872988,0.082883290133242],[31.162304066965444,0.085062571904919],[31.170479894415035,0.080651285455514],[31.175293639731755,0.082735837375715],[31.17905312578489,0.078702748433048],[31.180216421199475,0.075636584491944],[31.17501728460884,0.071179480900146],[31.17243285828323,0.070807778016297],[31.17125648021202,0.069843881303846],[31.16979400805388,0.0626957641086],[31.16217876912488,0.059670988084955],[31.16220702049948,0.062314462138248],[31.15724033926005,0.064842619562622],[31.15554651582483,0.069356264981262],[31.14652505657681,0.065936287642887],[31.142765132250062,0.060630497421991],[31.143136507301993,0.058924876567452],[31.141953524865205,0.056404413053684],[31.14236019321582,0.054456193755168],[31.14016601197049,0.053529778291001],[31.139530540055684,0.052013559157489],[31.13556231257746,0.050985958226191],[31.134279803127242,0.049294749194209],[31.135161844250607,0.048634716079696],[31.136389648024206,0.044884688522837],[31.134638365288193,0.040792019622971],[31.131622164516806,0.038659970191603],[31.14142218353504,0.037891106506741],[31.146615152186993,0.03662465288515],[31.148828565808884,0.03783909695523],[31.152885544962352,0.038433963778444],[31.156347658247935,0.037160953444497],[31.158394732168652,0.03477695232105],[31.17031272629366,0.034065345172232],[31.17512800738408,0.034808789068502],[31.174161099689893,0.038737202191692],[31.1868366411968,0.040113804380685],[31.19093511400673,0.041571043286509],[31.193947009209726,0.039406123472354],[31.192305582640383,0.035952777991038],[31.19552493925962,0.02830272523133],[31.190772052861746,0.023301858281277],[31.19016488024036,0.020785991861433],[31.19157319783535,0.016059824565778],[31.186664311915436,0.009979647442917],[31.19172940868642,0.006679578088908],[31.198117426518262,0.005187864119094],[31.199291149953417,0.003888043508038],[31.1992324760491,0.002824616859535],[31.197631779092273,-0.00213174264715],[31.20182319352174,-0.003078881683571],[31.205697065213823,-0.00322734102619],[31.20849952445839,-0.000119079635175],[31.20827412966172,0.002686746082865],[31.217928044346777,0.004348443677017],[31.21908096165228,0.006777082613522],[31.232374861064216,0.018455778090646],[31.2343833554817,0.021539706536136],[31.237347890560404,0.023444520584936],[31.2394970830439,0.020693897625874],[31.244067065681694,0.021430707555546],[31.24992878271544,0.018798354041685],[31.251151515753943,0.018774755348579],[31.25099147260447,0.019979327476454],[31.254293182641913,0.02588296958466206],[31.264202563147496,0.022245568369514874],[31.264213246966484,0.0222415728370998],[31.264220825580814,0.022232435156482853],[31.269400988759823,0.01579297897113],[31.269830503076093,0.015468739436604304],[31.26999555311843,0.015269735435777],[31.270393288793777,0.015043893576463852],[31.271827980365803,0.013960847657205],[31.27972811104297,0.009606362255115],[31.279971391437925,0.009605265251359392],[31.280346322536815,0.009392372263035],[31.283327887479203,0.009590130087000277],[31.28332806171622,0.009590129301328],[31.28386282376408,-0.004797082263782],[31.29163751140824,-0.011606100847714],[31.2901206420872,-0.015294272140101],[31.289704200954123,-0.01922037120833],[31.279062054222198,-0.029449963175632],[31.285299225495066,-0.030668935045568],[31.287338186883122,-0.03737255395083],[31.28649595651518,-0.038748060199243],[31.286579319531274,-0.040686217519426],[31.291585922506766,-0.042628581903052],[31.290206562239973,-0.043218639518813],[31.287238111541015,-0.048296665996277],[31.283439039967476,-0.050478550970093],[31.282924145377027,-0.053410136155896],[31.280055887253315,-0.054784934988757],[31.283517513673182,-0.05801367521921],[31.284184805417,-0.060490398922545],[31.29546366004584,-0.06922703874217],[31.294369531107627,-0.071592166622527],[31.286432219841547,-0.074068150675198],[31.286345508653955,-0.078975272872111],[31.284049979491144,-0.082372669835086],[31.285323115375455,-0.085036423370181],[31.284455440760123,-0.087725499467468],[31.28514467260151,-0.092222280151877],[31.284014411404733,-0.096434038991956],[31.282466417942967,-0.0985387446419094],[31.2659,-0.094],[31.2144,-0.0708],[31.210564049422185,-0.07020218952034013],[31.20669418209961,-0.06901530101083743],[31.2065,-0.0495],[31.161,-0.036],[31.1635,-0.0305],[31.146951015900832,-0.03054546424203067],[31.142095060971798,-0.028650216621198],[31.124240818092524,-0.030289484160497],[31.122308947607547,-0.034983964461839],[31.11651810268681,-0.040872176721177],[31.100971353580515,-0.039696253067579],[31.09144778004911,-0.043891747351577],[31.091314698750438,-0.04375303519653974],[31.087560186366787,-0.037284417475303845],[31.087361368431427,-0.036363939231531486],[31.087410062046292,-0.036440800685306],[31.106617367992467,-0.025716865926324],[31.10661743930142,-0.02571681279019737],[31.106617479562924,-0.025716790560365],[31.106936383726808,-0.025479150186167268]]]}},{"type":"Feature","properties":{"n":"Ntuusi Town Council","c":"111105","d":"Ssembabule","od":"Ssembabule","dc":"111","k":"NTUUSITOWNCOUNCIL","a":["NTUUSI","NTUUSITOWNCOUNCIL"],"lat":0.067008,"lon":31.208752},"geometry":{"type":"Polygon","coordinates":[[[31.135001415683703,0.04164045205038019],[31.136389648024206,0.044884688522837],[31.135161844250607,0.048634716079696],[31.134279803127242,0.049294749194209],[31.13556216687809,0.050985766096539535],[31.136263078043164,0.05116742646336511],[31.139530540055684,0.052013559157489],[31.14016601197049,0.053529778291001],[31.14236019321582,0.054456193755168],[31.142359998219668,0.05445712791997556],[31.1423606719,0.0544574126],[31.1419994815368,0.05618424919199395],[31.141953524865205,0.056404413053684],[31.143136507301993,0.058924876567452],[31.143136501660358,0.058924902477888653],[31.1431365174,0.058924936],[31.14311637624122,0.05901733285092559],[31.142765182753685,0.06063026547309438],[31.144080119683583,0.06248613249840441],[31.14652492370023,0.06593610013505792],[31.147536397307277,0.06631968042719065],[31.15554651582483,0.069356264981262],[31.15724033926005,0.064842619562622],[31.16220702049948,0.062314462138248],[31.16217876912488,0.059670988084955],[31.16979400805388,0.0626957641086],[31.17125645185323,0.06984374269473645],[31.171660037208582,0.07017454648011172],[31.17243285828323,0.070807778016297],[31.174396399208764,0.0710901825938019],[31.1750162963,0.0711791971],[31.175016494848208,0.07117936731350578],[31.17501728460884,0.071179480900146],[31.180216421199475,0.075636584491944],[31.17905312578489,0.078702748433048],[31.179052628996494,0.07870328137605019],[31.1790525173,0.0787035767],[31.17885238871438,0.07891809447982513],[31.175293639731755,0.082735837375715],[31.170480159183537,0.08065140011128731],[31.169495150923325,0.08118260606469996],[31.162304066965444,0.085062571904919],[31.16061965781507,0.08288344419428692],[31.159816456179765,0.08267169199741566],[31.159050118993854,0.082469775619168],[31.157108179019993,0.084240060810846],[31.15710504636996,0.0842466776491604],[31.1560292401,0.0868882028],[31.155899758303455,0.08679250823167617],[31.155844344805843,0.086909553592724],[31.153568934629092,0.085070452959428],[31.155278145126815,0.08406177194237567],[31.15531023611125,0.08404278890377753],[31.155328907631358,0.082351100376513],[31.149344552284408,0.083063554928629],[31.14682369298748,0.085562740606227],[31.14775010243867,0.087251034680222],[31.147750453587413,0.08725623125320026],[31.148443248102147,0.09362409297025641],[31.15336414219483,0.10916692624116],[31.160682014622935,0.1101657043259797],[31.16094807919709,0.11020198142693279],[31.165307794490456,0.109231198787833],[31.16530808813972,0.10923120620353251],[31.165308213,0.1092311784],[31.1654126141497,0.10923384586101928],[31.17170124228915,0.10939265632698],[31.171301480936773,0.113448786095275],[31.173570531090995,0.11729808112756458],[31.173884931,0.1178313352],[31.17388493819978,0.1178314522034322],[31.17388515917318,0.117831827070342],[31.174230183295062,0.123437669432707],[31.17511276393709,0.12561628792447968],[31.178536527525026,0.12855215774513104],[31.181480033508205,0.12972428959833104],[31.182627203890362,0.1301810075325109],[31.186399988524283,0.129930138993736],[31.18880001752478,0.1305599526484583],[31.1890239284,0.1306186762],[31.189023978541524,0.13061872431598492],[31.189024327927633,0.130618816001603],[31.190118566829945,0.13166909515110076],[31.19247521306316,0.13393054130235407],[31.196327706293907,0.134502749765245],[31.199297185349817,0.136163503656927],[31.199311628915567,0.13616100136076817],[31.203149199386203,0.1353479408511357],[31.20481537050448,0.1327847928689998],[31.204804598429085,0.13273338970828172],[31.204510907184414,0.131348061276834],[31.211336991204167,0.13163731591185082],[31.214131657779244,0.13093296953278125],[31.215591942879335,0.13037149306396745],[31.22127482997672,0.12448082450210884],[31.224343028008562,0.12107745591884392],[31.22790737998872,0.11193800220634295],[31.2279088470623,0.111934008987798],[31.228289596455713,0.104395665265232],[31.227413074902305,0.099394527053808],[31.225590174054435,0.09750910197756374],[31.2224526313,0.0942644121],[31.222452748797327,0.09426406522117335],[31.222450458038853,0.094261695891282],[31.22279544721957,0.093248493440627],[31.22279689953663,0.09324805396313647],[31.2227969315,0.0932479596],[31.2320416302,0.0904505305],[31.232041672431944,0.09045054527342682],[31.232042323482293,0.090450348262745],[31.234612747394593,0.09134974098516502],[31.23706930729417,0.09117274132449474],[31.24590506315458,0.090536008425651],[31.247889798701223,0.09343430940566015],[31.247941820221964,0.09345961224698958],[31.249600348793212,0.094262452189372],[31.250029339855914,0.08567575596955],[31.249636103118508,0.083678201921776],[31.247102702390123,0.082963642346916],[31.245491932052975,0.077512236963721],[31.245420566989125,0.072015532389883],[31.245420642218907,0.07201509892695243],[31.245420642,0.0720150821],[31.24544769180981,0.07185924316418552],[31.246170077571588,0.067696962695464],[31.248405472336312,0.065358939750373],[31.24840573570974,0.06535874609442063],[31.2484057358,0.065358746],[31.248405765671375,0.06535872406391902],[31.25034702464737,0.063931334979278],[31.253113796304554,0.066014825896401],[31.254851778523022,0.051344560331473],[31.250977184943597,0.04164981656473],[31.247108500560675,0.041271482532414],[31.24601331892011,0.04001026823414793],[31.245328837645882,0.03988889162152482],[31.243729664389136,0.039605859110645],[31.24372822827495,0.03960506129498174],[31.2437282221,0.0396050602],[31.243572414114848,0.03951850064494847],[31.23987580654004,0.037464895540084],[31.236638872769397,0.037321579219325],[31.236249963699414,0.036306155782305574],[31.2358613526,0.0352929354],[31.23586179345699,0.035292661389561344],[31.235860836411923,0.035290162589545],[31.24153907947229,0.031763975829555],[31.25330628880968,0.026245225209276],[31.254293170732527,0.025882973956197684],[31.2509920439,0.0199805566],[31.250992066229898,0.01998038891190546],[31.25099147260447,0.019979327476454],[31.251151515753943,0.018774755348579],[31.251146512035646,0.018774851920118928],[31.244068244045103,0.02143017838140767],[31.244067065681694,0.021430707555546],[31.244066903245265,0.021430681366218344],[31.2440666907,0.0214307611],[31.24363188881938,0.021360544787165592],[31.23949787177447,0.0206940247914591],[31.239149165385033,0.02113917663540623],[31.237347890560404,0.023444520584936],[31.2343833554817,0.021539706536136],[31.232374861064216,0.018455778090646],[31.21908096165228,0.006777082613522],[31.217928044346777,0.004348443677017],[31.20827412966172,0.002686746082865],[31.208288508314745,0.0025077535105293832],[31.2078918312,0.0024320231],[31.20849941488608,-0.00011771562498653206],[31.208499521061185,-0.0001190373451065778],[31.205696825029996,-0.0032273318215658713],[31.205679856708112,-0.0032266815403710846],[31.197655990816198,-0.0021372137999687273],[31.197631779092273,-0.00213174264715],[31.19919101121933,0.0026962261592487625],[31.1992324278,0.0028242311],[31.19923238806268,0.002824344420500573],[31.1992324760491,0.002824616859535],[31.199291149953417,0.003888043508038],[31.198585269025312,0.004669759670315663],[31.198527765,0.0048337462],[31.198407772441936,0.004866325326715125],[31.198117426518262,0.005187864119094],[31.19172940868642,0.006679578088908],[31.186664311915436,0.009979647442917],[31.19157319783535,0.016059824565778],[31.19016488024036,0.020785991861433],[31.190772003430908,0.02330165346080284],[31.1955245224,0.0283022465],[31.195524510698746,0.028302274310408295],[31.19552493925962,0.02830272523133],[31.192305582640383,0.035952777991038],[31.193947009209726,0.039406123472354],[31.190936594009244,0.04156997947566983],[31.1909358686,0.0415705269],[31.190935844388036,0.04157051829581228],[31.19093511400673,0.041571043286509],[31.1868366411968,0.040113804380685],[31.174161099689893,0.038737202191692],[31.17512800738408,0.034808789068502],[31.17031272629366,0.034065345172232],[31.158394732168652,0.03477695232105],[31.15651055345963,0.03697124736512492],[31.1563482019,0.0371604999],[31.156347976513352,0.037160582795883114],[31.156347658247935,0.037160953444497],[31.153723491985605,0.038125852768806284],[31.1528864777,0.0384337017],[31.15288632040377,0.038433678650588256],[31.152885544962352,0.038433963778444],[31.148828565808884,0.03783909695523],[31.146615152186993,0.03662465288515],[31.14142218353504,0.037891106506741],[31.131622164516806,0.038659970191603],[31.134638365288193,0.040792019622971],[31.134638614427057,0.04079260184927704],[31.1346387448,0.0407926938],[31.135001415683703,0.04164045205038019]]]}},{"type":"Feature","properties":{"n":"Mateete","c":"111201","d":"Ssembabule","od":"Ssembabule","dc":"111","k":"MATEETE","a":["MATEETE"],"lat":-0.195767,"lon":31.516643},"geometry":{"type":"Polygon","coordinates":[[[31.461381262478515,-0.14438841389588],[31.462897093691364,-0.139532789266764],[31.46245722267342,-0.137352194643623],[31.46327554822273,-0.135009293490656],[31.46509541850181,-0.133439002390893],[31.464917376567605,-0.130619185652468],[31.471289649243115,-0.124830090849817],[31.475126664153457,-0.122956257924898],[31.478456556289704,-0.124056615901242],[31.479897441737407,-0.123170737922659],[31.483890386338114,-0.132045051112735],[31.487515560024004,-0.135073194659919],[31.489088880952956,-0.135575088063172],[31.49079876982272,-0.133318442369194],[31.497909226964584,-0.137308849957376],[31.507235380451156,-0.13977474630199],[31.50753122606076,-0.137995637313605],[31.508624169272125,-0.138443977794236],[31.511805189843894,-0.140091347711921],[31.514709586185806,-0.143273218239895],[31.518354481459223,-0.143223767731908],[31.52058251598167,-0.144413000428769],[31.523252170507845,-0.148112275662714],[31.532671733629602,-0.15573670860486],[31.536325168324943,-0.153796227408463],[31.537211856638404,-0.154220455418979],[31.542106268447142,-0.152467061418331],[31.5458116938774,-0.149434475325172],[31.549372083786267,-0.15063472138680184],[31.548534210661497,-0.15632415018565024],[31.54821730141923,-0.156453562197012],[31.548228798293156,-0.15839799868679613],[31.547211344207643,-0.16530684013843405],[31.5467462693806,-0.166649870055304],[31.54657116124385,-0.172738821915386],[31.547484594020784,-0.1739783090588],[31.5478750773381,-0.177135852989535],[31.55159513603753,-0.179803231673482],[31.5522232634828,-0.185835924831877],[31.551701028085677,-0.186811800668141],[31.55259524438218,-0.18925482163070687],[31.5546,-0.2083],[31.554849448196006,-0.20871970648851768],[31.55472762173506,-0.209225298658159],[31.556316439607016,-0.212209040898207],[31.557429724348207,-0.21306112350650538],[31.560193128424153,-0.21771066052317828],[31.556608352937403,-0.220341127355406],[31.552797812457957,-0.226915560381704],[31.54853441767783,-0.230385179611318],[31.542094312252676,-0.241523638648559],[31.54263720748874,-0.2432599441344],[31.53891831561523,-0.249102669627511],[31.539370795084412,-0.252938975238225],[31.536739808929642,-0.257596226655409],[31.536013201923428,-0.266361869661453],[31.53403790771328,-0.267273020435431],[31.530290533830577,-0.264263893254365],[31.526481847860506,-0.263167823541501],[31.520313144049872,-0.264171312720224],[31.517266246878687,-0.261309463712621],[31.510497138373793,-0.258067608457885],[31.50974147948157,-0.258960628457613],[31.507581556120392,-0.257675897354934],[31.50634391103534,-0.255407846247782],[31.498352950219473,-0.251356727934377],[31.49569744414474,-0.24753483182001],[31.50061996476383,-0.243029326957987],[31.50660623696558,-0.233904021552473],[31.499736553598044,-0.232335570078092],[31.498041210904976,-0.231078942809835],[31.49602446732303,-0.231079166912448],[31.493492727123247,-0.228966209921857],[31.493568890599086,-0.224169535429956],[31.492632552360305,-0.219819565336681],[31.49424077684195,-0.213700890645292],[31.490068079707616,-0.211399965814912],[31.491307591331573,-0.21001117907087],[31.49094726787932,-0.207287801106324],[31.492737191519186,-0.205534488918498],[31.490893602973816,-0.201964005479552],[31.484138844826997,-0.204830311221907],[31.476645611558173,-0.209544744672572],[31.47553135780789,-0.207862857385046],[31.47287965507202,-0.208409674592059],[31.46976182719619,-0.205965607015026],[31.470249146067026,-0.201904805978786],[31.47768361052486,-0.19916022423458],[31.48132034420994,-0.196639431047275],[31.478692226480753,-0.194894057437687],[31.477389906423337,-0.192542138139323],[31.476362104301796,-0.187289321634803],[31.47433943551178,-0.185170569112512],[31.47451075583249,-0.182907706989091],[31.475262094159394,-0.182706725627765],[31.474727225312897,-0.17954561941607],[31.479031633222792,-0.17759281074133],[31.477104343465815,-0.172031989668688],[31.473198990743256,-0.165564319215537],[31.465089287924858,-0.167589474596499],[31.4640185339711,-0.166072573523081],[31.463989120302504,-0.163486128191244],[31.461487477592,-0.159193541185426],[31.461711599737722,-0.156788345951792],[31.460773611191645,-0.154626249201241],[31.46171730703878,-0.147255889387863],[31.461381262478515,-0.14438841389588]]]}},{"type":"Feature","properties":{"n":"Mateete Town Council","c":"111202","d":"Ssembabule","od":"Ssembabule","dc":"111","k":"MATEETETOWNCOUNCIL","a":["MATEETE","MATEETETOWNCOUNCIL"],"lat":-0.232353,"lon":31.482836},"geometry":{"type":"Polygon","coordinates":[[[31.455195028033323,-0.239151404438069],[31.45670668315959,-0.23559191212496],[31.460864735009956,-0.23741786897273],[31.465437927921933,-0.236184415826487],[31.4683238772991,-0.23354883072824],[31.465239864622273,-0.232051880027414],[31.463117333862435,-0.229553817848468],[31.46539751313179,-0.22731404419388],[31.4657807726686,-0.225748782116887],[31.46256551673575,-0.217500570177828],[31.463115977627883,-0.212198695795784],[31.46876310486644,-0.205365831870643],[31.472875114847938,-0.2084061155070432],[31.47287965507202,-0.208409674592059],[31.47553135780789,-0.207862857385046],[31.476645611558173,-0.209544744672572],[31.483954890543313,-0.20494604767335398],[31.48413896363994,-0.2048302608049694],[31.490893602973816,-0.201964005479552],[31.492737191519186,-0.205534488918498],[31.49111105751731,-0.2071273616539783],[31.490947584943232,-0.207287238710509],[31.490947614416722,-0.20728746165706713],[31.49094726787932,-0.207287801106324],[31.491307591331573,-0.21001117907087],[31.490068079707616,-0.211399965814912],[31.49424077684195,-0.213700890645292],[31.492632552360305,-0.219819565336681],[31.493568875696795,-0.2241694661980104],[31.493568001005645,-0.2242255608426422],[31.493492727123247,-0.228966209921857],[31.495509497702198,-0.23064938005660535],[31.49602305692681,-0.231078197862564],[31.496023306349915,-0.23107819797959556],[31.49602446732303,-0.231079166912448],[31.497693152774453,-0.23107898148641104],[31.498041483584657,-0.23107914492632972],[31.499736553598044,-0.232335570078092],[31.499737074972092,-0.23233568911558627],[31.49973719862969,-0.23233578078844],[31.49988581572795,-0.23236964885511774],[31.50660623696558,-0.233904021552473],[31.50206747159895,-0.2408227881468769],[31.499290372107033,-0.24424628197823825],[31.49569755659928,-0.24753472889215788],[31.495697433059487,-0.247534824714184],[31.493271264592508,-0.247748846534857],[31.490439758679756,-0.251443287872251],[31.4838724644194,-0.254691277484398],[31.478717508968032,-0.259594859198948],[31.476710183795362,-0.256336301659963],[31.47493945432864,-0.256420281181363],[31.474397318520385,-0.255638913013864],[31.471555937082847,-0.259132794574842],[31.469128803421288,-0.260574819900021],[31.46507931953555,-0.26034244672661],[31.46191035316309,-0.262433059105515],[31.457786352012846,-0.26271681090974],[31.454060177169836,-0.257747570804916],[31.450420599921816,-0.248770708092258],[31.447147915037014,-0.246652263202747],[31.455251530724208,-0.244696183092127],[31.455195028033323,-0.239151404438069]]]}},{"type":"Feature","properties":{"n":"Mitete","c":"111203","d":"Ssembabule","od":"Ssembabule","dc":"111","k":"MITETE","a":["MITETE"],"lat":-0.276338,"lon":31.56233},"geometry":{"type":"Polygon","coordinates":[[[31.457618034154198,-0.2624923416111174],[31.457786352012846,-0.26271681090974],[31.46191035316309,-0.262433059105515],[31.46507931953555,-0.26034244672661],[31.466855529141235,-0.2604443716815825],[31.46912780856633,-0.260575074612407],[31.469128287204164,-0.26057479027772473],[31.469128803421288,-0.260574819900021],[31.471555937082847,-0.259132794574842],[31.471556171646498,-0.2591325061455583],[31.47155634223772,-0.259132404805887],[31.471626030278973,-0.25904660504665944],[31.474397318520385,-0.255638913013864],[31.47493945432864,-0.256420281181363],[31.474941030169884,-0.25642020644471025],[31.474941293561304,-0.256420586519868],[31.475274719735175,-0.25640438071270766],[31.476710183795362,-0.256336301659963],[31.478717508968032,-0.259594859198948],[31.4838724644194,-0.254691277484398],[31.490439758679756,-0.251443287872251],[31.493271212558273,-0.2477489144271502],[31.495697433471804,-0.247534836608369],[31.495779574284022,-0.24765303635480057],[31.498352950219473,-0.251356727934377],[31.50634391103534,-0.255407846247782],[31.507581556120392,-0.257675897354934],[31.50974147948157,-0.258960628457613],[31.510497138373793,-0.258067608457885],[31.517266246878687,-0.261309463712621],[31.520313144049872,-0.264171312720224],[31.526481847860506,-0.263167823541501],[31.530290533830577,-0.264263893254365],[31.53403790771328,-0.267273020435431],[31.534039642837026,-0.2672722200689157],[31.534044859095918,-0.26727640579915],[31.536027510156405,-0.266359853866899],[31.536754133003676,-0.257595739085899],[31.539384692926465,-0.252939435171939],[31.53893198146135,-0.249103700082038],[31.5426507119258,-0.243261035078754],[31.542107452894,-0.241524902099774],[31.54854862645688,-0.230385122934975],[31.552812207792368,-0.226915371864722],[31.556622341081724,-0.220341219532475],[31.560197463591674,-0.21771795461456483],[31.56035865786688,-0.21798917037919638],[31.56011656972517,-0.218533252437332],[31.561931147819074,-0.221009806487732],[31.562280137731108,-0.22122213649995867],[31.56719865460984,-0.22949773632766762],[31.56721218552268,-0.229540268919335],[31.567356645585004,-0.2296542900122974],[31.571133785665104,-0.2333746309934496],[31.575663075830537,-0.239032993747507],[31.580310648276157,-0.24241349567049977],[31.5805,-0.2426],[31.58243697998713,-0.24787358422301967],[31.58241909415226,-0.252814229034571],[31.595969292640266,-0.284787475326894],[31.597027230881764,-0.29637971008358593],[31.58985879796342,-0.32458183432812626],[31.58959037359754,-0.325586823258595],[31.570836802720994,-0.33129707690702376],[31.564709712875363,-0.3265731374077232],[31.564654283882014,-0.326492194854787],[31.558616135860763,-0.3218750360453214],[31.55802594476466,-0.32142000321550096],[31.55880367144383,-0.320796285062048],[31.55387093667898,-0.319781374474293],[31.551439685463002,-0.320104563197019],[31.55099998887664,-0.32042608540892364],[31.5465,-0.3198],[31.546499282600973,-0.3199033054602628],[31.54619634604981,-0.319771218572193],[31.546490619407503,-0.32115080531973184],[31.546417566026154,-0.33167049223344763],[31.54521852302195,-0.33426949864576744],[31.527718305896425,-0.33529892318256327],[31.52774299029622,-0.335264694947886],[31.527662149690634,-0.3347524321911808],[31.52746409375975,-0.33188722305774127],[31.528789342527652,-0.330553266858843],[31.528944387342612,-0.328771143963015],[31.52734141874578,-0.324212243748481],[31.526392953134554,-0.314245016039885],[31.52622281754336,-0.3139300937939298],[31.5262,-0.3136],[31.52605977290157,-0.313628296948114],[31.525540885003153,-0.312667831585049],[31.52450273522328,-0.3139424973764682],[31.519514027645823,-0.31494918724635884],[31.515106040303333,-0.314840672281993],[31.511149001804995,-0.3166371969451804],[31.50688211277517,-0.3174982283637556],[31.506338621992462,-0.317263252614676],[31.50412876837062,-0.31805383597902287],[31.5039,-0.3181],[31.503886937099132,-0.3180995416526011],[31.500416594053096,-0.316574956676785],[31.499324490598738,-0.317406875814584],[31.49542376768995,-0.315823584967211],[31.492880924691082,-0.316013559922009],[31.492002879543463,-0.317188764768209],[31.488543901460243,-0.316329085214387],[31.484098833323824,-0.317070020163563],[31.48016360286165,-0.314537174711067],[31.477121667224825,-0.316499288987688],[31.47477850164028,-0.3169278927619232],[31.47462256772844,-0.3168847110632599],[31.47894084183146,-0.300772289783853],[31.478334092837027,-0.295461430051127],[31.48105764110754,-0.284360515987683],[31.479857510793575,-0.281882227818563],[31.47693473174939,-0.279901696050466],[31.475171885409473,-0.276961119059384],[31.47195418926189,-0.275714587233371],[31.47187193674314,-0.271288888525245],[31.467864662681865,-0.272283960418388],[31.464021368361664,-0.270108494304975],[31.459015432328854,-0.268854614754807],[31.45705461777173,-0.266893898092512],[31.452396884566138,-0.264941611092875],[31.456870261851147,-0.2625026722342],[31.457618034154198,-0.2624923416111174]],[[31.583228194773255,-0.306751923611205],[31.58357920523992,-0.306329461492823],[31.58497866653072,-0.304013733507191],[31.583213752033103,-0.306752217622994],[31.581128381595207,-0.31030317287406],[31.58281179766157,-0.307489535937631],[31.583228194773255,-0.306751923611205]],[[31.582020515053202,-0.302268181058991],[31.581986263268245,-0.302330152424267],[31.582026455479735,-0.302276181782429],[31.582020515053202,-0.302268181058991]],[[31.574860656424264,-0.297631178867294],[31.577212584154985,-0.294408720554204],[31.581408975777084,-0.284234993520248],[31.57719823935282,-0.294408867412547],[31.574860656424264,-0.297631178867294]],[[31.576971786734457,-0.299656852040844],[31.5769255170849,-0.299372041644137],[31.576877238203153,-0.299312405749859],[31.576915145475848,-0.299525707722688],[31.576971786734457,-0.299656852040844]],[[31.576289990658392,-0.298951442783316],[31.576289394551655,-0.29895841513992],[31.5764926540176,-0.299187485052981],[31.576289990658392,-0.298951442783316]],[[31.574645776496116,-0.297829546548371],[31.57465107071551,-0.297835719625822],[31.57465311324194,-0.297823429054858],[31.574645776496116,-0.297829546548371]],[[31.57258560427752,-0.281131683081522],[31.571924511065003,-0.280271111275377],[31.571110906166982,-0.279379002074211],[31.570768056936878,-0.278936195589046],[31.57034847695682,-0.278481325106196],[31.57109641275779,-0.27937873909314],[31.571910281058532,-0.280271164269669],[31.57258560427752,-0.281131683081522]],[[31.56491800188844,-0.280784068025117],[31.56492596029328,-0.280776742601845],[31.564836547805882,-0.280414726678112],[31.56491800188844,-0.280784068025117]],[[31.558572234077904,-0.279899727729295],[31.55857114826694,-0.279906809911109],[31.55914809486378,-0.28065525728618],[31.558572234077904,-0.279899727729295]],[[31.55483264180947,-0.282737974710332],[31.55483146277775,-0.282745787978255],[31.5549530224603,-0.282867680941254],[31.55483264180947,-0.282737974710332]],[[31.547851137850888,-0.297106189097646],[31.54784751339937,-0.29711228486247],[31.548270276392994,-0.2986993310992],[31.547851137850888,-0.297106189097646]],[[31.54771036124123,-0.296948160430129],[31.547704195524457,-0.297071551507027],[31.54772440038005,-0.296947492798309],[31.54584378059265,-0.287794056812107],[31.545429655715395,-0.28684153590212],[31.547642305289642,-0.296742391914086],[31.54771036124123,-0.296948160430129]],[[31.533843382364456,-0.267364405351022],[31.53265671614786,-0.268827649649809],[31.53147731797581,-0.273848327277731],[31.5325651253609,-0.277319222675228],[31.531825878733102,-0.281471016915073],[31.532579268568828,-0.277319472630966],[31.531491383158798,-0.273849133962981],[31.532671136315926,-0.268826973122087],[31.533843382364456,-0.267364405351022]]]}},{"type":"Feature","properties":{"n":"Kawanda","c":"111301","d":"Ssembabule","od":"Ssembabule","dc":"111","k":"KAWANDA","a":["KAWANDA"],"lat":0.009769,"lon":31.508007},"geometry":{"type":"Polygon","coordinates":[[[31.436465187464787,-0.042184235932445],[31.439987569289784,-0.039816516746908],[31.44578211332676,-0.039385943810298],[31.446112671412603,-0.035995484880949],[31.44170004642773,-0.034932375732735],[31.438190886053544,-0.033099362771451],[31.434915390518583,-0.030024518846181],[31.432835080983295,-0.026192433068822],[31.431355547382196,-0.025272159754177],[31.43749432893574,-0.023615146285247],[31.43745751669136,-0.019628073933775],[31.44330492794103,-0.012857768722491],[31.442140490725116,-0.010042619390686],[31.451228298351353,-0.010528571315402],[31.452251018198933,-0.011558977088491],[31.461041295988547,-0.01190404044197],[31.462537608923146,-0.010681330683202],[31.461992364446836,-0.008584920159769],[31.462849255758,-0.005579226942811],[31.462655575738005,-0.001504259638061],[31.469009482504767,0.000891514223457],[31.468013061650684,0.006682695564669],[31.4620645192071,0.012855072121072],[31.460964019402375,0.014550437649433],[31.461142476147238,0.016781173005617],[31.464830897728255,0.015799801876272],[31.469753742985684,0.016990567139485],[31.478120155045502,0.016440979146983],[31.479809692332427,0.016691142357086],[31.484212341665625,0.01953916691095],[31.489042523208216,0.020443357420341],[31.489997855722322,0.019875901897214],[31.49343513325525,0.02295036164832],[31.500019896535676,0.025064900259647],[31.50049710520491,0.031835278312511],[31.50537370712242,0.029745773300894],[31.514492315405196,0.02742859101677],[31.515998649619913,0.026097916326654],[31.51794503285221,0.033934950821634],[31.518235324576334,0.041316690461597],[31.511207791340418,0.044642624734634],[31.509673134995005,0.046391410635058],[31.50139255474718,0.058027022832296],[31.496163922932794,0.067277356772002],[31.500327971706877,0.069002464201307],[31.503228580004844,0.069109878378043],[31.504643184750513,0.071047611267453],[31.50785613703518,0.070525103811131],[31.50914093788549,0.072179367185843],[31.50961792912436,0.074611621416574],[31.516747079817705,0.069565474316687],[31.52489490998305,0.070127250837662],[31.529580983838578,0.068682673693736],[31.534698591087032,0.079895443070906],[31.534189354690636,0.081775056518352],[31.54082897452727,0.086944728550345],[31.544724114235354,0.088459917781094],[31.547534838671464,0.09115349722263834],[31.5783,0.0599],[31.578468449758578,0.059826210061508005],[31.578995083992883,0.059287589123117],[31.591889630890808,0.053937852802838],[31.59458104419748,0.050075720886466],[31.60068554282217,0.04976214749367855],[31.59402523257176,0.04237525794322384],[31.589865114774465,0.03778351415502185],[31.58952834843432,0.03762436719259096],[31.56710711766945,0.027409623929503],[31.56671831774331,0.02684494340612187],[31.5662,0.0266],[31.5425,0.0004],[31.542434470698804,0.0002314960826364183],[31.54047685571958,-0.003454997493009],[31.539888626681105,-0.006314959962873679],[31.538200646093234,-0.010655481474545966],[31.536784749564404,-0.013078225579122],[31.536267161621893,-0.015627298686559293],[31.5362,-0.0158],[31.53560343931787,-0.025666195896775247],[31.53494485488182,-0.02764824957676],[31.535285178583454,-0.0309297388121328],[31.53512343543029,-0.0336047217298439],[31.534769391486275,-0.035634111612127],[31.534899351012143,-0.037263553813383],[31.53490204153053,-0.03726623622589056],[31.5349,-0.0373],[31.535984135682902,-0.04048246281110393],[31.53582541963863,-0.040500348300357],[31.53406489780709,-0.042218923578584],[31.529944078689287,-0.040364690474008],[31.52680635692037,-0.042372593865184],[31.52294263821178,-0.045998511389939],[31.51989583715204,-0.052710075316576],[31.513369281261486,-0.058652019024677],[31.507736362886263,-0.060484234956681],[31.508817061913845,-0.062259578040008],[31.508108063707706,-0.063292154196847],[31.50584036040142,-0.065809727484609],[31.504292830978727,-0.066245951944877],[31.50366315433915,-0.068914925604927],[31.497744522004783,-0.073806363327078],[31.485871136546315,-0.075828896413072],[31.482264053083696,-0.075145449707232],[31.481099631373667,-0.071808181178202],[31.481775429508637,-0.070831950161713],[31.478880423692615,-0.06980029274596],[31.475322489588216,-0.071216520364448],[31.47289250325379,-0.069078401411123],[31.476174584777908,-0.064196060103406],[31.477398333705143,-0.050051554600053],[31.46659894496011,-0.051967324167337],[31.456747216367024,-0.058451358762754],[31.449547333577772,-0.065885884874452],[31.445006303781003,-0.074128145305701],[31.430021933934693,-0.063733164203394],[31.43213815644475,-0.061627320755457],[31.435090977106,-0.060839890209302],[31.436863423515405,-0.053830974583024],[31.43363748148459,-0.054429001165024],[31.431400742981083,-0.053001563725553],[31.42723911570664,-0.053166697790288],[31.427440121372722,-0.051667124396258],[31.424700934456283,-0.051524881186376],[31.420256708730555,-0.053353567244599],[31.414502690261145,-0.04221297322036],[31.42850214284432,-0.043666096366953],[31.436465187464787,-0.042184235932445]]]}},{"type":"Feature","properties":{"n":"Lugusulu","c":"111302","d":"Ssembabule","od":"Ssembabule","dc":"111","k":"LUGUSULU","a":["LUGUSULU"],"lat":0.092678,"lon":31.420347},"geometry":{"type":"Polygon","coordinates":[[[31.28677054952086,0.075209439735302],[31.28677061402357,0.07520942544653951],[31.286770676918266,0.075209393700623],[31.29545864855814,0.07328483559033928],[31.301972124519796,0.071841958065563],[31.30197217253396,0.07184196078436467],[31.301972579311045,0.071841870675169],[31.30431310477701,0.071971932797674],[31.299949834790905,0.0827898503118621],[31.299930183605092,0.082838594825637],[31.29993015939445,0.08283863180294349],[31.299930056575572,0.082838886723252],[31.29796695385477,0.085837100404019],[31.291273293950187,0.089768692540932],[31.29643450975632,0.094202406961888],[31.292228529627746,0.09703198152792188],[31.29424933447039,0.101063033438608],[31.2942475998884,0.10106299606099758],[31.294248571269847,0.101064935312503],[31.287236819572037,0.100911952596019],[31.284932568700157,0.10011621424788734],[31.287194185202985,0.10444754845392926],[31.28728361583546,0.104618644109565],[31.295941667590814,0.114296174101918],[31.294479723377524,0.115647729213847],[31.291125708321402,0.11620677500764127],[31.292044864311148,0.11823424893021335],[31.293396896753066,0.121214620939529],[31.29275562879029,0.123094521047842],[31.29369330916933,0.12349044023976],[31.29369314647041,0.12349084542209406],[31.29369322709024,0.123490879184347],[31.292976619407217,0.12527527095952362],[31.292237376111913,0.127116268574653],[31.29300802233066,0.12848730925721],[31.292693934257375,0.130371837845773],[31.291204184983112,0.13164063244660587],[31.290785196169963,0.13726826323657798],[31.290418785258577,0.142190032977417],[31.29304830595353,0.151622723632401],[31.293312407815453,0.169446394650261],[31.295790276992307,0.177289043898179],[31.29561293130155,0.180497286710551],[31.293134416812666,0.184774290791849],[31.29313589705077,0.18477957546102475],[31.294953802321658,0.18921906353143148],[31.302292738722176,0.2018874656513783],[31.302333345459306,0.201892704771613],[31.312650005690195,0.201088863305393],[31.31836049378992,0.203558308801767],[31.32173236522079,0.206904823209607],[31.327324920422093,0.20824782417491217],[31.334698077132675,0.20751495016452326],[31.337949623276064,0.20561337868391],[31.345472511979725,0.2064439973032201],[31.355415979786766,0.2054556405633636],[31.357871941826893,0.205000495592595],[31.35852854778884,0.20514625880412113],[31.36,0.205],[31.37614554844304,0.20693359861593327],[31.383005485443075,0.204261453966667],[31.388338241418076,0.2036413128793471],[31.393805140560648,0.2020636171536383],[31.397929099773016,0.199732078806892],[31.406353141101825,0.19844238209813123],[31.4065,0.1984],[31.4085,0.1846],[31.414624883837718,0.1729020236612979],[31.414885876649635,0.170355167643072],[31.418657883050344,0.16519935849843842],[31.4196,0.1634],[31.420059247011718,0.16328388849137676],[31.420152553729398,0.163156351160533],[31.424843242595188,0.161008740378817],[31.42864628410236,0.16111282628355422],[31.44056148392155,0.15810030406511832],[31.441962864813046,0.15713887375255],[31.446381448274174,0.156430375888872],[31.45719522803346,0.147599060857353],[31.45760747617997,0.1475899146908593],[31.4581,0.1472],[31.482683598103215,0.14017611482765294],[31.48343940578395,0.139624063431131],[31.48750249538549,0.138783005645176],[31.493580173771043,0.131294287801511],[31.497509113195083,0.1291671692558629],[31.5008,0.126],[31.502241290439176,0.1252075561791988],[31.5289620873063,0.11002105416502768],[31.547534833190593,0.09115350279050705],[31.547135227217375,0.09077054072092176],[31.544724244854496,0.08846004295631019],[31.543597186101607,0.0880215485568695],[31.54082897452727,0.086944728550345],[31.540828505649475,0.08694436347757441],[31.54082829188482,0.086944280310123],[31.535970170511696,0.08316161688939622],[31.534189354690636,0.081775056518352],[31.534698591087032,0.079895443070906],[31.529580983838578,0.068682673693736],[31.52489490998305,0.070127250837662],[31.524894123239694,0.07012719659328816],[31.524893681969793,0.070127332702462],[31.524184876851386,0.07007829547968464],[31.516747079817705,0.069565474316687],[31.50961792912436,0.074611621416574],[31.509162087418016,0.07228721201772535],[31.509140598401757,0.07217893007879621],[31.50785613703518,0.070525103811131],[31.504643184750513,0.071047611267453],[31.503228580004844,0.069109878378043],[31.500327971706877,0.069002464201307],[31.496163922932794,0.067277356772002],[31.50139255474718,0.058027022832296],[31.501392587742004,0.058026976469005065],[31.50139259826015,0.058026957852935],[31.50177471873726,0.0574900179544703],[31.509673134995005,0.046391410635058],[31.509673433516806,0.046391070460713786],[31.509673433523496,0.046391070451313],[31.5096734420504,0.04639106073643533],[31.511207791340418,0.044642624734634],[31.518235324576334,0.041316690461597],[31.51794503285221,0.033934950821634],[31.515998649619913,0.026097916326654],[31.514492315405196,0.02742859101677],[31.514491596956297,0.027428773585974824],[31.514491481457974,0.027428876139826],[31.50769207096406,0.029156640457875405],[31.50537370712242,0.029745773300894],[31.50049710520491,0.031835278312511],[31.500019896535676,0.025064900259647],[31.49343513325525,0.02295036164832],[31.493435045667795,0.022950283306054746],[31.491047587364942,0.021485151000125],[31.490000716406932,0.01987846062563027],[31.489998524310455,0.019876499913313812],[31.489618921729377,0.020100983933072285],[31.489042523208216,0.020443357420341],[31.489040582372784,0.020442994103773662],[31.489040299759573,0.020443161231588],[31.4846707744756,0.019624983684567537],[31.484212341665625,0.01953916691095],[31.479809692332427,0.016691142357086],[31.478120155045502,0.016440979146983],[31.469753742985684,0.016990567139485],[31.464830897728255,0.015799801876272],[31.461142476147238,0.016781173005617],[31.460971129763692,0.014639318203614877],[31.460964077619213,0.014551604270081],[31.46096410887647,0.014551556088697355],[31.460964019402375,0.014550437649433],[31.4620645192071,0.012855072121072],[31.468013061650684,0.006682695564669],[31.46844293136417,0.004184299978416549],[31.46900934971637,0.0008914641548956841],[31.462655575738005,-0.001504259638061],[31.46265584086188,-0.0015098377618788193],[31.462349827836306,-0.007331056021993488],[31.461992364446836,-0.008584920159769],[31.462234893780195,-0.009517421209824805],[31.46215737530898,-0.01099203798239246],[31.461043183112984,-0.011902498381207275],[31.461040821883536,-0.011904021830923943],[31.452251018198933,-0.011558977088491],[31.451228298351353,-0.010528571315402],[31.451227358119084,-0.01052852103840451],[31.436626208369656,-0.009426354262855],[31.43502617451355,-0.011424634960686],[31.432570191736904,-0.01206783389108],[31.426852247636894,-0.018600753279926],[31.425922354814602,-0.021919478739937],[31.421967253949706,-0.015774730422319],[31.404371027438216,-0.004992237832169],[31.398738484358958,-0.007559498951142],[31.395790949633454,-0.007038993380371],[31.394661335843097,-0.007928638933779],[31.386705369566442,-0.002730995032271],[31.368712794565834,0.004599181944067],[31.366145681410824,0.00629240874518],[31.365703047972275,0.008163956753382],[31.367469231365007,0.016184068227499],[31.36026996770663,0.01662364492263],[31.35320773014881,0.020202353477383],[31.352427004921125,0.022067949795696],[31.350602762056475,0.023617051091286],[31.34011933115578,0.02509670523626],[31.33427739388909,0.028482748487671],[31.32604648149789,0.026391201381069],[31.324714616560662,0.028957443487756],[31.311301942471086,0.04500763151640029],[31.311300934980604,0.045008876466261],[31.309874068410593,0.048028344854154],[31.302336083896737,0.048493150726141514],[31.29645668424669,0.048855707137739],[31.29645659752351,0.04885569057820996],[31.29645632912149,0.048855707128368],[31.289647727105113,0.047555640496973],[31.283813225758244,0.049096710217799],[31.27001284307417,0.064134271692005],[31.267062056234657,0.074604033511058],[31.265169112565818,0.078317585019411],[31.265949479974662,0.078969700601487],[31.26529748253067,0.082747539688879],[31.27397923886482,0.082738113287095],[31.27739986808243,0.079939282442548],[31.28641294527892,0.07538995771416927],[31.28677054952086,0.075209439735302]]]}},{"type":"Feature","properties":{"n":"Mabindo","c":"111303","d":"Ssembabule","od":"Ssembabule","dc":"111","k":"MABINDO","a":["MABINDO"],"lat":-0.098569,"lon":31.510654},"geometry":{"type":"Polygon","coordinates":[[[31.467655422032536,-0.106665830606448],[31.471322337941142,-0.104649475310609],[31.474826887110876,-0.10061597259359],[31.47550377362476,-0.099191669219235],[31.474567159885428,-0.097946159067112],[31.47463122454039,-0.091952082532861],[31.47753269939527,-0.093188692906202],[31.481333952859902,-0.093544154788321],[31.482515506708648,-0.087368606230199],[31.48167777521273,-0.084491179395601],[31.482263941746304,-0.075145434512305],[31.482377508874784,-0.0751669465723534],[31.485871136546315,-0.075828896413072],[31.485871641091673,-0.07582881046793997],[31.4858717497365,-0.07582883104761],[31.487437691631563,-0.07556204670099728],[31.497744522004783,-0.073806363327078],[31.50366315433915,-0.068914925604927],[31.503663172123787,-0.0689148502222203],[31.503663281953774,-0.068914759452754],[31.503694812574885,-0.06878073768689767],[31.504292830978727,-0.066245951944877],[31.50584036040142,-0.065809727484609],[31.505840682048557,-0.06580937039634645],[31.50584074042281,-0.06580935397648],[31.507297417029505,-0.06419212308483606],[31.508108063707706,-0.063292154196847],[31.508817061913845,-0.062259578040008],[31.507737440121808,-0.06048600461004966],[31.5131246932967,-0.05873157600313947],[31.513369281261486,-0.058652019024677],[31.51989583715204,-0.052710075316576],[31.51989590008003,-0.052709936697335424],[31.519895965738563,-0.052709876919326],[31.520304595064637,-0.05180965392143692],[31.522942481042115,-0.04599885760691869],[31.524258960295764,-0.04476320528395052],[31.52680635692037,-0.042372593865184],[31.529943882917372,-0.0403648157531497],[31.530963434631374,-0.04082336713006432],[31.53406489780709,-0.042218923578584],[31.53406535299651,-0.04221847923460278],[31.5340659871916,-0.042218764468817],[31.534971855410966,-0.04133357533211916],[31.535825218829643,-0.040500544324829725],[31.53599094888401,-0.040502462853063706],[31.53760763196807,-0.045248209970779225],[31.537545724681987,-0.04577427118154],[31.538149574991824,-0.04683907497600101],[31.53868100812159,-0.04839908835692104],[31.538590529751183,-0.049691540835669],[31.53964505539446,-0.051229033577283346],[31.539826118520384,-0.051760541463058],[31.539658015285188,-0.052611553648877],[31.540349366155596,-0.05329652645674544],[31.54163201990581,-0.057061735852536793],[31.541576060513677,-0.057146299661642],[31.541858512814695,-0.05772660213345522],[31.544183503525996,-0.06455157486663403],[31.544193759588563,-0.06468070932127622],[31.54408099495676,-0.06613913189254085],[31.543291939354372,-0.069795550521445],[31.543774849225244,-0.07009861668686133],[31.543762926233477,-0.07025282071369791],[31.542688285690193,-0.071847625061722],[31.54344436937862,-0.074109666317267],[31.542582044112454,-0.074317575326342],[31.542332171909877,-0.076253705281332],[31.542803495578042,-0.08266145719066523],[31.5427,-0.084],[31.5429884762125,-0.08517631076941064],[31.543082447859426,-0.086453876571207],[31.54439894493555,-0.09092773663040407],[31.548016821138873,-0.1056802415371478],[31.548097941787987,-0.107746365976506],[31.54913257949029,-0.11022993578565146],[31.54992687063128,-0.1134687928654077],[31.549724289023786,-0.117305737654673],[31.550912062742288,-0.118816560718297],[31.552979636289553,-0.12613827616288892],[31.55278105453481,-0.12748671033620548],[31.551360044164852,-0.131191668400849],[31.54925540493698,-0.133069148958812],[31.550323969508664,-0.135964230565555],[31.550175894134778,-0.141815937173939],[31.55059339678263,-0.1423416121695673],[31.54937208202702,-0.15063473333267086],[31.549372082027016,-0.15063473333267016],[31.549372083786267,-0.15063472138680184],[31.5458116938774,-0.149434475325172],[31.5443224660576,-0.15065328586686896],[31.542106171892925,-0.1524670960083064],[31.537627792611573,-0.1540714488235985],[31.53721183993344,-0.15422044742664115],[31.536325168324943,-0.153796227408463],[31.53632297240862,-0.1537973937449902],[31.53632292254272,-0.153797369991754],[31.536136693891066,-0.15389633350736423],[31.53267195618523,-0.1557365903969152],[31.52325211755714,-0.14811220229020813],[31.52058251598167,-0.144413000428769],[31.52058204240521,-0.14441274765323733],[31.52058196405127,-0.14441263908108],[31.518716237181813,-0.14341685797770456],[31.518354481459223,-0.143223767731908],[31.514709586185806,-0.143273218239895],[31.511805189843894,-0.140091347711921],[31.508624169272125,-0.138443977794236],[31.508624060241,-0.13844393306815503],[31.508624060235494,-0.138443933065303],[31.508624060035558,-0.13844393298387916],[31.50753122606076,-0.137995637313605],[31.507235380451156,-0.13977474630199],[31.497909226964584,-0.137308849957376],[31.49372007976554,-0.13495788933170014],[31.490799478050977,-0.133318814693532],[31.490799464693133,-0.13331883233232944],[31.49079876982272,-0.133318442369194],[31.489088880952956,-0.135575088063172],[31.489057698152028,-0.1355651406698632],[31.487294429147155,-0.13488848184452434],[31.483890386338114,-0.132045051112735],[31.479897441737407,-0.123170737922659],[31.478456900929878,-0.1240564040112942],[31.47572065615303,-0.122956280471488],[31.47532615241209,-0.12302217852760652],[31.475126664153457,-0.122956257924898],[31.474817799917698,-0.12310709392314587],[31.473401984824847,-0.123343592219006],[31.47207106220765,-0.12444848239243117],[31.471289649243115,-0.124830090849817],[31.4678790427284,-0.12792856535862457],[31.46707575795325,-0.128595427160396],[31.46209410119258,-0.111512220440833],[31.46519484704987,-0.110401181683173],[31.467655422032536,-0.106665830606448]]]}},{"type":"Feature","properties":{"n":"Mijwala","c":"111304","d":"Ssembabule","od":"Ssembabule","dc":"111","k":"MIJWALA","a":["MIJWALA"],"lat":-0.124567,"lon":31.396557},"geometry":{"type":"MultiPolygon","coordinates":[[[[31.32427958968926,-0.10999440813404412],[31.324263733011296,-0.1099900638387109],[31.32426369213256,-0.109986586145327],[31.32427958968926,-0.10999440813404412]]],[[[31.339288395854012,-0.110651809913099],[31.343354357355636,-0.110532528122965],[31.340803535714702,-0.101981493868364],[31.349574472733067,-0.096509923971523],[31.353152435211477,-0.095205552091949],[31.353587735063368,-0.085419256866757],[31.358240658622837,-0.084455459475041],[31.355578102928522,-0.080884653033646],[31.3567915052759,-0.077767807601956],[31.357399398580633,-0.071593046615732],[31.362432556401473,-0.070477982894202],[31.371135949364742,-0.070973724363462],[31.369333036535977,-0.062525672568048],[31.38362068882835,-0.061406949168786],[31.389525044092473,-0.068305569138469],[31.39424020908107,-0.07001070716961],[31.40465802902817,-0.067528777107967],[31.41612523878082,-0.07042061367151],[31.423090277475342,-0.067990551817147],[31.430021923233447,-0.063733170586901],[31.436907753176097,-0.068853500393175],[31.42999147755423,-0.079975517827645],[31.424434241827385,-0.085989286304255],[31.423498328626366,-0.088449345277169],[31.4233934462817,-0.094091020770628],[31.42518348805609,-0.097548561898578],[31.42617197665242,-0.097897235628013],[31.427172005229927,-0.101621127266572],[31.42857658989538,-0.103072440321868],[31.426506389350415,-0.104174883475064],[31.427093325247043,-0.105224708455481],[31.42956423723318,-0.106059263304394],[31.433132336122274,-0.109662228994622],[31.435662667797917,-0.107654575041125],[31.443899503994317,-0.110852211128882],[31.446879684791277,-0.11314011475511],[31.450699085853383,-0.114659998856621],[31.45639344164431,-0.120204619716834],[31.464726602526763,-0.12053965180391125],[31.467075578587618,-0.12859481207582898],[31.467075747054057,-0.128595435495916],[31.46491802748732,-0.130618584616422],[31.464918028064943,-0.13061859377888652],[31.464917376567605,-0.130619185652468],[31.46509541850181,-0.133439002390893],[31.46327554822273,-0.135009293490656],[31.46245722267342,-0.137352194643623],[31.46270225753445,-0.1385669182299598],[31.462172522265863,-0.1418537909913625],[31.461759169629577,-0.14317787326664774],[31.460314093936766,-0.142484128732216],[31.456695865196966,-0.148337635124989],[31.454919524925124,-0.150052708972259],[31.451342652111524,-0.15169488496287],[31.44751571980192,-0.156179041448324],[31.440363164857633,-0.158225489437608],[31.434567688770773,-0.161997252772199],[31.43073248313299,-0.165532140633071],[31.427355349350044,-0.171859604175843],[31.42247982742735,-0.171912954659642],[31.420145882714362,-0.174604313940733],[31.41769862218146,-0.174262218577505],[31.41561171976772,-0.175249691350905],[31.41107166743629,-0.175594995361015],[31.410337017350027,-0.17476500973906],[31.407461760028454,-0.175766110540331],[31.405135054292394,-0.175124148103482],[31.403348791393032,-0.177447108928445],[31.399569701473794,-0.177837093134196],[31.397078781016223,-0.180405601168386],[31.392450311724275,-0.189087005039376],[31.39115910022361,-0.187459048678268],[31.378597157251708,-0.182664756200082],[31.374452630106912,-0.180240647698771],[31.35909090640616,-0.180031253569844],[31.35443319615641,-0.176273119291816],[31.355235779558722,-0.17797216004531],[31.354731707904833,-0.179079733317811],[31.34881776049504,-0.180531368901823],[31.345349700078547,-0.179781840243974],[31.34512684807271,-0.176895974652114],[31.343006040341795,-0.176751526006368],[31.341207408416142,-0.177936281480086],[31.338072373450515,-0.178242650967877],[31.332456480068682,-0.177937379185584],[31.33283644645815,-0.167729507177788],[31.331437051463098,-0.146676552422829],[31.33044619703666,-0.1416198631661811],[31.3303,-0.14],[31.32430098725221,-0.11000493626104527],[31.331443086361954,-0.113519024602081],[31.339288395854012,-0.110651809913099]]]]}},{"type":"Feature","properties":{"n":"Mitima","c":"111305","d":"Ssembabule","od":"Ssembabule","dc":"111","k":"MITIMA","a":["MITIMA"],"lat":-0.038871,"lon":31.3661},"geometry":{"type":"Polygon","coordinates":[[[31.283328070259806,0.009590133965847],[31.283328125260038,0.009590263200993281],[31.28433752316609,0.011558964834889],[31.284616632891264,0.01261789541541415],[31.28492768517095,0.013348781193287],[31.28491074427752,0.013733741668336647],[31.284984731267375,0.014014445201934],[31.28462070339126,0.02032489341668],[31.284620726292182,0.020324928855199237],[31.285896859273947,0.021407754196292],[31.286095222998583,0.022606669971066525],[31.286811242198254,0.02371468902634596],[31.287028180986184,0.0238893476039338],[31.296362563982708,0.023719452822503],[31.297862943072513,0.021482947427543],[31.30167007583059,0.019151077590234],[31.301671972103534,0.019152865000973282],[31.301672000704883,0.019152847503892],[31.302732208960066,0.020152235239411828],[31.304573199342286,0.021887537107010174],[31.305159400112636,0.022185394521014146],[31.308975017846635,0.024124146623778],[31.309760261260777,0.026669840996874],[31.31111597451214,0.027906937803484],[31.312805951077777,0.028312000463866],[31.31399581194099,0.02983466806206],[31.316216760553942,0.031128033736876753],[31.317754219881138,0.032023197964856],[31.31775428147981,0.03202340645204702],[31.31775522790219,0.032023957599521],[31.318823302474776,0.03564162048901398],[31.318838866880846,0.035694299859006],[31.324714648605777,0.028957381743112],[31.32604648149789,0.026391201381069],[31.33427739388909,0.028482748487671],[31.34011933115578,0.02509670523626],[31.34011961440694,0.025096665257577457],[31.34011961918448,0.025096662488545],[31.340176037020942,0.025088701647622946],[31.350602762056475,0.023617051091286],[31.352427004921125,0.022067949795696],[31.35320773014881,0.020202353477383],[31.36026996770663,0.01662364492263],[31.367469231365007,0.016184068227499],[31.365703047972275,0.008163956753382],[31.366145681410824,0.00629240874518],[31.368712435449627,0.004599418811376871],[31.36871244352744,0.004599413482647],[31.36871244353035,0.004599413481461555],[31.368712794565834,0.004599181944067],[31.384724902047004,-0.0019241523533953535],[31.386705414093814,-0.0027310241220644973],[31.394661335843097,-0.007928638933779],[31.395790949633454,-0.007038993380371],[31.398738484358958,-0.007559498951142],[31.404371027438216,-0.004992237832169],[31.42126080916835,-0.015341840131020083],[31.421967304306026,-0.015774808657219672],[31.423725324696015,-0.018506115190915363],[31.42591645660978,-0.021910803783605],[31.42591654125096,-0.02191044663516176],[31.425922354814602,-0.021919478739937],[31.426841829292865,-0.01863793565487579],[31.432505242158502,-0.012142040695593378],[31.432570191736904,-0.01206783389108],[31.43502617451355,-0.011424634960686],[31.435027005871365,-0.011423596678732441],[31.4350271712463,-0.011423553355818],[31.435164182633198,-0.011252276756774477],[31.436626208369656,-0.009426354262855],[31.43663551123219,-0.009427056488787625],[31.442140479100143,-0.010042618477097],[31.44215777335952,-0.010084401975465387],[31.44330492794103,-0.012857768722491],[31.43745751669136,-0.019628073933775],[31.43749432893574,-0.023615146285247],[31.431355547382196,-0.025272159754177],[31.432835080983295,-0.026192433068822],[31.434915390518583,-0.030024518846181],[31.434915561803773,-0.030024679638713785],[31.43491556189367,-0.030024679804316],[31.438190488973255,-0.033099001338273],[31.438190516152176,-0.03309901552964888],[31.438190886053544,-0.033099362771451],[31.44170004642773,-0.034932375732735],[31.44507706480711,-0.03574598195241432],[31.44611265040018,-0.03599570040056954],[31.445843334137,-0.038758015916155866],[31.444964479705252,-0.03944669939473006],[31.439987569289784,-0.039816516746908],[31.439987398317864,-0.03981663167297685],[31.439987296791262,-0.039816630034075],[31.439404374336526,-0.04020853611003868],[31.436465238113076,-0.042184201887038135],[31.43591323205792,-0.042286950524417395],[31.42850214284432,-0.043666096366953],[31.414502690261145,-0.04221297322036],[31.420256708730555,-0.053353567244599],[31.424700928120476,-0.05152488379339983],[31.42471502633299,-0.05152561296330008],[31.427440121372722,-0.051667124396258],[31.42723911570664,-0.053166697790288],[31.427242443750433,-0.053166565732954904],[31.427242393651408,-0.053166939997159],[31.429834497132727,-0.053063712622188154],[31.431400742981083,-0.053001563725553],[31.43248485677392,-0.05369342136296578],[31.433636537857414,-0.054428668340513],[31.433636804649478,-0.054428569223705266],[31.43363748148459,-0.054429001165024],[31.43685034281241,-0.05383339948961831],[31.436862290134723,-0.05383545639389226],[31.436861303065655,-0.053839359633945115],[31.436324096679677,-0.053936457564067],[31.435092182363107,-0.06083512417219405],[31.435090977106,-0.060839890209302],[31.43213815644475,-0.061627320755457],[31.432138063194,-0.061627413548858485],[31.432138057213233,-0.061627415141442],[31.427835936623634,-0.06507579233748724],[31.42481058553178,-0.06693394744275948],[31.420923719394708,-0.06874645144354155],[31.41612523878082,-0.07042061367151],[31.40465802902817,-0.067528777107967],[31.39612074254958,-0.06956269092714076],[31.39424016771086,-0.07001069220896249],[31.389525044092473,-0.068305569138469],[31.38362068882835,-0.061406949168786],[31.369333036535977,-0.062525672568048],[31.371135949364742,-0.070973724363462],[31.362432556401473,-0.070477982894202],[31.357399398580633,-0.071593046615732],[31.3567915052759,-0.077767807601956],[31.355578102928522,-0.080884653033646],[31.358240658622837,-0.084455459475041],[31.353587735063368,-0.085419256866757],[31.353575806615016,-0.08568742906263425],[31.353152300241987,-0.09520560129604481],[31.349574472733067,-0.096509923971523],[31.340803535714702,-0.101981493868364],[31.343354357355636,-0.110532528122965],[31.339288395854012,-0.110651809913099],[31.339288141904373,-0.11065190272373147],[31.33126331711551,-0.11343057371344266],[31.32430098725221,-0.11000493626104527],[31.324301187482703,-0.11000593741350487],[31.3243011874827,-0.11000593741350294],[31.3243,-0.11],[31.32427807219939,-0.10999399238339468],[31.32427807219939,-0.10999399238339454],[31.32427958968926,-0.10999440813404412],[31.324264694402096,-0.10998707928657715],[31.32426398265185,-0.10998671148325],[31.324263889344795,-0.10998668317859445],[31.32426369213256,-0.109986586145327],[31.324263692571503,-0.10998662348749891],[31.319774479196678,-0.108624822505833],[31.307909143539813,-0.1055093543944696],[31.28246648308647,-0.09853876248944406],[31.28401405016956,-0.096434748624264],[31.284014142479634,-0.09643440463185639],[31.284014411404733,-0.096434038991956],[31.28514467260151,-0.092222280151877],[31.28514459624317,-0.09222178196435614],[31.285144755241337,-0.092221189459565],[31.284975899401193,-0.09112114694581015],[31.284455440760123,-0.087725499467468],[31.285323115375455,-0.085036423370181],[31.28408332381224,-0.08244243540708389],[31.28417952496259,-0.08218094175844455],[31.286345508653955,-0.078975272872111],[31.286432219841547,-0.074068150675198],[31.294369531107627,-0.071592166622527],[31.29546366004584,-0.06922703874217],[31.295308772927193,-0.06910706264416748],[31.295486167743288,-0.068638137489779],[31.2926894380798,-0.06707811680864409],[31.288770837829016,-0.06404275549627568],[31.28780503096765,-0.062838721803337],[31.284186700151583,-0.06049186659051009],[31.284184805417,-0.060490398922545],[31.283517513673182,-0.05801367521921],[31.280055887253315,-0.054784934988757],[31.282810409010786,-0.05346465168999956],[31.28292360868469,-0.053410688633522],[31.282923665256202,-0.053410366284957114],[31.282924145377027,-0.053410136155896],[31.283439039967476,-0.050478550970093],[31.28703190246523,-0.048415096111427046],[31.28723803943164,-0.048296734535652],[31.28723806328986,-0.04829669370790939],[31.287238111541015,-0.048296665996277],[31.290206562239973,-0.043218639518813],[31.291585922506766,-0.042628581903052],[31.286579526392252,-0.040686297773322326],[31.286506141782926,-0.03898486366638254],[31.28649595651518,-0.038748060199243],[31.28683323531857,-0.03819722622414445],[31.28733823291087,-0.037374741401958],[31.287337773138375,-0.03737322966676901],[31.287338186883122,-0.03737255395083],[31.285299225495066,-0.030668935045568],[31.28529872893561,-0.030668837999650797],[31.28529860833941,-0.030668441478492],[31.2849724759474,-0.030605076208012207],[31.279062054222198,-0.029449963175632],[31.289704200954123,-0.01922037120833],[31.2901206420872,-0.015294272140101],[31.29163751140824,-0.011606100847714],[31.28386374564761,-0.0047978896431138075],[31.283328070259806,0.009590133965847]]]}},{"type":"Feature","properties":{"n":"Ssembabule Town Council","c":"111306","d":"Ssembabule","od":"Ssembabule","dc":"111","k":"SSEMBABULETOWNCOUNCIL","a":["SSEMBABULE","SSEMBABULETOWNCOUNCIL","TOWNCOUNCIL"],"lat":-0.085137,"lon":31.453544},"geometry":{"type":"Polygon","coordinates":[[[31.429991113959765,-0.079976011912903],[31.42999130528155,-0.07997570425270507],[31.42999147755423,-0.079975517827645],[31.4355691731372,-0.07100606216832879],[31.43690776233206,-0.068853507413245],[31.444941710182096,-0.07408333533058262],[31.445006303781003,-0.074128145305701],[31.449376032652523,-0.0661968070443559],[31.44954742128092,-0.06588579431307022],[31.45674716562371,-0.058451411159784444],[31.458179469554544,-0.057508703965728],[31.46659894496011,-0.051967324167337],[31.468196932633077,-0.051683847368321746],[31.4773982854918,-0.050052111866216546],[31.476174584777908,-0.064196060103406],[31.47289250325379,-0.069078401411123],[31.474176644065963,-0.0702083031600943],[31.475319627008982,-0.071215820628334],[31.475321050824316,-0.07121525441149998],[31.475322489588216,-0.071216520364448],[31.478880423692615,-0.06980029274596],[31.479405723882948,-0.06998748747760886],[31.481775119242624,-0.07083239835961223],[31.481099631373667,-0.071808181178202],[31.481100254239,-0.0718099663294573],[31.48110014226335,-0.071810127224721],[31.48225668934066,-0.07526106570083223],[31.48167777521273,-0.084491179395601],[31.482054097668343,-0.08578376578816008],[31.48194911767478,-0.0903289139513782],[31.481628417691145,-0.09200509512893626],[31.480951648828388,-0.0935084048674465],[31.479374605169866,-0.09336093274745857],[31.474670101086122,-0.0919686517406393],[31.47463122454039,-0.091952082532861],[31.474567159885428,-0.097946159067112],[31.475503741294055,-0.09919162622582406],[31.47503546659916,-0.10017708001279306],[31.474826910740592,-0.10061592287198068],[31.474783637907027,-0.10066574954713911],[31.471322337941142,-0.104649475310609],[31.469264928360666,-0.10578079896424587],[31.46765691116325,-0.106664427140153],[31.467656307259094,-0.1066653438401023],[31.467655422032536,-0.106665830606448],[31.465194857693923,-0.11040116552463825],[31.46516435880697,-0.11041210602882214],[31.46209410119258,-0.111512220440833],[31.464726597920535,-0.12053963600813639],[31.45639319010533,-0.12020437479215505],[31.450699085853383,-0.114659998856621],[31.45013797589538,-0.11443671198768479],[31.449506939314116,-0.113854823540879],[31.445435874485064,-0.11203169246122179],[31.443899503994317,-0.110852211128882],[31.435662667797917,-0.107654575041125],[31.433132336122274,-0.109662228994622],[31.42956423723318,-0.106059263304394],[31.427093332763683,-0.10522471099423965],[31.427092203120697,-0.10522270136019633],[31.426506389350415,-0.104174883475064],[31.42857658989538,-0.103072440321868],[31.427172005229927,-0.101621127266572],[31.426874335043976,-0.1005126674270816],[31.426172944788615,-0.097899213294601],[31.426172461867655,-0.09789904246533869],[31.42617197665242,-0.097897235628013],[31.425183646304415,-0.09754861771817468],[31.425182224660432,-0.09754612159662185],[31.42367390314927,-0.09463273503009563],[31.423415994631025,-0.09287813341376033],[31.42346280903223,-0.09035996259237987],[31.424433679950177,-0.08599076320517264],[31.424434241827385,-0.085989286304255],[31.427825736305383,-0.08231917699399673],[31.429991113959765,-0.079976011912903]]]}},{"type":"Feature","properties":{"n":"Katwe","c":"111401","d":"Ssembabule","od":"Ssembabule","dc":"111","k":"KATWE","a":["KATWE"],"lat":-0.191164,"lon":31.420266},"geometry":{"type":"Polygon","coordinates":[[[31.3785977047788,-0.182664979896144],[31.383143942704855,-0.18440004662025822],[31.39115910022361,-0.187459048678268],[31.392450311724275,-0.189087005039376],[31.397078781016223,-0.180405601168386],[31.39956968259338,-0.1778371126026989],[31.399641181032266,-0.17782971678183776],[31.403348791393032,-0.177447108928445],[31.404840343875552,-0.17550740677905494],[31.405135504848293,-0.17512427241656436],[31.407012657390613,-0.1756421984274601],[31.407461074861928,-0.175766097530093],[31.40746135640783,-0.17576599917718108],[31.407461760028454,-0.175766110540331],[31.410337017350027,-0.17476500973906],[31.41107166743629,-0.175594995361015],[31.413380362595177,-0.17541940229770017],[31.415611592357163,-0.175249711593315],[31.41561161892395,-0.17524969902080736],[31.41561171976772,-0.175249691350905],[31.41769845227534,-0.17426229897305698],[31.41829079358035,-0.17434499647837515],[31.420145882714362,-0.174604313940733],[31.42247982742735,-0.171912954659642],[31.427355349350044,-0.171859604175843],[31.429913816087762,-0.16706601113252045],[31.432617652956242,-0.163794590015641],[31.43393418706387,-0.16258114779767582],[31.440357414378855,-0.15822923191616883],[31.440362917120986,-0.15822565066750285],[31.44226328794393,-0.15768183712041076],[31.44751571980192,-0.156179041448324],[31.44751600178286,-0.156178711040952],[31.447516059707016,-0.15617869446527],[31.45019560266076,-0.1530389247361578],[31.451342652111524,-0.15169488496287],[31.454919524925124,-0.150052708972259],[31.456695865196966,-0.148337635124989],[31.460314093936766,-0.142484128732216],[31.461759169629577,-0.14317787326664774],[31.461381262478515,-0.14438841389588],[31.461619653211862,-0.14642260717326916],[31.4607780369564,-0.1545916835318168],[31.460773611191645,-0.154626249201241],[31.46077430991149,-0.15462785977517465],[31.46077430635005,-0.154627894343965],[31.460830202605397,-0.15475669441008544],[31.461711599737722,-0.156788345951792],[31.461487477592,-0.159193541185426],[31.46148924576593,-0.1591965752079852],[31.463993301328983,-0.16385378027047098],[31.4640185339711,-0.166072573523081],[31.465089287924858,-0.167589474596499],[31.465091786442965,-0.16758885066643617],[31.465091893672735,-0.1675890021767],[31.46557571936525,-0.16746800291362196],[31.473198990743256,-0.165564319215537],[31.477104343465815,-0.172031989668688],[31.479031633222792,-0.17759281074133],[31.474727225312897,-0.17954561941607],[31.474727303234303,-0.1795460799361509],[31.474726826320307,-0.179546295970323],[31.475262066577095,-0.18270673300596993],[31.47451075583249,-0.182907706989091],[31.474510603906854,-0.18290971367904846],[31.47451018675795,-0.1829098243439],[31.474339439381765,-0.185170330142924],[31.47433945255932,-0.18517034394227855],[31.47433943551178,-0.185170569112512],[31.476362104301796,-0.187289321634803],[31.477389906423337,-0.192542138139323],[31.478691656547362,-0.1948930281689314],[31.47869169190423,-0.194893092027895],[31.47869169190981,-0.19489309203159075],[31.478692226480753,-0.194894057437687],[31.48132034420994,-0.196639431047275],[31.47768361052486,-0.19916022423458],[31.470249146067026,-0.201904805978786],[31.469900422879938,-0.2048106968938301],[31.469761816764564,-0.205965601572939],[31.468791335717576,-0.20538670482453522],[31.46876310486644,-0.205365831870643],[31.463115977627883,-0.212198695795784],[31.46256551673575,-0.217500570177828],[31.462790691896668,-0.2180782201346103],[31.462740004588905,-0.218993013137068],[31.46386481154835,-0.2208336979939261],[31.465780646691204,-0.22574845894253165],[31.465780734431483,-0.2257489382802904],[31.465397517968835,-0.22731402443900564],[31.465387250480205,-0.2273241249875057],[31.463117333862435,-0.229553817848468],[31.4652061076224,-0.23201215052796292],[31.465239696180603,-0.23205169716805],[31.46523971837662,-0.23205170790706536],[31.465239864622273,-0.232051880027414],[31.4683238772991,-0.23354883072824],[31.465437927921933,-0.236184415826487],[31.460864735009956,-0.23741786897273],[31.45670668315959,-0.23559191212496],[31.45670580636833,-0.23559397670417978],[31.44888063648706,-0.237700854549593],[31.439752758752554,-0.241188598335138],[31.43930871309535,-0.242107759184509],[31.429772731546986,-0.24104889977936],[31.418301911013135,-0.237207825618783],[31.4151838408161,-0.237971091421365],[31.414403716767815,-0.238923459469118],[31.411015236607348,-0.239046663070051],[31.409391934313852,-0.238014259518233],[31.404522677339013,-0.231734809249223],[31.39708933555702,-0.229325292234727],[31.39401280692086,-0.229411074758883],[31.389062520123172,-0.232539052225978],[31.3888910830423,-0.230903913260151],[31.3759917249181,-0.21567825869791],[31.371891302058565,-0.20819437061285],[31.37120772033061,-0.204064711191525],[31.36257999838765,-0.189785926661996],[31.362152651783138,-0.187549029471287],[31.359077442293778,-0.184108527719308],[31.35446181767,-0.17633371002652998],[31.35443342576717,-0.17627360536969316],[31.357196550065908,-0.17850276744353594],[31.35909090640616,-0.180031253569844],[31.374452630106912,-0.180240647698771],[31.378597157251708,-0.182664756200082],[31.378597632290667,-0.1826649374997199],[31.3785977047788,-0.182664979896144]]]}},{"type":"Feature","properties":{"n":"Lwebitakuli","c":"111402","d":"Ssembabule","od":"Ssembabule","dc":"111","k":"LWEBITAKULI","a":["LWEBITAKULI"],"lat":-0.25177,"lon":31.342578},"geometry":{"type":"Polygon","coordinates":[[[31.29466446722477,-0.282802490035698],[31.295228191974836,-0.275956357050674],[31.29356913960862,-0.26826084160358693],[31.304,-0.2502],[31.30977195065937,-0.22891593194357482],[31.310807582312616,-0.226338039801564],[31.313911644923984,-0.21441516573780756],[31.31707444158506,-0.21050959107299372],[31.317696974503665,-0.210096536849015],[31.31845261220399,-0.20880775917234465],[31.3268,-0.1985],[31.32681285466364,-0.19843401272664116],[31.326984166633835,-0.198224965204771],[31.32725548821764,-0.19616182714943156],[31.32839195692966,-0.19032795442773023],[31.331256406604368,-0.185138477052277],[31.332456478926403,-0.177937390667655],[31.338072079848917,-0.178242672878454],[31.338072328853134,-0.1782426485436283],[31.338072373450515,-0.178242650967877],[31.341207408416142,-0.177936281480086],[31.343006040341795,-0.176751526006368],[31.344155928603463,-0.17682984512966063],[31.34512686247568,-0.17689616116618267],[31.34534491878601,-0.17971992396209643],[31.34534944081629,-0.17978089512581],[31.34534963025929,-0.1797809361058389],[31.345349700078547,-0.179781840243974],[31.34881776049504,-0.180531368901823],[31.350271493775963,-0.18017453600933625],[31.354729762101133,-0.179080461499363],[31.35472989094431,-0.17908017930834322],[31.354731707904833,-0.179079733317811],[31.35523193908137,-0.17798059854812068],[31.355235786022345,-0.177972173016845],[31.35635200245742,-0.17951764358389632],[31.359077442293778,-0.184108527719308],[31.362152651783138,-0.187549029471287],[31.36257999838765,-0.189785926661996],[31.367268746876565,-0.19754575362779156],[31.371207729832925,-0.2040647685969864],[31.371891302058565,-0.20819437061285],[31.3759917249181,-0.21567825869791],[31.3888910830423,-0.230903913260151],[31.389062520123172,-0.232539052225978],[31.389345903712904,-0.2323599883617112],[31.390680110611978,-0.236635821534014],[31.38589527603168,-0.242483873709337],[31.383586927991324,-0.249193507827911],[31.381963600937556,-0.250484505932768],[31.38216296538179,-0.253056008889722],[31.379028936294564,-0.253193064425938],[31.3724805880599,-0.255086038683815],[31.37400673503556,-0.257850116532976],[31.37554961618197,-0.258954312484184],[31.37484886790846,-0.262927925508474],[31.377600795575898,-0.269726314798149],[31.376217606590618,-0.272072806787862],[31.373489553605566,-0.272129267702517],[31.373164989604742,-0.277764802726194],[31.374305505294682,-0.279436336025307],[31.371949222063574,-0.282053140807177],[31.368273476214007,-0.283812907242639],[31.36799497845418,-0.287795088261399],[31.366488190502608,-0.288404255921272],[31.36307925264897,-0.287948897522629],[31.36504883349136,-0.2939784309912],[31.3699005199931,-0.298384167341616],[31.366123876886284,-0.300359538405224],[31.363930587030104,-0.302572698550587],[31.36164595553702,-0.306986219841005],[31.36006745611798,-0.307275793812329],[31.35656476437835,-0.316457129343686],[31.357076336544363,-0.322650629163343],[31.356540205114264,-0.3273456302044728],[31.354,-0.3228],[31.3358,-0.3158],[31.312782728858103,-0.3125118184083007],[31.312549566692233,-0.312314186923658],[31.311434309076414,-0.3123191870109165],[31.2976828359745,-0.31035469085350004],[31.29550326531009,-0.308567158031655],[31.293859997946115,-0.305862539768392],[31.288210027472203,-0.30180285176749344],[31.2881,-0.3017],[31.29114284081986,-0.29522587059604843],[31.292807207332864,-0.291737466921031],[31.29466446722477,-0.282802490035698]]]}},{"type":"Feature","properties":{"n":"Nakasenyi","c":"111403","d":"Ssembabule","od":"Ssembabule","dc":"111","k":"NAKASENYI","a":["NAKASENYI"],"lat":-0.286238,"lon":31.42435},"geometry":{"type":"MultiPolygon","coordinates":[[[[31.356598188838323,-0.3163695163863483],[31.36006745611798,-0.307275793812329],[31.361491735025364,-0.3070145114231757],[31.36164544552045,-0.306986707562409],[31.36164567098791,-0.3069862720412242],[31.36164595553702,-0.306986219841005],[31.363930587030104,-0.302572698550587],[31.36561778924241,-0.3008702109915797],[31.366123898529843,-0.3003595270845728],[31.3699005199931,-0.298384167341616],[31.36504883349136,-0.2939784309912],[31.36307925264897,-0.287948897522629],[31.366488190502608,-0.288404255921272],[31.367763294763236,-0.2878887538708806],[31.36799326070405,-0.287795906961651],[31.367993269716184,-0.28779577907388293],[31.36799497845418,-0.287795088261399],[31.36821276238767,-0.2846810415032553],[31.368273955163257,-0.28381267794528103],[31.371949222063574,-0.282053140807177],[31.374305505294682,-0.279436336025307],[31.373164989604742,-0.277764802726194],[31.373489553605566,-0.272129267702517],[31.376217606590618,-0.272072806787862],[31.376217974206693,-0.27207218315061016],[31.376218460129255,-0.272072173295069],[31.37661853413363,-0.27139265875448004],[31.377600795575898,-0.269726314798149],[31.37484886790846,-0.262927925508474],[31.375365531542563,-0.259998169669961],[31.375549901634194,-0.258955182440602],[31.37554951194253,-0.2589549035768888],[31.37554961618197,-0.258954312484184],[31.37400673503556,-0.257850116532976],[31.3724805880599,-0.255086038683815],[31.37900608536862,-0.25319967009396815],[31.379028971936215,-0.2531930628672781],[31.38216296538179,-0.253056008889722],[31.381963600937556,-0.250484505932768],[31.383586927991324,-0.249193507827911],[31.38589527603168,-0.242483873709337],[31.390680110611978,-0.236635821534014],[31.389378387493334,-0.23246409157539855],[31.39400924970885,-0.229413322482996],[31.39401280692086,-0.229411074758883],[31.39708933555702,-0.229325292234727],[31.404522677339013,-0.231734809249223],[31.409391934313852,-0.238014259518233],[31.411015236607348,-0.239046663070051],[31.414403716767815,-0.238923459469118],[31.4151838408161,-0.237971091421365],[31.418301828644122,-0.23720784578171888],[31.42046861852339,-0.2379333608328167],[31.429772731546986,-0.24104889977936],[31.43930871309535,-0.242107759184509],[31.439752758752554,-0.241188598335138],[31.44888063648706,-0.237700854549593],[31.44888091510438,-0.23770077953362995],[31.45624697782482,-0.236194127950714],[31.455195106888166,-0.239151168479491],[31.45519510740549,-0.23915121754053106],[31.455195028033323,-0.239151404438069],[31.455251530724208,-0.244696183092127],[31.450775393317823,-0.24577664935447294],[31.447152429208447,-0.246649790573571],[31.447153982723066,-0.24665079856270744],[31.447147915037014,-0.246652263202747],[31.450420389486794,-0.24877057187535512],[31.453808716524378,-0.257251766756075],[31.453921586342,-0.2574057424138843],[31.454060177169836,-0.257747570804916],[31.456732072894155,-0.2613108205042978],[31.45705472043588,-0.26250012390216704],[31.456870261851147,-0.2625026722342],[31.452396884566138,-0.264941611092875],[31.45705461777173,-0.266893898092512],[31.459015432328854,-0.268854614754807],[31.459015706533556,-0.26885468343720026],[31.459015815379406,-0.268854792267374],[31.46194701840879,-0.270015778310809],[31.46235658582889,-0.270101393964126],[31.46402041886269,-0.2701082564758585],[31.464021368361664,-0.270108494304975],[31.46547954138204,-0.27093388151944037],[31.467862741023335,-0.27228307200363],[31.467862985861608,-0.2722830112676468],[31.467864662681865,-0.272283960418388],[31.47187193674314,-0.271288888525245],[31.471911259792527,-0.27340471393116245],[31.47195202957467,-0.275710985199145],[31.471954137524413,-0.2757118034342756],[31.47195418926189,-0.275714587233371],[31.475171772385178,-0.2769610752739003],[31.47693446004356,-0.279901292692971],[31.47693451039905,-0.2799013268193517],[31.47693473174939,-0.279901696050466],[31.47937566875169,-0.2815557223055796],[31.479857541986473,-0.2818822922323918],[31.481002944909015,-0.2842475674685706],[31.4810576392807,-0.28436052343371004],[31.478334092837027,-0.295461430051127],[31.478940836838166,-0.3007722460776679],[31.474622555540925,-0.31688470768825583],[31.4624,-0.3135],[31.454501655066803,-0.3150861430398628],[31.445210197591837,-0.315834285938949],[31.442998979747248,-0.31739610652616723],[31.438011707599607,-0.3183976488836856],[31.43250493868356,-0.316212309448881],[31.42991489349405,-0.317170501041895],[31.429733948875505,-0.3171633466821621],[31.4253,-0.3165],[31.424496767564136,-0.3169562740464086],[31.422795898372566,-0.316889023469117],[31.408564056951505,-0.3260068078855359],[31.4084,-0.3261],[31.397409945314656,-0.3392880656224131],[31.384039918958017,-0.345967692424865],[31.37472242727651,-0.340196154487232],[31.37149154328774,-0.3393082330345921],[31.3597,-0.333],[31.35654030406891,-0.32734580728121176],[31.35701132127496,-0.3232199797747631],[31.357076336544363,-0.322650629163343],[31.356564766585745,-0.3164571560681555],[31.356598188838323,-0.3163695163863483]]],[[[31.46382770710524,-0.270103145003198],[31.463827707083116,-0.270103145841121],[31.463827707084782,-0.270103145002923],[31.46382770710524,-0.270103145003198]]]]}}]}
