{"type":"FeatureCollection","name":"Zombo sub-counties","metadata":{"source":"Uganda Bureau of Statistics NPHC 2024 Map Explorer","retrieved":"2026-07-26","display_only":true,"clipped_to_dashboard_district":true,"positive_area_overlaps_removed":true,"source_gap_ratio":0.01073607},"features":[{"type":"Feature","properties":{"n":"Abanga","c":"330101","d":"Zombo","od":"Zombo","dc":"330","k":"ABANGA","a":["ABANGA"],"lat":2.386126,"lon":30.928046},"geometry":{"type":"Polygon","coordinates":[[[30.905379033531858,2.385132943039496],[30.90726582861801,2.387095858859634],[30.908212789721635,2.389726228380582],[30.910015708970544,2.390614482280498],[30.908540407021263,2.391877782611359],[30.90990478863172,2.394832143720194],[30.908589889811132,2.395976029489491],[30.909558804209198,2.39633649425717],[30.90856938488396,2.39884346433113],[30.909390505253743,2.399311894914416],[30.91066766459839,2.405359532971322],[30.910552960657345,2.408956397977922],[30.91541547446435,2.413122306436057],[30.917622871201093,2.414095219140616],[30.91935568978517,2.413860540693133],[30.919121887403996,2.415143869647876],[30.924457065149944,2.418691694074094],[30.924479375948223,2.420163352561115],[30.927803386144237,2.419215165844945],[30.92787074697257,2.417800397946329],[30.928861482772916,2.417506466650075],[30.93109707695792,2.418994095001989],[30.93316773123227,2.41916422944016],[30.933720331099952,2.420236642790198],[30.935638795201754,2.419871267453375],[30.93818197114089,2.4218628740083],[30.9420963019305,2.422444267010649],[30.944520264368727,2.426315340155203],[30.948680195804126,2.427309519667574],[30.95004546196287,2.426800922314759],[30.95258370025715,2.427850585015234],[30.952908169073527,2.430261644623403],[30.954656960888673,2.430290637129256],[30.95501121755806,2.432585011102871],[30.95659938766547,2.433186500017556],[30.9592928285792,2.433069794640458],[30.959576462378813,2.432269566996799],[30.962437901996747,2.431514625873289],[30.963224471775582,2.431910218010511],[30.965371222113774,2.428762826672979],[30.967177606499668,2.429091110537712],[30.967410835692604,2.425195808642344],[30.96605907041485,2.423370417794717],[30.96564010941821,2.41910169399037],[30.966629579300154,2.417719107983728],[30.964687939906394,2.416540542897077],[30.962618655074095,2.416413782037412],[30.963930298065037,2.411445812059636],[30.9611639086804,2.410045000480326],[30.962223265644496,2.40896574470276],[30.960181437909796,2.408172757579533],[30.959157749506165,2.405631931828785],[30.963695298774297,2.401627664375539],[30.966943778308195,2.401043632669095],[30.967152179172626,2.400788044793156],[30.9556,2.3979],[30.9425,2.3715],[30.944911205710522,2.368248525632782],[30.94368092998831,2.365711215245018],[30.944174932609414,2.36467269983377],[30.946097591654144,2.363196981426569],[30.948883250142536,2.3628922838987005],[30.9491,2.3626],[30.94364964300249,2.3443456297385],[30.94229537525394,2.342408724097174],[30.942623542543306,2.3412948682065937],[30.940843366341873,2.3392254133724304],[30.93891219219999,2.337904298976099],[30.926208607134996,2.344183854304751],[30.9258368998238,2.346119478989419],[30.92761040663862,2.348480628909458],[30.926903016943193,2.351682626942503],[30.926127376320974,2.352108911694351],[30.923388874850684,2.351915254247514],[30.92012647473426,2.353427171627334],[30.917654366919024,2.353456855743035],[30.913426059392968,2.351984373010319],[30.913565182017162,2.353919050133719],[30.912517952805562,2.354753960070164],[30.91574499982567,2.360099060034914],[30.91410278891154,2.359883670185223],[30.913487517701714,2.361459219631151],[30.910851423810218,2.36109403990932],[30.9084369963128,2.36374028177631],[30.908169924038,2.370800897081312],[30.9067466905055,2.371490117199872],[30.90432008033258,2.374721744150131],[30.90432467091282,2.376680199393486],[30.90367768384879,2.376082141741986],[30.90303384198567,2.376797351777171],[30.902621827344515,2.378958843477324],[30.90329561244837,2.379678186314851],[30.902574186418434,2.381706718669293],[30.904539727566675,2.385156076889098],[30.905379033531858,2.385132943039496]]]}},{"type":"Feature","properties":{"n":"Athuma","c":"330102","d":"Zombo","od":"Zombo","dc":"330","k":"ATHUMA","a":["ATHUMA"],"lat":2.432442,"lon":30.933866},"geometry":{"type":"MultiPolygon","coordinates":[[[[30.906998310969144,2.442377363098329],[30.908183261862103,2.443097334100157],[30.909821851081805,2.442193587416576],[30.910060951385855,2.441216058938614],[30.911850821478723,2.441470062735479],[30.91313988033759,2.440613175063199],[30.913726798081537,2.43894399454957],[30.91555328562822,2.437393767296956],[30.917118886177292,2.440050652672853],[30.916339560356256,2.440239190804953],[30.916800119454773,2.441793525128987],[30.917284195528882,2.441223022873412],[30.91822601778474,2.441916817222696],[30.920268763357026,2.441349486590433],[30.921851151890724,2.44498705251061],[30.92407202912226,2.444218616514078],[30.92485142212909,2.446139745064447],[30.931422155208583,2.446486409398477],[30.93271262658419,2.445890232093716],[30.933787856214405,2.446640090540209],[30.933749509218288,2.444109044537553],[30.934662475398422,2.443680161151798],[30.93461271004199,2.445376556815706],[30.935475216221793,2.446215151058328],[30.936122403013115,2.445476906076494],[30.939054280033552,2.447108594043772],[30.94080206972784,2.446921955584547],[30.941710248354628,2.444104558535423],[30.94073925802996,2.442620190306988],[30.9427559862851,2.442673485034248],[30.94381336001138,2.440059276548873],[30.945478237906865,2.439275433315432],[30.945609228143578,2.437531747739979],[30.949478404456254,2.436131339754805],[30.95015337877682,2.437160607881856],[30.950989196699336,2.43661608978372],[30.951822561094104,2.437905692280566],[30.952708935943924,2.437382259933622],[30.952511503382585,2.432984181206135],[30.95444784031523,2.43322876401506],[30.954825389289557,2.431381478241923],[30.954701093234206,2.4305764640839347],[30.952908782775744,2.430261688088594],[30.95290877890139,2.4302616547334903],[30.952908169073527,2.430261644623403],[30.952587038616546,2.4278753916625573],[30.950061927480487,2.4268077314625542],[30.95004572736584,2.426801032069466],[30.949398835589534,2.427041807551408],[30.948680195804126,2.427309519667574],[30.944520264368727,2.426315340155203],[30.9420963019305,2.422444267010649],[30.93818197114089,2.4218628740083],[30.938181792646745,2.4218627342263432],[30.938181750539094,2.421862727975618],[30.938051164618756,2.4217604370817383],[30.93563923580503,2.4198716124976807],[30.93471847986577,2.42004654335536],[30.933720331099952,2.420236642790198],[30.933720112850846,2.420236219240958],[30.93371987840513,2.420236263782392],[30.93357576758347,2.419956092876832],[30.93316777738273,2.4191643190029213],[30.931097523824604,2.418994208251955],[30.93109737025522,2.4189941191006388],[30.93109707695792,2.418994095001989],[30.931095355315534,2.418992949371874],[30.92864527706238,2.4175706105164143],[30.92842118675826,2.4176370935823788],[30.927824065413173,2.4187808427141015],[30.927803386144237,2.419215165844945],[30.927561258174414,2.4192842337812808],[30.927510462241273,2.419381530260305],[30.925338767976385,2.420154982724912],[30.92484874060617,2.4200579898692363],[30.924479375948223,2.420163352561115],[30.92447666210865,2.4199843430523376],[30.92346713789428,2.419784524343472],[30.92170428408702,2.421886482786519],[30.918420777565412,2.423173306619687],[30.912693611866615,2.422169465260464],[30.91174250457417,2.425763156890793],[30.913213221683986,2.432881132937695],[30.91154499996527,2.430764786169289],[30.90990330477325,2.430621989097626],[30.906952649285977,2.432002108331556],[30.90695264859043,2.434405357017121],[30.90849929570094,2.43633351096303],[30.906998310969144,2.442377363098329]]],[[[30.851120621132022,2.45907562286786],[30.85271369329759,2.461947202335883],[30.853487968701934,2.471770239492316],[30.852804009288352,2.475702408950132],[30.860272568669377,2.486686320034813],[30.861051639897354,2.493710475034689],[30.86359152326087,2.497748185899491],[30.864904886175648,2.496645011575555],[30.864330957879787,2.493764194211978],[30.86534046194378,2.492396221541513],[30.87106966673622,2.491757400708836],[30.87381177557319,2.489979166739078],[30.879373155473825,2.490435756162555],[30.88592877171766,2.49425632918269],[30.89250626382078,2.495573811671919],[30.89219589711638,2.491937458471569],[30.887127907435374,2.487286597729457],[30.888440733479403,2.485591369027879],[30.888859512021924,2.480979607642991],[30.890355267929333,2.480916444092263],[30.89348724514149,2.483774673942224],[30.897958566593374,2.482753745659921],[30.897395275670988,2.477867187059237],[30.899647229996592,2.47509294168809],[30.893288407402146,2.476967920579933],[30.89224632906926,2.474848378258707],[30.890033029052457,2.475276364895908],[30.886240600516263,2.473180118592785],[30.887695845638703,2.471727229897155],[30.887994509318904,2.469246898014804],[30.890097530725942,2.465964044524346],[30.88918442349501,2.461894445762011],[30.893774460445282,2.462209844019926],[30.897864649398116,2.459534427096675],[30.899337730518777,2.456670711553241],[30.899428497805616,2.454459975568991],[30.904100009661107,2.451366401330981],[30.90699340951657,2.442463160616606],[30.905328817218965,2.442340371512494],[30.905627362846566,2.441033042611651],[30.90442088008724,2.439206629743242],[30.902861338410975,2.438087686459605],[30.901245736093653,2.438203153029102],[30.901194988334165,2.441697459639997],[30.899234810861916,2.443455413975868],[30.89676328975607,2.442262690056117],[30.89433288969359,2.443529707284528],[30.888965814272638,2.442962816783924],[30.887050836221842,2.440718781485567],[30.887661323517257,2.436788516156604],[30.88575032858747,2.43541480244928],[30.87281097002709,2.434491057634467],[30.868238558597856,2.43008846436929],[30.865517722323755,2.431137074892137],[30.86091255698238,2.43104103034112],[30.85817546021528,2.435135081376914],[30.85533480801895,2.434308896138238],[30.853705354001978,2.43539563063575],[30.851743135494093,2.434280444742057],[30.84842741007523,2.434784265568437],[30.846754600205305,2.435922350498002],[30.84478534408876,2.439322027104763],[30.84543415618809,2.44101815771315],[30.84481620796907,2.441162007597099],[30.843627835511285,2.445065630146489],[30.843193771680856,2.449568622001063],[30.84625950154827,2.455753586258173],[30.851120621132022,2.45907562286786]]]]}},{"type":"Feature","properties":{"n":"Jangokoro","c":"330103","d":"Zombo","od":"Zombo","dc":"330","k":"JANGOKORO","a":["JANGOKORO"],"lat":2.391246,"lon":30.877767},"geometry":{"type":"Polygon","coordinates":[[[30.836218931628114,2.425004511431908],[30.837528032612184,2.427912333186716],[30.842451205612537,2.429399535153019],[30.844678952274474,2.429311096150301],[30.8451525033454,2.430586157834941],[30.847398775665003,2.430630258385658],[30.848952983048072,2.43277312358199],[30.84814148593344,2.434894337519018],[30.848300366518412,2.434870698796751],[30.84842741007523,2.434784265568437],[30.851743135494093,2.434280444742057],[30.851851945165375,2.434342284445446],[30.852111703320208,2.43430363686066],[30.85379294062811,2.43533721634044],[30.85533480801895,2.434308896138238],[30.85533614329297,2.434309284494013],[30.855336300582202,2.434309160831894],[30.855337530865892,2.4343096880605843],[30.85795953690411,2.43507228148448],[30.85840938464723,2.434785185613476],[30.86004543713284,2.43233803706768],[30.860749916009098,2.431077286994447],[30.860887165083714,2.4310790106311453],[30.86091255698238,2.43104103034112],[30.865517722323755,2.431137074892137],[30.866048721627436,2.430932427717015],[30.868236921676534,2.43008833929652],[30.868237482439252,2.430088879120904],[30.868238558597856,2.43008846436929],[30.87281097002709,2.434491057634467],[30.88575032858747,2.43541480244928],[30.886281566149382,2.43579668118128],[30.88666028227485,2.435833385979145],[30.887035748411833,2.436338823128179],[30.887661323517257,2.436788516156604],[30.887610908969023,2.4371130807339325],[30.88796666234794,2.437591981374728],[30.887340355293606,2.4410580496125895],[30.888965814272638,2.442962816783924],[30.89419280933279,2.4435149114749612],[30.896746650004953,2.44227136469848],[30.89676328975607,2.442262690056117],[30.896763879960982,2.4422629748813267],[30.89676425264961,2.442262793407303],[30.899614037327183,2.443115310685053],[30.901194988334165,2.441697459639997],[30.901245736093653,2.438203153029102],[30.90140581127141,2.438191712508474],[30.901406728706476,2.43817644144896],[30.90142285311156,2.4381904945337296],[30.902861338410975,2.438087686459605],[30.90442088008724,2.439206629743242],[30.904421315689003,2.43920728917137],[30.90442133817943,2.439207305310181],[30.904441238652716,2.43923744920227],[30.905627362846566,2.441033042611651],[30.905627181745,2.441033835653955],[30.90562753364658,2.441034368690689],[30.90555340172087,2.441356917785912],[30.905328949534272,2.4423397921048253],[30.906993410718833,2.442463034366393],[30.907017100408297,2.442388779479727],[30.906998310969144,2.442377363098329],[30.90849929570094,2.43633351096303],[30.907132584666535,2.434629677389101],[30.906953080516743,2.434405997282936],[30.906953080559134,2.4344058955382577],[30.90695264859043,2.434405357017121],[30.906952649285977,2.432002108331556],[30.90990330477325,2.430621989097626],[30.91025562684066,2.430652634591231],[30.910736433090154,2.430455717716739],[30.911003139009146,2.4307176543033018],[30.91154499996527,2.430764786169289],[30.913213221683986,2.432881132937695],[30.91202105916132,2.427111305264024],[30.911742725877147,2.425764502027059],[30.911742757682322,2.425764381883525],[30.91174250457417,2.425763156890793],[30.912693611866615,2.422169465260464],[30.91842070371238,2.4231732936749366],[30.918827287275573,2.4230139932819474],[30.92170418900029,2.4218865200515194],[30.92261058189157,2.420214081900733],[30.92328056654621,2.4200069847759207],[30.92346713789428,2.419784524343472],[30.923792141067274,2.4198488533743956],[30.924088509730538,2.419757243667186],[30.92445709894082,2.4186939229780693],[30.924457065149944,2.418691694074094],[30.92281705597856,2.4176011091161915],[30.919122639230054,2.415144639196623],[30.919122683003085,2.415144398711015],[30.919121887403996,2.415143869647876],[30.919355598673153,2.4138610408021957],[30.918303928510753,2.4140029824382014],[30.917622871201093,2.414095219140616],[30.916550483932067,2.4136225631921513],[30.915416533823233,2.41312284650332],[30.91541635790645,2.413122695814202],[30.91541547446435,2.413122306436057],[30.91290717800052,2.410973349359754],[30.910553494500284,2.408957200069639],[30.91055350519988,2.4089568645091113],[30.910552960657345,2.408956397977922],[30.91066766459839,2.405359532971322],[30.909390505253743,2.399311894914416],[30.908620935008198,2.3988728725100685],[30.908570404910208,2.398844075208405],[30.908570414236504,2.3988440515534544],[30.90856938488396,2.39884346433113],[30.90955864863874,2.3963368884383573],[30.90923665333648,2.396216644619552],[30.908589889811132,2.395976029489491],[30.90990478863172,2.394832143720194],[30.908540407021263,2.391877782611359],[30.910015610433046,2.3906145666581082],[30.90965736193836,2.3904379335254435],[30.908212789721635,2.389726228380582],[30.908212555114734,2.38972557671407],[30.908212091629437,2.38972534819431],[30.907396531744244,2.3874589123348287],[30.90726582861801,2.387095858859634],[30.907263372392897,2.3870933035407433],[30.905040585395707,2.3851422717093786],[30.904539727566675,2.385156076889098],[30.90402280762636,2.3842489261806534],[30.903156390194777,2.383488435863585],[30.90257541449929,2.381708873847168],[30.902574186418434,2.381706718669293],[30.90285212804778,2.3809251921310484],[30.900476693789393,2.379252961013099],[30.89981951046684,2.373415097894489],[30.89706568247542,2.370588946427501],[30.896926049113876,2.368147875670397],[30.894314232434596,2.365464777321079],[30.892200552817197,2.364934780574308],[30.89187211667931,2.360960835429025],[30.88636280649631,2.352182982506736],[30.88752486443123,2.348637556816183],[30.887237542100706,2.343347928294744],[30.884817786203463,2.339900146232231],[30.885079264379982,2.338105293545112],[30.882009000782535,2.340348425329494],[30.881254745209105,2.3434731984194204],[30.88172320163417,2.345090985701813],[30.880422785432053,2.346919888924353],[30.877265962728057,2.3599981544123363],[30.87732900220527,2.360140046191671],[30.87708616290867,2.361717692999533],[30.875238220521343,2.3629061940873624],[30.8651,2.3733],[30.85470674060128,2.3782887645113857],[30.854455882726057,2.378857831951123],[30.849979483881317,2.3808368271009344],[30.845887226381336,2.3922741621649877],[30.84640868691791,2.394380640314824],[30.84430104299104,2.3967073413840154],[30.83466168487183,2.423648111512061],[30.834628912133986,2.424008035613525],[30.836218931628114,2.425004511431908]]]}},{"type":"Feature","properties":{"n":"Nyapea","c":"330104","d":"Zombo","od":"Zombo","dc":"330","k":"NYAPEA","a":["NYAPEA"],"lat":2.491158,"lon":30.954053},"geometry":{"type":"Polygon","coordinates":[[[30.899645509646998,2.47510432392107],[30.897543400788184,2.4776847075941504],[30.897395275670988,2.477867187059237],[30.897958566593374,2.482753745659921],[30.89348724514149,2.483774673942224],[30.89348710310556,2.483774544320804],[30.89348698587736,2.483774571098732],[30.890355146805092,2.48091644920716],[30.888859512021924,2.480979607642991],[30.88845581702736,2.485425262799978],[30.88844092853405,2.485590359440296],[30.888440811453847,2.485590510341272],[30.888440733479403,2.485591369027879],[30.887128231147877,2.487286179725315],[30.887136068603994,2.4872940871801337],[30.89219589711638,2.491937458471569],[30.89223901205653,2.49244260657014],[30.8923506308969,2.492555222312268],[30.90175370238135,2.49509465867772],[30.904037057681265,2.492390452625119],[30.909344095579257,2.489314236633198],[30.916384081279798,2.489588316375547],[30.917836545641702,2.487718149688579],[30.919346897563347,2.487814408465143],[30.92319424325311,2.490700455858134],[30.922687064269912,2.492213149691077],[30.923294443235385,2.494600284454813],[30.92469833739068,2.496132144414768],[30.924742599148583,2.498285121121416],[30.926830425912737,2.501517802081264],[30.928972523702782,2.500971233702127],[30.929993010168644,2.502066561586095],[30.931757246553428,2.499803547424212],[30.93442048522036,2.499807548160691],[30.93644531115893,2.498566735589109],[30.93972623439983,2.49869190647712],[30.943559901122747,2.505066946032049],[30.945313730135812,2.506448715326286],[30.945282429899965,2.508201637626593],[30.94652328691636,2.50984653179339],[30.94488814669764,2.511697268912943],[30.946711778561824,2.513349364936172],[30.94692493582685,2.515492799461595],[30.948511488684954,2.516245881216653],[30.947947780058072,2.519529816942161],[30.949165202622503,2.519069843656442],[30.951688660039714,2.52385284622578],[30.943907917519187,2.524916664937373],[30.941067224728734,2.523405082440138],[30.940693072885374,2.522377839849191],[30.936711271409333,2.524306929953504],[30.937168925529164,2.53332538519556],[30.943355237697755,2.535369615025386],[30.948041382127762,2.533490072161585],[30.949393397176983,2.537484397827769],[30.952914840159128,2.539414728186456],[30.953107920199198,2.543116955202907],[30.95655213483313,2.544719557587872],[30.959786552968634,2.545055029153108],[30.963882650400095,2.544313499502109],[30.972179739131203,2.541843204248958],[30.97273061512907,2.543391412196725],[30.975618185142874,2.545400118115173],[30.977438972018252,2.550799225657974],[30.981660552073578,2.55620989974777],[30.98682792795338,2.55253919897094],[30.99471988041815,2.550573018614796],[30.996123013960517,2.547958508630703],[30.99592981383269,2.5468505650405127],[30.994273440997233,2.544702380924125],[30.994279709490936,2.542284653235044],[30.995074427103976,2.5419451840044314],[30.9946900674489,2.5397409990436857],[30.99447612785926,2.539316072763768],[30.994567686945146,2.5390391843180735],[30.993782251907483,2.534534954816386],[30.993444742147254,2.534351651340081],[30.9936593479593,2.533830138297225],[30.991379594728055,2.5207564513996723],[30.989087285255195,2.514597369385554],[30.990030671388265,2.513881385123014],[30.990098306835463,2.512155899628019],[30.988674117630755,2.511907773466191],[30.988506638757375,2.509679882010885],[30.989582970640036,2.510271537512471],[30.990068967500665,2.504354294173864],[30.989340417131697,2.501922200505003],[30.98936340095747,2.495259103897417],[30.986963005224347,2.492289642559644],[30.985213299282872,2.491616119367374],[30.983655977996108,2.486772471167546],[30.982842091384384,2.471715687689895],[30.981055803611845,2.468479930014442],[30.98116052890125,2.466224318887089],[30.97972692771541,2.461838005779409],[30.980524829863285,2.457849692038257],[30.979608978350296,2.457416432383399],[30.979053701833905,2.455491955837601],[30.97988140214137,2.453034293503924],[30.98084927464644,2.452628837070328],[30.979937648474767,2.447907000436987],[30.977230093681428,2.4450458098264],[30.978733369613014,2.44461809814974],[30.97921497204732,2.443496189900545],[30.975981671195733,2.44085869692453],[30.977187745662757,2.439046201834194],[30.97577069813994,2.436857294152992],[30.977039207852307,2.435118662589196],[30.97533420869297,2.434040085611512],[30.977572049764795,2.43289924319067],[30.976904779260074,2.431598980290214],[30.97523893705624,2.432363448579276],[30.973965934128667,2.430828167580251],[30.97305936920942,2.429306257019495],[30.973715277268504,2.428131163912095],[30.973070997903648,2.426370410534168],[30.97150698370355,2.427017274188539],[30.971368808171114,2.427901596897899],[30.9684904515906,2.427448007174223],[30.967217280359183,2.429098058229981],[30.967177621877134,2.429090853709326],[30.967177606499668,2.429091110537712],[30.965371222113774,2.428762826672979],[30.963224471775582,2.431910218010511],[30.963224165620716,2.431910064035033],[30.959576871323854,2.4322694591037552],[30.959576462378813,2.432269566996799],[30.9592928285792,2.433069794640458],[30.95659938766547,2.433186500017556],[30.955766634602217,2.432871110794525],[30.95453509368281,2.432801847467668],[30.95444784031523,2.43322876401506],[30.95269915783445,2.433007884236414],[30.952708972467512,2.437381562826553],[30.95270890639524,2.4373816016965337],[30.952708935943924,2.437382259933622],[30.951822561094104,2.437905692280566],[30.951821316500336,2.437903766314877],[30.951820853097473,2.437904038932423],[30.950988226457092,2.436616721876485],[30.950307468699975,2.4370602214823345],[30.950155085254426,2.437160637577347],[30.950154559956072,2.437159838367992],[30.95015337877682,2.437160607881856],[30.94947842901204,2.436131377199914],[30.949216799729044,2.4362260248555447],[30.945609228143578,2.437531747739979],[30.945478237906865,2.439275433315432],[30.945477824465232,2.439275627968401],[30.94547777746149,2.439276253568837],[30.943989445213383,2.43997637365583],[30.94381336001138,2.440059276548873],[30.94323948049239,2.4414781133052954],[30.94275716393904,2.442672016476776],[30.942756586240815,2.4426720017277463],[30.9427559862851,2.442673485034248],[30.9410827586766,2.4426292677685795],[30.940739462699256,2.44262050318817],[30.941710248354628,2.444104558535423],[30.94080206972784,2.446921955584547],[30.940707814314155,2.4469320206886276],[30.940694574337662,2.44696936844456],[30.94019127249844,2.4469871798241494],[30.939054280033552,2.447108594043772],[30.9389171385893,2.447032270227035],[30.938787631971298,2.447036853344665],[30.93612176256022,2.4454776366401316],[30.935475216221793,2.446215151058328],[30.93461271004199,2.445376556815706],[30.93466247478244,2.4436801821493352],[30.934648669959632,2.4436866465216394],[30.933749509218288,2.444109044537553],[30.933770814996,2.4455153060174184],[30.933788055441926,2.446639921541502],[30.93378785150012,2.4466397793796766],[30.933787856214405,2.446640090540209],[30.932835359536828,2.44597582529038],[30.932712592357312,2.4458902479059907],[30.931422155208583,2.446486409398477],[30.931422026125272,2.4464864025881896],[30.93142201188208,2.446486409176441],[30.9313063603476,2.446480300194545],[30.92485142212909,2.446139745064447],[30.92407215644847,2.444218930360901],[30.924070239320397,2.444219235795576],[30.921851151890724,2.44498705251061],[30.921682617612532,2.444599628983661],[30.921378224526517,2.4446481245456],[30.92026957403906,2.4413513501715216],[30.920268763357026,2.441349486590433],[30.918959424472646,2.441713128576591],[30.91822758197018,2.4419168727782],[30.918227098787984,2.4419165169962453],[30.91822601778474,2.441916817222696],[30.917284195528882,2.441223022873412],[30.916800119454773,2.441793525128987],[30.91679924906895,2.441790587676303],[30.91679856345974,2.441791394323165],[30.91633970311498,2.440239773583716],[30.916339731024287,2.440239766790059],[30.916339560356256,2.440239190804953],[30.916752800604044,2.440139217799666],[30.917118604252643,2.4400501742356973],[30.9156484783155,2.437555313011074],[30.915392677740982,2.437530082884891],[30.914015469279814,2.438698985510539],[30.913647189788527,2.4391703986969753],[30.91313988033759,2.440613175063199],[30.911850821478723,2.441470062735479],[30.910061350458836,2.4412161155718035],[30.9099936001662,2.4414914150721034],[30.909821851081805,2.442193587416576],[30.908522549292822,2.4429102036793],[30.908185299521513,2.443096340525383],[30.9081851869477,2.443096272339404],[30.908183261862103,2.443097334100157],[30.907017100408297,2.442388779479727],[30.906993410718833,2.442463034366393],[30.906971221330714,2.4424613913900353],[30.906971179600863,2.4424615208208205],[30.90699340951657,2.442463160616606],[30.90411801732195,2.451310990206631],[30.904100412890692,2.451365592735419],[30.904100233921348,2.451365711262892],[30.904100009661107,2.451366401330981],[30.899428497805616,2.454459975568991],[30.899337730518777,2.456670711553241],[30.89857975880229,2.458144232159508],[30.898347589124246,2.459153616668467],[30.89791020684999,2.4594458619924073],[30.897864649398116,2.459534427096675],[30.893774460445282,2.462209844019926],[30.88918460234955,2.461894458051762],[30.889255843181946,2.462212753907778],[30.890097530725942,2.465964044524346],[30.887994509318904,2.469246898014804],[30.887695845638703,2.471727229897155],[30.887635346621703,2.4717876309502427],[30.886242125830616,2.4731809617028246],[30.890033029052457,2.475276364895908],[30.89224632906926,2.474848378258707],[30.893288407402146,2.476967920579933],[30.899647229996592,2.47509294168809],[30.89963564224918,2.4751072169574657],[30.899645509646998,2.47510432392107]]]}},{"type":"Feature","properties":{"n":"Padea Town Council","c":"330105","d":"Zombo","od":"Zombo","dc":"330","k":"PADEATOWNCOUNCIL","a":["PADEA","PADEATOWNCOUNCIL"],"lat":2.35732,"lon":30.901826},"geometry":{"type":"Polygon","coordinates":[[[30.89187164681071,2.360959886577909],[30.891871668383995,2.36096012117076],[30.89187211667931,2.360960835429025],[30.891875512073025,2.3610019183270743],[30.892238044721637,2.364944181520043],[30.894314232434596,2.365464777321079],[30.89475979934398,2.3659225046373056],[30.895217321912533,2.366088553541342],[30.89692392651901,2.3681456951456945],[30.896926049113876,2.368147875670397],[30.897065669096012,2.3705887125286025],[30.898371577484006,2.3719291380101786],[30.89981951046684,2.373415097894489],[30.900476684488876,2.3792528783951177],[30.902852133216328,2.3809251775979337],[30.90307338411457,2.3803030561510963],[30.903063560546027,2.379430444307895],[30.902621827344515,2.378958843477324],[30.90303384198567,2.376797351777171],[30.90367768384879,2.376082141741986],[30.90367850806598,2.376082903626457],[30.903678560241655,2.376082845717895],[30.903731735445916,2.3761321056022124],[30.90432445316472,2.3766799981129267],[30.904323796314195,2.3763070739549064],[30.90432008033258,2.374721744150131],[30.9067466905055,2.371490117199872],[30.908169924038,2.370800897081312],[30.9084369963128,2.36374028177631],[30.908944768262,2.36318375755171],[30.91084864818547,2.361095908566925],[30.910849599378434,2.361096039508719],[30.910851423810218,2.36109403990932],[30.913438434538914,2.3614524201101643],[30.913487533527146,2.3614591791063426],[30.91410278891154,2.359883670185223],[30.915741247379078,2.3600985678698088],[30.91251887319363,2.354756080205485],[30.91251911578687,2.3547558863672777],[30.912517952805562,2.354753960070164],[30.91356482635362,2.353919333688668],[30.913484973571418,2.3528036496301517],[30.913426059392968,2.351984373010319],[30.917654366919024,2.353456855743035],[30.918388512824794,2.35344804040259],[30.920126558099273,2.3534271329928913],[30.922177775962343,2.3524765224527067],[30.923388495646808,2.351915320973456],[30.923388699748276,2.351915335396473],[30.923388874850684,2.351915254247514],[30.92523493427695,2.3520458012488863],[30.926127449213034,2.352108871633564],[30.926903016943193,2.351682626942503],[30.92761040663862,2.348480628909458],[30.9258368998238,2.346119478989419],[30.925837022100094,2.346118842249154],[30.925836882290767,2.346118656139067],[30.925869355140364,2.345950471520383],[30.926208607134996,2.344183854304751],[30.93841205217635,2.3381515250098874],[30.937568538187023,2.335418425642417],[30.934820703552955,2.3322240678803117],[30.93476390240845,2.3322109490325076],[30.9268580261566,2.334608939933543],[30.925513986364056,2.336306112301726],[30.92095579868742,2.336814309281391],[30.915958906713335,2.338479593556209],[30.91536643493884,2.338094541061204],[30.9137,2.3386],[30.913248308617327,2.3367179525721915],[30.912052561367737,2.33594082616437],[30.912623686350322,2.3341153597930155],[30.91221776176305,2.3324240073460434],[30.911731213310752,2.331633735787152],[30.911759173458137,2.3305132227422396],[30.9113,2.3286],[30.90398408258055,2.3309706631359197],[30.901725657208903,2.33379029382111],[30.897453291706306,2.333798508835493],[30.892037993017794,2.337967193546326],[30.889163166594077,2.336939436875853],[30.885079276172068,2.338105289686657],[30.885075651879568,2.338130090666462],[30.884817786203463,2.339900146232231],[30.887237542100706,2.343347928294744],[30.88752486443123,2.348637556816183],[30.88636280649631,2.352182982506736],[30.88651111467619,2.3524192784034788],[30.89187164681071,2.360959886577909]]]}},{"type":"Feature","properties":{"n":"Paidha","c":"330106","d":"Zombo","od":"Zombo","dc":"330","k":"PAIDHA","a":["PAIDHA"],"lat":2.454627,"lon":31.013111},"geometry":{"type":"MultiPolygon","coordinates":[[[[30.981160373911173,2.466223844672221],[30.98116052890125,2.466224318887089],[30.981097426638787,2.467583438219028],[30.981055911296124,2.468480125078325],[30.982208476262343,2.470567930298311],[30.98284201679121,2.471715445890244],[30.98284202739642,2.471715571779371],[30.982842091384384,2.471715687689895],[30.98284218847659,2.4717174838815223],[30.984271816004174,2.488687877246248],[30.984960977641908,2.490831337657644],[30.985331661926974,2.4916616813009598],[30.986963005224347,2.492289642559644],[30.98696376200733,2.4922905787543663],[30.986964185710836,2.492290692295835],[30.989363360187166,2.495258985467049],[30.989363359953522,2.495259053172601],[30.98936340095747,2.495259103897417],[30.989340417395237,2.5019221241031806],[30.989361833734193,2.501993694783993],[30.990068967500665,2.504354294173864],[30.989582970640036,2.510271537512471],[30.989573016561295,2.5102660657936213],[30.98851708472041,2.509818839667568],[30.988532983045626,2.5100303274939946],[30.988770424201544,2.5119245522619362],[30.990098306835463,2.512155899628019],[30.990079012647165,2.5126481243921743],[30.99028848214416,2.512732681348915],[30.99006194417857,2.513083567583586],[30.990030671388265,2.513881385123014],[30.989087606505745,2.514597125571987],[30.991012527889236,2.51891819470086],[31.009276532200097,2.518948207857766],[31.0125689222834,2.521349620384312],[31.016090332382174,2.52103687980503],[31.0247452011396,2.51745177178336],[31.02976633866625,2.5107284723206025],[31.0318,2.5078],[31.032658909864768,2.507136871060291],[31.039476351061634,2.500296178205736],[31.042764838786837,2.49864604848531],[31.04453816431576,2.49796538784445],[31.0454,2.4973],[31.07,2.4983],[31.0703,2.4896],[31.068291775421574,2.488352786840766],[31.067936595721022,2.488809057336784],[31.065390011230125,2.488137100014028],[31.06324523321945,2.485218618525763],[31.05373071272545,2.479309600534752],[31.05346271018742,2.479222012091755],[31.053420635710822,2.479117026388826],[31.05144275761651,2.4778886599934102],[31.051282824017985,2.477989430254321],[31.051155749969215,2.4774620023788403],[31.048540750418073,2.4713346995090104],[31.046983606975896,2.469672167185381],[31.045286040727625,2.4637084679794303],[31.04518869705938,2.4634803784038426],[31.044077282493046,2.462435885123066],[31.042474267549476,2.458102865908475],[31.042588625306404,2.4573880534140273],[31.0411,2.4539],[31.0337628405213,2.4275174478319146],[31.029504441558394,2.416589576943519],[31.029617370713115,2.41364211324141],[31.028578373380526,2.411264359219888],[31.029130093896534,2.4108592737981676],[31.02785139543073,2.4062614005913505],[31.02749674139285,2.406214316768858],[31.02709538799543,2.403542990877183],[31.027049655696885,2.403378549207941],[31.020172324517592,2.396557385634424],[31.01751998469494,2.392116824874201],[31.01572162924817,2.391571672378324],[31.01508292203999,2.388361464303138],[31.01464951806733,2.3880466369928435],[31.0111,2.3953],[31.011072954665853,2.3953081407360304],[31.008761493429898,2.39765786546221],[31.007086233480543,2.398265297175896],[31.00539129238626,2.397018340084404],[31.00369893695961,2.397527744727877],[31.003530887508134,2.403286772257707],[31.00543510443447,2.404839221573518],[31.007526533652708,2.408392893523292],[31.007966818462982,2.412037390814278],[31.00688777019935,2.414595611088025],[31.012415273139855,2.42151095156284],[31.012621170173148,2.428951977654616],[31.010968993014746,2.433834541077779],[31.009440896453885,2.436468456149525],[31.008234550255132,2.435463239959116],[31.006101210542795,2.436438506397456],[31.00378507456204,2.440074209005057],[30.998898064371385,2.441468881868555],[30.999305876427993,2.442183742656135],[30.99421551626577,2.443642664092965],[30.99304242571091,2.441302837701176],[30.991869738310882,2.440626080761238],[30.989186904258776,2.441672028325648],[30.98988018952905,2.444008246911156],[30.987366914417226,2.445898522757457],[30.984598583293497,2.455353361451369],[30.983562555947127,2.456741029426752],[30.98077836029368,2.457057302356361],[30.979726939153945,2.4618380407772773],[30.98064399907147,2.4646439201086516],[30.981160383307703,2.466223641717279],[30.981160373911173,2.466223844672221]]],[[[31.009354118200577,2.397019603385558],[31.00935412219502,2.397019607868629],[31.009354118200594,2.397019603385543],[31.009354118200577,2.397019603385558]]]]}},{"type":"Feature","properties":{"n":"Paidha Town Council","c":"330107","d":"Zombo","od":"Zombo","dc":"330","k":"PAIDHATOWNCOUNCIL","a":["PAIDHA","PAIDHATOWNCOUNCIL"],"lat":2.427537,"lon":30.992937},"geometry":{"type":"Polygon","coordinates":[[[30.961183012251833,2.410054673921173],[30.963930298065037,2.411445812059636],[30.963928230966165,2.4114536413891132],[30.96392827417339,2.411453663407578],[30.963884189348725,2.4116204531166407],[30.962618655074095,2.416413782037412],[30.964687939906394,2.416540542897077],[30.964688261101305,2.41654073786073],[30.964688363992046,2.416540744068637],[30.964756659002436,2.416582255033553],[30.966629579300154,2.417719107983728],[30.96564010941821,2.41910169399037],[30.96605907041485,2.423370417794717],[30.967410835692604,2.425195808642344],[30.967410821216706,2.4251960504130867],[30.96741083196185,2.425196064886593],[30.96717763441638,2.429090855987256],[30.967177799231713,2.4290908859282783],[30.96848974551834,2.42744828071328],[30.968490186968832,2.4274483501284294],[30.9684904515906,2.427448007174223],[30.969611580180366,2.427624681742857],[30.971368900093353,2.4279010085960384],[30.97150698370355,2.427017274188539],[30.97227518662616,2.4266995516577667],[30.972658186236366,2.426190861595437],[30.972826479534657,2.4264715413587576],[30.973070997903648,2.426370410534168],[30.97354882882432,2.427676276364346],[30.97371050972899,2.427945927969705],[30.97367480134133,2.4280205471061134],[30.973715277268504,2.428131163912095],[30.973060532700085,2.4293041725659736],[30.973059461255485,2.429306411543318],[30.9730651533613,2.4293159672582716],[30.97431243464776,2.4312460579492323],[30.974912894010835,2.4319702305578317],[30.976030171739147,2.432000344665294],[30.976904779260074,2.431598980290214],[30.9771259079567,2.4320298781620866],[30.97723929554694,2.432032934310071],[30.977353747753238,2.432473853480331],[30.977572049764795,2.43289924319067],[30.97747677648695,2.4329478131263595],[30.97753948535338,2.433189394675979],[30.975346226905945,2.434033958774644],[30.97533542890308,2.434039463553283],[30.976261275446813,2.434626545054612],[30.977039207852307,2.435118662589196],[30.977038623599327,2.43511946337193],[30.9770388043936,2.435119578014011],[30.976734803240696,2.4355358824659943],[30.975771181732714,2.436856631336104],[30.976489432493544,2.4379675202548117],[30.977187745662757,2.439046201834194],[30.977187296178492,2.4390468773215255],[30.9771875130228,2.439047212705697],[30.975981822974227,2.4408588207344484],[30.97921497204732,2.443496189900545],[30.978733369613014,2.44461809814974],[30.977230093681428,2.4450458098264],[30.979937648474767,2.447907000436987],[30.98084927464644,2.452628837070328],[30.980847648627527,2.4526295182342475],[30.979476169634573,2.4542375365852056],[30.97918749061271,2.4550947013731905],[30.97986622602949,2.457538127919324],[30.98000020174274,2.4576015074851805],[30.98130321035649,2.456508131528369],[30.983558707598913,2.456741466582942],[30.983562555947127,2.456741029426752],[30.98440644528421,2.455610713502232],[30.987366158761507,2.4459011035913956],[30.987366914417226,2.445898522757457],[30.987366954693076,2.4458984924653238],[30.98736698777158,2.445898383948273],[30.987476750451336,2.445815913256669],[30.98988018952905,2.444008246911156],[30.989186904258776,2.441672028325648],[30.989486036542573,2.4415554066197958],[30.989465801247057,2.441429790938102],[30.991867789724548,2.4406268404500935],[30.991869738310882,2.440626080761238],[30.991869857145673,2.4406261493406993],[30.991869882195996,2.440626140966734],[30.991869926930416,2.4406261896134174],[30.99304242571091,2.441302837701176],[30.993702081433792,2.442618575743309],[30.994554475917393,2.4435455166444124],[30.994796894065008,2.443476038450147],[30.99911155974219,2.4418431215862],[30.998898064371385,2.441468881868555],[31.00378507456204,2.440074209005057],[31.004979600533858,2.438199128601027],[31.006100668858238,2.436439044245736],[31.00610094965043,2.436438915927404],[31.006101210542795,2.436438506397456],[31.008234550255132,2.435463239959116],[31.008235052950937,2.4354636588421563],[31.00823562558859,2.435463397154296],[31.00950751244894,2.4363536329911657],[31.009831923699924,2.435794459110867],[31.01146497165559,2.4323688101432115],[31.012362464549888,2.429716512261017],[31.012415233581102,2.421510902071734],[31.00688777019935,2.414595611088025],[31.007966754303357,2.4120375429246717],[31.00787652480813,2.411289976929385],[31.007526533652708,2.408392893523292],[31.00543510443447,2.404839221573518],[31.003530887508134,2.403286772257707],[31.003530901048656,2.403286308226261],[31.003530727079387,2.403286166427598],[31.00369888661879,2.3975277598806324],[30.999159234134154,2.3988942104612914],[30.997963547101442,2.400308216364376],[30.993538849852275,2.402768986702173],[30.9875623311586,2.402384917042562],[30.98402524052504,2.403449593152999],[30.98117375117634,2.404347029518719],[30.980565773975595,2.404141443493898],[30.96721544256686,2.400803860641715],[30.96712131932198,2.400825892062648],[30.966943778308195,2.401043632669095],[30.963698173705236,2.401627147502705],[30.963695058087758,2.401627876775057],[30.959157749506165,2.405631931828785],[30.960181437909796,2.408172757579533],[30.962223265644496,2.40896574470276],[30.961163949093685,2.4100449593079256],[30.961183012251833,2.410054673921173]]]}},{"type":"Feature","properties":{"n":"Zombo Town Council","c":"330108","d":"Zombo","od":"Zombo","dc":"330","k":"ZOMBOTOWNCOUNCIL","a":["TOWNCOUNCIL","ZOMBO","ZOMBOTOWNCOUNCIL"],"lat":2.518533,"lon":30.90648},"geometry":{"type":"Polygon","coordinates":[[[30.867347114020262,2.501398639819356],[30.866932958904677,2.503214255695281],[30.868450761394172,2.511722833334065],[30.867417960581626,2.512547707040345],[30.868178791799465,2.516438712788823],[30.865074266794718,2.517996592783981],[30.86380363843301,2.520910716672177],[30.86592621645375,2.525031819138952],[30.86731825680125,2.526364382065811],[30.868654752452453,2.526518801018941],[30.869682490494217,2.528136604888941],[30.872071927434387,2.529104627388045],[30.872584984232287,2.526462726345474],[30.87769959886773,2.525678273920267],[30.8793204716631,2.526194361993703],[30.88048766222172,2.530981215976418],[30.888046943162554,2.5322946479775],[30.889004341713846,2.534063578609745],[30.892445793791946,2.532917540987707],[30.89382263835668,2.53321032770536],[30.895134267874905,2.534888620509085],[30.89981720960507,2.533263292197253],[30.90463978070592,2.534434993100352],[30.91038319718028,2.532818166799135],[30.91248470593706,2.534439172480433],[30.912695511128188,2.536965427803784],[30.915495166186773,2.537994899271482],[30.918295971701532,2.532603784067507],[30.91968853227378,2.533851984748715],[30.91978711245122,2.535471999394132],[30.925055326282965,2.535914376910064],[30.926130011503115,2.54107026410505],[30.92764842744467,2.54244198579827],[30.92914117131376,2.542398765628306],[30.931732028825838,2.547560296159714],[30.93471707744904,2.547448058493607],[30.935775913789403,2.548305404732973],[30.9370559857454,2.546903969703625],[30.938473902464562,2.54762654970408],[30.940895017682713,2.547361015091983],[30.938800913143325,2.539741601805194],[30.93881507474359,2.536179920720599],[30.937176275495045,2.533327813947794],[30.937168925529164,2.53332538519556],[30.936711271409333,2.524306929953504],[30.940693072885374,2.522377839849191],[30.941067224728734,2.523405082440138],[30.943907917519187,2.524916664937373],[30.951688660039714,2.52385284622578],[30.949165202622503,2.519069843656442],[30.947947780058072,2.519529816942161],[30.948511488684954,2.516245881216653],[30.94692493582685,2.515492799461595],[30.946711778561824,2.513349364936172],[30.94488814669764,2.511697268912943],[30.94652328691636,2.50984653179339],[30.945282429899965,2.508201637626593],[30.945306920781185,2.506830062918583],[30.945313499042506,2.506448533257433],[30.943559901122747,2.505066946032049],[30.93972623439983,2.49869190647712],[30.937516806885686,2.4986076143484612],[30.93644510111797,2.498566864302129],[30.934669815509164,2.4996547586537377],[30.934420894329683,2.499807387116267],[30.934420748383655,2.4998073868943242],[30.93442048522036,2.499807548160691],[30.931757246553428,2.499803547424212],[30.929993010168644,2.502066561586095],[30.9299901688419,2.5020635118793995],[30.92998909146937,2.502064890373817],[30.92897221781155,2.500971311752007],[30.926830425912737,2.501517802081264],[30.926829944864725,2.5015170572518652],[30.926829382969476,2.501517200470194],[30.924766798365468,2.4983225899138484],[30.924742599148583,2.498285121121416],[30.92469833739068,2.496132144414768],[30.923294443235385,2.494600284454813],[30.922687064269912,2.492213149691077],[30.923194109225424,2.490700855604301],[30.921079098807468,2.4891138016800634],[30.919346932040515,2.487814434327841],[30.91926760829127,2.4878093551472933],[30.917836545641702,2.487718149688579],[30.916384081279798,2.489588316375547],[30.916383276055647,2.489588285026673],[30.91638315168257,2.489588445327611],[30.913920372866233,2.489492399622881],[30.909344095579257,2.489314236633198],[30.908843957254504,2.4896041410096794],[30.904036811247984,2.492390744479115],[30.90175370238135,2.49509465867772],[30.8923506308969,2.492555222312268],[30.89235061423753,2.4925552055041074],[30.892350527783293,2.492555182155777],[30.892499248566896,2.495491618767357],[30.89250626382078,2.495573811671919],[30.892503382131515,2.495573234464818],[30.892503396365395,2.495573515507497],[30.885928799820718,2.494256339991748],[30.885928786278104,2.4942563320991713],[30.88592877171766,2.49425632918269],[30.879373155473825,2.490435756162555],[30.879369957577865,2.49043549361522],[30.87377579307158,2.4900025010815443],[30.871107295425162,2.49173299882806],[30.87107358879355,2.491756021730165],[30.871071631231715,2.491756126750422],[30.87106966673622,2.491757400708836],[30.86573660132721,2.492352050997791],[30.865166174183447,2.4926323978001697],[30.864331206585195,2.4937638571928304],[30.864330978919646,2.4937642998209713],[30.86476275593978,2.4959315927489722],[30.864904903184225,2.496644884562516],[30.864904869989477,2.496644930329513],[30.864904886175648,2.496645011575555],[30.864904693958987,2.496645173030155],[30.863740502366998,2.498250292965493],[30.866680859754304,2.499608040729266],[30.867347114020262,2.501398639819356]]]}},{"type":"Feature","properties":{"n":"Akaa","c":"330201","d":"Zombo","od":"Zombo","dc":"330","k":"AKAA","a":["AKAA"],"lat":2.460461,"lon":30.798426},"geometry":{"type":"Polygon","coordinates":[[[30.74499784888195,2.464608609130714],[30.74439850328352,2.466437059638756],[30.745087450430823,2.4723935818498175],[30.745629278796937,2.473975756175946],[30.75352148674245,2.47898552793712],[30.756754233214807,2.47973247982072],[30.76445283071997,2.483811901382096],[30.767641408209887,2.482884501649807],[30.772017066633236,2.482820158318871],[30.776294408736934,2.478849470323661],[30.784727499344896,2.489273129479952],[30.791166628252185,2.492177752986365],[30.793897236691063,2.494263863627002],[30.793463444836767,2.498783950416243],[30.79966094753372,2.497110531028267],[30.80223198454804,2.500580626828377],[30.806044776074106,2.500883864589795],[30.807071586234866,2.502317631564247],[30.826979723610037,2.496128107872133],[30.83278729197198,2.493195721444436],[30.835598522967683,2.490329862299149],[30.840428780294236,2.488687424272493],[30.842902620119233,2.48864355568171],[30.848313963852195,2.480591905389089],[30.85281307670554,2.4756502792181347],[30.853487968701934,2.471770239492316],[30.85271369415264,2.4619472131836964],[30.85265735691599,2.4618456536426105],[30.851120686271408,2.459075740284334],[30.8496278266485,2.4580554632442277],[30.84625950154827,2.455753586258173],[30.843193771680856,2.449568622001063],[30.843193812662406,2.4495681968571525],[30.8431937968466,2.449568164946949],[30.84346037315393,2.4468028899185406],[30.843627835511285,2.445065630146489],[30.84481620796907,2.441162007597099],[30.84481643743075,2.4411619541815615],[30.844816476133428,2.441161827070637],[30.844848172454018,2.4411545667026866],[30.845433675596524,2.441018269588286],[30.844785552436722,2.43932292801264],[30.844785633599454,2.4393227839463103],[30.84478534408876,2.439322027104763],[30.84481146156154,2.4392769385251243],[30.846621220605034,2.436064560973882],[30.846711094551587,2.4359974576168604],[30.846754600205305,2.435922350498002],[30.84739754323417,2.435484928538175],[30.848150991488705,2.434922374993342],[30.848161738415367,2.4348913242949943],[30.84814148593344,2.434894337519018],[30.84834308110503,2.4343673775583485],[30.848913640820722,2.4327188804413056],[30.848871035809495,2.4326601387336395],[30.84823135844654,2.432576578913103],[30.84740144794162,2.430633942790085],[30.847398775665003,2.430630258385658],[30.8451525033454,2.430586157834941],[30.845121660733973,2.4305031124476524],[30.845016381627158,2.430497242018774],[30.84469713154888,2.4293600448227286],[30.844678952274474,2.429311096150301],[30.842451205612537,2.429399535153019],[30.83825224176112,2.428131103737788],[30.837693468752843,2.428028680923568],[30.837655534452075,2.427950849198033],[30.837528032612184,2.427912333186716],[30.836218931628114,2.425004511431908],[30.83467695230424,2.42403814270853],[30.834628901550033,2.424008042754424],[30.83453282644623,2.4240082542913006],[30.8345,2.4241],[30.834102755320625,2.424009201216143],[30.83073044908224,2.424016626314839],[30.829016423054274,2.4228466109838345],[30.820733604016706,2.4209533952038185],[30.820478222664793,2.420931330481063],[30.815790194311955,2.423152856147195],[30.811783890277596,2.422150742202318],[30.7982,2.4241],[30.79583871899888,2.4255920182149944],[30.78959182605563,2.432303849856891],[30.78614130809509,2.4317195031267294],[30.78,2.4356],[30.77965202487676,2.435324376140008],[30.779297075538906,2.43583813846932],[30.778355451663067,2.435691528702145],[30.777234856755758,2.433550646240301],[30.772442111015263,2.430837352041084],[30.771446572763267,2.428825008129321],[30.769912092116467,2.4276095779140343],[30.76986738655397,2.42759321998798],[30.765565616419444,2.428369646434569],[30.76507861077558,2.426648400757393],[30.763357239564403,2.425671607450561],[30.76023062551255,2.424750079098435],[30.75615683729895,2.423839742290359],[30.756092828270585,2.423530517806067],[30.7509,2.422],[30.7492,2.4382],[30.74904796355233,2.4383583712996546],[30.746594987694614,2.441686688746977],[30.742045338736688,2.445747933619857],[30.742018823479516,2.4458627446666497],[30.743101824661135,2.4552261923827268],[30.744932698957616,2.457045663243069],[30.74499784888195,2.464608609130714]]]}},{"type":"Feature","properties":{"n":"Alangi","c":"330202","d":"Zombo","od":"Zombo","dc":"330","k":"ALANGI","a":["ALANGI"],"lat":2.578805,"lon":30.799803},"geometry":{"type":"Polygon","coordinates":[[[30.75731749732335,2.588621281375079],[30.758792445815104,2.5907522827063265],[30.76793022278208,2.5962278377760324],[30.771243667156643,2.596394117238302],[30.771935517931627,2.598627897904555],[30.773222469592056,2.5993990673820093],[30.776367997319916,2.599631310307858],[30.77759672743644,2.60098547021397],[30.778132672749248,2.6023413681065537],[30.7804,2.6037],[30.790667104688307,2.631392924572136],[30.790723860705288,2.63143550778949],[30.79071421396763,2.631519989967737],[30.7913,2.6331],[30.79163034637748,2.6384327343793106],[30.79600612517933,2.637870481696783],[30.801456502628465,2.636008963874787],[30.805871419791327,2.631674869181588],[30.806046744504375,2.630520930475722],[30.816110657521442,2.625896131417987],[30.81801651108371,2.625858818462438],[30.819659971638895,2.624761376946351],[30.8226292088059,2.62554477309565],[30.828888869587118,2.624394818633225],[30.830675575335974,2.622843123622312],[30.832771650007867,2.622248761675078],[30.835575650305806,2.622660281658363],[30.83893266282384,2.620752503621516],[30.838598989821577,2.615586352398961],[30.83304283275686,2.610362623241942],[30.83219929355409,2.60588535362079],[30.82593040940665,2.605044302296788],[30.82437098818337,2.60227032182014],[30.82948196174739,2.598478094749492],[30.832870029968955,2.599801045230999],[30.832351166887864,2.597551220217066],[30.835113485491,2.594973594289099],[30.83615796410379,2.596505731322001],[30.836827131439804,2.594976173031332],[30.83806416050314,2.594499718390225],[30.837024024420053,2.59071894221889],[30.839640705335555,2.590531659601137],[30.840311291846,2.589049858411328],[30.842067803873686,2.589913894502223],[30.843449051091962,2.588624827737481],[30.849784829384745,2.58675717642209],[30.852543688087092,2.584246425341653],[30.847875747856353,2.581255865375565],[30.845190835683965,2.575236924338543],[30.840638545436065,2.576873542921895],[30.83759279689467,2.574651549338046],[30.834320825048376,2.574602910249786],[30.832943097967096,2.570658056259262],[30.829895982820425,2.567618364680385],[30.82770324994398,2.567883904991083],[30.826613176928333,2.569447233650872],[30.825442342335798,2.569428440858049],[30.82432047861473,2.568212941023169],[30.82260329031254,2.568607773122505],[30.82057977278341,2.566233690083842],[30.816809837744916,2.564593895678624],[30.815283122206946,2.564735303822302],[30.814275263282212,2.563282446830418],[30.812634791929355,2.563089137195278],[30.81132561161401,2.562053702105769],[30.8114877112402,2.561031586438612],[30.808061224523392,2.55954495562691],[30.807999098704737,2.558257458808142],[30.805513626225437,2.557891714845094],[30.805403766240048,2.556439200443744],[30.804009382426877,2.55528722983117],[30.804364089300197,2.553970255776961],[30.803522144259617,2.553334391589262],[30.80468499632076,2.5499855702163],[30.804057340247972,2.549527679909306],[30.804205979892988,2.544172416198963],[30.801730567237346,2.541885385919125],[30.80048966821861,2.541967956438257],[30.800579362458247,2.537899166145801],[30.799001027020054,2.536544467291899],[30.79821612265773,2.534500645242014],[30.797130024809718,2.53425098695534],[30.7958661284192,2.530752407230792],[30.792882751799784,2.52898541922816],[30.794417297107852,2.525084431668053],[30.790740224851493,2.522194012793661],[30.78640039924227,2.524595708579241],[30.783322489908954,2.528728825213236],[30.77482260019765,2.531823489012141],[30.77329029239449,2.534052224912455],[30.771164908445208,2.534903044398223],[30.76906104331676,2.537118677100576],[30.764514337525615,2.537905365806372],[30.76304111699682,2.53728560312127],[30.760496629011314,2.533288055172821],[30.758382242737813,2.53295087406444],[30.757208445369773,2.538039227904485],[30.75944859528737,2.549345726888096],[30.75784623482392,2.5520996688855164],[30.758190996463444,2.5596217410206474],[30.75871759252202,2.56179019568587],[30.757764997979937,2.5634552054945705],[30.754478620951595,2.5723941510116637],[30.755084772365528,2.575711179273263],[30.75141193488643,2.580735537108909],[30.750871175989563,2.5822064013083934],[30.75083917966895,2.5824592718068704],[30.753741122364758,2.5868493902441205],[30.755118521873577,2.587906560025742],[30.75731749732335,2.588621281375079]]]}},{"type":"Feature","properties":{"n":"Atyak","c":"330203","d":"Zombo","od":"Zombo","dc":"330","k":"ATYAK","a":["ATYAK"],"lat":2.622889,"lon":30.94859},"geometry":{"type":"MultiPolygon","coordinates":[[[[30.9002261442368,2.594120565776044],[30.900060858231345,2.594870020693177],[30.90280236194503,2.595571318273661],[30.90460751249838,2.598436503419359],[30.905658261794837,2.59888164146474],[30.90670597107139,2.601730333861563],[30.905414859857625,2.60183323532606],[30.904491493680787,2.604976980839042],[30.90513974557291,2.606198836770605],[30.904736291402504,2.60731471072724],[30.906051213860948,2.608557521331167],[30.905612867348164,2.609530269653851],[30.90675861236774,2.609984521927514],[30.907345096285553,2.613180681072497],[30.91104695131605,2.616572044909964],[30.91031616445406,2.617997947483381],[30.911915304689238,2.620933056652608],[30.91279819478531,2.620464169449792],[30.9137548334935,2.621839706311547],[30.914770243748663,2.621331767587899],[30.915778289855496,2.623937601769916],[30.91707641421661,2.624430041909993],[30.91734582334048,2.625354609180527],[30.915394465710282,2.626822770708507],[30.914712138785188,2.630115790657961],[30.916170374286317,2.631478901070722],[30.914541623350615,2.634961478637118],[30.91469701181792,2.640207539863735],[30.91614015603609,2.638714702344126],[30.917361890344942,2.638798011269202],[30.916296167887587,2.641555164646698],[30.914302274575753,2.641754197965526],[30.915235730531883,2.642568797913826],[30.91479191768952,2.643635665640522],[30.9154858701824,2.644170832195708],[30.91545699255062,2.646394216936777],[30.916524068861715,2.647135588133885],[30.916388155717282,2.648455112930508],[30.915465099050657,2.649100836792184],[30.916234355832554,2.650004330663656],[30.917382290628314,2.64958832931365],[30.91812704849848,2.65159592213652],[30.91924993807281,2.65228168767538],[30.91740951721868,2.652362834545242],[30.917839468894893,2.654160077128196],[30.91661846583452,2.65587346034417],[30.919267048442933,2.658222771694112],[30.91812454723586,2.661702554481052],[30.916009910572857,2.663549765195257],[30.915641412392546,2.665303631744013],[30.914162348182582,2.664446303705376],[30.913562753768016,2.666393551474797],[30.9114757548514,2.666809746400615],[30.910163735637866,2.668360030975518],[30.91032205369988,2.66954451442363],[30.911992009363416,2.67016382095006],[30.911340102437638,2.672773947356534],[30.913107478938535,2.6743693554631918],[30.9139,2.6749],[30.913875250084455,2.6750624213207717],[30.913929625320044,2.675111505764078],[30.914162383427115,2.678177403185964],[30.9133351519594,2.678606815266434],[30.912672741707723,2.682953882543062],[30.912878616420343,2.683210333790558],[30.912355551877887,2.6850354408013577],[30.912328555048976,2.6852126074910925],[30.91539870660574,2.687454218748772],[30.914945097462187,2.68802285539011],[30.914050550355473,2.687575684013232],[30.92217773223709,2.697676610066094],[30.92340134419911,2.697776269529238],[30.92321003922903,2.6989596201846484],[30.9263,2.7028],[30.931226989974064,2.70024984941041],[30.93142530530965,2.698648104165011],[30.930552640512207,2.698401292274688],[30.930628793489618,2.696976505586145],[30.933088539212683,2.697050896550769],[30.932334392270363,2.698721983511802],[30.932946215193645,2.699359999171129],[30.93746255656401,2.697022395346266],[30.93728186014183,2.69611014715363],[30.9393792000273,2.695940252773301],[30.940796362053717,2.694116324514507],[30.940499450342134,2.693410604564606],[30.938446205308352,2.693110251053517],[30.940570693085395,2.691647780150986],[30.94375346865414,2.693144880822344],[30.944806961899985,2.692423616766649],[30.945571642859473,2.692442767885907],[30.946135071687124,2.6925336061116893],[30.9462,2.6925],[30.95657532647392,2.7114888050560424],[30.956991706332374,2.711667833034664],[30.959848546330765,2.708208041880834],[30.96250878031912,2.702734933162773],[30.964475966828296,2.702603979871263],[30.96451578946752,2.7025557524539083],[30.964357074009914,2.700737378323809],[30.967749208679045,2.695862325812502],[30.971215840626943,2.6944416201452595],[30.97440002158698,2.6905854009926538],[30.973921671861323,2.689542288466439],[30.97670572155946,2.6877760661526855],[30.97683597548129,2.6872312011557424],[30.976824801044224,2.683988858259304],[30.978504809263413,2.676476767262462],[30.98147388634135,2.6678303627692777],[30.983243364062282,2.6604284630070647],[30.98348712365821,2.659212477872665],[30.97661415710154,2.659400142396019],[30.969787131199563,2.654108512654918],[30.969016842727726,2.6508700427585],[30.97017999278181,2.650865053270861],[30.97157648243027,2.646689179906145],[30.975669420889556,2.646858934365991],[30.97694875380108,2.63833176046425],[30.97865396542475,2.63611458236521],[30.979506981570502,2.633300460737268],[30.98221515759411,2.630079986263814],[30.9813,2.6139],[30.981647018252822,2.612032225286284],[30.981557969277468,2.610957266744758],[30.982826093779213,2.600932742139739],[30.984566545602636,2.5963182986681628],[30.9847,2.5956],[31.02044751953988,2.5752299050666605],[31.02038665379249,2.57512014244471],[31.018837760032746,2.574028876386708],[31.017693171648418,2.574360015092278],[31.01712362480595,2.573789633678216],[31.016301546110554,2.574168097749113],[31.015598418545785,2.576769000940827],[31.014151645788257,2.575945524084327],[31.013747455606254,2.570442525540771],[31.01311281685511,2.569995393693374],[31.00835216002124,2.569707307568854],[31.008601136892054,2.568821404271683],[31.00626416853863,2.568438175992779],[31.006076533956623,2.56697330249995],[31.00726092331313,2.565838392610788],[31.006656645517587,2.56488570239259],[31.002611657992944,2.560484758172288],[31.002976759341976,2.5590840800436543],[31.0014772192438,2.55671994024923],[31.000516424910924,2.556269395448352],[30.99988155367734,2.554969959102364],[30.997787483338755,2.555160135282468],[30.996491741757737,2.553380966356646],[30.996062520262683,2.551061693112372],[30.99506910168326,2.551305586943246],[30.994475181120468,2.552709025936361],[30.994075803491356,2.551740136797823],[30.994719884556307,2.550573029397709],[30.993499086723407,2.550877163956804],[30.98682812794241,2.552539149146198],[30.98667319206629,2.5526491172648966],[30.981660552073578,2.55620989974777],[30.98165905354283,2.5562079791253067],[30.98165807362561,2.556208674636611],[30.980797066749318,2.555788947834145],[30.980122272897574,2.5542383329004315],[30.977438972018252,2.550799225657974],[30.97561820949581,2.5454001903279715],[30.9727312295678,2.543391916857964],[30.97273119319541,2.5433918143221357],[30.97273061512907,2.543391412196725],[30.972179739131203,2.541843204248958],[30.963882650400095,2.544313499502109],[30.959787283295732,2.545054896939652],[30.95978726755641,2.545054901021303],[30.959787264008504,2.54505490043128],[30.959786552968634,2.545055029153108],[30.95655213483313,2.544719557587872],[30.955874329270813,2.54440417282642],[30.955283724797564,2.54430595431268],[30.953122580567847,2.5431237767120916],[30.953107920199198,2.543116955202907],[30.95310785588977,2.543115722097152],[30.953107804592747,2.543115694036929],[30.95308439699899,2.5426659079206777],[30.952914840159128,2.539414728186456],[30.949393397176983,2.537484397827769],[30.94939323389298,2.5374839154296733],[30.949393230441917,2.537483913537634],[30.949392142745324,2.537480691797592],[30.948041382127762,2.533490072161585],[30.943355237697755,2.535369615025386],[30.937329978012368,2.5333786040247044],[30.938814442150225,2.536178755700091],[30.938814441906956,2.5361788193546735],[30.93881507474359,2.536179920720599],[30.938800913143325,2.539741601805194],[30.93926593184627,2.541433575446989],[30.940894375564007,2.547357508661647],[30.940894063515785,2.547357543349271],[30.940895017682713,2.547361015091983],[30.938488305578897,2.5476249700496507],[30.938474009799055,2.547626559184274],[30.93847397546315,2.5476265416979964],[30.938473902464562,2.54762654970408],[30.9383393895303,2.547558000998231],[30.937055717000693,2.546904263927902],[30.9367482590688,2.547240871814503],[30.935778457239653,2.548305302263764],[30.93577704716901,2.5483041638981287],[30.935775913789403,2.548305404732973],[30.93487578861135,2.547576567889219],[30.93471662755831,2.547448075409474],[30.93471181967362,2.5474482561856773],[30.932150408256646,2.547677907575329],[30.9320759983918,2.5475473629227157],[30.931732028825838,2.547560296159714],[30.92914117131376,2.542398765628306],[30.927711959248843,2.5424401463297372],[30.927649016208548,2.54244202470602],[30.927648956479107,2.542441970480868],[30.92764842744467,2.54244198579827],[30.926130011503115,2.54107026410505],[30.925055326282965,2.535914376910064],[30.919886812150278,2.5354803712838496],[30.919789656444454,2.535472274989134],[30.91978965256718,2.5354722126903693],[30.91978711245122,2.535471999394132],[30.9196885448996,2.533852192234759],[30.918295727114714,2.5326042548591094],[30.915495166186773,2.537994899271482],[30.912695511128188,2.536965427803784],[30.912678629859077,2.5367631254044487],[30.912453928789837,2.536664999742293],[30.911734619862788,2.543954464269286],[30.913257160818304,2.546081317427249],[30.91336249036202,2.550455825348538],[30.91740117989019,2.549226743186353],[30.919289339638045,2.562804429027094],[30.91750968012994,2.565316792553142],[30.916896924242728,2.569711701786487],[30.915214051842934,2.572627999793167],[30.91351606858864,2.572431060547375],[30.912341375820727,2.570481280728155],[30.909416656038598,2.568472718795091],[30.90773608580566,2.568570811407178],[30.908365921735406,2.569971663354414],[30.90657854925135,2.572359936110896],[30.90469053754794,2.577834790384956],[30.904781483486204,2.57940896615608],[30.907536545525236,2.578045753509461],[30.91095919323167,2.579421539272436],[30.91131305418427,2.580737238857047],[30.914446953994027,2.580690958365908],[30.91508691106681,2.585292037984675],[30.91325530803582,2.585740039131307],[30.911374021360583,2.587482895594814],[30.90828142268726,2.587358450851014],[30.906317719623235,2.589606460700315],[30.899671419949986,2.589623303650947],[30.89821026237478,2.591633832162365],[30.899354401086168,2.594089730990638],[30.9002261442368,2.594120565776044]]],[[[30.945530061262104,2.692442682016542],[30.945530061263355,2.692442681284774],[30.945530061243822,2.692442682016303],[30.945530061262104,2.692442682016542]]]]}},{"type":"Feature","properties":{"n":"Kango","c":"330204","d":"Zombo","od":"Zombo","dc":"330","k":"KANGO","a":["KANGO"],"lat":2.631524,"lon":30.840594},"geometry":{"type":"Polygon","coordinates":[[[30.79240875989745,2.6447788506366607],[30.79351339684165,2.6458026604873806],[30.79499633462529,2.645536710669595],[30.79650188803454,2.646160349086892],[30.798340451477085,2.6502765160031503],[30.798561994527155,2.6504818485861437],[30.800445852258346,2.652057120468897],[30.80395383260862,2.651928301641534],[30.805764684694363,2.653015878993688],[30.81071319163139,2.65285322274057],[30.814338500685544,2.654441699912423],[30.817802983985537,2.6587379843006835],[30.819384384145156,2.6593433049359443],[30.820101867315717,2.659586801097262],[30.82694671112665,2.65852314384913],[30.832677778173544,2.6607626081431675],[30.83365512223805,2.660826984099512],[30.835233420856714,2.660491388946348],[30.837491912328968,2.6610797068001113],[30.8378,2.6611],[30.837922124219457,2.6612285518099523],[30.840672376605706,2.662652892250481],[30.843989738165906,2.6672482872534222],[30.852212546918462,2.6697380620151523],[30.852914844015444,2.669554428017],[30.853028943746626,2.6699852578675047],[30.860207580149517,2.672158868889894],[30.861281743619728,2.671567503770838],[30.862171736103452,2.6727535934018425],[30.86415431400192,2.673353895873091],[30.864444648912013,2.673353015824316],[30.864481609819926,2.673452997395675],[30.86684296068197,2.67416798809494],[30.86696978583109,2.673854508237266],[30.869229892765745,2.674536419694399],[30.870879411139928,2.673192239543805],[30.87282790064279,2.6737618563662453],[30.87493324143471,2.6732946949479195],[30.8750328544221,2.67323561762127],[30.87516727728309,2.671709623755758],[30.877291992340286,2.671910527998297],[30.880069787042405,2.669962803972957],[30.88037728692791,2.670812893901223],[30.88209882372507,2.670228989246093],[30.883209286194585,2.670771934068013],[30.883771816948276,2.6713334725706495],[30.887116679854095,2.670591269263144],[30.88733514306877,2.670201239347989],[30.88749626593128,2.668285825102217],[30.889502174847166,2.667601175191117],[30.890677327497702,2.668091180424041],[30.89116600300108,2.6696927508133705],[30.89208243907968,2.669489399612497],[30.89223098948479,2.669351065678533],[30.892379449057266,2.6694234950316718],[30.90182243373428,2.667328158195056],[30.902018465294113,2.6670714421022],[30.902202353078934,2.667243856565325],[30.9024,2.6672],[30.904886629402473,2.6688649605564385],[30.90569427653659,2.668451005334552],[30.906218267627803,2.669655019579948],[30.909353695661594,2.670817654505075],[30.910179265010616,2.670240438586148],[30.910304161994613,2.669410654594385],[30.910163735637866,2.668360030975518],[30.910526886152322,2.6679309315880078],[30.91059842522807,2.667455644051495],[30.91107300235515,2.6672856395704687],[30.9114757548514,2.666809746400615],[30.913562753768016,2.666393551474797],[30.914162348182582,2.664446303705376],[30.914291927126627,2.6645214131301036],[30.91435819815335,2.664351216302697],[30.915669295339832,2.665170922897293],[30.916009910572857,2.663549765195257],[30.917841547798695,2.6619497646054167],[30.91812464209157,2.6617022655734663],[30.918479300991365,2.6606220602072885],[30.919266791500274,2.65822254378417],[30.91661846583452,2.65587346034417],[30.917839468894893,2.654160077128196],[30.91740951721868,2.652362834545242],[30.919246893866017,2.6522818218989475],[30.91812722724819,2.651596106049588],[30.918127191443762,2.6515960094353517],[30.91812704849848,2.65159592213652],[30.917382334074862,2.649588446429533],[30.917191813157707,2.649657356653191],[30.916234355832554,2.650004330663656],[30.91602405832976,2.6497573357597015],[30.915467329159494,2.649104739825093],[30.91546801185411,2.6491042578865827],[30.915465099050657,2.649100836792184],[30.916322786619144,2.648500841852696],[30.916388202087923,2.6484546627370524],[30.916524012092697,2.647136139280916],[30.9161542843916,2.646878673466742],[30.91545699255062,2.646394216936777],[30.915457006887483,2.64639311309415],[30.915456929669404,2.646393059322102],[30.91546990232059,2.645400250887882],[30.9154858701824,2.644170832195708],[30.91479191768952,2.643635665640522],[30.914792417561724,2.6436344640134606],[30.914791938358235,2.643634093617882],[30.915093377940963,2.6429109948278615],[30.915235714931843,2.6425688354142727],[30.91505204510189,2.6424085009648475],[30.914302274575753,2.641754197965526],[30.915646778489787,2.6416199876371205],[30.916296218886078,2.6415550327074135],[30.916299486710027,2.641546578450139],[30.917113316462704,2.6387810612475966],[30.91673176027711,2.6387550432865328],[30.914698178873433,2.640206390231703],[30.914698176789262,2.64020633477771],[30.91469701181792,2.640207539863735],[30.91469251040765,2.6400555680070252],[30.91461979474744,2.638120805046128],[30.91152241608356,2.636086928665418],[30.908971921233935,2.638365719997089],[30.907611200699908,2.638213290037171],[30.907081361693994,2.639252803090582],[30.9058356162262,2.63874914461271],[30.900941603890164,2.639954964552058],[30.897235644766855,2.638341945805146],[30.89229311990352,2.638811551382146],[30.890759985603193,2.637005914493049],[30.889419813519467,2.636880698935792],[30.889334837510752,2.635715298866597],[30.885124572952233,2.636591430059223],[30.880643113564588,2.639123280809923],[30.875645501909915,2.637879387759746],[30.874018702127604,2.6350041090883],[30.87522348099088,2.633477322619289],[30.875299355124135,2.631373368105275],[30.874098186203998,2.625266501903052],[30.874513798274087,2.620817885981693],[30.873721216200607,2.618522029312916],[30.87141134894882,2.621242062037931],[30.868701107279378,2.61995861060399],[30.866270167118806,2.62113098795967],[30.86233420157046,2.617821712507586],[30.857666112562992,2.615988846475736],[30.854136603549147,2.611652717135883],[30.85579422159932,2.608668694547929],[30.849373570257313,2.600330054642308],[30.8497776390509,2.598720653483875],[30.851047447764397,2.597682685314344],[30.846292288590167,2.591772718721729],[30.84514366470359,2.588527260059757],[30.84344981349002,2.5886246029989133],[30.843449238050255,2.588624772626193],[30.843252081440113,2.588808652203154],[30.842067803873686,2.589913894502223],[30.841645849352698,2.58970633319373],[30.840310947898026,2.5890506184363367],[30.839640705335555,2.590531659601137],[30.83702417851894,2.590718931189634],[30.8371244979563,2.591084152077357],[30.83806416050314,2.594499718390225],[30.838062831580253,2.5945002302387308],[30.838063161107026,2.594501429907149],[30.83711113716581,2.5948667852648946],[30.836827131439804,2.594976173031332],[30.83615796410379,2.596505731322001],[30.836157679480657,2.5965053138106793],[30.83615748533294,2.596505757711231],[30.835795221609107,2.5959736273586382],[30.835113485491,2.594973594289099],[30.832351166887864,2.597551220217066],[30.832870029968955,2.599801045230999],[30.82948196174739,2.598478094749492],[30.825203158532066,2.6016528701968484],[30.82437112359828,2.6022705627032976],[30.825736344827106,2.604699090017498],[30.825930743709797,2.605044347147849],[30.83219929355409,2.60588535362079],[30.83304283275686,2.610362623241942],[30.836552765819167,2.6136625550946957],[30.838598579231608,2.615585943658161],[30.83859858079806,2.615585967847543],[30.838598989821577,2.615586352398961],[30.838745384306492,2.6178529308817513],[30.838933106891826,2.620751772783973],[30.838932633004912,2.6207520419446806],[30.83893266282384,2.620752503621516],[30.835575650305806,2.622660281658363],[30.833336209369413,2.622331617393459],[30.832771032380162,2.622248936809299],[30.830675575335974,2.622843123622312],[30.828888869587118,2.624394818633225],[30.8226292088059,2.62554477309565],[30.822626903464567,2.6255441648601257],[30.822624793060555,2.625544552213335],[30.819659919313317,2.624761411887417],[30.81801651108371,2.625858818462438],[30.818016307120928,2.625858822455638],[30.818016147506494,2.625858929046104],[30.817701357893803,2.6258649885571392],[30.81611076552914,2.6258961293034035],[30.81610843540671,2.625897152574876],[30.806891990357183,2.630132503805401],[30.805951237220146,2.6311495329701806],[30.805871419791327,2.631674869181588],[30.801456502628465,2.636008963874787],[30.79600612517933,2.637870481696783],[30.796005159611813,2.6378706057645087],[30.79600490292306,2.637870693427231],[30.796003079804827,2.6378708730031217],[30.79163034637748,2.6384327343793106],[30.791622271304156,2.6383023796242253],[30.7919639694357,2.6438183637476635],[30.79209751084014,2.643863228573735],[30.79240875989745,2.6447788506366607]]]}},{"type":"Feature","properties":{"n":"Warr","c":"330205","d":"Zombo","od":"Zombo","dc":"330","k":"WARR","a":["WARR"],"lat":2.562452,"lon":30.875814},"geometry":{"type":"Polygon","coordinates":[[[30.8375926832744,2.574651510931365],[30.837592734655008,2.57465154841283],[30.83759279689467,2.574651549338046],[30.838435138200094,2.5752660705142443],[30.840638652272922,2.5768735045123963],[30.845190835683965,2.575236924338543],[30.84519153517074,2.575238492423232],[30.845191702655047,2.575238432274132],[30.847875790734516,2.5812558928458653],[30.852543688087092,2.584246425341653],[30.85252517830521,2.5842632705156428],[30.851090819532445,2.586119526892825],[30.85001066106926,2.586551654064092],[30.849784829384745,2.58675717642209],[30.84869083470266,2.5870796625496992],[30.84513303135432,2.588502993986003],[30.845141674933664,2.5885273744086743],[30.84514366470359,2.588527260059757],[30.84629228033868,2.591772695406994],[30.846698001219742,2.5922769601149462],[30.851047447764397,2.597682685314344],[30.851042379642173,2.597686828103327],[30.850644452454645,2.598378534446891],[30.85293334509009,2.599528793313225],[30.86358456937974,2.599437890112705],[30.865091054480903,2.59855911013372],[30.865750147821643,2.595671810982036],[30.864986800629186,2.594604105385155],[30.86748679607294,2.594050099612333],[30.86869339475956,2.592722107594938],[30.86712709927795,2.590686445028965],[30.867654380097747,2.588223256296331],[30.86670538540363,2.586857393003885],[30.86742065106115,2.585759022765419],[30.86628072154992,2.584113616912334],[30.866383899812863,2.580777556857289],[30.865095206404014,2.577218998273314],[30.865592362463023,2.573813238256701],[30.86412259063285,2.56691217913073],[30.867332363659944,2.566430825392054],[30.87056683547826,2.56753670550601],[30.871856991763906,2.565912641538122],[30.872685541372075,2.56641597906565],[30.87309145243359,2.565652098016462],[30.878789108977305,2.564111115151232],[30.87893167942144,2.565211375424596],[30.88040452340646,2.566314189887752],[30.88197412583042,2.566436414747446],[30.883188988458876,2.565602004434755],[30.885540101509125,2.567518801314241],[30.887563975846103,2.567331785085595],[30.8878648210373,2.569123460696754],[30.889099464813043,2.570416904932167],[30.887386599146872,2.570653617793946],[30.887930543307377,2.572544277892454],[30.89239257793363,2.57333902575341],[30.895332694667356,2.578581735061074],[30.899495736186815,2.578805011092929],[30.89996510569248,2.582057909683736],[30.90067907639062,2.582346350039368],[30.9019944918252,2.5797274167556],[30.903910565324665,2.580103738472098],[30.904781472396525,2.579408974220387],[30.904781478891667,2.5794088866296088],[30.90469053754794,2.577834790384956],[30.90495508978905,2.5770676420853253],[30.905050708686602,2.575778165297863],[30.905932205164753,2.574234203986789],[30.90657854925135,2.572359936110896],[30.908365512922085,2.5699722096074904],[30.908365879027496,2.569971568365458],[30.90773608580566,2.568570811407178],[30.907743596282575,2.568570373030796],[30.907742884079198,2.56856877150327],[30.90885420013603,2.568273496363178],[30.9092257645377,2.568483860873881],[30.909416656038598,2.568472718795091],[30.91040523203492,2.5691516269511085],[30.91134264476772,2.569682351557596],[30.911538239053257,2.5699297236360743],[30.912341375820727,2.570481280728155],[30.91351606858864,2.572431060547375],[30.915214051842934,2.572627999793167],[30.91660234517866,2.5702221863231984],[30.91691458053006,2.5695850644389635],[30.91750968012994,2.565316792553142],[30.919285668092588,2.5628096121853616],[30.919289339410913,2.5628044273938055],[30.9192863773136,2.562783127063264],[30.91812018961168,2.556220595591765],[30.918285247148148,2.5555840376389347],[30.91740117989019,2.549226743186353],[30.91336249036202,2.550455825348538],[30.913257160818304,2.546081317427249],[30.911734619862788,2.543954464269286],[30.91173483839397,2.5439522496779956],[30.9117347277069,2.543952094886921],[30.912485034739763,2.5344431127988303],[30.912484722242127,2.534439367877722],[30.91248398361976,2.5344386153186127],[30.910870632687384,2.533194151778372],[30.90463994566999,2.534434946661399],[30.90463978070592,2.534434993100352],[30.89981728795349,2.533263311232931],[30.8951366000144,2.534887982651418],[30.89513646884844,2.5348878566079294],[30.895134267874905,2.534888620509085],[30.89512523175495,2.5348770583607148],[30.893268034503905,2.5330923909056575],[30.89289797781262,2.5330136981564815],[30.889064978531973,2.5340433859488343],[30.889004341713846,2.534063578609745],[30.888046943162554,2.5322946479775],[30.88048766222172,2.530981215976418],[30.8793204716631,2.526194361993703],[30.879313961590636,2.5261922891778936],[30.87741040627144,2.5257226287445653],[30.872590550978742,2.526461872547472],[30.872584906079314,2.5264631287812676],[30.87258194376693,2.5264783827184574],[30.872321433818435,2.528949725843107],[30.87207955026301,2.5290653748940413],[30.872071927434387,2.529104627388045],[30.872031612574787,2.5290882947991884],[30.87036071811626,2.529887180684589],[30.870285434643574,2.530788456930606],[30.87108563456914,2.531192479587073],[30.870282330322382,2.532697184827146],[30.870285466326408,2.537829310160165],[30.871498433733997,2.539601948760618],[30.870648993678795,2.543132485374723],[30.869411021674892,2.543758563733164],[30.871017802559397,2.544764038243946],[30.870272787891547,2.545596115633224],[30.87249118872373,2.547762555272783],[30.87216694820028,2.549881818304481],[30.86937683808561,2.547888058851878],[30.865769881348726,2.542964016733817],[30.86321917228304,2.5444137204338],[30.854369389284795,2.544743789992608],[30.849971281255012,2.54624804857481],[30.84818396856932,2.545671097016129],[30.845058723280772,2.549508343746616],[30.84090683231134,2.549056409198332],[30.839114577615618,2.551439458694557],[30.838873959071243,2.552569319174158],[30.839865452413232,2.553323184779829],[30.83870281753943,2.554268170097696],[30.841895931692505,2.559993081773944],[30.839788327292176,2.560477776251548],[30.83786026245276,2.562101783366924],[30.832821053235694,2.5621491685435],[30.831979638082565,2.562755736456517],[30.833385195566954,2.564237653199358],[30.830646513644627,2.564234700748758],[30.829734903044255,2.565259479611577],[30.829687426684853,2.567519208561257],[30.829801973132014,2.5676297492690585],[30.829895982820425,2.567618364680385],[30.832943097967096,2.570658056259262],[30.834320825048376,2.574602910249786],[30.837560383663718,2.5746510675032153],[30.8375926832744,2.574651510931365]]]}},{"type":"Feature","properties":{"n":"Warr Town Council","c":"330206","d":"Zombo","od":"Zombo","dc":"330","k":"WARRTOWNCOUNCIL","a":["WARR","WARRTOWNCOUNCIL"],"lat":2.602391,"lon":30.878165},"geometry":{"type":"Polygon","coordinates":[[[30.857666170943585,2.615988869398137],[30.86233420157046,2.617821712507586],[30.866270167118806,2.62113098795967],[30.868701107279378,2.61995861060399],[30.868701718256176,2.61995889993577],[30.868701838576523,2.619958841853293],[30.8714119923964,2.62124130433271],[30.873721216200607,2.618522029312916],[30.873723555082076,2.618528804304173],[30.873724203298895,2.618528043262054],[30.874490116584592,2.620749287704524],[30.874513798274087,2.620817885981693],[30.874098186203998,2.625266501903052],[30.875299355124135,2.631373368105275],[30.875299346972074,2.631373594158176],[30.875299357957275,2.631373650009869],[30.875268956335514,2.632216312410439],[30.87522348099088,2.633477322619289],[30.874018702127604,2.6350041090883],[30.875645501909915,2.637879387759746],[30.880643113564588,2.639123280809923],[30.885124572952233,2.636591430059223],[30.88512488682327,2.636591364744514],[30.88512499327351,2.636591304606406],[30.885268425665874,2.636561495158978],[30.889334837510752,2.635715298866597],[30.889334914864627,2.635716359733219],[30.88933542015921,2.635716254718222],[30.889355929576137,2.6360045651528137],[30.889419813519467,2.636880698935792],[30.890759985603193,2.637005914493049],[30.891219721428566,2.637547364753051],[30.89229366069078,2.638811500000166],[30.897235644766855,2.638341945805146],[30.89723606538566,2.6383421288794855],[30.897236358963966,2.638342100967809],[30.89817937052043,2.6387527024491924],[30.900941603890164,2.639954964552058],[30.9058356162262,2.63874914461271],[30.907080122481737,2.639252302073501],[30.907425469224236,2.638577684298893],[30.907611200699908,2.638213290037171],[30.907611964212307,2.638213375566978],[30.907612061168738,2.638213186167389],[30.90793182457256,2.638249206805409],[30.908971776351436,2.6383657037671338],[30.911521966054483,2.636087059303124],[30.911522141186573,2.636087174277703],[30.91152241608356,2.636086928665418],[30.914515604120307,2.6380523888534],[30.91461979793716,2.638120792308565],[30.914543648182658,2.635029838876803],[30.914541623350615,2.634961478637118],[30.916170374286317,2.631478901070722],[30.914712138785188,2.630115790657961],[30.915394465710282,2.626822770708507],[30.917001466647353,2.6256136961059213],[30.917076900174703,2.624431709637287],[30.91707641421661,2.624430041909993],[30.915778289855496,2.623937601769916],[30.914996644473234,2.6219170213207583],[30.914770061697887,2.6213318586551684],[30.9137548334935,2.621839706311547],[30.91279819478531,2.620464169449792],[30.91279514771853,2.6204657876926816],[30.912080224875456,2.62107175899307],[30.911956829540845,2.6209110035436143],[30.911915304689238,2.620933056652608],[30.911772342806817,2.620670660195617],[30.910622380698012,2.61917252676746],[30.910699182502153,2.6187009501095484],[30.91031616445406,2.617997947483381],[30.911045409938815,2.616575052426764],[30.911046036274197,2.6165712066167766],[30.907345096285553,2.613180681072497],[30.907344931485355,2.6131797829614936],[30.907344167069464,2.613179082833853],[30.90695489840581,2.6110542211921706],[30.90675861236774,2.609984521927514],[30.90675500721906,2.6099830925981644],[30.905846439143836,2.609874154264764],[30.90588327491049,2.6096374778440707],[30.905612867348164,2.609530269653851],[30.906051213860948,2.608557521331167],[30.904736291402504,2.60731471072724],[30.90476130744859,2.6072455213214174],[30.90469880559513,2.607181951051746],[30.9047131097183,2.605394693264194],[30.904491493680787,2.604976980839042],[30.90472275441286,2.6041896172697254],[30.90473360176641,2.602834272599213],[30.905381335071215,2.601947375739137],[30.905414859857625,2.60183323532606],[30.905467776140288,2.601829017902399],[30.905548422159757,2.601718594830257],[30.90670569372846,2.6017295797738433],[30.905658572866802,2.598882487260763],[30.9046220696756,2.5984426704027075],[30.90460751249838,2.598436503419359],[30.90280236194503,2.595571318273661],[30.90185011749561,2.59532772687341],[30.900062096579912,2.594871078185594],[30.900062250170194,2.594870376761761],[30.900060858231345,2.594870020693177],[30.9002261442368,2.594120565776044],[30.899447739952226,2.5940930325180465],[30.89935462970983,2.594089902096778],[30.899354552346367,2.5940897363409245],[30.899354401086168,2.594089730990638],[30.899273598277308,2.5939162874023554],[30.898211088175756,2.591639795911783],[30.89821227666823,2.5916381558522037],[30.89821026237478,2.591633832162365],[30.899671419949986,2.589623303650947],[30.89967236968061,2.589623301244154],[30.899672447436988,2.58962319394428],[30.90216678297511,2.589616979940265],[30.906317693877916,2.5896064607655584],[30.90722033004229,2.588573169491839],[30.90828142268726,2.587358450851014],[30.911373683944753,2.5874828820173565],[30.913117151312832,2.585868029905283],[30.91325530803582,2.585740039131307],[30.91508691106681,2.585292037984675],[30.914446953994027,2.580690958365908],[30.91131305418427,2.580737238857047],[30.911312914457632,2.580736719335813],[30.91131196658309,2.5807367333108],[30.91095858084722,2.5794212931151095],[30.907536545525236,2.578045753509461],[30.90752458098454,2.5780516735987216],[30.903979265865615,2.58009002297654],[30.90393741931567,2.580082315758274],[30.903910565324665,2.580103738472098],[30.9019944918252,2.5797274167556],[30.90067907639062,2.582346350039368],[30.900316496871994,2.5821998698468756],[30.900250262699267,2.582297500023333],[30.900220788504427,2.5821612041766318],[30.89996510569248,2.582057909683736],[30.89949719959817,2.5788151530571497],[30.89949499781844,2.578804971492084],[30.89687595438613,2.5786645045709427],[30.89533399100275,2.578582395798662],[30.895333649041657,2.578581786246945],[30.895332694667356,2.578581735061074],[30.89277820893702,2.5740266689437616],[30.89239242268084,2.5733389981008177],[30.887930543307377,2.572544277892454],[30.887386599146872,2.570653617793946],[30.88909906423269,2.570416960291162],[30.888057992685784,2.5693258322310246],[30.8878648210373,2.569123460696754],[30.887578061986726,2.567415674725016],[30.88554052675633,2.567518762019248],[30.885540101509125,2.567518801314241],[30.883188988458876,2.565602004434755],[30.88197412583042,2.566436414747446],[30.88040452340646,2.566314189887752],[30.88040433443487,2.566314048392383],[30.880404266840376,2.566314043132488],[30.879270108520167,2.5654647793890497],[30.87893167942144,2.565211375424596],[30.87878912432651,2.564111233605802],[30.87815224482211,2.5642833608355944],[30.87309145243359,2.565652098016462],[30.872838395865024,2.566128323316605],[30.872686255445764,2.566415513193401],[30.872685902365784,2.566415299714236],[30.872685541372075,2.56641597906565],[30.872373052707225,2.5662261446002232],[30.871856196257763,2.5659136429306475],[30.87101814526857,2.566968591412429],[30.87056920429561,2.567536010596707],[30.870567775262618,2.5675355224943632],[30.87056683547826,2.56753670550601],[30.867333005419052,2.566431044812311],[30.866639783085215,2.5665346882652744],[30.86412259063285,2.56691217913073],[30.865585703531064,2.5737819723947295],[30.865592297318535,2.573812854537715],[30.865592290578576,2.573812900735735],[30.865592362463023,2.573813238256701],[30.865377457653107,2.5752854403866516],[30.865095319803928,2.577219311412372],[30.866383899812863,2.580777556857289],[30.866383889786878,2.58077788102722],[30.866383990058296,2.580778157892194],[30.86637593094903,2.5810352139214974],[30.86628072154992,2.584113616912334],[30.86742065106115,2.585759022765419],[30.86742040311292,2.585759403517594],[30.867420633869294,2.585759735263955],[30.866705584617172,2.5868576797267346],[30.867654380097747,2.588223256296331],[30.867653980366303,2.5882251236390266],[30.86765435975499,2.588225670284765],[30.86725557721579,2.5900862612236897],[30.867127130507317,2.5906862991411947],[30.86859938739388,2.591836799302393],[30.86855005288537,2.592535810889848],[30.86869339475956,2.592722107594938],[30.868523724876972,2.592908847603998],[30.868506829017548,2.593148241932112],[30.868185891226826,2.593280669980049],[30.86748679607294,2.594050099612333],[30.864986800629186,2.594604105385155],[30.865750147821643,2.595671810982036],[30.865680862315667,2.595975330939325],[30.86573960977653,2.596090348996117],[30.86509246067979,2.598552949979156],[30.865091054480903,2.59855911013372],[30.86509080335048,2.598559256625968],[30.865090797985204,2.598559277042489],[30.864149231846437,2.59924967801564],[30.86389643376518,2.599255969841556],[30.86358456937974,2.599437890112705],[30.852935424101577,2.599528775569838],[30.852933731983068,2.599528817684537],[30.852933677827327,2.599528790473469],[30.85293334509009,2.599528793313225],[30.850805915168536,2.598459675831751],[30.850644447415632,2.598378544819285],[30.849644757588404,2.599249918755207],[30.849481129144465,2.5999016488848468],[30.85579208476642,2.608665919396444],[30.85579422159932,2.608668694547929],[30.854136603549147,2.611652717135883],[30.85758890970865,2.6158939999799413],[30.857666170943585,2.615988869398137]]]}},{"type":"Feature","properties":{"n":"Zeu","c":"330207","d":"Zombo","od":"Zombo","dc":"330","k":"ZEU","a":["ZEU"],"lat":2.521565,"lon":30.812082},"geometry":{"type":"Polygon","coordinates":[[[30.746449451682995,2.484169217675886],[30.7468,2.4872],[30.7575855183411,2.493897458969876],[30.757976592866726,2.493888507250954],[30.758295849339014,2.494338551605678],[30.7592,2.4949],[30.75950768793315,2.496046836841741],[30.760724610519,2.497762288797882],[30.76250967329727,2.507160350718846],[30.76249891434045,2.5071959534507715],[30.7625,2.5072],[30.758342665997233,2.5313596013745703],[30.758488985954067,2.532958893558899],[30.760305165647388,2.5332575225165734],[30.760496629011314,2.533288055172821],[30.760497303733764,2.533289115203506],[30.76049776373332,2.533289190839848],[30.763041232784232,2.537285651831369],[30.764514337525615,2.537905365806372],[30.764720405560343,2.5378697111141637],[30.76908609425045,2.5370922953391415],[30.769361718644525,2.5368020284333306],[30.76995991786601,2.535790998510538],[30.77067745906748,2.5354163894636628],[30.771164908445208,2.534903044398223],[30.77329029239449,2.534052224912455],[30.77482260019765,2.531823489012141],[30.781108810333887,2.5295347879111083],[30.783322582742176,2.52872870055377],[30.785066382272873,2.526387069899265],[30.786399629364936,2.524596394495239],[30.786400061376256,2.5245961622767012],[30.78640039924227,2.524595708579241],[30.790740224851493,2.522194012793661],[30.79079249654421,2.5222351017570244],[30.790829131291286,2.522215409524433],[30.79433964521469,2.5250233922100347],[30.794417297107852,2.525084431668053],[30.79441697616766,2.52508524753428],[30.794417753160847,2.525085869033997],[30.793495278045242,2.527428308303371],[30.792882751799784,2.52898541922816],[30.794541209994,2.5299676873444206],[30.795865590553777,2.530751872354319],[30.795865689997477,2.5307521475633004],[30.7958661284192,2.530752407230792],[30.797130024809718,2.53425098695534],[30.79811234639701,2.5344767904820618],[30.798215937233167,2.53450049328885],[30.798215983259247,2.5345006131988725],[30.79821612265773,2.534500645242014],[30.799001027020054,2.536544467291899],[30.800579362458247,2.537899166145801],[30.80057930690571,2.5379016861697155],[30.800579440365894,2.537901800817731],[30.800490856870745,2.541967877344292],[30.801727230577068,2.541885607943453],[30.80172989657376,2.541885423720325],[30.801729903464558,2.5418854300871536],[30.801730567237346,2.541885385919125],[30.804205979892988,2.544172416198963],[30.804057340247972,2.549527679909306],[30.8042025631151,2.5496336235081896],[30.804684524223344,2.549984104705994],[30.80468421390422,2.5499849994244843],[30.80468499632076,2.5499855702163],[30.803850233648525,2.5523895484793457],[30.80352244960243,2.5533346221940523],[30.804364089300197,2.553970255776961],[30.804202017424263,2.5545720046337705],[30.804009804384748,2.555287578431795],[30.80526776640337,2.556326844137191],[30.805402692407682,2.556438190027828],[30.805402701346825,2.5564383206818837],[30.805403766240048,2.556439200443744],[30.80551341661806,2.557888943519971],[30.807406199634197,2.558170212114584],[30.807999098704737,2.558257458808142],[30.808061224523392,2.55954495562691],[30.8114877112402,2.561031586438612],[30.811487633892167,2.561032074154955],[30.811488199927982,2.561032319628765],[30.811341652094836,2.5619525592028136],[30.81132561161401,2.562053702105769],[30.811326211620084,2.562054176652581],[30.81427452503323,2.5632823598367374],[30.814275263282212,2.563282446830418],[30.81528309518105,2.564735264863713],[30.816808510471592,2.564593540634132],[30.816809416326638,2.56459393471142],[30.816809837744916,2.564593895678624],[30.82057977278341,2.566233690083842],[30.820580417554915,2.5662344465591707],[30.820582396750986,2.566235307575757],[30.820587030625827,2.5662422053155245],[30.82233228431149,2.5682898165240533],[30.82431960303581,2.568212953109894],[30.82431977464662,2.5682131028861432],[30.82432047861473,2.568212941023169],[30.82432416286321,2.568216932776653],[30.82571734351474,2.5694328548377987],[30.8264874872552,2.569445216235259],[30.826624140558355,2.5694315101564085],[30.82770324994398,2.567883904991083],[30.82771863415589,2.5678820419604995],[30.82968741576251,2.567519203948199],[30.82968773135884,2.5675047070147814],[30.829734903044255,2.565259479611577],[30.830607095737278,2.5642790120350134],[30.830645853903114,2.564235348704471],[30.83064593714984,2.564235348810192],[30.830646513644627,2.564234700748758],[30.833385195566954,2.564237653199358],[30.831979638082565,2.562755736456517],[30.832812749586292,2.562155154562732],[30.832820584852946,2.562149462783194],[30.832820645878893,2.5621494622030134],[30.832821053235694,2.5621491685435],[30.83561232235799,2.5621229214133385],[30.837860542689466,2.5621015473238233],[30.83969808880049,2.5605537840442247],[30.83978820662353,2.560477842424728],[30.83978826155287,2.560477831623703],[30.839788327292176,2.560477776251548],[30.84179119817575,2.560017167772808],[30.83873169076671,2.554319936701725],[30.83870281753943,2.554268170097696],[30.839865452413232,2.553323184779829],[30.838873959071243,2.552569319174158],[30.839112655532,2.551448484126599],[30.839114522039775,2.551439700544978],[30.83911452771816,2.5514396929955647],[30.839114577615618,2.551439458694557],[30.84090683231134,2.549056409198332],[30.845058723280772,2.549508343746616],[30.84818396856932,2.545671097016129],[30.849971281255012,2.54624804857481],[30.85406485878672,2.5448479467373186],[30.854369131765527,2.544743860913955],[30.85436918806079,2.5447438588160507],[30.854369389284795,2.544743789992608],[30.863218313226117,2.544413752473969],[30.864207858346106,2.5438517975304666],[30.865769881348726,2.542964016733817],[30.86577025388853,2.5429645253070627],[30.86577078930824,2.542964221246393],[30.869376847400115,2.547888065507846],[30.86939298048123,2.5478995938997904],[30.872167146122234,2.549880524670136],[30.872466718884326,2.5479224921785346],[30.872490919218816,2.547762292080433],[30.870492030993237,2.54581022344427],[30.87027286271296,2.545596252560597],[30.87027289322723,2.54559621850165],[30.870272787891547,2.545596115633224],[30.871017802559397,2.544764038243946],[30.869411021674892,2.543758563733164],[30.869411857410785,2.543758141077277],[30.869411233968428,2.54375775089414],[30.870537641201683,2.5431887995529587],[30.870648993678795,2.543132485374723],[30.871340409278577,2.5402587474627363],[30.870561105511992,2.538232131090975],[30.870285466326408,2.537829310160165],[30.870285274155172,2.5375148185774843],[30.870268978439523,2.537472440796778],[30.870282374401793,2.532769321552448],[30.870282330322382,2.532697184827146],[30.87028258120842,2.532696714881247],[30.870282584068605,2.532695710713909],[30.87064741150561,2.532013334876554],[30.87108563456914,2.531192479587073],[30.870285434643574,2.530788456930606],[30.870293882473412,2.530687321474284],[30.870251999664585,2.530660600522049],[30.870303605660858,2.5305709177329425],[30.87036071811626,2.529887180684589],[30.870824698927162,2.5296653427827183],[30.87111005796978,2.529169435394302],[30.870436176303144,2.5284419424385667],[30.869682490494217,2.528136604888941],[30.868654752452453,2.526518801018941],[30.86731825680125,2.526364382065811],[30.86627164056371,2.5253624843842526],[30.865926386548665,2.525032019748954],[30.86592634792194,2.525031944989924],[30.86592621645375,2.525031819138952],[30.865905248536535,2.524991108769525],[30.863809672338913,2.520935283927305],[30.863812685772317,2.5209282825811705],[30.86380363843301,2.520910716672177],[30.865074266794718,2.517996592783981],[30.86507457404514,2.5179964386028146],[30.865074679647304,2.517996193249027],[30.868178738957457,2.5164384425468076],[30.867417960581626,2.512547707040345],[30.868450761394172,2.511722833334065],[30.868430904868912,2.511611520572375],[30.867675707170267,2.510110413121552],[30.867545426304375,2.5066476579051344],[30.866932958904677,2.503214255695281],[30.867347114020262,2.501398639819356],[30.866680962192778,2.499608316038933],[30.86429735527522,2.49882337079353],[30.863986760823952,2.498364005968777],[30.863740502366998,2.498250292965493],[30.863828159341228,2.4981294366066433],[30.861396780329038,2.494533461246219],[30.86134589520595,2.4941782594509383],[30.861051639897354,2.493710475034689],[30.860272568669377,2.486686320034813],[30.857016968084164,2.4818983514948467],[30.852815643447766,2.47572020940949],[30.848321169182842,2.480583991373224],[30.848314061771482,2.480591797838884],[30.847975855815083,2.4810949833324414],[30.842902620119233,2.48864355568171],[30.84042880862161,2.4886874237701635],[30.83833778016789,2.489398429481754],[30.835598522967683,2.490329862299149],[30.83278729197198,2.493195721444436],[30.832787179835144,2.4931957780651275],[30.83278713754427,2.493195821177165],[30.82697983664037,2.496128060995385],[30.826979784097002,2.496128077330752],[30.826979723610037,2.496128107872133],[30.807071586234866,2.502317631564247],[30.806044929339578,2.50088407859914],[30.802232657376603,2.500581064747223],[30.802232354814844,2.5005806562763224],[30.80223198454804,2.500580626828377],[30.79966111837597,2.4971107616118644],[30.79742767102758,2.4977135494353293],[30.793463444836767,2.498783950416243],[30.793463493225573,2.4987834462076126],[30.793463083352925,2.49878355682864],[30.793541037152757,2.497975442835983],[30.793897236691063,2.494263863627002],[30.791166879523036,2.4921779449504666],[30.788745029021662,2.491085394975],[30.784727499344896,2.489273129479952],[30.784727333190997,2.489272924106656],[30.78472732080858,2.489272918520676],[30.784644510860517,2.489170552178785],[30.776294408736934,2.478849470323661],[30.772062775470623,2.482777726470428],[30.772017278072905,2.482820010198023],[30.772017225356592,2.4828200109748186],[30.772017066633236,2.482820158318871],[30.767641408209887,2.482884501649807],[30.76445283071997,2.483811901382096],[30.756754268008343,2.4797324982575204],[30.756662488721464,2.4797112815230187],[30.75352148674245,2.47898552793712],[30.745629278796937,2.473975756175946],[30.74547792419048,2.4735337908093293],[30.74519733440113,2.4733436203431025],[30.74533219310679,2.474509586235779],[30.746699524006083,2.47957974790169],[30.746449451682995,2.484169217675886]]]}}]}
